{
  "type": "Feature",
  "properties": {},
  "geometry": {
    "type": "LineString",
    "coordinates": [
      [
        -8.571146,
        51.92919
      ],
      [
        -8.57863,
        51.928979
      ],
      [
        -8.582474,
        51.927465
      ],
      [
        -8.574228,
        51.923463
      ],
      [
        -8.568169,
        51.925626
      ],
      [
        -8.568587,
        51.927843
      ],
      [
        -8.569034,
        51.931277
      ],
      [
        -8.567139,
        51.933222
      ],
      [
        -8.566916,
        51.933481
      ]
    ]
  }
}
