{
  "type": "Feature",
  "properties": {
    "id": "intervals-178055367",
    "activity": "walking",
    "name": "Ko Samui Walking",
    "date": "2024-06-27T00:00:48Z",
    "distanceKm": 8.88,
    "movingTimeSeconds": 5904,
    "elapsedTimeSeconds": 6112,
    "ascentM": null,
    "descentM": null
  },
  "geometry": {
    "type": "LineString",
    "coordinates": [
      [
        100.0471455976367,
        9.471812434494495
      ],
      [
        100.0471455976367,
        9.471812434494495
      ],
      [
        100.04694585688412,
        9.471940761432052
      ],
      [
        100.0469312723726,
        9.471970768645406
      ],
      [
        100.04681828431785,
        9.471957525238395
      ],
      [
        100.04683538340032,
        9.471984431147575
      ],
      [
        100.04683756269515,
        9.471974624320865
      ],
      [
        100.04683345556259,
        9.472011756151915
      ],
      [
        100.04677788354456,
        9.472021395340562
      ],
      [
        100.0467798113823,
        9.472027095034719
      ],
      [
        100.04669942893088,
        9.472100185230374
      ],
      [
        100.04666162654757,
        9.472129354253411
      ],
      [
        100.04659390076995,
        9.472160786390305
      ],
      [
        100.04656691104174,
        9.472172101959586
      ],
      [
        100.04652466624975,
        9.472188698127866
      ],
      [
        100.0464999396354,
        9.472197750583291
      ],
      [
        100.04644730128348,
        9.472222896292806
      ],
      [
        100.04626608453691,
        9.47228031232953
      ],
      [
        100.04623574204743,
        9.472296237945557
      ],
      [
        100.04622677341104,
        9.472301015630364
      ],
      [
        100.04615535959601,
        9.472341248765588
      ],
      [
        100.04610464908183,
        9.472372680902481
      ],
      [
        100.04609685391188,
        9.472379218786955
      ],
      [
        100.04608218558133,
        9.47238340973854
      ],
      [
        100.04603918641806,
        9.472386175766587
      ],
      [
        100.04601965658367,
        9.47238776832819
      ],
      [
        100.04599115811288,
        9.472391121089458
      ],
      [
        100.04594740457833,
        9.472416518256068
      ],
      [
        100.04579837433994,
        9.472499582916498
      ],
      [
        100.04579057916999,
        9.472504612058401
      ],
      [
        100.04571614786983,
        9.472549119964242
      ],
      [
        100.04565889947116,
        9.472565045580268
      ],
      [
        100.04559729248285,
        9.472580719739199
      ],
      [
        100.04551808349788,
        9.472612487152219
      ],
      [
        100.04546921700239,
        9.472633861005306
      ],
      [
        100.04541959613562,
        9.472661018371582
      ],
      [
        100.04537332803011,
        9.472676021978259
      ],
      [
        100.04530476406217,
        9.47269219905138
      ],
      [
        100.04529688507318,
        9.47269756346941
      ],
      [
        100.0452739186585,
        9.472708376124501
      ],
      [
        100.04508884623647,
        9.472754560410976
      ],
      [
        100.04498457536101,
        9.472783394157887
      ],
      [
        100.04493964836001,
        9.472805690020323
      ],
      [
        100.04486898891628,
        9.472829829901457
      ],
      [
        100.0447398237884,
        9.472873331978917
      ],
      [
        100.04457629285753,
        9.472967209294438
      ],
      [
        100.04453589208424,
        9.472980871796608
      ],
      [
        100.04449356347322,
        9.472999311983585
      ],
      [
        100.04447998479009,
        9.473006017506123
      ],
      [
        100.04440622404218,
        9.473030073568225
      ],
      [
        100.04438216798007,
        9.473035773262382
      ],
      [
        100.04435945302248,
        9.473031498491764
      ],
      [
        100.04431561566889,
        9.47304893285036
      ],
      [
        100.04427420906723,
        9.473060416057706
      ],
      [
        100.04423120990396,
        9.473073072731495
      ],
      [
        100.04408192820847,
        9.473117245361209
      ],
      [
        100.04401428624988,
        9.473126465454698
      ],
      [
        100.04393298178911,
        9.473127303645015
      ],
      [
        100.04374246113002,
        9.473152616992593
      ],
      [
        100.04368672147393,
        9.473150856792927
      ],
      [
        100.04362385720015,
        9.473157478496432
      ],
      [
        100.0434363540262,
        9.473213134333491
      ],
      [
        100.04342679865658,
        9.473236436024308
      ],
      [
        100.04327458329499,
        9.47330399416387
      ],
      [
        100.04326737485826,
        9.473305670544505
      ],
      [
        100.04308280535042,
        9.47333475574851
      ],
      [
        100.04307123832405,
        9.473332995548844
      ],
      [
        100.04291131161153,
        9.473410779610276
      ],
      [
        100.04289681091905,
        9.473426705226302
      ],
      [
        100.04287644289434,
        9.47344908490777
      ],
      [
        100.04271148703992,
        9.473499795421958
      ],
      [
        100.04257855005562,
        9.473565677180886
      ],
      [
        100.04248618148267,
        9.473606245592237
      ],
      [
        100.04244192503393,
        9.473623260855675
      ],
      [
        100.04242993891239,
        9.473626110702753
      ],
      [
        100.04234494641423,
        9.473640276119113
      ],
      [
        100.04230697639287,
        9.473656453192234
      ],
      [
        100.04226640798151,
        9.47368461638689
      ],
      [
        100.04224671050906,
        9.473692579194903
      ],
      [
        100.04222231917083,
        9.473709175363183
      ],
      [
        100.04218082875013,
        9.473707415163517
      ],
      [
        100.0421585328877,
        9.473706157878041
      ],
      [
        100.04210229031742,
        9.473728705197573
      ],
      [
        100.04191562533379,
        9.473774638026953
      ],
      [
        100.04179526120424,
        9.473836161196232
      ],
      [
        100.04172376357019,
        9.47387220337987
      ],
      [
        100.0417005456984,
        9.473892655223608
      ],
      [
        100.04168948158622,
        9.473899025470018
      ],
      [
        100.04163273610175,
        9.473926601931453
      ],
      [
        100.04159929230809,
        9.473941270262003
      ],
      [
        100.04147725179791,
        9.474005224183202
      ],
      [
        100.04134942777455,
        9.474087031558156
      ],
      [
        100.0412018224597,
        9.474208317697048
      ],
      [
        100.04107441753149,
        9.474336476996541
      ],
      [
        100.04096955992281,
        9.474358856678009
      ],
      [
        100.04092060960829,
        9.474365394562483
      ],
      [
        100.04080150276423,
        9.474383750930429
      ],
      [
        100.04077618941665,
        9.474420715123415
      ],
      [
        100.04074886441231,
        9.47445223107934
      ],
      [
        100.04074333235621,
        9.474462624639273
      ],
      [
        100.04072841256857,
        9.474473940208554
      ],
      [
        100.04070913419127,
        9.474497912451625
      ],
      [
        100.04058416001499,
        9.474643589928746
      ],
      [
        100.04052883945405,
        9.474656414240599
      ],
      [
        100.0404605269432,
        9.474654570221901
      ],
      [
        100.04027478396893,
        9.474703269079328
      ],
      [
        100.04022097215056,
        9.474713075906038
      ],
      [
        100.04007076844573,
        9.474727911874652
      ],
      [
        100.03987949341536,
        9.47475615888834
      ],
      [
        100.03983842208982,
        9.4747668877244
      ],
      [
        100.03976575098932,
        9.47477133013308
      ],
      [
        100.03958587534726,
        9.474803349003196
      ],
      [
        100.03939879126847,
        9.474811982363462
      ],
      [
        100.03924339078367,
        9.474793123081326
      ],
      [
        100.03923140466213,
        9.474788093939424
      ],
      [
        100.03905127756298,
        9.474719278514385
      ],
      [
        100.03898137249053,
        9.474702263250947
      ],
      [
        100.0388877466321,
        9.474688852205873
      ],
      [
        100.0387978926301,
        9.474680470302701
      ],
      [
        100.03874860703945,
        9.474673848599195
      ],
      [
        100.03856261260808,
        9.474729420617223
      ],
      [
        100.03836245276034,
        9.474751381203532
      ],
      [
        100.03822197206318,
        9.474766049534082
      ],
      [
        100.03817729651928,
        9.474778203293681
      ],
      [
        100.03798317164183,
        9.474790021777153
      ],
      [
        100.03790362738073,
        9.474788513034582
      ],
      [
        100.0378271844238,
        9.474802175536752
      ],
      [
        100.03776951692998,
        9.474807372316718
      ],
      [
        100.0375956762582,
        9.474854310974479
      ],
      [
        100.03756801597774,
        9.474861351773143
      ],
      [
        100.03748662769794,
        9.474883144721389
      ],
      [
        100.03729929216206,
        9.474914073944092
      ],
      [
        100.03727540373802,
        9.474927401170135
      ],
      [
        100.03709292970598,
        9.474978698417544
      ],
      [
        100.03705831244588,
        9.474991522729397
      ],
      [
        100.0369280576706,
        9.475036952644587
      ],
      [
        100.03689360804856,
        9.475048016756773
      ],
      [
        100.03684490919113,
        9.475061763077974
      ],
      [
        100.03671130165458,
        9.475104678422213
      ],
      [
        100.03668154589832,
        9.475111635401845
      ],
      [
        100.0366584956646,
        9.475115910172462
      ],
      [
        100.03660820424557,
        9.475133009254932
      ],
      [
        100.03659948706627,
        9.475136194378138
      ],
      [
        100.03658037632704,
        9.475133679807186
      ],
      [
        100.03650929778814,
        9.475147342309356
      ],
      [
        100.03641055896878,
        9.475182630121708
      ],
      [
        100.03630444407463,
        9.475193191319704
      ],
      [
        100.0362665578723,
        9.475205261260271
      ],
      [
        100.03622699528933,
        9.475226551294327
      ],
      [
        100.03603840246797,
        9.475279189646244
      ],
      [
        100.0358828343451,
        9.4753004796803
      ],
      [
        100.03573522903025,
        9.475349094718695
      ],
      [
        100.0356999412179,
        9.475364685058594
      ],
      [
        100.03551436588168,
        9.47540600784123
      ],
      [
        100.0355064868927,
        9.475399805232882
      ],
      [
        100.03548410721123,
        9.475360745564103
      ],
      [
        100.03537002950907,
        9.475237531587481
      ],
      [
        100.03535058349371,
        9.475253038108349
      ],
      [
        100.03532325848937,
        9.475277597084641
      ],
      [
        100.03523441031575,
        9.47537331841886
      ],
      [
        100.03519157879055,
        9.475417491048574
      ],
      [
        100.03517841920257,
        9.4754334166646
      ],
      [
        100.03515411168337,
        9.475460574030876
      ],
      [
        100.03512754105031,
        9.47549058124423
      ],
      [
        100.03501044586301,
        9.4756303075701
      ],
      [
        100.03499384969473,
        9.475647071376443
      ],
      [
        100.03493433818221,
        9.47572116740048
      ],
      [
        100.034917909652,
        9.475736087188125
      ],
      [
        100.03481229767203,
        9.47578126564622
      ],
      [
        100.0347707234323,
        9.475844549015164
      ],
      [
        100.0346364453435,
        9.475978659465909
      ],
      [
        100.03462336957455,
        9.475987376645207
      ],
      [
        100.03460727632046,
        9.476003218442202
      ],
      [
        100.03448188304901,
        9.476153589785099
      ],
      [
        100.03442228771746,
        9.47622056119144
      ],
      [
        100.03439429216087,
        9.476245706900954
      ],
      [
        100.03425758332014,
        9.47636523284018
      ],
      [
        100.03410268574953,
        9.476466989144683
      ],
      [
        100.03399020060897,
        9.47656405158341
      ],
      [
        100.03397922031581,
        9.476572265848517
      ],
      [
        100.03385114483535,
        9.476663460955024
      ],
      [
        100.03373933024704,
        9.476750046014786
      ],
      [
        100.03367654979229,
        9.47679958306253
      ],
      [
        100.03362634219229,
        9.476847862824798
      ],
      [
        100.0335928145796,
        9.476880803704262
      ],
      [
        100.03356951288879,
        9.476899411529303
      ],
      [
        100.03343909047544,
        9.477026984095573
      ],
      [
        100.03336147405207,
        9.477113233879209
      ],
      [
        100.03331629559398,
        9.47713871486485
      ],
      [
        100.0332669261843,
        9.47720275260508
      ],
      [
        100.03318159841001,
        9.477288415655494
      ],
      [
        100.03314262256026,
        9.477358739823103
      ],
      [
        100.03305570222437,
        9.477496454492211
      ],
      [
        100.03297255374491,
        9.477570718154311
      ],
      [
        100.03293081186712,
        9.477616483345628
      ],
      [
        100.03285654820502,
        9.477692255750299
      ],
      [
        100.0328319054097,
        9.477720502763987
      ],
      [
        100.03282830119133,
        9.477730393409729
      ],
      [
        100.0328192487359,
        9.477741122245789
      ],
      [
        100.0328025687486,
        9.477775823324919
      ],
      [
        100.03276015631855,
        9.47783013805747
      ],
      [
        100.03273819573224,
        9.477849248796701
      ],
      [
        100.03267616964877,
        9.477905994281173
      ],
      [
        100.03265412524343,
        9.47792636230588
      ],
      [
        100.03255857154727,
        9.478016216307878
      ],
      [
        100.0325290672481,
        9.478034153580666
      ],
      [
        100.03240820020437,
        9.478108836337924
      ],
      [
        100.03228322602808,
        9.478244120255113
      ],
      [
        100.03216428682208,
        9.478382337838411
      ],
      [
        100.03206445835531,
        9.478534469380975
      ],
      [
        100.03205875866115,
        9.478544611483812
      ],
      [
        100.03198508173227,
        9.478635638952255
      ],
      [
        100.03191936761141,
        9.478778131306171
      ],
      [
        100.03191132098436,
        9.478791877627373
      ],
      [
        100.03187871538103,
        9.478840995579958
      ],
      [
        100.03182624466717,
        9.478942919522524
      ],
      [
        100.03179045394063,
        9.479013746604323
      ],
      [
        100.03172163851559,
        9.479151964187622
      ],
      [
        100.0316973309964,
        9.47921290062368
      ],
      [
        100.0316537450999,
        9.479358913376927
      ],
      [
        100.03160789608955,
        9.479415491223335
      ],
      [
        100.03160940483212,
        9.47947190143168
      ],
      [
        100.03161351196468,
        9.479533759877086
      ],
      [
        100.03161082975566,
        9.479558151215315
      ],
      [
        100.03156271763146,
        9.479693183675408
      ],
      [
        100.03152969293296,
        9.479772727936506
      ],
      [
        100.03152600489557,
        9.479812625795603
      ],
      [
        100.03151728771627,
        9.479878256097436
      ],
      [
        100.03148937597871,
        9.480014713481069
      ],
      [
        100.03146272152662,
        9.480094844475389
      ],
      [
        100.0314653199166,
        9.480105824768543
      ],
      [
        100.03143539652228,
        9.480142956599593
      ],
      [
        100.03143388777971,
        9.480171203613281
      ],
      [
        100.03140379674733,
        9.48035535402596
      ],
      [
        100.03135358914733,
        9.480478568002582
      ],
      [
        100.03131779842079,
        9.480564398691058
      ],
      [
        100.03127840347588,
        9.48064704425633
      ],
      [
        100.03124236129224,
        9.480826081708074
      ],
      [
        100.03123297356069,
        9.4808679074049
      ],
      [
        100.03116449341178,
        9.481019619852304
      ],
      [
        100.03107530996203,
        9.481177534908056
      ],
      [
        100.03098042681813,
        9.481315668672323
      ],
      [
        100.03098092973232,
        9.481326313689351
      ],
      [
        100.03096265718341,
        9.48135171085596
      ],
      [
        100.03094924613833,
        9.481376269832253
      ],
      [
        100.03082930110395,
        9.481463860720396
      ],
      [
        100.03069963306189,
        9.481605095788836
      ],
      [
        100.03061338327825,
        9.481684304773808
      ],
      [
        100.0305299833417,
        9.48177332058549
      ],
      [
        100.03051405772567,
        9.481797376647592
      ],
      [
        100.0304972101003,
        9.481824617832899
      ],
      [
        100.0304636824876,
        9.481924027204514
      ],
      [
        100.03040961921215,
        9.482037015259266
      ],
      [
        100.03031708300114,
        9.482138268649578
      ],
      [
        100.0302979722619,
        9.482153356075287
      ],
      [
        100.03028992563486,
        9.482160983607173
      ],
      [
        100.0301811285317,
        9.482191242277622
      ],
      [
        100.03006931394339,
        9.482248406857252
      ],
      [
        100.030033942312,
        9.482272882014513
      ],
      [
        100.02999027259648,
        9.482321413233876
      ],
      [
        100.02983235754073,
        9.482427276670933
      ],
      [
        100.02968810498714,
        9.482544539496303
      ],
      [
        100.02959481440485,
        9.482597513124347
      ],
      [
        100.0295415893197,
        9.482624838128686
      ],
      [
        100.02951082773507,
        9.482636824250221
      ],
      [
        100.02934629097581,
        9.482741598039865
      ],
      [
        100.02927018329501,
        9.482786189764738
      ],
      [
        100.02922173589468,
        9.482814772054553
      ],
      [
        100.02916415221989,
        9.482829524204135
      ],
      [
        100.02914847806096,
        9.48283371515572
      ],
      [
        100.02913439646363,
        9.482846790924668
      ],
      [
        100.02899341285229,
        9.482972603291273
      ],
      [
        100.0289181433618,
        9.483032366260886
      ],
      [
        100.02886877395213,
        9.483057847246528
      ],
      [
        100.02880280837417,
        9.483093721792102
      ],
      [
        100.0287593062967,
        9.483111994341016
      ],
      [
        100.02868277952075,
        9.48314351029694
      ],
      [
        100.02851706929505,
        9.483261024579406
      ],
      [
        100.02840659581125,
        9.483321122825146
      ],
      [
        100.0283536221832,
        9.483344843611121
      ],
      [
        100.02834113314748,
        9.4833545666188
      ],
      [
        100.02816159278154,
        9.483427908271551
      ],
      [
        100.02800334244967,
        9.483505859971046
      ],
      [
        100.02783142961562,
        9.483628990128636
      ],
      [
        100.02781718038023,
        9.483635360375047
      ],
      [
        100.02779857255518,
        9.483641562983394
      ],
      [
        100.02774224616587,
        9.48367802426219
      ],
      [
        100.02760159783065,
        9.483749438077211
      ],
      [
        100.0275591854006,
        9.483770728111267
      ],
      [
        100.02754275687039,
        9.483784642070532
      ],
      [
        100.02737344242632,
        9.483848763629794
      ],
      [
        100.02723203971982,
        9.483849434182048
      ],
      [
        100.02716423012316,
        9.483842393383384
      ],
      [
        100.02714855596423,
        9.48384029790759
      ],
      [
        100.02712491899729,
        9.483834682032466
      ],
      [
        100.02702291123569,
        9.483815068379045
      ],
      [
        100.0268860347569,
        9.48383878916502
      ],
      [
        100.02686851657927,
        9.483849098905921
      ],
      [
        100.02684714272618,
        9.483857229351997
      ],
      [
        100.02668989822268,
        9.483957393094897
      ],
      [
        100.02654966898263,
        9.483986310660839
      ],
      [
        100.02637960016727,
        9.484056802466512
      ],
      [
        100.02632956020534,
        9.484079265967011
      ],
      [
        100.02625152468681,
        9.484131904318929
      ],
      [
        100.02617524936795,
        9.48418915271759
      ],
      [
        100.02616602927446,
        9.484216058626771
      ],
      [
        100.02616829238832,
        9.484229804947972
      ],
      [
        100.026188576594,
        9.484268529340625
      ],
      [
        100.02620961517096,
        9.48429074138403
      ],
      [
        100.02628035843372,
        9.484418062493205
      ],
      [
        100.02629460766912,
        9.484426025301218
      ],
      [
        100.02638320438564,
        9.484515711665154
      ],
      [
        100.02647045999765,
        9.484607074409723
      ],
      [
        100.02658160403371,
        9.484763564541936
      ],
      [
        100.02659501507878,
        9.484825087711215
      ],
      [
        100.02671831287444,
        9.484943691641092
      ],
      [
        100.02677723765373,
        9.484978895634413
      ],
      [
        100.02689089626074,
        9.485002867877483
      ],
      [
        100.02706507220864,
        9.48508433997631
      ],
      [
        100.02724687568843,
        9.485122729092836
      ],
      [
        100.02743060700595,
        9.485224820673466
      ],
      [
        100.02762858755887,
        9.485243847593665
      ],
      [
        100.02764577046037,
        9.485246445983648
      ],
      [
        100.02768977545202,
        9.485253905877471
      ],
      [
        100.02774635329843,
        9.48528022505343
      ],
      [
        100.02778985537589,
        9.485294725745916
      ],
      [
        100.02788641490042,
        9.485336048528552
      ],
      [
        100.02787820063531,
        9.485515337437391
      ],
      [
        100.02788867801428,
        9.485653219744563
      ],
      [
        100.0278977304697,
        9.48571071960032
      ],
      [
        100.0279016699642,
        9.485812978819013
      ],
      [
        100.02796285785735,
        9.485970893874764
      ],
      [
        100.02796889282763,
        9.48598388582468
      ],
      [
        100.02797434106469,
        9.48599612340331
      ],
      [
        100.02799420617521,
        9.486035853624344
      ],
      [
        100.02801683731377,
        9.486122941598296
      ],
      [
        100.02802169881761,
        9.486167198047042
      ],
      [
        100.02802865579724,
        9.486206090077758
      ],
      [
        100.02803971990943,
        9.486273229122162
      ],
      [
        100.02804852090776,
        9.486302062869072
      ],
      [
        100.02805220894516,
        9.48636936955154
      ],
      [
        100.02805564552546,
        9.486394012346864
      ],
      [
        100.02805824391544,
        9.486406752839684
      ],
      [
        100.02806017175317,
        9.48643441312015
      ],
      [
        100.0280565675348,
        9.486448159441352
      ],
      [
        100.02805178985,
        9.486459977924824
      ],
      [
        100.02803242765367,
        9.486499289050698
      ],
      [
        100.02801013179123,
        9.486600961536169
      ],
      [
        100.02796336077154,
        9.486705148592591
      ],
      [
        100.02792631275952,
        9.48680086992681
      ],
      [
        100.02791038714349,
        9.486938500776887
      ],
      [
        100.02790401689708,
        9.487009411677718
      ],
      [
        100.02790963277221,
        9.487022068351507
      ],
      [
        100.02789043821394,
        9.487071605399251
      ],
      [
        100.02788817510009,
        9.487086776643991
      ],
      [
        100.02790058031678,
        9.48727235198021
      ],
      [
        100.02791105769575,
        9.487315099686384
      ],
      [
        100.02791642211378,
        9.487327923998237
      ],
      [
        100.02791985869408,
        9.487356171011925
      ],
      [
        100.02793326973915,
        9.487438816577196
      ],
      [
        100.0279320962727,
        9.487452395260334
      ],
      [
        100.02795305103064,
        9.487518277019262
      ],
      [
        100.02794366329908,
        9.487589271739125
      ],
      [
        100.02795397303998,
        9.487654650583863
      ],
      [
        100.02797635272145,
        9.4878323469311
      ],
      [
        100.02797316759825,
        9.48789143934846
      ],
      [
        100.02798079513013,
        9.487997638061643
      ],
      [
        100.02798289060593,
        9.48804197832942
      ],
      [
        100.02798481844366,
        9.488055054098368
      ],
      [
        100.02798163332045,
        9.488066621124744
      ],
      [
        100.02799018286169,
        9.48813820257783
      ],
      [
        100.02798875793815,
        9.488187236711383
      ],
      [
        100.02806486561894,
        9.488320844247937
      ],
      [
        100.02809403464198,
        9.488339703530073
      ],
      [
        100.0282397121191,
        9.488459816202521
      ],
      [
        100.02827567048371,
        9.488506587222219
      ],
      [
        100.02832168713212,
        9.488561823964119
      ],
      [
        100.02836409956217,
        9.48858730494976
      ],
      [
        100.02839251421392,
        9.48861999437213
      ],
      [
        100.02842335961759,
        9.48865620419383
      ],
      [
        100.02843559719622,
        9.488665759563446
      ],
      [
        100.02851380035281,
        9.48878612369299
      ],
      [
        100.02858504652977,
        9.48895812034607
      ],
      [
        100.02863047644496,
        9.489028360694647
      ],
      [
        100.02862955443561,
        9.489040682092309
      ],
      [
        100.02865335904062,
        9.489090386778116
      ],
      [
        100.02867238596082,
        9.489123914390802
      ],
      [
        100.02870331518352,
        9.48918049223721
      ],
      [
        100.0287109427154,
        9.489190801978111
      ],
      [
        100.02873315475881,
        9.489214103668928
      ],
      [
        100.02880498766899,
        9.489327343180776
      ],
      [
        100.02882636152208,
        9.489348130300641
      ],
      [
        100.02887355163693,
        9.489431446418166
      ],
      [
        100.02892845310271,
        9.48953814804554
      ],
      [
        100.0289445463568,
        9.48956212028861
      ],
      [
        100.02900472842157,
        9.489676700904965
      ],
      [
        100.02904110588133,
        9.48984894901514
      ],
      [
        100.02901227213442,
        9.489949783310294
      ],
      [
        100.02899332903326,
        9.48998624458909
      ],
      [
        100.02890028990805,
        9.490153966471553
      ],
      [
        100.02878822386265,
        9.49031020514667
      ],
      [
        100.0287616532296,
        9.490392431616783
      ],
      [
        100.0286593940109,
        9.490546910092235
      ],
      [
        100.02865285612643,
        9.49055990204215
      ],
      [
        100.0286458991468,
        9.49056820012629
      ],
      [
        100.02860365435481,
        9.490713458508253
      ],
      [
        100.0285885669291,
        9.490775568410754
      ],
      [
        100.02860130742192,
        9.490821920335293
      ],
      [
        100.02861496992409,
        9.490866176784039
      ],
      [
        100.02861673012376,
        9.490882437676191
      ],
      [
        100.02861572429538,
        9.491066504269838
      ],
      [
        100.02861186861992,
        9.491125009953976
      ],
      [
        100.02863441593945,
        9.491253672167659
      ],
      [
        100.02862905152142,
        9.491351069882512
      ],
      [
        100.02863969653845,
        9.491429524496198
      ],
      [
        100.02863751724362,
        9.491535136476159
      ],
      [
        100.02864623442292,
        9.491595569998026
      ],
      [
        100.02863265573978,
        9.491703361272812
      ],
      [
        100.02862863242626,
        9.491718197241426
      ],
      [
        100.02862402237952,
        9.491835543885827
      ],
      [
        100.02861513756216,
        9.492020951583982
      ],
      [
        100.02859367989004,
        9.492075769230723
      ],
      [
        100.02858554944396,
        9.492097226902843
      ],
      [
        100.02856099046767,
        9.492200072854757
      ],
      [
        100.02855001017451,
        9.492245335131884
      ],
      [
        100.02853592857718,
        9.492302918806672
      ],
      [
        100.02854322083294,
        9.492359161376953
      ],
      [
        100.02854196354747,
        9.492400735616684
      ],
      [
        100.028509022668,
        9.492496373131871
      ],
      [
        100.02848756499588,
        9.492547335103154
      ],
      [
        100.02847943454981,
        9.492566781118512
      ],
      [
        100.02844481728971,
        9.492615899071097
      ],
      [
        100.02842017449439,
        9.492666777223349
      ],
      [
        100.02836083061993,
        9.492843383923173
      ],
      [
        100.02828849479556,
        9.49300054460764
      ],
      [
        100.02826158888638,
        9.493061313405633
      ],
      [
        100.02824759110808,
        9.493070365861058
      ],
      [
        100.02819277346134,
        9.493168769404292
      ],
      [
        100.02813594415784,
        9.493260635063052
      ],
      [
        100.02809939906001,
        9.493324756622314
      ],
      [
        100.02808322198689,
        9.493376724421978
      ],
      [
        100.02805220894516,
        9.493423160165548
      ],
      [
        100.0280087068677,
        9.493496417999268
      ],
      [
        100.02798490226269,
        9.493546625599265
      ],
      [
        100.02794642932713,
        9.493629857897758
      ],
      [
        100.02794642932713,
        9.49368073605001
      ],
      [
        100.02791415899992,
        9.493781067430973
      ],
      [
        100.02790862694383,
        9.493832867592573
      ],
      [
        100.02786420285702,
        9.493953231722116
      ],
      [
        100.02785640768707,
        9.49397879652679
      ],
      [
        100.02785414457321,
        9.494031351059675
      ],
      [
        100.02786529250443,
        9.494069488719106
      ],
      [
        100.02784417010844,
        9.494076445698738
      ],
      [
        100.02782941795886,
        9.494085246697068
      ],
      [
        100.02780687063932,
        9.494082313030958
      ],
      [
        100.02775406464934,
        9.494130089879036
      ],
      [
        100.02765582874417,
        9.49422363191843
      ],
      [
        100.02766714431345,
        9.494303595274687
      ],
      [
        100.02769354730844,
        9.494392862543464
      ],
      [
        100.0276905298233,
        9.4944635219872
      ],
      [
        100.02771441824734,
        9.494643146172166
      ],
      [
        100.02773989923298,
        9.494728976860642
      ],
      [
        100.02775456756353,
        9.494824698194861
      ],
      [
        100.02774191088974,
        9.494997281581163
      ],
      [
        100.0277719181031,
        9.49517791159451
      ],
      [
        100.02776487730443,
        9.495265502482653
      ],
      [
        100.02777887508273,
        9.495386704802513
      ],
      [
        100.02782321535051,
        9.495540177449584
      ],
      [
        100.02786043100059,
        9.495718209072948
      ],
      [
        100.02787987701595,
        9.495763890445232
      ],
      [
        100.02791902050376,
        9.495811834931374
      ],
      [
        100.02796101383865,
        9.495849888771772
      ],
      [
        100.02800778485835,
        9.495887104421854
      ],
      [
        100.0280602555722,
        9.495935048907995
      ],
      [
        100.02816645428538,
        9.496037308126688
      ],
      [
        100.02822873182595,
        9.496072512120008
      ],
      [
        100.02840802073479,
        9.496142752468586
      ],
      [
        100.02855872735381,
        9.496208131313324
      ],
      [
        100.02862703986466,
        9.496198995038867
      ],
      [
        100.02870884723961,
        9.496207712218165
      ],
      [
        100.02878428436816,
        9.496253812685609
      ],
      [
        100.0288150459528,
        9.496260937303305
      ],
      [
        100.02896005287766,
        9.496311396360397
      ],
      [
        100.02897136844695,
        9.496316593140364
      ],
      [
        100.02900036983192,
        9.496338134631515
      ],
      [
        100.02918301150203,
        9.49637752957642
      ],
      [
        100.02924755215645,
        9.496400244534016
      ],
      [
        100.02937562763691,
        9.496526140719652
      ],
      [
        100.02942088991404,
        9.496570229530334
      ],
      [
        100.02950822934508,
        9.496667627245188
      ],
      [
        100.02958224155009,
        9.496768629178405
      ],
      [
        100.02961015328765,
        9.496797798201442
      ],
      [
        100.0296181999147,
        9.49680651538074
      ],
      [
        100.02973512746394,
        9.496947079896927
      ],
      [
        100.02991382963955,
        9.497001394629478
      ],
      [
        100.02997778356075,
        9.497001310810447
      ],
      [
        100.03012664616108,
        9.496951522305608
      ],
      [
        100.03021960146725,
        9.496926292777061
      ],
      [
        100.03040584735572,
        9.496891340240836
      ],
      [
        100.03059159033,
        9.496864601969719
      ],
      [
        100.03064565360546,
        9.496837193146348
      ],
      [
        100.03065244294703,
        9.496826799586415
      ],
      [
        100.03065520897508,
        9.496828140690923
      ],
      [
        100.03066384233534,
        9.49682554230094
      ],
      [
        100.03070105798542,
        9.496831577271223
      ],
      [
        100.03071002662182,
        9.496833756566048
      ],
      [
        100.03071773797274,
        9.496838366612792
      ],
      [
        100.03086081705987,
        9.496842557564378
      ],
      [
        100.03086919896305,
        9.496842222288251
      ],
      [
        100.03091596998274,
        9.49683484621346
      ],
      [
        100.0311029702425,
        9.496823363006115
      ],
      [
        100.03117471933365,
        9.496823363006115
      ],
      [
        100.03126029856503,
        9.496808610856533
      ],
      [
        100.03144411370158,
        9.496779441833496
      ],
      [
        100.03158308565617,
        9.496739711612463
      ],
      [
        100.03176463767886,
        9.49669998139143
      ],
      [
        100.03179598599672,
        9.496675841510296
      ],
      [
        100.0318078044802,
        9.49666284956038
      ],
      [
        100.03182942979038,
        9.496648600324988
      ],
      [
        100.03199052996933,
        9.496552040800452
      ],
      [
        100.03209136426449,
        9.49647618457675
      ],
      [
        100.03220032900572,
        9.496387084946036
      ],
      [
        100.03230744972825,
        9.49623093008995
      ],
      [
        100.03238246776164,
        9.496068488806486
      ],
      [
        100.03238523378968,
        9.496057508513331
      ],
      [
        100.03239168785512,
        9.496047869324684
      ],
      [
        100.03249352797866,
        9.495915351435542
      ],
      [
        100.03259520046413,
        9.495757771655917
      ],
      [
        100.03260500729084,
        9.49574419297278
      ],
      [
        100.03261405974627,
        9.495732374489307
      ],
      [
        100.03273459151387,
        9.495591055601835
      ],
      [
        100.03285185433924,
        9.495494244620204
      ],
      [
        100.03287230618298,
        9.495471362024546
      ],
      [
        100.03297791816294,
        9.49532208032906
      ],
      [
        100.03308369778097,
        9.495174307376146
      ],
      [
        100.03318109549582,
        9.495068779215217
      ],
      [
        100.03328159451485,
        9.494903655722737
      ],
      [
        100.03335015848279,
        9.494785722345114
      ],
      [
        100.03338435664773,
        9.494758397340775
      ],
      [
        100.03345308825374,
        9.494698382914066
      ],
      [
        100.03352927975357,
        9.49452462606132
      ],
      [
        100.03361192531884,
        9.494357155635953
      ],
      [
        100.03364779986441,
        9.494320526719093
      ],
      [
        100.03368568606675,
        9.494257913902402
      ],
      [
        100.03371359780431,
        9.494224218651652
      ],
      [
        100.03375810571015,
        9.494173424318433
      ],
      [
        100.033889869228,
        9.494040822610259
      ],
      [
        100.0339384842664,
        9.493966978043318
      ],
      [
        100.03404837101698,
        9.493886092677712
      ],
      [
        100.0340835750103,
        9.493845356628299
      ],
      [
        100.03421382978559,
        9.493756927549839
      ],
      [
        100.03432656638324,
        9.493705378845334
      ],
      [
        100.03440795466304,
        9.493661373853683
      ],
      [
        100.03447425551713,
        9.493607562035322
      ],
      [
        100.03460987471044,
        9.493530783802271
      ],
      [
        100.03473585471511,
        9.493390638381243
      ],
      [
        100.03488957881927,
        9.493267172947526
      ],
      [
        100.03492394462228,
        9.493239847943187
      ],
      [
        100.034957556054,
        9.49321998283267
      ],
      [
        100.03512435592711,
        9.493132894858718
      ],
      [
        100.03528059460223,
        9.493027282878757
      ],
      [
        100.03529040142894,
        9.493023259565234
      ],
      [
        100.03540758043528,
        9.49296928010881
      ],
      [
        100.03547572530806,
        9.49292334727943
      ],
      [
        100.03548854961991,
        9.49291362427175
      ],
      [
        100.03562442027032,
        9.492781022563577
      ],
      [
        100.03566959872842,
        9.492712877690792
      ],
      [
        100.03565493039787,
        9.49265319854021
      ],
      [
        100.03561394289136,
        9.492618748918176
      ],
      [
        100.03557739779353,
        9.492579186335206
      ],
      [
        100.03555635921657,
        9.49252319522202
      ],
      [
        100.03554210998118,
        9.492486314848065
      ],
      [
        100.0355273578316,
        9.492414314299822
      ],
      [
        100.03547580912709,
        9.492264445871115
      ],
      [
        100.03544144332409,
        9.492212561890483
      ],
      [
        100.0354372523725,
        9.492198312655091
      ],
      [
        100.03542224876583,
        9.492145758122206
      ],
      [
        100.03541277721524,
        9.492123378440738
      ],
      [
        100.03540523350239,
        9.4921097997576
      ],
      [
        100.03534697927535,
        9.492043415084481
      ],
      [
        100.03531009890139,
        9.49197786860168
      ],
      [
        100.03524974919856,
        9.491932690143585
      ],
      [
        100.03513282164931,
        9.491810398176312
      ],
      [
        100.0351008027792,
        9.491764297708869
      ],
      [
        100.03506476059556,
        9.491690956056118
      ],
      [
        100.03505277447402,
        9.491680143401027
      ],
      [
        100.03501706756651,
        9.491671929135919
      ],
      [
        100.03499745391309,
        9.49167201295495
      ],
      [
        100.03491162322462,
        9.491604287177324
      ],
      [
        100.03483660519123,
        9.491539746522903
      ],
      [
        100.03481254912913,
        9.49149657972157
      ],
      [
        100.03469713032246,
        9.491386022418737
      ],
      [
        100.03468355163932,
        9.491376299411058
      ],
      [
        100.03466938622296,
        9.491353332996368
      ],
      [
        100.03456754609942,
        9.491184772923589
      ],
      [
        100.03444952890277,
        9.491033479571342
      ],
      [
        100.03438280895352,
        9.490935578942299
      ],
      [
        100.03431332297623,
        9.490763749927282
      ],
      [
        100.03429337404668,
        9.490733994171023
      ],
      [
        100.03425305709243,
        9.490688145160675
      ],
      [
        100.0342286657542,
        9.49067230336368
      ],
      [
        100.03416244871914,
        9.490576162934303
      ],
      [
        100.03414342179894,
        9.490542048588395
      ],
      [
        100.03413462080061,
        9.490533247590065
      ],
      [
        100.03411785699427,
        9.490492260083556
      ],
      [
        100.03401945345104,
        9.490336859598756
      ],
      [
        100.03393622115254,
        9.49017726816237
      ],
      [
        100.03385592252016,
        9.490065956488252
      ],
      [
        100.03384586423635,
        9.490044750273228
      ],
      [
        100.03380655311048,
        9.489932348951697
      ],
      [
        100.03379163332283,
        9.489878034219146
      ],
      [
        100.03380462527275,
        9.489817013964057
      ],
      [
        100.03382683731616,
        9.489778960123658
      ],
      [
        100.03387561999261,
        9.48972724378109
      ],
      [
        100.03398835659027,
        9.489577123895288
      ],
      [
        100.03399355337024,
        9.489562707021832
      ],
      [
        100.03399606794119,
        9.489558264613152
      ],
      [
        100.03407938405871,
        9.489535801112652
      ],
      [
        100.03426177427173,
        9.489505961537361
      ],
      [
        100.03438238985837,
        9.489496322348714
      ],
      [
        100.03449546173215,
        9.489441588521004
      ],
      [
        100.03456637263298,
        9.489408228546381
      ],
      [
        100.03465455025434,
        9.489375036209822
      ],
      [
        100.03470819443464,
        9.489348968490958
      ],
      [
        100.03487918525934,
        9.489278476685286
      ],
      [
        100.03504305146635,
        9.489203877747059
      ],
      [
        100.03509066067636,
        9.489178899675608
      ],
      [
        100.0352593883872,
        9.48909834958613
      ],
      [
        100.03530163317919,
        9.489081082865596
      ],
      [
        100.03538000397384,
        9.489051746204495
      ],
      [
        100.03540649078786,
        9.489043280482292
      ],
      [
        100.0355773139745,
        9.488956360146403
      ],
      [
        100.03558695316315,
        9.488952169194818
      ],
      [
        100.03562416881323,
        9.488942362368107
      ],
      [
        100.03578552044928,
        9.48888092301786
      ],
      [
        100.03584972582757,
        9.488863740116358
      ],
      [
        100.03589557483792,
        9.488840606063604
      ],
      [
        100.03594066947699,
        9.488817723467946
      ],
      [
        100.0361193716526,
        9.488749327138066
      ],
      [
        100.03619237802923,
        9.488727785646915
      ],
      [
        100.03636202774942,
        9.488649498671293
      ],
      [
        100.03649932332337,
        9.488523518666625
      ],
      [
        100.03651851788163,
        9.488493259996176
      ],
      [
        100.03659881651402,
        9.488320257514715
      ],
      [
        100.03663452342153,
        9.48814214207232
      ],
      [
        100.03666260279715,
        9.488011468201876
      ],
      [
        100.03665975295007,
        9.487967798486352
      ],
      [
        100.03665489144623,
        9.487942988052964
      ],
      [
        100.03664240241051,
        9.487908035516739
      ],
      [
        100.0366339366883,
        9.487882135435939
      ],
      [
        100.03662840463221,
        9.487864952534437
      ],
      [
        100.03663267940283,
        9.487774763256311
      ],
      [
        100.03658087924123,
        9.487595222890377
      ],
      [
        100.03657794557512,
        9.48758457787335
      ],
      [
        100.03656805492938,
        9.48754652403295
      ],
      [
        100.03655422478914,
        9.48736036196351
      ],
      [
        100.03656419925392,
        9.487337311729789
      ],
      [
        100.03659521229565,
        9.48729582130909
      ],
      [
        100.036630500108,
        9.487246619537473
      ],
      [
        100.03668129444122,
        9.487061044201255
      ],
      [
        100.03669202327728,
        9.486915953457355
      ],
      [
        100.03667919896543,
        9.486760888248682
      ],
      [
        100.03671314567327,
        9.486683439463377
      ],
      [
        100.0367771834135,
        9.486558213829994
      ],
      [
        100.0369257107377,
        9.486434496939182
      ],
      [
        100.03701221197844,
        9.486395688727498
      ],
      [
        100.03704280592501,
        9.486371045932174
      ],
      [
        100.03704959526658,
        9.4863645080477
      ],
      [
        100.037058647722,
        9.486357383430004
      ],
      [
        100.0370935164392,
        9.486336763948202
      ],
      [
        100.03711740486324,
        9.486317401751876
      ],
      [
        100.03718135878444,
        9.48627364821732
      ],
      [
        100.03721874207258,
        9.486246826127172
      ],
      [
        100.03724087029696,
        9.486233498901129
      ],
      [
        100.03736986778677,
        9.486132580786943
      ],
      [
        100.03743130713701,
        9.486079523339868
      ],
      [
        100.03759257495403,
        9.485989334061742
      ],
      [
        100.03775786608458,
        9.485905598849058
      ],
      [
        100.03784059546888,
        9.485845668241382
      ],
      [
        100.0378789845854,
        9.485813062638044
      ],
      [
        100.03788216970861,
        9.485804010182619
      ],
      [
        100.03796263597906,
        9.485738966614008
      ],
      [
        100.03801317885518,
        9.485697727650404
      ],
      [
        100.03806564956903,
        9.485657578334212
      ],
      [
        100.03822498954833,
        9.485556241124868
      ],
      [
        100.03836211748421,
        9.485436379909515
      ],
      [
        100.03838550299406,
        9.48541165329516
      ],
      [
        100.03839916549623,
        9.485403690487146
      ],
      [
        100.03843629732728,
        9.48539262637496
      ],
      [
        100.03848826512694,
        9.485351722687483
      ],
      [
        100.03853805363178,
        9.485312160104513
      ],
      [
        100.03858574666083,
        9.485279638320208
      ],
      [
        100.03861307166517,
        9.485246865078807
      ],
      [
        100.03877744078636,
        9.485145779326558
      ],
      [
        100.03886603750288,
        9.48507696390152
      ],
      [
        100.03897542133927,
        9.485006472095847
      ],
      [
        100.03905069082975,
        9.484953749924898
      ],
      [
        100.03906678408384,
        9.484940255060792
      ],
      [
        100.0390812009573,
        9.484910666942596
      ],
      [
        100.03909218125045,
        9.484889125451446
      ],
      [
        100.03912394866347,
        9.484862135723233
      ],
      [
        100.03918404690921,
        9.48480966500938
      ],
      [
        100.03921564668417,
        9.4847740419209
      ],
      [
        100.03924741409719,
        9.484753673896194
      ],
      [
        100.03935537301004,
        9.484672788530588
      ],
      [
        100.03937859088182,
        9.48464848101139
      ],
      [
        100.03949023783207,
        9.484473131597042
      ],
      [
        100.03954522311687,
        9.484433066099882
      ],
      [
        100.03970431163907,
        9.484337093308568
      ],
      [
        100.03975820727646,
        9.484333656728268
      ],
      [
        100.03980522975326,
        9.484304655343294
      ],
      [
        100.03986096940935,
        9.484274312853813
      ],
      [
        100.0398740451783,
        9.484267523512244
      ],
      [
        100.03999181091785,
        9.484205665066838
      ],
      [
        100.04003967158496,
        9.484169036149979
      ],
      [
        100.0402004364878,
        9.484065938740969
      ],
      [
        100.04029816947877,
        9.483979186043143
      ],
      [
        100.04042423330247,
        9.483889499679208
      ],
      [
        100.04046907648444,
        9.483851362019777
      ],
      [
        100.04048994742334,
        9.483843818306923
      ],
      [
        100.04057024605572,
        9.483815487474203
      ],
      [
        100.0407459307462,
        9.483724208548665
      ],
      [
        100.04084852524102,
        9.48368338868022
      ],
      [
        100.04095254465938,
        9.48361742310226
      ],
      [
        100.04106109030545,
        9.48356369510293
      ],
      [
        100.04107475280762,
        9.483558749780059
      ],
      [
        100.04112445749342,
        9.48353050276637
      ],
      [
        100.04128597676754,
        9.483440397307277
      ],
      [
        100.04129653796554,
        9.483419191092253
      ],
      [
        100.04129922017455,
        9.483410893008113
      ],
      [
        100.04132084548473,
        9.483397733420134
      ],
      [
        100.04137960262597,
        9.483363283798099
      ],
      [
        100.04139326512814,
        9.483349453657866
      ],
      [
        100.04143022932112,
        9.4833252299577
      ],
      [
        100.04148370586336,
        9.483290361240506
      ],
      [
        100.04163650795817,
        9.48318550363183
      ],
      [
        100.04178159870207,
        9.483072515577078
      ],
      [
        100.041836919263,
        9.48303697630763
      ],
      [
        100.04188855178654,
        9.482978638261557
      ],
      [
        100.04192777909338,
        9.482941338792443
      ],
      [
        100.04205233417451,
        9.482807228341699
      ],
      [
        100.04222315736115,
        9.482701867818832
      ],
      [
        100.04225987009704,
        9.482688456773758
      ],
      [
        100.04242650233209,
        9.482609080150723
      ],
      [
        100.04258433356881,
        9.482490308582783
      ],
      [
        100.04271760582924,
        9.482367681339383
      ],
      [
        100.04276789724827,
        9.482314456254244
      ],
      [
        100.04281626082957,
        9.482264667749405
      ],
      [
        100.04284333437681,
        9.482219573110342
      ],
      [
        100.0429027620703,
        9.482175149023533
      ],
      [
        100.04295414313674,
        9.482117146253586
      ],
      [
        100.04296428523958,
        9.482105830684304
      ],
      [
        100.04298674874008,
        9.482053276151419
      ],
      [
        100.04300803877413,
        9.482019748538733
      ],
      [
        100.04305187612772,
        9.481984879821539
      ],
      [
        100.0431562308222,
        9.4818798545748
      ],
      [
        100.04318045452237,
        9.481848422437906
      ],
      [
        100.0432706438005,
        9.481761837378144
      ],
      [
        100.04334566183388,
        9.481671145185828
      ],
      [
        100.04341162741184,
        9.481581207364798
      ],
      [
        100.04353458993137,
        9.481436284258962
      ],
      [
        100.04364430904388,
        9.48131307028234
      ],
      [
        100.04366585053504,
        9.48128373362124
      ],
      [
        100.0436850450933,
        9.481236794963479
      ],
      [
        100.04368940368295,
        9.481194466352463
      ],
      [
        100.04369795322418,
        9.481185665354133
      ],
      [
        100.04370164126158,
        9.481171919032931
      ],
      [
        100.0437122862786,
        9.481141995638609
      ],
      [
        100.0437178183347,
        9.481125650927424
      ],
      [
        100.04374313168228,
        9.481098493561149
      ],
      [
        100.04378613084555,
        9.481061780825257
      ],
      [
        100.04380490630865,
        9.481047028675675
      ],
      [
        100.04384094849229,
        9.481022637337446
      ],
      [
        100.0438784994185,
        9.481002436950803
      ],
      [
        100.04388797096908,
        9.480989445000887
      ],
      [
        100.04389735870063,
        9.480978632345796
      ],
      [
        100.04390984773636,
        9.480969915166497
      ],
      [
        100.04393415525556,
        9.480945942923427
      ],
      [
        100.0440027192235,
        9.480880815535784
      ],
      [
        100.04403163678944,
        9.480825494974852
      ],
      [
        100.04404546692967,
        9.480809234082699
      ],
      [
        100.04406876862049,
        9.48079758323729
      ],
      [
        100.04409676417708,
        9.480773778632283
      ],
      [
        100.04417706280947,
        9.480728851631284
      ],
      [
        100.04420908167958,
        9.480694150552154
      ],
      [
        100.04427932202816,
        9.480629358440638
      ],
      [
        100.04434201866388,
        9.480528943240643
      ],
      [
        100.04440220072865,
        9.480476472526789
      ],
      [
        100.04450596868992,
        9.480317803099751
      ],
      [
        100.04455081187189,
        9.480273881927133
      ],
      [
        100.04468743689358,
        9.480142202228308
      ],
      [
        100.04471828229725,
        9.480091324076056
      ],
      [
        100.04474812187254,
        9.480008343234658
      ],
      [
        100.04477242939174,
        9.47998839430511
      ],
      [
        100.04482288844883,
        9.479970373213291
      ],
      [
        100.04494794644415,
        9.479862749576569
      ],
      [
        100.04497217014432,
        9.479831820353866
      ],
      [
        100.04511047154665,
        9.479706091806293
      ],
      [
        100.04516763612628,
        9.479653537273407
      ],
      [
        100.04520250484347,
        9.479625541716814
      ],
      [
        100.04526553675532,
        9.479596205055714
      ],
      [
        100.04538212902844,
        9.479500651359558
      ],
      [
        100.04549754783511,
        9.479441056028008
      ],
      [
        100.04552856087685,
        9.47942789644003
      ],
      [
        100.04554364830256,
        9.479417586699128
      ],
      [
        100.04555898718536,
        9.479407528415322
      ],
      [
        100.04570818506181,
        9.479290936142206
      ],
      [
        100.04575830884278,
        9.47925589978695
      ],
      [
        100.04580105654895,
        9.47922321036458
      ],
      [
        100.04585025832057,
        9.479204267263412
      ],
      [
        100.04586241208017,
        9.479200495406985
      ],
      [
        100.04588529467583,
        9.479195130988955
      ],
      [
        100.04601772874594,
        9.479150790721178
      ],
      [
        100.04605167545378,
        9.47912740521133
      ],
      [
        100.04613406956196,
        9.479075353592634
      ],
      [
        100.04616843536496,
        9.479048112407327
      ],
      [
        100.04617547616363,
        9.479035455733538
      ],
      [
        100.04620732739568,
        9.479010980576277
      ],
      [
        100.04621939733624,
        9.479004107415676
      ],
      [
        100.04632350057364,
        9.478962868452072
      ],
      [
        100.04636021330953,
        9.478946439921856
      ],
      [
        100.04641679115593,
        9.478893466293812
      ],
      [
        100.04643900319934,
        9.478862034156919
      ],
      [
        100.04648862406611,
        9.478812832385302
      ],
      [
        100.04662248305976,
        9.478675033897161
      ],
      [
        100.04678660072386,
        9.478560201823711
      ],
      [
        100.04690327681601,
        9.478468839079142
      ],
      [
        100.04693018272519,
        9.478461798280478
      ],
      [
        100.04711584188044,
        9.47838669642806
      ],
      [
        100.04722137004137,
        9.478283012285829
      ],
      [
        100.04724768921733,
        9.478255603462458
      ],
      [
        100.04726445302367,
        9.478237414732575
      ],
      [
        100.04728482104838,
        9.47822542861104
      ],
      [
        100.04732748493552,
        9.47818678803742
      ],
      [
        100.04738540388644,
        9.478150913491845
      ],
      [
        100.04745748825371,
        9.478115206584334
      ],
      [
        100.04749746993184,
        9.478099197149277
      ],
      [
        100.04751767031848,
        9.478082517161965
      ],
      [
        100.04754264838994,
        9.478052090853453
      ],
      [
        100.04764717072248,
        9.477966511622071
      ],
      [
        100.04771213047206,
        9.477890906855464
      ],
      [
        100.04785428754985,
        9.477763250470161
      ],
      [
        100.04797632806003,
        9.477620758116245
      ],
      [
        100.04803483374417,
        9.477547081187367
      ],
      [
        100.04804715514183,
        9.477537861093879
      ],
      [
        100.04809551872313,
        9.477500226348639
      ],
      [
        100.04812116734684,
        9.477481786161661
      ],
      [
        100.04813407547772,
        9.47747583501041
      ],
      [
        100.04814287647605,
        9.47746661491692
      ],
      [
        100.04823884926736,
        9.47739427909255
      ],
      [
        100.04830917343497,
        9.477355554699898
      ],
      [
        100.04845074377954,
        9.477246841415763
      ],
      [
        100.04856909625232,
        9.477143660187721
      ],
      [
        100.04857840016484,
        9.477135529741645
      ],
      [
        100.04867378622293,
        9.477030336856842
      ],
      [
        100.04871427081525,
        9.476999156177044
      ],
      [
        100.04884829744697,
        9.47691148146987
      ],
      [
        100.04898274317384,
        9.476779298856854
      ],
      [
        100.04902867600322,
        9.476733449846506
      ],
      [
        100.04906647838652,
        9.47671266272664
      ],
      [
        100.04909380339086,
        9.476681482046843
      ],
      [
        100.04911878146231,
        9.476617528125644
      ],
      [
        100.04910914227366,
        9.476560363546014
      ],
      [
        100.04909011535347,
        9.476479310542345
      ],
      [
        100.04906639456749,
        9.476444944739342
      ],
      [
        100.0490347109735,
        9.476400688290596
      ],
      [
        100.04902373068035,
        9.476350229233503
      ],
      [
        100.04898098297417,
        9.47628166526556
      ],
      [
        100.04892256110907,
        9.476174712181091
      ],
      [
        100.04886162467301,
        9.47611796669662
      ],
      [
        100.04876640625298,
        9.475989723578095
      ],
      [
        100.04869993776083,
        9.475864497944713
      ],
      [
        100.04865853115916,
        9.47578419931233
      ],
      [
        100.04864654503763,
        9.47574807330966
      ],
      [
        100.0486462097615,
        9.475733237341046
      ],
      [
        100.04863095469773,
        9.475627625361085
      ],
      [
        100.04861578345299,
        9.475572556257248
      ],
      [
        100.04862366244197,
        9.47548613883555
      ],
      [
        100.04861888475716,
        9.475459400564432
      ],
      [
        100.04858611151576,
        9.47534792125225
      ],
      [
        100.04856314510107,
        9.475322775542736
      ],
      [
        100.0485613849014,
        9.475265946239233
      ],
      [
        100.04853489808738,
        9.475218756124377
      ],
      [
        100.04853012040257,
        9.47519444860518
      ],
      [
        100.04851654171944,
        9.475163267925382
      ],
      [
        100.04848460666835,
        9.475074587389827
      ],
      [
        100.04843339323997,
        9.47496134787798
      ],
      [
        100.04842970520258,
        9.474945506080985
      ],
      [
        100.04841855727136,
        9.474916504696012
      ],
      [
        100.04837614484131,
        9.474809048697352
      ],
      [
        100.04832719452679,
        9.474685164168477
      ],
      [
        100.04828536882997,
        9.474603105336428
      ],
      [
        100.04829844459891,
        9.474553065374494
      ],
      [
        100.04829274490476,
        9.474504617974162
      ],
      [
        100.0482920743525,
        9.474487015977502
      ],
      [
        100.04828017205,
        9.474409315735102
      ],
      [
        100.04826491698623,
        9.474351312965155
      ],
      [
        100.04822619259357,
        9.474200690165162
      ],
      [
        100.04814757034183,
        9.474114356562495
      ],
      [
        100.04814681597054,
        9.474095329642296
      ],
      [
        100.04811597056687,
        9.474026849493384
      ],
      [
        100.04811203107238,
        9.47400220669806
      ],
      [
        100.04810490645468,
        9.473977480083704
      ],
      [
        100.04808948375285,
        9.473945461213589
      ],
      [
        100.04807598888874,
        9.473888799548149
      ],
      [
        100.04805067554116,
        9.47384336963296
      ],
      [
        100.0480314809829,
        9.473798358812928
      ],
      [
        100.04802720621228,
        9.473788300529122
      ],
      [
        100.04799962975085,
        9.473735997453332
      ],
      [
        100.047965683043,
        9.473685622215271
      ],
      [
        100.04797356203198,
        9.473657626658678
      ],
      [
        100.04797004163265,
        9.473639270290732
      ],
      [
        100.04795495420694,
        9.473624266684055
      ],
      [
        100.0479191634804,
        9.473597696051002
      ],
      [
        100.04789317958057,
        9.473550086840987
      ],
      [
        100.04787499085069,
        9.47350432164967
      ],
      [
        100.04786568693817,
        9.473470877856016
      ],
      [
        100.04786635749042,
        9.473452856764197
      ],
      [
        100.04781858064234,
        9.473381694406271
      ],
      [
        100.0478036608547,
        9.473365265876055
      ],
      [
        100.04779737442732,
        9.473356381058693
      ],
      [
        100.04777465946972,
        9.473321177065372
      ],
      [
        100.04770014435053,
        9.473169548437
      ],
      [
        100.04767843522131,
        9.473120933398604
      ],
      [
        100.04763971082866,
        9.473055973649025
      ],
      [
        100.04762747325003,
        9.47301615960896
      ],
      [
        100.04761221818626,
        9.472985984757543
      ],
      [
        100.04758279770613,
        9.472891604527831
      ],
      [
        100.04757114686072,
        9.472843324765563
      ],
      [
        100.04754859954119,
        9.472737461328506
      ],
      [
        100.04753393121064,
        9.472710974514484
      ],
      [
        100.04751808941364,
        9.472694043070078
      ],
      [
        100.04749772138894,
        9.472665963694453
      ],
      [
        100.0474923569709,
        9.47264140471816
      ],
      [
        100.04750233143568,
        9.472575522959232
      ],
      [
        100.04749964922667,
        9.47256269864738
      ],
      [
        100.04742672666907,
        9.472405705600977
      ],
      [
        100.04736989736557,
        9.472237480804324
      ],
      [
        100.04737693816423,
        9.472214514389634
      ],
      [
        100.04737098701298,
        9.472201270982623
      ],
      [
        100.04736922681332,
        9.472193224355578
      ],
      [
        100.04739210940897,
        9.472169000655413
      ],
      [
        100.04737970419228,
        9.472160870209336
      ],
      [
        100.04739529453218,
        9.472166150808334
      ],
      [
        100.04739412106574,
        9.472179561853409
      ],
      [
        100.0473858229816,
        9.47216883301735
      ],
      [
        100.04730317741632,
        9.472122648730874
      ],
      [
        100.04731348715723,
        9.472111584618688
      ],
      [
        100.04730694927275,
        9.472084259614348
      ],
      [
        100.04731390625238,
        9.472043188288808
      ],
      [
        100.04735791124403,
        9.472108902409673
      ],
      [
        100.04736201837659,
        9.472118373960257
      ],
      [
        100.04735849797726,
        9.472137233242393
      ],
      [
        100.0472748465836,
        9.472162462770939
      ],
      [
        100.04727987572551,
        9.472168162465096
      ],
      [
        100.0472835637629,
        9.47217377834022
      ],
      [
        100.04728347994387,
        9.472174365073442
      ],
      [
        100.04728959873319,
        9.47217377834022
      ],
      [
        100.04730409942567,
        9.472158020362258
      ],
      [
        100.04731424152851,
        9.472139831632376
      ],
      [
        100.04733611829579,
        9.472138322889805
      ],
      [
        100.04734667949378,
        9.472150141373277
      ],
      [
        100.04735506139696,
        9.472163133323193
      ],
      [
        100.04733343608677,
        9.472154919058084
      ],
      [
        100.04734793677926,
        9.472151817753911
      ],
      [
        100.04735900089145,
        9.472144106402993
      ],
      [
        100.04739001393318,
        9.472116446122527
      ]
    ]
  }
}
