{
  "type": "Feature",
  "properties": {},
  "geometry": {
    "type": "LineString",
    "coordinates": [
      [
        -8.725119,
        37.089847,
        3.90389
      ],
      [
        -8.726903,
        37.087412,
        3.95197
      ],
      [
        -8.727004,
        37.087247,
        3.36215
      ],
      [
        -8.728246,
        37.086501,
        6.03619
      ],
      [
        -8.72863,
        37.086023,
        4.8895
      ],
      [
        -8.729521,
        37.085291,
        5.60997
      ],
      [
        -8.729686,
        37.085214,
        6.30108
      ],
      [
        -8.730075,
        37.08514,
        7.83698
      ],
      [
        -8.730223,
        37.085166,
        8.35741
      ],
      [
        -8.730651,
        37.085749,
        18.48687
      ],
      [
        -8.730819,
        37.085702,
        17.90103
      ],
      [
        -8.731074,
        37.085815,
        19.6663
      ],
      [
        -8.731182,
        37.085816,
        19.49766
      ],
      [
        -8.732422,
        37.085322,
        12.61526
      ],
      [
        -8.733992,
        37.084315,
        11.39688
      ],
      [
        -8.734313,
        37.084147,
        10.36526
      ],
      [
        -8.735107,
        37.083907,
        10.52742
      ],
      [
        -8.736088,
        37.083329,
        12.35349
      ],
      [
        -8.736835,
        37.082936,
        10.32372
      ],
      [
        -8.739224,
        37.081919,
        10.2934
      ],
      [
        -8.739341,
        37.081776,
        9.79425
      ],
      [
        -8.739547,
        37.08164,
        10.43105
      ],
      [
        -8.739573,
        37.081497,
        8.83836
      ],
      [
        -8.739632,
        37.081429,
        8.38716
      ],
      [
        -8.740274,
        37.080981,
        6.0651
      ],
      [
        -8.740459,
        37.080893,
        6.93052
      ],
      [
        -8.741312,
        37.080272,
        6.06938
      ],
      [
        -8.741796,
        37.079813,
        5.57883
      ],
      [
        -8.742024,
        37.079732,
        7.48678
      ],
      [
        -8.742273,
        37.079537,
        8.15196
      ],
      [
        -8.742591,
        37.079404,
        9.42513
      ],
      [
        -8.742974,
        37.079147,
        9.85535
      ],
      [
        -8.743229,
        37.079088,
        11.32096
      ],
      [
        -8.743312,
        37.079036,
        11.29768
      ],
      [
        -8.743582,
        37.078637,
        7.58739
      ],
      [
        -8.743716,
        37.078583,
        8.13699
      ],
      [
        -8.744059,
        37.078313,
        8.71311
      ],
      [
        -8.744359,
        37.077944,
        6.90636
      ],
      [
        -8.744702,
        37.07761,
        4.95229
      ],
      [
        -8.745,
        37.077455,
        5.51928
      ],
      [
        -8.745416,
        37.077329,
        8.60363
      ],
      [
        -8.745693,
        37.077123,
        8.81714
      ],
      [
        -8.746309,
        37.076771,
        5.28431
      ],
      [
        -8.746369,
        37.076789,
        5.48615
      ],
      [
        -8.746934,
        37.077346,
        16.26071
      ],
      [
        -8.747443,
        37.077377,
        18.52196
      ],
      [
        -8.747595,
        37.077475,
        21.10485
      ],
      [
        -8.747835,
        37.077556,
        24.10499
      ],
      [
        -8.748005,
        37.077553,
        25.32854
      ],
      [
        -8.748374,
        37.077384,
        25.05139
      ],
      [
        -8.748473,
        37.077232,
        22.4638
      ],
      [
        -8.748639,
        37.077007,
        19.06866
      ],
      [
        -8.748628,
        37.076835,
        14.99805
      ],
      [
        -8.748731,
        37.076735,
        14.57206
      ],
      [
        -8.748891,
        37.076679,
        16.12482
      ],
      [
        -8.74952,
        37.076315,
        14.1816
      ],
      [
        -8.749699,
        37.076277,
        15.10076
      ],
      [
        -8.749793,
        37.076193,
        13.82311
      ],
      [
        -8.750761,
        37.075671,
        14.6374
      ],
      [
        -8.751208,
        37.075406,
        8.77475
      ],
      [
        -8.751355,
        37.075389,
        8.81417
      ],
      [
        -8.751472,
        37.075415,
        10.23675
      ],
      [
        -8.751922,
        37.07535,
        11.06084
      ],
      [
        -8.752315,
        37.075379,
        15.66762
      ],
      [
        -8.752497,
        37.07544,
        19.53581
      ],
      [
        -8.752541,
        37.075576,
        25.39538
      ],
      [
        -8.753037,
        37.075467,
        22.90783
      ],
      [
        -8.753381,
        37.075465,
        25.63178
      ],
      [
        -8.753772,
        37.075367,
        29.2642
      ],
      [
        -8.754252,
        37.075127,
        31.31006
      ],
      [
        -8.754758,
        37.074813,
        29.46391
      ],
      [
        -8.754838,
        37.074736,
        28.57525
      ],
      [
        -8.754822,
        37.074646,
        25.84444
      ],
      [
        -8.754977,
        37.074506,
        24.76428
      ],
      [
        -8.754971,
        37.074408,
        22.26076
      ],
      [
        -8.755034,
        37.07431,
        20.69843
      ],
      [
        -8.755167,
        37.074265,
        20.54708
      ],
      [
        -8.755055,
        37.073995,
        13.46273
      ],
      [
        -8.755085,
        37.073914,
        11.59188
      ],
      [
        -8.755046,
        37.073666,
        5.02528
      ],
      [
        -8.75521,
        37.073686,
        6.25749
      ],
      [
        -8.755335,
        37.073767,
        8.59298
      ],
      [
        -8.755453,
        37.073872,
        11.18102
      ],
      [
        -8.755698,
        37.073935,
        12.20162
      ],
      [
        -8.755777,
        37.074005,
        13.62708
      ],
      [
        -8.755922,
        37.074056,
        14.96284
      ],
      [
        -8.755959,
        37.07427,
        19.58299
      ],
      [
        -8.756259,
        37.074476,
        26.84876
      ],
      [
        -8.756383,
        37.074478,
        28.03402
      ],
      [
        -8.75651,
        37.074539,
        30.93319
      ],
      [
        -8.756654,
        37.07456,
        32.53317
      ],
      [
        -8.756783,
        37.074492,
        31.01004
      ],
      [
        -8.757058,
        37.074427,
        29.89795
      ],
      [
        -8.757173,
        37.074337,
        27.78703
      ],
      [
        -8.757471,
        37.074362,
        29.25275
      ],
      [
        -8.757659,
        37.074256,
        27.46934
      ],
      [
        -8.757864,
        37.074265,
        28.20851
      ],
      [
        -8.75834,
        37.074078,
        26.54859
      ],
      [
        -8.758772,
        37.073836,
        23.03022
      ],
      [
        -8.758974,
        37.073396,
        12.93145
      ],
      [
        -8.759302,
        37.073271,
        11.50397
      ],
      [
        -8.760164,
        37.073244,
        16.89114
      ],
      [
        -8.760596,
        37.073079,
        13.67066
      ],
      [
        -8.761042,
        37.073108,
        13.93936
      ],
      [
        -8.76139,
        37.073374,
        18.76426
      ],
      [
        -8.761845,
        37.073502,
        21.06837
      ],
      [
        -8.762161,
        37.073645,
        25.79903
      ],
      [
        -8.762279,
        37.073631,
        25.79819
      ],
      [
        -8.762467,
        37.073579,
        24.97347
      ],
      [
        -8.762712,
        37.073586,
        26.31212
      ],
      [
        -8.763102,
        37.07354,
        27.21818
      ],
      [
        -8.76358,
        37.073396,
        30.58348
      ],
      [
        -8.764101,
        37.07309,
        35.43813
      ],
      [
        -8.764839,
        37.072574,
        28.63464
      ],
      [
        -8.765244,
        37.072464,
        27.69881
      ],
      [
        -8.765486,
        37.072442,
        26.70356
      ],
      [
        -8.766151,
        37.072538,
        26.38845
      ],
      [
        -8.766301,
        37.072653,
        28.91018
      ],
      [
        -8.766447,
        37.072705,
        29.86683
      ],
      [
        -8.766917,
        37.07271,
        29.7192
      ],
      [
        -8.767868,
        37.072583,
        30.1191
      ],
      [
        -8.768255,
        37.072571,
        31.60985
      ],
      [
        -8.768734,
        37.072415,
        27.52334
      ],
      [
        -8.769244,
        37.072419,
        27.32653
      ],
      [
        -8.769582,
        37.072481,
        29.48847
      ],
      [
        -8.770023,
        37.072462,
        29.84507
      ],
      [
        -8.770315,
        37.072538,
        34.20786
      ],
      [
        -8.770615,
        37.07251,
        35.7947
      ],
      [
        -8.771033,
        37.072521,
        38.5653
      ],
      [
        -8.771505,
        37.072474,
        39.36253
      ],
      [
        -8.771912,
        37.072309,
        36.17026
      ],
      [
        -8.772257,
        37.072284,
        34.75041
      ],
      [
        -8.772688,
        37.072387,
        32.23777
      ],
      [
        -8.772737,
        37.07253,
        33.33973
      ],
      [
        -8.77274,
        37.07284,
        34.36839
      ],
      [
        -8.772802,
        37.072973,
        33.27163
      ],
      [
        -8.772895,
        37.073022,
        32.22444
      ],
      [
        -8.77313,
        37.073024,
        30.09192
      ],
      [
        -8.773958,
        37.072792,
        23.88113
      ],
      [
        -8.773991,
        37.072735,
        22.63912
      ],
      [
        -8.773936,
        37.072376,
        15.98789
      ],
      [
        -8.773976,
        37.072308,
        14.8663
      ],
      [
        -8.774123,
        37.072204,
        13.19644
      ],
      [
        -8.774585,
        37.072006,
        10.27478
      ],
      [
        -8.77486,
        37.071937,
        9.69381
      ],
      [
        -8.775021,
        37.071929,
        10.3067
      ],
      [
        -8.775105,
        37.072209,
        16.56422
      ],
      [
        -8.774905,
        37.072656,
        22.93588
      ],
      [
        -8.774903,
        37.072734,
        24.26063
      ],
      [
        -8.775001,
        37.072741,
        24.85719
      ],
      [
        -8.775047,
        37.072783,
        25.76012
      ],
      [
        -8.775147,
        37.072775,
        26.27589
      ],
      [
        -8.775175,
        37.072848,
        27.4162
      ],
      [
        -8.775315,
        37.072858,
        28.43857
      ],
      [
        -8.775349,
        37.072867,
        28.75287
      ],
      [
        -8.775456,
        37.072701,
        28.17008
      ],
      [
        -8.77582,
        37.072469,
        29.52771
      ],
      [
        -8.775897,
        37.072521,
        30.67727
      ],
      [
        -8.775949,
        37.072507,
        30.88684
      ],
      [
        -8.776076,
        37.072258,
        28.01335
      ],
      [
        -8.7762,
        37.072234,
        28.39312
      ],
      [
        -8.776383,
        37.072263,
        30.00848
      ],
      [
        -8.776722,
        37.072152,
        30.38369
      ],
      [
        -8.776924,
        37.072128,
        31.37927
      ],
      [
        -8.777186,
        37.071992,
        31.39211
      ],
      [
        -8.777247,
        37.071786,
        28.82875
      ],
      [
        -8.777381,
        37.071743,
        29.64083
      ],
      [
        -8.777565,
        37.071611,
        30.06398
      ],
      [
        -8.777672,
        37.071624,
        32.31709
      ],
      [
        -8.777757,
        37.071691,
        34.93754
      ],
      [
        -8.777814,
        37.071681,
        35.98126
      ],
      [
        -8.777853,
        37.071817,
        37.78625
      ],
      [
        -8.777977,
        37.071953,
        39.95529
      ],
      [
        -8.778391,
        37.071796,
        46.31561
      ],
      [
        -8.778552,
        37.071429,
        49.84866
      ],
      [
        -8.778503,
        37.071229,
        48.51759
      ],
      [
        -8.778602,
        37.071106,
        50.70705
      ],
      [
        -8.778988,
        37.071026,
        59.85368
      ],
      [
        -8.779114,
        37.070968,
        61.59411
      ],
      [
        -8.779512,
        37.070941,
        60.18737
      ],
      [
        -8.780153,
        37.070738,
        51.60037
      ],
      [
        -8.780615,
        37.070822,
        55.63375
      ],
      [
        -8.780784,
        37.070771,
        56.34736
      ],
      [
        -8.780993,
        37.07058,
        55.69709
      ],
      [
        -8.780968,
        37.070404,
        52.55227
      ],
      [
        -8.781123,
        37.070198,
        50.09989
      ],
      [
        -8.781561,
        37.070134,
        54.61004
      ],
      [
        -8.781693,
        37.070049,
        53.62945
      ],
      [
        -8.781836,
        37.070007,
        53.45214
      ],
      [
        -8.782041,
        37.069996,
        54.18412
      ],
      [
        -8.782152,
        37.069893,
        51.36912
      ],
      [
        -8.782444,
        37.069845,
        50.19871
      ],
      [
        -8.782541,
        37.0696,
        40.72605
      ],
      [
        -8.782948,
        37.069289,
        26.42859
      ],
      [
        -8.783204,
        37.069256,
        24.58239
      ],
      [
        -8.784017,
        37.069299,
        40.75053
      ],
      [
        -8.784237,
        37.069242,
        44.54465
      ],
      [
        -8.78431,
        37.069192,
        45.43298
      ],
      [
        -8.784717,
        37.068787,
        48.05878
      ],
      [
        -8.784939,
        37.068423,
        48.10322
      ],
      [
        -8.785619,
        37.067846,
        53.39263
      ],
      [
        -8.785687,
        37.067747,
        54.77738
      ],
      [
        -8.785725,
        37.067349,
        53.79324
      ],
      [
        -8.785856,
        37.066722,
        51.88924
      ],
      [
        -8.78634,
        37.06617,
        51.52864
      ],
      [
        -8.786469,
        37.06586,
        51.13834
      ],
      [
        -8.786693,
        37.065703,
        56.99835
      ],
      [
        -8.786763,
        37.065365,
        57.94968
      ],
      [
        -8.786915,
        37.065231,
        60.22976
      ],
      [
        -8.787148,
        37.06515,
        62.26119
      ],
      [
        -8.787289,
        37.065159,
        62.94827
      ],
      [
        -8.78751,
        37.065044,
        64.20768
      ],
      [
        -8.787746,
        37.06502,
        64.87601
      ],
      [
        -8.788536,
        37.064738,
        63.23207
      ],
      [
        -8.78872,
        37.064702,
        63.71444
      ],
      [
        -8.78878,
        37.064652,
        63.60501
      ],
      [
        -8.788894,
        37.064493,
        62.56686
      ],
      [
        -8.789133,
        37.064321,
        60.40896
      ],
      [
        -8.789246,
        37.064284,
        59.68935
      ],
      [
        -8.789428,
        37.064293,
        59.71802
      ],
      [
        -8.789986,
        37.064524,
        58.14078
      ],
      [
        -8.79043,
        37.064868,
        53.07334
      ],
      [
        -8.790947,
        37.06501,
        46.52041
      ],
      [
        -8.791853,
        37.065208,
        35.31527
      ],
      [
        -8.792026,
        37.065125,
        29.96608
      ],
      [
        -8.792112,
        37.064994,
        25.60524
      ],
      [
        -8.792291,
        37.065249,
        26.62773
      ],
      [
        -8.792614,
        37.065537,
        28.77452
      ],
      [
        -8.792908,
        37.065681,
        28.19775
      ],
      [
        -8.793606,
        37.065935,
        24.96525
      ],
      [
        -8.793778,
        37.065954,
        23.67982
      ],
      [
        -8.794019,
        37.065915,
        20.78226
      ],
      [
        -8.794315,
        37.065957,
        18.14524
      ],
      [
        -8.794542,
        37.065786,
        12.61433
      ],
      [
        -8.794955,
        37.065922,
        10.11453
      ],
      [
        -8.795021,
        37.066026,
        10.92552
      ],
      [
        -8.795276,
        37.066104,
        11.87655
      ],
      [
        -8.795368,
        37.066114,
        12.407
      ],
      [
        -8.795452,
        37.066054,
        12.39362
      ],
      [
        -8.795582,
        37.066088,
        13.70119
      ],
      [
        -8.795632,
        37.066047,
        13.73586
      ],
      [
        -8.795768,
        37.066098,
        15.42404
      ],
      [
        -8.795881,
        37.066054,
        15.97727
      ],
      [
        -8.796092,
        37.066086,
        19.07297
      ],
      [
        -8.796206,
        37.066039,
        20.02085
      ],
      [
        -8.796352,
        37.066049,
        22.2588
      ],
      [
        -8.796874,
        37.066239,
        30.694
      ],
      [
        -8.797005,
        37.066321,
        32.94
      ],
      [
        -8.79714,
        37.066311,
        32.44326
      ],
      [
        -8.79733,
        37.066355,
        33.37458
      ],
      [
        -8.797575,
        37.0665,
        37.39978
      ],
      [
        -8.797767,
        37.066469,
        36.36093
      ],
      [
        -8.798099,
        37.066558,
        37.79086
      ],
      [
        -8.798347,
        37.066537,
        36.8394
      ],
      [
        -8.798502,
        37.06656,
        37.15129
      ],
      [
        -8.798616,
        37.066727,
        39.01527
      ],
      [
        -8.798736,
        37.066829,
        38.67017
      ],
      [
        -8.798754,
        37.06694,
        37.52333
      ],
      [
        -8.79879,
        37.066988,
        36.76353
      ],
      [
        -8.799091,
        37.067035,
        35.6693
      ],
      [
        -8.799305,
        37.066994,
        36.36635
      ],
      [
        -8.799444,
        37.06689,
        37.61314
      ],
      [
        -8.799434,
        37.066649,
        37.56524
      ],
      [
        -8.799593,
        37.066551,
        35.92346
      ],
      [
        -8.799638,
        37.066462,
        33.88585
      ],
      [
        -8.799724,
        37.066416,
        32.62653
      ],
      [
        -8.800373,
        37.066445,
        30.41234
      ],
      [
        -8.800953,
        37.066594,
        31.90208
      ],
      [
        -8.801274,
        37.066637,
        33.1485
      ],
      [
        -8.801402,
        37.066708,
        35.45198
      ],
      [
        -8.801652,
        37.066769,
        38.19085
      ],
      [
        -8.801865,
        37.066881,
        43.08445
      ],
      [
        -8.802376,
        37.066988,
        50.00146
      ],
      [
        -8.802617,
        37.066999,
        51.66612
      ],
      [
        -8.802936,
        37.066958,
        51.93011
      ],
      [
        -8.803106,
        37.066992,
        53.70322
      ],
      [
        -8.803538,
        37.06696,
        53.05571
      ],
      [
        -8.803806,
        37.066837,
        47.74419
      ],
      [
        -8.803993,
        37.066811,
        46.13854
      ],
      [
        -8.804162,
        37.066918,
        49.94203
      ],
      [
        -8.804438,
        37.066905,
        50.01101
      ],
      [
        -8.804652,
        37.066814,
        47.46296
      ],
      [
        -8.8047,
        37.066736,
        44.85316
      ],
      [
        -8.804787,
        37.066694,
        43.6679
      ],
      [
        -8.805405,
        37.06666,
        42.10632
      ],
      [
        -8.806527,
        37.066361,
        23.95446
      ],
      [
        -8.806553,
        37.066315,
        22.39592
      ],
      [
        -8.806648,
        37.066295,
        20.95404
      ],
      [
        -8.806701,
        37.066262,
        19.59619
      ],
      [
        -8.806948,
        37.066253,
        16.60176
      ],
      [
        -8.80723,
        37.066313,
        13.17626
      ],
      [
        -8.807264,
        37.066385,
        12.99789
      ],
      [
        -8.80734,
        37.066413,
        11.74662
      ],
      [
        -8.807466,
        37.066657,
        10.5394
      ],
      [
        -8.80743,
        37.066702,
        11.64573
      ],
      [
        -8.807453,
        37.066872,
        12.98292
      ],
      [
        -8.807423,
        37.066986,
        15.02956
      ],
      [
        -8.807507,
        37.067145,
        15.93604
      ],
      [
        -8.807588,
        37.067129,
        14.40987
      ],
      [
        -8.807659,
        37.067053,
        12.05172
      ],
      [
        -8.807658,
        37.066642,
        7.03369
      ],
      [
        -8.80776,
        37.06655,
        4.93856
      ],
      [
        -8.808435,
        37.066635,
        -1.63333
      ],
      [
        -8.808662,
        37.066625,
        -1.53535
      ],
      [
        -8.809705,
        37.066349,
        3.10092
      ],
      [
        -8.810029,
        37.066229,
        3.79417
      ],
      [
        -8.810405,
        37.06601,
        5.30698
      ],
      [
        -8.810835,
        37.06591,
        9.24473
      ],
      [
        -8.811401,
        37.065677,
        11.34614
      ],
      [
        -8.81157,
        37.065665,
        11.95724
      ],
      [
        -8.811653,
        37.065602,
        11.41593
      ],
      [
        -8.811973,
        37.065579,
        11.8352
      ],
      [
        -8.812255,
        37.065635,
        13.37007
      ],
      [
        -8.812338,
        37.065623,
        13.46701
      ],
      [
        -8.812638,
        37.065725,
        17.60538
      ],
      [
        -8.812778,
        37.065823,
        21.43286
      ],
      [
        -8.813036,
        37.065883,
        26.83467
      ],
      [
        -8.8133,
        37.065924,
        31.03197
      ],
      [
        -8.813493,
        37.065877,
        30.7042
      ],
      [
        -8.813706,
        37.065895,
        31.27872
      ],
      [
        -8.813752,
        37.065928,
        32.14584
      ],
      [
        -8.813835,
        37.066376,
        45.94917
      ],
      [
        -8.814123,
        37.066826,
        56.02331
      ],
      [
        -8.814165,
        37.067019,
        58.9289
      ],
      [
        -8.81443,
        37.06711,
        59.64286
      ],
      [
        -8.814692,
        37.067302,
        60.79746
      ],
      [
        -8.815423,
        37.067682,
        63.08409
      ],
      [
        -8.816103,
        37.067827,
        65.83058
      ],
      [
        -8.816217,
        37.067902,
        66.92814
      ],
      [
        -8.816894,
        37.069085,
        73.57891
      ],
      [
        -8.816899,
        37.069168,
        73.08051
      ],
      [
        -8.816794,
        37.069312,
        72.10832
      ],
      [
        -8.817136,
        37.069322,
        69.94496
      ],
      [
        -8.817187,
        37.069368,
        68.87521
      ],
      [
        -8.817293,
        37.069769,
        61.67293
      ],
      [
        -8.817329,
        37.0698,
        60.98259
      ],
      [
        -8.817387,
        37.069787,
        60.6499
      ],
      [
        -8.817934,
        37.069499,
        56.58747
      ],
      [
        -8.819033,
        37.069038,
        42.75181
      ],
      [
        -8.819749,
        37.068671,
        38.57113
      ],
      [
        -8.820842,
        37.067632,
        38.51058
      ],
      [
        -8.821592,
        37.067013,
        28.82758
      ],
      [
        -8.822096,
        37.066795,
        21.65446
      ],
      [
        -8.822032,
        37.066681,
        22.20347
      ],
      [
        -8.822532,
        37.066209,
        13.38284
      ],
      [
        -8.822553,
        37.066138,
        12.70141
      ],
      [
        -8.822784,
        37.065989,
        10.94289
      ],
      [
        -8.822974,
        37.065937,
        10.31133
      ],
      [
        -8.822935,
        37.065873,
        9.73576
      ],
      [
        -8.822853,
        37.065789,
        8.98464
      ],
      [
        -8.822851,
        37.06571,
        8.1328
      ],
      [
        -8.824039,
        37.06552,
        5.24473
      ]
    ]
  }
}
