{
  "type": "Feature",
  "properties": {
    "id": "intervals-178055392",
    "activity": "walking",
    "name": "Ko Samui Walking",
    "date": "2024-07-01T06:03:11Z",
    "distanceKm": 7.58,
    "movingTimeSeconds": 4929,
    "elapsedTimeSeconds": 4937,
    "ascentM": null,
    "descentM": null
  },
  "geometry": {
    "type": "LineString",
    "coordinates": [
      [
        100.047347266227,
        9.472554149106145
      ],
      [
        100.047347266227,
        9.472554149106145
      ],
      [
        100.04740359261632,
        9.472661186009645
      ],
      [
        100.0473990663886,
        9.472688427194953
      ],
      [
        100.04740057513118,
        9.472734862938523
      ],
      [
        100.047378949821,
        9.47274106554687
      ],
      [
        100.04742848686874,
        9.472782807424664
      ],
      [
        100.04744181409478,
        9.472840139642358
      ],
      [
        100.04746067337692,
        9.472888000309467
      ],
      [
        100.04747089929879,
        9.472909374162555
      ],
      [
        100.04754566587508,
        9.473054884001613
      ],
      [
        100.04758606664836,
        9.473141133785248
      ],
      [
        100.04761280491948,
        9.473181702196598
      ],
      [
        100.04763090983033,
        9.473251355811954
      ],
      [
        100.04765521734953,
        9.47329225949943
      ],
      [
        100.04767030477524,
        9.473357051610947
      ],
      [
        100.04767424426973,
        9.473367528989911
      ],
      [
        100.04767625592649,
        9.473429890349507
      ],
      [
        100.04767952486873,
        9.473445732146502
      ],
      [
        100.04770022816956,
        9.47349015623331
      ],
      [
        100.04772822372615,
        9.47353164665401
      ],
      [
        100.0477933511138,
        9.473655531182885
      ],
      [
        100.04776954650879,
        9.473688723519444
      ],
      [
        100.04769888706505,
        9.473718395456672
      ],
      [
        100.04761540330946,
        9.473761562258005
      ],
      [
        100.04755765199661,
        9.473794586956501
      ],
      [
        100.04749369807541,
        9.47383414953947
      ],
      [
        100.04736729897559,
        9.473892990499735
      ],
      [
        100.04735531285405,
        9.473911514505744
      ],
      [
        100.04733092151582,
        9.47392844595015
      ],
      [
        100.04716579802334,
        9.474015785381198
      ],
      [
        100.04700084216893,
        9.47409600019455
      ],
      [
        100.04687502980232,
        9.474135395139456
      ],
      [
        100.04679313860834,
        9.474186776205897
      ],
      [
        100.04675961099565,
        9.474208652973175
      ],
      [
        100.04674184136093,
        9.474216867238283
      ],
      [
        100.04669582471251,
        9.474236480891705
      ],
      [
        100.04667361266911,
        9.474244946613908
      ],
      [
        100.04648795351386,
        9.474297584965825
      ],
      [
        100.04645878449082,
        9.474299512803555
      ],
      [
        100.04639809951186,
        9.474317282438278
      ],
      [
        100.0462248455733,
        9.47439942508936
      ],
      [
        100.04612501710653,
        9.47443613782525
      ],
      [
        100.0460855383426,
        9.47445759549737
      ],
      [
        100.04605301655829,
        9.474463211372495
      ],
      [
        100.04599031992257,
        9.47448936291039
      ],
      [
        100.04597581923008,
        9.474502690136433
      ],
      [
        100.04593533463776,
        9.474540576338768
      ],
      [
        100.04578303545713,
        9.474653899669647
      ],
      [
        100.0457208417356,
        9.474668568000197
      ],
      [
        100.04553895443678,
        9.474743083119392
      ],
      [
        100.0453495234251,
        9.474774431437254
      ],
      [
        100.04523737356067,
        9.474813658744097
      ],
      [
        100.04506353288889,
        9.474884737282991
      ],
      [
        100.04487980157137,
        9.47490124963224
      ],
      [
        100.04468601197004,
        9.474903009831905
      ],
      [
        100.04457453265786,
        9.474971489980817
      ],
      [
        100.044508818537,
        9.475009376183152
      ],
      [
        100.04437227733433,
        9.475128063932061
      ],
      [
        100.0442289467901,
        9.475252702832222
      ],
      [
        100.0441221613437,
        9.47524675168097
      ],
      [
        100.04393566399813,
        9.475236861035228
      ],
      [
        100.04388839006424,
        9.47522864677012
      ],
      [
        100.04382225684822,
        9.475216576829553
      ],
      [
        100.04380457103252,
        9.475215319544077
      ],
      [
        100.04361036233604,
        9.475172571837902
      ],
      [
        100.0435798522085,
        9.475176930427551
      ],
      [
        100.0433951150626,
        9.4751812890172
      ],
      [
        100.04322580061853,
        9.475245410576463
      ],
      [
        100.04321289248765,
        9.475246416404843
      ],
      [
        100.04313175566494,
        9.475271226838231
      ],
      [
        100.04308842122555,
        9.475290002301335
      ],
      [
        100.04301700741053,
        9.475323697552085
      ],
      [
        100.04298255778849,
        9.47534247301519
      ],
      [
        100.04286504350603,
        9.475395195186138
      ],
      [
        100.04269069992006,
        9.475468788295984
      ],
      [
        100.04268072545528,
        9.47547297924757
      ],
      [
        100.04266832023859,
        9.475469710305333
      ],
      [
        100.04264133051038,
        9.475485887378454
      ],
      [
        100.04257678985596,
        9.475510446354747
      ],
      [
        100.04259481094778,
        9.475598121061921
      ],
      [
        100.0425845850259,
        9.475655872374773
      ],
      [
        100.0425158534199,
        9.475711360573769
      ],
      [
        100.04249255172908,
        9.47573441080749
      ],
      [
        100.04247863776982,
        9.47575586847961
      ],
      [
        100.04242717288435,
        9.475851254537702
      ],
      [
        100.04235550761223,
        9.475947981700301
      ],
      [
        100.04224780015647,
        9.476070357486606
      ],
      [
        100.04217663779855,
        9.476126683875918
      ],
      [
        100.04214000888169,
        9.476141184568405
      ],
      [
        100.04205987788737,
        9.476186027750373
      ],
      [
        100.04200338385999,
        9.476234139874578
      ],
      [
        100.04197119735181,
        9.476267248392105
      ],
      [
        100.04187430255115,
        9.47634126059711
      ],
      [
        100.0418059900403,
        9.476398089900613
      ],
      [
        100.04163776524365,
        9.476490709930658
      ],
      [
        100.04146073944867,
        9.476532451808453
      ],
      [
        100.0412998907268,
        9.476510910317302
      ],
      [
        100.04111800342798,
        9.47653429582715
      ],
      [
        100.04102890379727,
        9.476571762934327
      ],
      [
        100.04100769758224,
        9.476583413779736
      ],
      [
        100.04099830985069,
        9.476590873673558
      ],
      [
        100.0409579090774,
        9.476619372144341
      ],
      [
        100.04079169593751,
        9.476663963869214
      ],
      [
        100.04078390076756,
        9.476659102365375
      ],
      [
        100.04076831042767,
        9.476616187021136
      ],
      [
        100.04077124409378,
        9.476601937785745
      ],
      [
        100.04078624770045,
        9.476513424888253
      ],
      [
        100.04079161211848,
        9.476482244208455
      ],
      [
        100.04077359102666,
        9.476295160129666
      ],
      [
        100.04077082499862,
        9.476173957809806
      ],
      [
        100.04075506702065,
        9.475989639759064
      ],
      [
        100.04077409394085,
        9.47584630921483
      ],
      [
        100.04075934179127,
        9.475664924830198
      ],
      [
        100.04076713696122,
        9.475480103865266
      ],
      [
        100.04075716249645,
        9.475392177700996
      ],
      [
        100.04071810282767,
        9.475205428898335
      ],
      [
        100.04070611670613,
        9.475189754739404
      ],
      [
        100.04066345281899,
        9.475016752257943
      ],
      [
        100.04062254913151,
        9.474878534674644
      ],
      [
        100.04059170372784,
        9.474824387580156
      ],
      [
        100.04058717750013,
        9.474696898832917
      ],
      [
        100.0405783765018,
        9.474675189703703
      ],
      [
        100.04050964489579,
        9.47465742006898
      ],
      [
        100.04049288108945,
        9.474661191925406
      ],
      [
        100.0403917953372,
        9.474678374826908
      ],
      [
        100.04027855582535,
        9.4747116509825
      ],
      [
        100.04008904099464,
        9.47470972314477
      ],
      [
        100.03989332355559,
        9.474710896611214
      ],
      [
        100.03984672017395,
        9.474714500829577
      ],
      [
        100.0397323910147,
        9.474727241322398
      ],
      [
        100.03966902382672,
        9.474736293777823
      ],
      [
        100.03963574767113,
        9.474741239100695
      ],
      [
        100.0394488312304,
        9.474775101989508
      ],
      [
        100.03937565721571,
        9.474779209122062
      ],
      [
        100.03931497223675,
        9.474739227443933
      ],
      [
        100.0391295645386,
        9.474720535799861
      ],
      [
        100.03898883238435,
        9.474693713709712
      ],
      [
        100.03893217071891,
        9.474678793922067
      ],
      [
        100.03888573497534,
        9.47466772980988
      ],
      [
        100.03881239332259,
        9.474681308493018
      ],
      [
        100.03862639889121,
        9.474727911874652
      ],
      [
        100.03858507610857,
        9.474731516093016
      ],
      [
        100.03851785324514,
        9.47473956272006
      ],
      [
        100.03832230344415,
        9.474754482507706
      ],
      [
        100.03826228901744,
        9.474759176373482
      ],
      [
        100.03823529928923,
        9.474763618782163
      ],
      [
        100.03808559849858,
        9.474768228828907
      ],
      [
        100.03807151690125,
        9.474773425608873
      ],
      [
        100.03796213306487,
        9.47478549554944
      ],
      [
        100.03787219524384,
        9.474792703986168
      ],
      [
        100.03785476088524,
        9.474795050919056
      ],
      [
        100.03783732652664,
        9.474798319861293
      ],
      [
        100.03779516555369,
        9.474812485277653
      ],
      [
        100.03778007812798,
        9.474812401458621
      ],
      [
        100.03776524215937,
        9.474814413115382
      ],
      [
        100.03773498348892,
        9.474814413115382
      ],
      [
        100.03771570511162,
        9.474816005676985
      ],
      [
        100.03766474314034,
        9.474818939343095
      ],
      [
        100.03756935708225,
        9.474857496097684
      ],
      [
        100.03746634349227,
        9.47489102371037
      ],
      [
        100.03745008260012,
        9.47489588521421
      ],
      [
        100.03743398934603,
        9.47489881888032
      ],
      [
        100.03740507178009,
        9.474902087822556
      ],
      [
        100.03730004653335,
        9.474927736446261
      ],
      [
        100.03724372014403,
        9.474944081157446
      ],
      [
        100.03718052059412,
        9.474950870499015
      ],
      [
        100.03709745593369,
        9.47500828653574
      ],
      [
        100.03704850561917,
        9.475029241293669
      ],
      [
        100.03703341819346,
        9.475029492750764
      ],
      [
        100.03685278818011,
        9.475062768906355
      ],
      [
        100.03683828748763,
        9.475067546591163
      ],
      [
        100.03677525557578,
        9.475074084475636
      ],
      [
        100.03671607933939,
        9.475089171901345
      ],
      [
        100.03668649122119,
        9.475102415308356
      ],
      [
        100.03665975295007,
        9.475111048668623
      ],
      [
        100.03648800775409,
        9.475190928205848
      ],
      [
        100.03630427643657,
        9.475238621234894
      ],
      [
        100.03624300472438,
        9.47525354102254
      ],
      [
        100.03616262227297,
        9.475266700610518
      ],
      [
        100.0360242370516,
        9.475286398082972
      ],
      [
        100.0359016098082,
        9.475334510207176
      ],
      [
        100.03583069890738,
        9.475362924858928
      ],
      [
        100.03577328287065,
        9.475382454693317
      ],
      [
        100.03563825041056,
        9.475412210449576
      ],
      [
        100.03558678552508,
        9.475422771647573
      ],
      [
        100.0355720333755,
        9.475389160215855
      ],
      [
        100.03556767478585,
        9.475361164659262
      ],
      [
        100.03558862954378,
        9.475252954289317
      ],
      [
        100.03547849133611,
        9.475227640941739
      ],
      [
        100.0354324746877,
        9.47524775750935
      ],
      [
        100.03540917299688,
        9.47526192292571
      ],
      [
        100.03524765372276,
        9.475375162437558
      ],
      [
        100.03519635647535,
        9.475414641201496
      ],
      [
        100.03506853245199,
        9.47553207166493
      ],
      [
        100.03505679778755,
        9.47554087266326
      ],
      [
        100.03504414111376,
        9.47554875165224
      ],
      [
        100.03499493934214,
        9.475586889311671
      ],
      [
        100.0348883215338,
        9.47566987015307
      ],
      [
        100.03483761101961,
        9.475722592324018
      ],
      [
        100.0347984675318,
        9.47576617822051
      ],
      [
        100.03476929850876,
        9.475804567337036
      ],
      [
        100.03473895601928,
        9.475863156840205
      ],
      [
        100.03460769541562,
        9.476003302261233
      ],
      [
        100.03450719639659,
        9.476100699976087
      ],
      [
        100.03442781977355,
        9.476154930889606
      ],
      [
        100.03436570987105,
        9.476208742707968
      ],
      [
        100.03421760164201,
        9.476327765733004
      ],
      [
        100.03416119143367,
        9.476376548409462
      ],
      [
        100.0341404043138,
        9.47639163583517
      ],
      [
        100.03411207348108,
        9.476409237831831
      ],
      [
        100.03401911817491,
        9.476486099883914
      ],
      [
        100.03388215787709,
        9.476623563095927
      ],
      [
        100.03372566774487,
        9.476746441796422
      ],
      [
        100.03360094502568,
        9.476890778169036
      ],
      [
        100.03346792422235,
        9.477017847821116
      ],
      [
        100.0333494041115,
        9.47716603986919
      ],
      [
        100.03334211185575,
        9.47717391885817
      ],
      [
        100.03329634666443,
        9.477215325459838
      ],
      [
        100.03315511159599,
        9.477338204160333
      ],
      [
        100.0330940913409,
        9.477412132546306
      ],
      [
        100.0330851227045,
        9.477422693744302
      ],
      [
        100.03298722207546,
        9.477582955732942
      ],
      [
        100.03284062258899,
        9.477702314034104
      ],
      [
        100.03277180716395,
        9.47774120606482
      ],
      [
        100.03275319933891,
        9.477775990962982
      ],
      [
        100.03273551352322,
        9.477795520797372
      ],
      [
        100.0326294824481,
        9.477943712845445
      ],
      [
        100.0325226970017,
        9.478006912395358
      ],
      [
        100.03246469423175,
        9.478050665929914
      ],
      [
        100.03243032842875,
        9.478066340088844
      ],
      [
        100.03234935924411,
        9.47812576778233
      ],
      [
        100.03220812417567,
        9.47824395261705
      ],
      [
        100.03216613084078,
        9.478285191580653
      ],
      [
        100.0321474391967,
        9.478306230157614
      ],
      [
        100.03204945474863,
        9.478464312851429
      ],
      [
        100.03199346363544,
        9.47857528924942
      ],
      [
        100.03190738148987,
        9.478697329759598
      ],
      [
        100.03188936039805,
        9.47875902056694
      ],
      [
        100.03186907619238,
        9.478826494887471
      ],
      [
        100.03184552304447,
        9.47894275188446
      ],
      [
        100.03183705732226,
        9.478979213163257
      ],
      [
        100.03173898905516,
        9.47914307937026
      ],
      [
        100.03166598267853,
        9.479316249489784
      ],
      [
        100.0315969157964,
        9.479484306648374
      ],
      [
        100.03155928105116,
        9.479632079601288
      ],
      [
        100.03154813311994,
        9.479672899469733
      ],
      [
        100.03154444508255,
        9.479692177847028
      ],
      [
        100.03154084086418,
        9.479746324941516
      ],
      [
        100.0315263401717,
        9.479786725714803
      ],
      [
        100.03153069876134,
        9.479802651330829
      ],
      [
        100.03153572790325,
        9.479816313832998
      ],
      [
        100.03153078258038,
        9.479856127873063
      ],
      [
        100.0315189640969,
        9.479894014075398
      ],
      [
        100.03150270320475,
        9.47992879897356
      ],
      [
        100.0315020326525,
        9.47997028939426
      ],
      [
        100.03150613978505,
        9.480000380426645
      ],
      [
        100.03147713840008,
        9.480070285499096
      ],
      [
        100.03137898631394,
        9.480228703469038
      ],
      [
        100.03130790777504,
        9.480412350967526
      ],
      [
        100.03121981397271,
        9.480572864413261
      ],
      [
        100.03121595829725,
        9.48058401234448
      ],
      [
        100.03115309402347,
        9.480756344273686
      ],
      [
        100.03114898689091,
        9.480819460004568
      ],
      [
        100.03115351311862,
        9.480868494138122
      ],
      [
        100.03115862607956,
        9.48088701814413
      ],
      [
        100.03115267492831,
        9.48093680664897
      ],
      [
        100.0311323069036,
        9.481024062260985
      ],
      [
        100.03108637407422,
        9.481141408905387
      ],
      [
        100.03098436631262,
        9.481286834925413
      ],
      [
        100.0309473183006,
        9.481353471055627
      ],
      [
        100.0309282913804,
        9.481382137164474
      ],
      [
        100.03089870326221,
        9.481412647292018
      ],
      [
        100.03085461445153,
        9.481467297300696
      ],
      [
        100.03082511015236,
        9.481496214866638
      ],
      [
        100.030686724931,
        9.481623703613877
      ],
      [
        100.03063475713134,
        9.481684807687998
      ],
      [
        100.03050793893635,
        9.481802824884653
      ],
      [
        100.03047734498978,
        9.4818383641541
      ],
      [
        100.03042755648494,
        9.481893265619874
      ],
      [
        100.03039285540581,
        9.48192486539483
      ],
      [
        100.03038053400815,
        9.481936935335398
      ],
      [
        100.03037374466658,
        9.481945233419538
      ],
      [
        100.03026670776308,
        9.482094598934054
      ],
      [
        100.03024768084288,
        9.48211731389165
      ],
      [
        100.03019210882485,
        9.482167940586805
      ],
      [
        100.03014064393938,
        9.482205491513014
      ],
      [
        100.02997040748596,
        9.482303727418184
      ],
      [
        100.0298870075494,
        9.482356533408165
      ],
      [
        100.02973973751068,
        9.482473880052567
      ],
      [
        100.02957151271403,
        9.48256398551166
      ],
      [
        100.02945181913674,
        9.482607571408153
      ],
      [
        100.02930547110736,
        9.482728689908981
      ],
      [
        100.02926180139184,
        9.482794152572751
      ],
      [
        100.0291065685451,
        9.48289037682116
      ],
      [
        100.02899995073676,
        9.48295684531331
      ],
      [
        100.02896416001022,
        9.482995988801122
      ],
      [
        100.02892669290304,
        9.483021134510636
      ],
      [
        100.0288629066199,
        9.483055919408798
      ],
      [
        100.02882820554078,
        9.483081316575408
      ],
      [
        100.02881806343794,
        9.483094979077578
      ],
      [
        100.02878906205297,
        9.48312540538609
      ],
      [
        100.02876861020923,
        9.48314493522048
      ],
      [
        100.02873432822526,
        9.483160441741347
      ],
      [
        100.02869677729905,
        9.48318600654602
      ],
      [
        100.02866140566766,
        9.483204949647188
      ],
      [
        100.0285129621625,
        9.483329588547349
      ],
      [
        100.02844389528036,
        9.483362780883908
      ],
      [
        100.02835638821125,
        9.483398906886578
      ],
      [
        100.02819411456585,
        9.483501920476556
      ],
      [
        100.0280962139368,
        9.483545338734984
      ],
      [
        100.02799236215651,
        9.483602168038487
      ],
      [
        100.02782430499792,
        9.483704762533307
      ],
      [
        100.02780041657388,
        9.483710210770369
      ],
      [
        100.02762598916888,
        9.48377039283514
      ],
      [
        100.02745131030679,
        9.483823701739311
      ],
      [
        100.02726489678025,
        9.483815068379045
      ],
      [
        100.02707462757826,
        9.483794951811433
      ],
      [
        100.02688980661333,
        9.483780283480883
      ],
      [
        100.02678687684238,
        9.48381976224482
      ],
      [
        100.02674857154489,
        9.483826886862516
      ],
      [
        100.02657464705408,
        9.483908358961344
      ],
      [
        100.02640591934323,
        9.483998715877533
      ],
      [
        100.0263455696404,
        9.484026124700904
      ],
      [
        100.02626569010317,
        9.48407482355833
      ],
      [
        100.02623417414725,
        9.484079349786043
      ],
      [
        100.02620743587613,
        9.48407281190157
      ],
      [
        100.02614951692522,
        9.48405722156167
      ],
      [
        100.02613987773657,
        9.484052192419767
      ],
      [
        100.02601976506412,
        9.48396191932261
      ],
      [
        100.02600803039968,
        9.483954375609756
      ],
      [
        100.02593309618533,
        9.48390626348555
      ],
      [
        100.02589395269752,
        9.483866449445486
      ],
      [
        100.02585950307548,
        9.48384172283113
      ],
      [
        100.02581574954093,
        9.4837879948318
      ],
      [
        100.02577467821538,
        9.483761508017778
      ],
      [
        100.02576269209385,
        9.48374055325985
      ],
      [
        100.02569270320237,
        9.483592445030808
      ],
      [
        100.02564182505012,
        9.483510637655854
      ],
      [
        100.02562623471022,
        9.483489012345672
      ],
      [
        100.02558717504144,
        9.483422627672553
      ],
      [
        100.02557552419603,
        9.483338976278901
      ],
      [
        100.02553629688919,
        9.483167231082916
      ],
      [
        100.02545641735196,
        9.483002442866564
      ],
      [
        100.02542624250054,
        9.482955252751708
      ],
      [
        100.02541559748352,
        9.482924323529005
      ],
      [
        100.02531015314162,
        9.482771521434188
      ],
      [
        100.02530344761908,
        9.482737574726343
      ],
      [
        100.02529975958169,
        9.482725001871586
      ],
      [
        100.02528961747885,
        9.48271687142551
      ],
      [
        100.02528031356633,
        9.48268267326057
      ],
      [
        100.02527075819671,
        9.482660042122006
      ],
      [
        100.0252606999129,
        9.482651073485613
      ],
      [
        100.02523723058403,
        9.482634477317333
      ],
      [
        100.02505299635231,
        9.482657024636865
      ],
      [
        100.02499775961041,
        9.48267093859613
      ],
      [
        100.02494755201042,
        9.482687953859568
      ],
      [
        100.0248018745333,
        9.482766073197126
      ],
      [
        100.02468863502145,
        9.482861291617155
      ],
      [
        100.02458930946887,
        9.48290110565722
      ],
      [
        100.02457832917571,
        9.482910661026835
      ],
      [
        100.0244958512485,
        9.482983332127333
      ],
      [
        100.02446777187288,
        9.48299590498209
      ],
      [
        100.0244509242475,
        9.482996575534344
      ],
      [
        100.02442007884383,
        9.483005460351706
      ],
      [
        100.02437984570861,
        9.483009651303291
      ],
      [
        100.02435662783682,
        9.483006885275245
      ],
      [
        100.02433056011796,
        9.483021972700953
      ],
      [
        100.02423567697406,
        9.483102187514305
      ],
      [
        100.02409477718174,
        9.483215846121311
      ],
      [
        100.02408061176538,
        9.483236633241177
      ],
      [
        100.0240571424365,
        9.483254738152027
      ],
      [
        100.02402881160378,
        9.483265383169055
      ],
      [
        100.02392563037574,
        9.483311651274562
      ],
      [
        100.02385455183685,
        9.483348112553358
      ],
      [
        100.02381565980613,
        9.483367307111621
      ],
      [
        100.02378607168794,
        9.483375437557697
      ],
      [
        100.02374508418143,
        9.483396476134658
      ],
      [
        100.02367098815739,
        9.483439475297928
      ],
      [
        100.02364969812334,
        9.483444336801767
      ],
      [
        100.02360535785556,
        9.483468728139997
      ],
      [
        100.02356437034905,
        9.483492113649845
      ],
      [
        100.02344811335206,
        9.483541650697589
      ],
      [
        100.02338952384889,
        9.483560007065535
      ],
      [
        100.02332255244255,
        9.483577609062195
      ],
      [
        100.02315944060683,
        9.483653968200088
      ],
      [
        100.02308928407729,
        9.483697218820453
      ],
      [
        100.02305433154106,
        9.48371222242713
      ],
      [
        100.02300278283656,
        9.483724040910602
      ],
      [
        100.02290613949299,
        9.483759915456176
      ],
      [
        100.02276180312037,
        9.483817499130964
      ],
      [
        100.02269458025694,
        9.483831664547324
      ],
      [
        100.0226860307157,
        9.483846751973033
      ],
      [
        100.02270924858749,
        9.483831580728292
      ],
      [
        100.02282835543156,
        9.483810625970364
      ],
      [
        100.02286280505359,
        9.483808698132634
      ],
      [
        100.02290647476912,
        9.483810039237142
      ],
      [
        100.02306589856744,
        9.483746504411101
      ],
      [
        100.02312482334673,
        9.483708702027798
      ],
      [
        100.02314737066627,
        9.483686154708266
      ],
      [
        100.02322029322386,
        9.483657069504261
      ],
      [
        100.02328634262085,
        9.483627481386065
      ],
      [
        100.02346730791032,
        9.483566377311945
      ],
      [
        100.02363947220147,
        9.4834703207016
      ],
      [
        100.02373544499278,
        9.483405444771051
      ],
      [
        100.02378590404987,
        9.483376946300268
      ],
      [
        100.02384223043919,
        9.483352471143007
      ],
      [
        100.02389126457274,
        9.483321458101273
      ],
      [
        100.02398363314569,
        9.483286337926984
      ],
      [
        100.0241107866168,
        9.483185419812799
      ],
      [
        100.02427339553833,
        9.483107384294271
      ],
      [
        100.02437883988023,
        9.483043681830168
      ],
      [
        100.02440390177071,
        9.483029348775744
      ],
      [
        100.02443441189826,
        9.483006969094276
      ],
      [
        100.02446617931128,
        9.482981069013476
      ],
      [
        100.02450037747622,
        9.482965059578419
      ],
      [
        100.02459148876369,
        9.482900770381093
      ],
      [
        100.02463834360242,
        9.482868080958724
      ],
      [
        100.02466952428222,
        9.482848551124334
      ],
      [
        100.0247358251363,
        9.482825249433517
      ],
      [
        100.02478829585016,
        9.482813095673919
      ],
      [
        100.02486758865416,
        9.482758194208145
      ],
      [
        100.02489021979272,
        9.48273648507893
      ],
      [
        100.0249187182635,
        9.482715278863907
      ],
      [
        100.02498669549823,
        9.482661634683609
      ],
      [
        100.02500312402844,
        9.482647636905313
      ],
      [
        100.02509582787752,
        9.482547556981444
      ],
      [
        100.02512625418603,
        9.482508078217506
      ],
      [
        100.02523035742342,
        9.48234312236309
      ],
      [
        100.02527796663344,
        9.482252011075616
      ],
      [
        100.02534745261073,
        9.482076577842236
      ],
      [
        100.02540134824812,
        9.481990579515696
      ],
      [
        100.02543445676565,
        9.48193408548832
      ],
      [
        100.02547552809119,
        9.481880525127053
      ],
      [
        100.02558507956564,
        9.481761250644922
      ],
      [
        100.02563143149018,
        9.481726633384824
      ],
      [
        100.02568490803242,
        9.481687238439918
      ],
      [
        100.02571650780737,
        9.481669887900352
      ],
      [
        100.02573193050921,
        9.481662679463625
      ],
      [
        100.02580476924777,
        9.481639210134745
      ],
      [
        100.02592806704342,
        9.48161699809134
      ],
      [
        100.02595304511487,
        9.48161263950169
      ],
      [
        100.02613912336528,
        9.48164725676179
      ],
      [
        100.0261920131743,
        9.481628146022558
      ],
      [
        100.02638421021402,
        9.481634264811873
      ],
      [
        100.02651547081769,
        9.481593109667301
      ],
      [
        100.02665528096259,
        9.481531251221895
      ],
      [
        100.02668034285307,
        9.481514738872647
      ],
      [
        100.02682811580598,
        9.481401750817895
      ],
      [
        100.02694705501199,
        9.481310471892357
      ],
      [
        100.02697605639696,
        9.481288846582174
      ],
      [
        100.02712659537792,
        9.481169739738107
      ],
      [
        100.02717512659729,
        9.481100672855973
      ],
      [
        100.02721787430346,
        9.481004532426596
      ],
      [
        100.02730320207775,
        9.480846198275685
      ],
      [
        100.02737947739661,
        9.4806607067585
      ],
      [
        100.0274212192744,
        9.480517627671361
      ],
      [
        100.02744778990746,
        9.480448728427291
      ],
      [
        100.0274714268744,
        9.48037731461227
      ],
      [
        100.02750696614385,
        9.480306822806597
      ],
      [
        100.02758793532848,
        9.480226021260023
      ],
      [
        100.0275956466794,
        9.480217890813947
      ],
      [
        100.02771785482764,
        9.480123678222299
      ],
      [
        100.02780913375318,
        9.480082858353853
      ],
      [
        100.02797601744533,
        9.479999458417296
      ],
      [
        100.02814717590809,
        9.47990532964468
      ],
      [
        100.02832101657987,
        9.479838190600276
      ],
      [
        100.02843911759555,
        9.479798544198275
      ],
      [
        100.02855026163161,
        9.479747917503119
      ],
      [
        100.0285991281271,
        9.479719754308462
      ],
      [
        100.02872343175113,
        9.479662925004959
      ],
      [
        100.02877070568502,
        9.479644987732172
      ],
      [
        100.02886961214244,
        9.479533173143864
      ],
      [
        100.02889559604228,
        9.479503249749541
      ],
      [
        100.02898980863392,
        9.479337707161903
      ],
      [
        100.0290219951421,
        9.47926176711917
      ],
      [
        100.02906113862991,
        9.479192700237036
      ],
      [
        100.02906884998083,
        9.479181300848722
      ],
      [
        100.02907807007432,
        9.479169817641377
      ],
      [
        100.02911277115345,
        9.47911525145173
      ],
      [
        100.02921779640019,
        9.478973932564259
      ],
      [
        100.02930153161287,
        9.478917019441724
      ],
      [
        100.0293277669698,
        9.4788889400661
      ],
      [
        100.0294469576329,
        9.478747369721532
      ],
      [
        100.02950454130769,
        9.47869598865509
      ],
      [
        100.02951686270535,
        9.478673860430717
      ],
      [
        100.02965189516544,
        9.478547209873796
      ],
      [
        100.02976412884891,
        9.47839004918933
      ],
      [
        100.02981039695442,
        9.478332214057446
      ],
      [
        100.02983596175909,
        9.47830363176763
      ],
      [
        100.02984249964356,
        9.47829089127481
      ],
      [
        100.02986521460116,
        9.47825082577765
      ],
      [
        100.02987527288496,
        9.47824445553124
      ],
      [
        100.0298870075494,
        9.478236744180322
      ],
      [
        100.02991676330566,
        9.478214951232076
      ],
      [
        100.0299858301878,
        9.478124594315886
      ],
      [
        100.030028661713,
        9.478074386715889
      ],
      [
        100.03007501363754,
        9.478021748363972
      ],
      [
        100.03010896034539,
        9.477993752807379
      ],
      [
        100.03022178076208,
        9.47788872756064
      ],
      [
        100.03032026812434,
        9.47774120606482
      ],
      [
        100.03032865002751,
        9.477724861353636
      ],
      [
        100.03038933500648,
        9.477649005129933
      ],
      [
        100.03041179850698,
        9.4776058383286
      ],
      [
        100.030522858724,
        9.477454964071512
      ],
      [
        100.03066325560212,
        9.477334599941969
      ],
      [
        100.03076140768826,
        9.477245165035129
      ],
      [
        100.03089400939643,
        9.477108204737306
      ],
      [
        100.03092544153333,
        9.47708448395133
      ],
      [
        100.03100733272731,
        9.477006364613771
      ],
      [
        100.03105762414634,
        9.476930340752006
      ],
      [
        100.03109936602414,
        9.476894130930305
      ],
      [
        100.03120665438473,
        9.476805282756686
      ],
      [
        100.03121939487755,
        9.476797068491578
      ],
      [
        100.03135928884149,
        9.476674105972052
      ],
      [
        100.03150781616569,
        9.476554663851857
      ],
      [
        100.03158995881677,
        9.476487440988421
      ],
      [
        100.03170889802277,
        9.47639750316739
      ],
      [
        100.03186371177435,
        9.476282419636846
      ],
      [
        100.032031936571,
        9.476213101297617
      ],
      [
        100.03208222799003,
        9.47615803219378
      ],
      [
        100.03222228959203,
        9.476030711084604
      ],
      [
        100.03225296735764,
        9.476016964763403
      ],
      [
        100.03237911500037,
        9.475925350561738
      ],
      [
        100.03239680081606,
        9.475917723029852
      ],
      [
        100.03255463205278,
        9.47580423206091
      ],
      [
        100.03262302838266,
        9.475776487961411
      ],
      [
        100.03279636614025,
        9.475691495463252
      ],
      [
        100.03295662812889,
        9.475622260943055
      ],
      [
        100.03298588097095,
        9.475610023364425
      ],
      [
        100.03303533419967,
        9.47557800449431
      ],
      [
        100.03304815851152,
        9.47556970641017
      ],
      [
        100.03308051265776,
        9.475548667833209
      ],
      [
        100.03316986374557,
        9.475489994511008
      ],
      [
        100.03326499834657,
        9.475454539060593
      ],
      [
        100.03345442935824,
        9.47540651075542
      ],
      [
        100.03362843766809,
        9.475338030606508
      ],
      [
        100.03378584980965,
        9.475243734195828
      ],
      [
        100.03379674628377,
        9.475234933197498
      ],
      [
        100.0338695012033,
        9.47519495151937
      ],
      [
        100.03397293388844,
        9.475135272368789
      ],
      [
        100.03400964662433,
        9.47513384744525
      ],
      [
        100.03417837433517,
        9.475064612925053
      ],
      [
        100.0343462638557,
        9.474962772801518
      ],
      [
        100.03437300212681,
        9.474941566586494
      ],
      [
        100.0344274006784,
        9.474907200783491
      ],
      [
        100.0345791131258,
        9.474797816947103
      ],
      [
        100.03459688276052,
        9.474781220778823
      ],
      [
        100.03474063239992,
        9.47487099096179
      ],
      [
        100.03476670011878,
        9.474902171641588
      ],
      [
        100.03481606952846,
        9.474999653175473
      ],
      [
        100.03489402122796,
        9.47509185411036
      ],
      [
        100.03491614945233,
        9.475211463868618
      ],
      [
        100.03502561710775,
        9.475303664803505
      ],
      [
        100.03520448692143,
        9.47531908750534
      ],
      [
        100.03536357544363,
        9.475206770002842
      ],
      [
        100.03538427874446,
        9.475188748911023
      ],
      [
        100.03540959209204,
        9.475195789709687
      ],
      [
        100.03543507307768,
        9.47523057460785
      ],
      [
        100.03544211387634,
        9.475243566557765
      ],
      [
        100.03544957377017,
        9.47527508251369
      ],
      [
        100.03549559041858,
        9.475432494655252
      ],
      [
        100.0355580355972,
        9.475429393351078
      ],
      [
        100.0355720333755,
        9.475425789132714
      ],
      [
        100.03567680716515,
        9.475390333682299
      ],
      [
        100.03571486100554,
        9.475383209064603
      ],
      [
        100.0357710197568,
        9.475361332297325
      ],
      [
        100.03583237528801,
        9.47533811442554
      ],
      [
        100.03599548712373,
        9.47531271725893
      ],
      [
        100.03604787401855,
        9.475306933745742
      ],
      [
        100.0362388137728,
        9.475277261808515
      ],
      [
        100.03625381737947,
        9.475268293172121
      ],
      [
        100.03630997613072,
        9.475253792479634
      ],
      [
        100.03633101470768,
        9.475245578214526
      ],
      [
        100.03636470995843,
        9.475231831893325
      ],
      [
        100.03640016540885,
        9.475222947075963
      ],
      [
        100.03655531443655,
        9.475162513554096
      ],
      [
        100.03673242405057,
        9.475114736706018
      ],
      [
        100.03678631968796,
        9.475094201043248
      ],
      [
        100.0369314942509,
        9.475026978179812
      ],
      [
        100.03701439127326,
        9.475005939602852
      ],
      [
        100.0371070113033,
        9.474994959309697
      ],
      [
        100.03714389167726,
        9.474974172189832
      ],
      [
        100.03723944537342,
        9.474960509687662
      ],
      [
        100.03728764131665,
        9.474943745881319
      ],
      [
        100.03734631463885,
        9.474962688982487
      ],
      [
        100.03746793605387,
        9.474944164976478
      ],
      [
        100.03757916390896,
        9.47488373145461
      ],
      [
        100.03760799765587,
        9.47488222271204
      ],
      [
        100.037772199139,
        9.474823297932744
      ],
      [
        100.03788317553699,
        9.474813072010875
      ],
      [
        100.0379151944071,
        9.474806366488338
      ],
      [
        100.03802541643381,
        9.474786333739758
      ],
      [
        100.03813555464149,
        9.474780214950442
      ],
      [
        100.03832364454865,
        9.474775856360793
      ],
      [
        100.03839799202979,
        9.474778957664967
      ],
      [
        100.03842062316835,
        9.474770408123732
      ],
      [
        100.0384955573827,
        9.474769402295351
      ],
      [
        100.03856470808387,
        9.474762445315719
      ],
      [
        100.03867241553962,
        9.47476395405829
      ],
      [
        100.03885949961841,
        9.47474392130971
      ],
      [
        100.03898145630956,
        9.474742412567139
      ],
      [
        100.03908874467015,
        9.474759008735418
      ],
      [
        100.03913400694728,
        9.474809300154448
      ],
      [
        100.03916166722775,
        9.474830841645598
      ],
      [
        100.03933433443308,
        9.474901920184493
      ],
      [
        100.03935252316296,
        9.474898986518383
      ],
      [
        100.03944975323975,
        9.47489446029067
      ],
      [
        100.03947179764509,
        9.474891778081656
      ],
      [
        100.03962233662605,
        9.474847940728068
      ],
      [
        100.03964924253523,
        9.474839475005865
      ],
      [
        100.03979885950685,
        9.474800331518054
      ],
      [
        100.03998049534857,
        9.474760433658957
      ],
      [
        100.04009666852653,
        9.474739646539092
      ],
      [
        100.04022558219731,
        9.47471952997148
      ],
      [
        100.04024687223136,
        9.474713075906038
      ],
      [
        100.04042951390147,
        9.474683571606874
      ],
      [
        100.0404745247215,
        9.474706454202533
      ],
      [
        100.04051987081766,
        9.474826566874981
      ],
      [
        100.04055163823068,
        9.47494718246162
      ],
      [
        100.0405646301806,
        9.47501951828599
      ],
      [
        100.0406090542674,
        9.475195705890656
      ],
      [
        100.04067317582667,
        9.475366277620196
      ],
      [
        100.04066890105605,
        9.475474152714014
      ],
      [
        100.04068164154887,
        9.475539866834879
      ],
      [
        100.04069002345204,
        9.475678335875273
      ],
      [
        100.04069295711815,
        9.475751258432865
      ],
      [
        100.04067711532116,
        9.475944712758064
      ],
      [
        100.04067560657859,
        9.475973546504974
      ],
      [
        100.04067359492183,
        9.475987628102303
      ],
      [
        100.04066990688443,
        9.476090893149376
      ],
      [
        100.04068046808243,
        9.476231206208467
      ],
      [
        100.04067074507475,
        9.476318713277578
      ],
      [
        100.04067803733051,
        9.47640965692699
      ],
      [
        100.04067460075021,
        9.476462630555034
      ],
      [
        100.04066345281899,
        9.476512335240841
      ],
      [
        100.04066831432283,
        9.476523818448186
      ],
      [
        100.04068499431014,
        9.476541001349688
      ],
      [
        100.0407197792083,
        9.476595902815461
      ],
      [
        100.04075179807842,
        9.476615013554692
      ],
      [
        100.04083402454853,
        9.476606799289584
      ],
      [
        100.04086847417057,
        9.476597160100937
      ],
      [
        100.04088163375854,
        9.476591628044844
      ],
      [
        100.04107056185603,
        9.476537061855197
      ],
      [
        100.04112336784601,
        9.476531697437167
      ],
      [
        100.04123560152948,
        9.476532367989421
      ],
      [
        100.04129737615585,
        9.476530440151691
      ],
      [
        100.04138421267271,
        9.476524405181408
      ],
      [
        100.04145202226937,
        9.476507054641843
      ],
      [
        100.04150658845901,
        9.476486770436168
      ],
      [
        100.04155830480158,
        9.476490542292595
      ],
      [
        100.04158881492913,
        9.476479478180408
      ],
      [
        100.04160851240158,
        9.476471850648522
      ],
      [
        100.04163449630141,
        9.476459110155702
      ],
      [
        100.04180565476418,
        9.476390210911632
      ],
      [
        100.04197597503662,
        9.476311840116978
      ],
      [
        100.04204705357552,
        9.476274456828833
      ],
      [
        100.04220647737384,
        9.476167252287269
      ],
      [
        100.04231770522892,
        9.47603833861649
      ],
      [
        100.04238467663527,
        9.475970026105642
      ],
      [
        100.04244443960488,
        9.475905820727348
      ],
      [
        100.04255726002157,
        9.475759053602815
      ],
      [
        100.04257645457983,
        9.475748408585787
      ],
      [
        100.04261752590537,
        9.475724268704653
      ],
      [
        100.04262758418918,
        9.47570071555674
      ],
      [
        100.04263814538717,
        9.475583117455244
      ],
      [
        100.04264208488166,
        9.475575406104326
      ],
      [
        100.04268189892173,
        9.47555998340249
      ],
      [
        100.04271785728633,
        9.475542549043894
      ],
      [
        100.04276278428733,
        9.47550181299448
      ],
      [
        100.04292480647564,
        9.475415647029877
      ],
      [
        100.04302337765694,
        9.475365690886974
      ],
      [
        100.0430906843394,
        9.475327720865607
      ],
      [
        100.04310015588999,
        9.4753229431808
      ],
      [
        100.04327139817178,
        9.47525362484157
      ],
      [
        100.04344867542386,
        9.47519050911069
      ],
      [
        100.0435021519661,
        9.475177600979805
      ],
      [
        100.04353065043688,
        9.47517299093306
      ],
      [
        100.04357582889497,
        9.47516955435276
      ],
      [
        100.04369099624455,
        9.475155053660274
      ],
      [
        100.04375620745122,
        9.475160585716367
      ],
      [
        100.04378135316074,
        9.475155640393496
      ],
      [
        100.04388956353068,
        9.47517248801887
      ],
      [
        100.04394421353936,
        9.475178187713027
      ],
      [
        100.0441250950098,
        9.47522185742855
      ],
      [
        100.04429667256773,
        9.475215571001172
      ],
      [
        100.044397842139,
        9.475141139701009
      ],
      [
        100.04448174498975,
        9.475137116387486
      ],
      [
        100.04451803863049,
        9.47508154436946
      ],
      [
        100.04454368725419,
        9.475049190223217
      ],
      [
        100.04466497339308,
        9.474928574636579
      ],
      [
        100.04475516267121,
        9.474915498867631
      ],
      [
        100.04493822343647,
        9.474910637363791
      ],
      [
        100.04511541686952,
        9.474891861900687
      ],
      [
        100.04516252316535,
        9.474869230762124
      ],
      [
        100.04523309879005,
        9.474854730069637
      ],
      [
        100.04538179375231,
        9.474805695936084
      ],
      [
        100.04539721645415,
        9.474801504984498
      ],
      [
        100.04548497498035,
        9.47475766763091
      ],
      [
        100.04556812345982,
        9.4747150875628
      ],
      [
        100.04562629386783,
        9.474680805578828
      ],
      [
        100.04565772600472,
        9.474663622677326
      ],
      [
        100.04575772210956,
        9.47464182972908
      ],
      [
        100.04578035324812,
        9.474643338471651
      ],
      [
        100.04586894996464,
        9.474621964618564
      ],
      [
        100.04597020335495,
        9.474579552188516
      ],
      [
        100.04602644592524,
        9.474558010697365
      ],
      [
        100.046068103984,
        9.474539067596197
      ],
      [
        100.04612082615495,
        9.474502438679338
      ],
      [
        100.04613147117198,
        9.474499756470323
      ],
      [
        100.04630355164409,
        9.47439942508936
      ],
      [
        100.04634319804609,
        9.474376291036606
      ],
      [
        100.04637471400201,
        9.474359946325421
      ],
      [
        100.04648904316127,
        9.474332956597209
      ],
      [
        100.04656129516661,
        9.474306553602219
      ],
      [
        100.046591386199,
        9.474301021546125
      ],
      [
        100.04673949442804,
        9.474223908036947
      ],
      [
        100.04679590463638,
        9.474207060411572
      ],
      [
        100.04687016829848,
        9.474193481728435
      ],
      [
        100.04689472727478,
        9.474178226664662
      ],
      [
        100.04697452299297,
        9.47410974651575
      ],
      [
        100.04698575474322,
        9.474103208631277
      ],
      [
        100.04702498205006,
        9.47408669628203
      ],
      [
        100.04717635922134,
        9.47402760386467
      ],
      [
        100.04721214994788,
        9.47400514036417
      ],
      [
        100.04724408499897,
        9.473972618579865
      ],
      [
        100.04740711301565,
        9.473885279148817
      ],
      [
        100.04753493703902,
        9.47379844263196
      ],
      [
        100.04756494425237,
        9.47377698495984
      ],
      [
        100.04759444855154,
        9.47375644929707
      ],
      [
        100.04775965586305,
        9.473670283332467
      ],
      [
        100.04784104414284,
        9.47358587756753
      ],
      [
        100.04782671108842,
        9.47351647540927
      ],
      [
        100.04780248738825,
        9.473468447104096
      ],
      [
        100.04776971414685,
        9.473419161513448
      ],
      [
        100.04775781184435,
        9.473383035510778
      ],
      [
        100.0477513577789,
        9.473375156521797
      ],
      [
        100.0476585701108,
        9.473206512629986
      ],
      [
        100.04758263006806,
        9.473038204014301
      ],
      [
        100.04757592454553,
        9.473013477399945
      ],
      [
        100.0475581549108,
        9.472964610904455
      ],
      [
        100.04756033420563,
        9.472952708601952
      ],
      [
        100.04755538888276,
        9.47291649878025
      ],
      [
        100.04749520681798,
        9.472734779119492
      ],
      [
        100.04748263396323,
        9.472655318677425
      ],
      [
        100.04748766310513,
        9.472640650346875
      ],
      [
        100.04748648963869,
        9.472590694203973
      ],
      [
        100.04747944884002,
        9.47257300838828
      ],
      [
        100.04741759039462,
        9.472435712814331
      ],
      [
        100.0474014133215,
        9.472413500770926
      ],
      [
        100.04738414660096,
        9.472368657588959
      ],
      [
        100.04736319184303,
        9.472303614020348
      ],
      [
        100.04735765978694,
        9.472248712554574
      ]
    ]
  }
}
