{
  "type": "Feature",
  "properties": {},
  "geometry": {
    "type": "LineString",
    "coordinates": [
      [
        -8.910592,
        37.083763
      ],
      [
        -8.912028,
        37.087972
      ],
      [
        -8.912474,
        37.091576
      ],
      [
        -8.912331,
        37.09425
      ],
      [
        -8.910655,
        37.098606
      ],
      [
        -8.909512,
        37.102161
      ],
      [
        -8.906444,
        37.107277
      ],
      [
        -8.905632,
        37.109007
      ],
      [
        -8.908488,
        37.115953
      ],
      [
        -8.910986,
        37.120151
      ],
      [
        -8.914334,
        37.123307
      ],
      [
        -8.914483,
        37.129577
      ],
      [
        -8.914473,
        37.132115
      ],
      [
        -8.916339,
        37.13439
      ],
      [
        -8.915265,
        37.14075
      ],
      [
        -8.915742,
        37.14411
      ],
      [
        -8.914576,
        37.147104
      ],
      [
        -8.915774,
        37.144414
      ],
      [
        -8.914576,
        37.147104
      ],
      [
        -8.912014,
        37.148856
      ],
      [
        -8.907279,
        37.144404
      ],
      [
        -8.906374,
        37.147231
      ],
      [
        -8.904773,
        37.151637
      ],
      [
        -8.908729,
        37.15586
      ],
      [
        -8.907245,
        37.158666
      ],
      [
        -8.903496,
        37.16362
      ],
      [
        -8.901687,
        37.167592
      ],
      [
        -8.901818,
        37.167522
      ],
      [
        -8.901687,
        37.167592
      ],
      [
        -8.906931,
        37.174455
      ],
      [
        -8.903482,
        37.17449
      ],
      [
        -8.9021,
        37.177876
      ],
      [
        -8.899027,
        37.179605
      ],
      [
        -8.895955,
        37.182893
      ],
      [
        -8.894109,
        37.189166
      ],
      [
        -8.895029,
        37.190142
      ]
    ]
  }
}
