{
  "type": "Feature",
  "properties": {},
  "geometry": {
    "type": "LineString",
    "coordinates": [
      [
        0.9179012104868889,
        45.54943844676018,
        293.79999999999995
      ],
      [
        0.9179019648581743,
        45.549541460350156,
        294.79999999999995
      ],
      [
        0.9178992826491594,
        45.54954523220658,
        295
      ],
      [
        0.9179100953042507,
        45.54961387999356,
        295.6
      ],
      [
        0.9179147891700268,
        45.54965201765299,
        296
      ],
      [
        0.9179302956908941,
        45.54969786666334,
        296.20000000000005
      ],
      [
        0.9179504960775375,
        45.54973214864731,
        296.20000000000005
      ],
      [
        0.9179934114217758,
        45.549797024577856,
        297
      ],
      [
        0.9180374164134264,
        45.549861900508404,
        297.4
      ],
      [
        0.9181160386651754,
        45.54993054829538,
        298
      ],
      [
        0.9181384183466434,
        45.54996483027935,
        298.4
      ],
      [
        0.9181768074631691,
        45.55004118941724,
        299.20000000000005
      ],
      [
        0.9182105027139187,
        45.55010220967233,
        299.6
      ],
      [
        0.9182764682918787,
        45.55018996819854,
        300.20000000000005
      ],
      [
        0.9183018654584885,
        45.550231877714396,
        300.4
      ],
      [
        0.9183334652334452,
        45.550373028963804,
        301
      ],
      [
        0.9183141030371189,
        45.55037688463926,
        301.20000000000005
      ],
      [
        0.9183121751993895,
        45.55039976723492,
        301.4
      ],
      [
        0.9183643944561481,
        45.550453159958124,
        301.79999999999995
      ],
      [
        0.9184565953910351,
        45.55051418021321,
        301.6
      ],
      [
        0.9185651410371065,
        45.550571428611875,
        301
      ],
      [
        0.9185792226344347,
        45.55057905614376,
        300.79999999999995
      ],
      [
        0.9186347108334303,
        45.55061719380319,
        300.4
      ],
      [
        0.9186604432761669,
        45.55063622072339,
        300.20000000000005
      ],
      [
        0.9186819009482861,
        45.55065147578716,
        300
      ],
      [
        0.9187725093215704,
        45.55073160678148,
        299.20000000000005
      ],
      [
        0.918800588697195,
        45.55076211690903,
        299.20000000000005
      ],
      [
        0.918906619772315,
        45.55083839222789,
        298.6
      ],
      [
        0.9189561568200588,
        45.55086135864258,
        298.6
      ],
      [
        0.9190061129629612,
        45.55088038556278,
        298.6
      ],
      [
        0.9190692286938429,
        45.55089564062655,
        298.79999999999995
      ],
      [
        0.9191548079252243,
        45.550903268158436,
        299.20000000000005
      ],
      [
        0.9193006530404091,
        45.55091089569032,
        299.6
      ],
      [
        0.9195050038397312,
        45.55093763396144,
        299.79999999999995
      ],
      [
        0.9196060057729483,
        45.5509605165571,
        300.20000000000005
      ],
      [
        0.9196780901402235,
        45.55097191594541,
        300
      ],
      [
        0.9198600612580776,
        45.5509605165571,
        300
      ],
      [
        0.9200593829154968,
        45.5509795434773,
        299.6
      ],
      [
        0.9202058147639036,
        45.551044419407845,
        299.6
      ],
      [
        0.920332046225667,
        45.55112832225859,
        299.79999999999995
      ],
      [
        0.920439837500453,
        45.551204681396484,
        299.79999999999995
      ],
      [
        0.920480489730835,
        45.55123133584857,
        299.6
      ],
      [
        0.9205260034650564,
        45.55132672190666,
        300
      ],
      [
        0.9204988460987806,
        45.55146401748061,
        300.20000000000005
      ],
      [
        0.9204685036092997,
        45.551616651937366,
        300
      ],
      [
        0.9203882049769163,
        45.55170055478811,
        299
      ],
      [
        0.9202953334897757,
        45.55176920257509,
        298.20000000000005
      ],
      [
        0.9202594589442015,
        45.551795940846205,
        298
      ],
      [
        0.920169772580266,
        45.551853105425835,
        298.20000000000005
      ],
      [
        0.9201369155198336,
        45.55188361555338,
        298.20000000000005
      ],
      [
        0.9200779069215059,
        45.551971374079585,
        298
      ],
      [
        0.9201418608427048,
        45.552047649398446,
        297.6
      ],
      [
        0.9203022066503763,
        45.55214303545654,
        298.4
      ],
      [
        0.9203758835792542,
        45.552246049046516,
        298.4
      ],
      [
        0.9203752130270004,
        45.552268931642175,
        298.6
      ],
      [
        0.9203238319605589,
        45.55233380757272,
        298.79999999999995
      ],
      [
        0.9203077387064695,
        45.552349062636495,
        298.79999999999995
      ],
      [
        0.9202161245048046,
        45.55247110314667,
        298.6
      ],
      [
        0.920310840010643,
        45.552524495869875,
        298.6
      ],
      [
        0.9204676654189825,
        45.552505468949676,
        298.6
      ],
      [
        0.920614767819643,
        45.55247110314667,
        298.4
      ],
      [
        0.9207948949187994,
        45.5524368211627,
        298.6
      ],
      [
        0.9210145846009254,
        45.5524024553597,
        298.4
      ],
      [
        0.9212613478302956,
        45.55237194523215,
        298.20000000000005
      ],
      [
        0.9213433228433132,
        45.552368089556694,
        298.20000000000005
      ],
      [
        0.9214150719344616,
        45.55235283449292,
        298.4
      ],
      [
        0.9214264713227749,
        45.552349062636495,
        298.4
      ],
      [
        0.9214749187231064,
        45.55233380757272,
        298.6
      ],
      [
        0.9215947799384594,
        45.55228418670595,
        299
      ],
      [
        0.9216121304780245,
        45.55227655917406,
        299
      ],
      [
        0.9217147249728441,
        45.552192656323314,
        299.4
      ],
      [
        0.9218267071992159,
        45.55208587087691,
        299.6
      ],
      [
        0.9218683652579784,
        45.55205527693033,
        299.79999999999995
      ],
      [
        0.9219214227050543,
        45.552013367414474,
        300
      ],
      [
        0.9220185689628124,
        45.5519447196275,
        300
      ],
      [
        0.9220422897487879,
        45.55191798135638,
        300.20000000000005
      ],
      [
        0.9221145417541265,
        45.551856961101294,
        300
      ],
      [
        0.9221365861594677,
        45.55183785036206,
        300
      ],
      [
        0.9222427010536194,
        45.551776830106974,
        300
      ],
      [
        0.9222674276679754,
        45.551776830106974,
        300
      ],
      [
        0.922390641644597,
        45.551830222830176,
        299.79999999999995
      ],
      [
        0.9225383307784796,
        45.55192946456373,
        299.79999999999995
      ],
      [
        0.9225669968873262,
        45.55195611901581,
        299.79999999999995
      ],
      [
        0.9226697590202093,
        45.552051505073905,
        299.6
      ],
      [
        0.9228356368839741,
        45.5521659180522,
        299.4
      ],
      [
        0.922962287440896,
        45.5522536765784,
        299.4
      ],
      [
        0.9230339527130127,
        45.55231855250895,
        299.4
      ],
      [
        0.923050045967102,
        45.55233757942915,
        299.4
      ],
      [
        0.9230797179043293,
        45.552383344620466,
        299.79999999999995
      ],
      [
        0.9231212083250284,
        45.552463475614786,
        299.79999999999995
      ],
      [
        0.92320142313838,
        45.55261988192797,
        300.6
      ],
      [
        0.9232742618769407,
        45.552764888852835,
        300.79999999999995
      ],
      [
        0.9233429934829473,
        45.55288692936301,
        300.6
      ],
      [
        0.9233508724719286,
        45.55290595628321,
        300.6
      ],
      [
        0.9234139882028103,
        45.553016597405076,
        300.6
      ],
      [
        0.923463860526681,
        45.55316923186183,
        300.20000000000005
      ],
      [
        0.9234480187296867,
        45.553337037563324,
        300.79999999999995
      ],
      [
        0.9234387148171663,
        45.5534056853503,
        301
      ],
      [
        0.9234403911978006,
        45.553436279296875,
        301
      ],
      [
        0.9235278144478798,
        45.55355069227517,
        300.79999999999995
      ],
      [
        0.9236877411603928,
        45.553630823269486,
        301.4
      ],
      [
        0.9238018188625574,
        45.5536422226578,
        302
      ],
      [
        0.923842890188098,
        45.55363845080137,
        302
      ],
      [
        0.9239762462675571,
        45.55357734672725,
        301.4
      ],
      [
        0.9241321496665478,
        45.55350107140839,
        301.20000000000005
      ],
      [
        0.9242779947817326,
        45.5534400511533,
        300.6
      ],
      [
        0.9243944194167852,
        45.5533866584301,
        300
      ],
      [
        0.9244131948798895,
        45.55337903089821,
        300
      ],
      [
        0.9244472254067659,
        45.55336377583444,
        299.79999999999995
      ],
      [
        0.9246374107897282,
        45.5533332657069,
        299.4
      ],
      [
        0.9248077310621738,
        45.553337037563324,
        299.4
      ],
      [
        0.9248850122094154,
        45.55335992015898,
        299.6
      ],
      [
        0.9249448589980602,
        45.55338280275464,
        299.6
      ],
      [
        0.9251617826521397,
        45.55347056128085,
        299.4
      ],
      [
        0.9252527263015509,
        45.553497299551964,
        299.4
      ],
      [
        0.9254652075469494,
        45.55358120240271,
        299
      ],
      [
        0.9255191031843424,
        45.553615568205714,
        299
      ],
      [
        0.9255908522754908,
        45.553695615381,
        298.79999999999995
      ],
      [
        0.9257284831255674,
        45.55386350490153,
        299
      ],
      [
        0.9257367812097073,
        45.5538787599653,
        299
      ],
      [
        0.9258300717920065,
        45.55403893813491,
        299.6
      ],
      [
        0.9258512780070305,
        45.554065676406026,
        299.6
      ],
      [
        0.925910035148263,
        45.55414957925677,
        300
      ],
      [
        0.9259612485766411,
        45.554225854575634,
        300
      ],
      [
        0.9260427206754684,
        45.55434035137296,
        300
      ],
      [
        0.9260798525065184,
        45.5543898884207,
        300
      ],
      [
        0.9261306468397379,
        45.554481502622366,
        299.4
      ],
      [
        0.9261473268270493,
        45.554561549797654,
        299.4
      ],
      [
        0.9261108655482531,
        45.55461117066443,
        299
      ],
      [
        0.9260751586407423,
        45.55465316399932,
        298.79999999999995
      ],
      [
        0.9259490109980106,
        45.554756093770266,
        299
      ],
      [
        0.9258630126714706,
        45.5548095703125,
        299.6
      ],
      [
        0.9258471708744764,
        45.55482096970081,
        299.6
      ],
      [
        0.9258048422634602,
        45.55485533550382,
        299.79999999999995
      ],
      [
        0.9257095400243998,
        45.55494301021099,
        300
      ],
      [
        0.9255634434521198,
        45.55504602380097,
        300
      ],
      [
        0.9254523832350969,
        45.5551185272634,
        299.79999999999995
      ],
      [
        0.9253562428057194,
        45.55518717505038,
        298.6
      ],
      [
        0.9253406524658203,
        45.55519865825772,
        298.6
      ],
      [
        0.92529128305614,
        45.55524442344904,
        298.20000000000005
      ],
      [
        0.9252345375716686,
        45.55531684309244,
        298
      ],
      [
        0.9251256566494703,
        45.555393202230334,
        298
      ],
      [
        0.9251135028898716,
        45.55540460161865,
        298
      ],
      [
        0.9249849244952202,
        45.555492360144854,
        299
      ],
      [
        0.9248456172645092,
        45.555610628798604,
        299.4
      ],
      [
        0.924819465726614,
        45.5556296557188,
        299.20000000000005
      ],
      [
        0.9246489778161049,
        45.55571741424501,
        298.79999999999995
      ],
      [
        0.924450159072876,
        45.5557594075799,
        299
      ],
      [
        0.9243098460137844,
        45.5558318272233,
        299.20000000000005
      ],
      [
        0.9243225865066051,
        45.55591581389308,
        299.4
      ],
      [
        0.9244329761713743,
        45.55603408254683,
        299.20000000000005
      ],
      [
        0.9244206547737122,
        45.55614463984966,
        299
      ],
      [
        0.9243265260010958,
        45.556278163567185,
        299
      ],
      [
        0.9242440480738878,
        45.55640791542828,
        299.20000000000005
      ],
      [
        0.9242868795990944,
        45.55648796260357,
        299.20000000000005
      ],
      [
        0.9244068246334791,
        45.556499445810914,
        298.79999999999995
      ],
      [
        0.9245374146848917,
        45.55648033507168,
        298.4
      ],
      [
        0.9246965032070875,
        45.55644982494414,
        298.20000000000005
      ],
      [
        0.9248301945626736,
        45.556438425555825,
        298.20000000000005
      ],
      [
        0.9249892830848694,
        45.55642694234848,
        298.6
      ],
      [
        0.9250957332551479,
        45.556419314816594,
        298.79999999999995
      ],
      [
        0.9252357948571444,
        45.556400287896395,
        299
      ],
      [
        0.9254332724958658,
        45.55638503283262,
        298.79999999999995
      ],
      [
        0.9255517087876797,
        45.556381177157164,
        298.4
      ],
      [
        0.9255846496671438,
        45.556381177157164,
        298.20000000000005
      ],
      [
        0.9257264714688063,
        45.55639266036451,
        298.4
      ],
      [
        0.9259003959596157,
        45.55639266036451,
        299.20000000000005
      ],
      [
        0.9260576404631138,
        45.55641554296017,
        299.4
      ],
      [
        0.9260847978293896,
        45.55642694234848,
        299.6
      ],
      [
        0.9261219296604395,
        45.556438425555825,
        299.6
      ],
      [
        0.9262092690914869,
        45.55644219741225,
        299.4
      ],
      [
        0.9263384342193604,
        45.556457452476025,
        298.4
      ],
      [
        0.9264122787863016,
        45.55648419074714,
        297.20000000000005
      ],
      [
        0.92646399512887,
        45.55652232840657,
        296.20000000000005
      ],
      [
        0.9264580439776182,
        45.55660623125732,
        295.4
      ],
      [
        0.9264396876096725,
        45.5567436106503,
        295.20000000000005
      ],
      [
        0.9264314733445644,
        45.556877134367824,
        295
      ],
      [
        0.9264609776437283,
        45.556991547346115,
        295
      ],
      [
        0.9264671802520752,
        45.55711744353175,
        295
      ],
      [
        0.9264415316283703,
        45.557205118238926,
        294.79999999999995
      ],
      [
        0.9264240134507418,
        45.55723185651004,
        294.79999999999995
      ],
      [
        0.9263369254767895,
        45.557308131828904,
        294.79999999999995
      ],
      [
        0.9262252785265446,
        45.55739974603057,
        296.20000000000005
      ],
      [
        0.9261603187769651,
        45.55744165554643,
        297.20000000000005
      ],
      [
        0.9261257015168667,
        45.55745313875377,
        297.6
      ],
      [
        0.9260784275829792,
        45.557468393817544,
        298
      ],
      [
        0.9260383620858192,
        45.55749890394509,
        298.20000000000005
      ],
      [
        0.9260252024978399,
        45.55751415900886,
        298.4
      ],
      [
        0.9260146412998438,
        45.55753318592906,
        298.4
      ],
      [
        0.9259705524891615,
        45.55763619951904,
        298.4
      ],
      [
        0.9259643498808146,
        45.55765145458281,
        298.4
      ],
      [
        0.925908861681819,
        45.557762095704675,
        298.20000000000005
      ],
      [
        0.9258638508617878,
        45.55790710262954,
        298.6
      ],
      [
        0.925849350169301,
        45.55805202573538,
        299.20000000000005
      ],
      [
        0.9258258808404207,
        45.55812067352235,
        299.4
      ],
      [
        0.9258095361292362,
        45.55816266685724,
        299.6
      ],
      [
        0.9257464203983545,
        45.55826568044722,
        299.79999999999995
      ],
      [
        0.9257322549819946,
        45.55836861021817,
        299.6
      ],
      [
        0.9257418941706419,
        45.55838009342551,
        299.4
      ],
      [
        0.9257538802921772,
        45.558395348489285,
        299.4
      ],
      [
        0.9258044231683016,
        45.558452596887946,
        299.4
      ],
      [
        0.9258583188056946,
        45.55849836207926,
        299.6
      ],
      [
        0.925983963534236,
        45.55860137566924,
        300
      ],
      [
        0.9260464087128639,
        45.55863565765321,
        300.4
      ],
      [
        0.9260813612490892,
        45.558670023456216,
        300.79999999999995
      ],
      [
        0.9261395316570997,
        45.55876540951431,
        301.4
      ],
      [
        0.9261443931609392,
        45.55878443643451,
        301.4
      ],
      [
        0.9261442255228758,
        45.55880354717374,
        301.6
      ],
      [
        0.926147997379303,
        45.55886071175337,
        302.20000000000005
      ],
      [
        0.9261848777532578,
        45.55888359434903,
        302.4
      ],
      [
        0.9262350015342236,
        45.55889507755637,
        302.20000000000005
      ],
      [
        0.9262934233993292,
        45.55891410447657,
        301.20000000000005
      ],
      [
        0.9264537692070007,
        45.55894084274769,
        300.6
      ],
      [
        0.9265447128564119,
        45.5589332152158,
        300.4
      ],
      [
        0.9266359079629183,
        45.55891796015203,
        300.6
      ],
      [
        0.9267291147261858,
        45.55891796015203,
        300.4
      ],
      [
        0.9267991036176682,
        45.55891796015203,
        300.6
      ],
      [
        0.9269654005765915,
        45.5589332152158,
        301.6
      ],
      [
        0.9270256664603949,
        45.5589332152158,
        301.6
      ],
      [
        0.92711191624403,
        45.558925587683916,
        301.4
      ],
      [
        0.9271750319749117,
        45.558925587683916,
        301.20000000000005
      ],
      [
        0.9272292628884315,
        45.558929443359375,
        301.20000000000005
      ],
      [
        0.9272478707134724,
        45.558929443359375,
        301
      ],
      [
        0.9274154249578714,
        45.55894469842315,
        301.4
      ],
      [
        0.9275136608630419,
        45.55895609781146,
        301.6
      ],
      [
        0.9276661276817322,
        45.55893707089126,
        302
      ],
      [
        0.9278496913611889,
        45.55893707089126,
        301.79999999999995
      ],
      [
        0.9280273038893938,
        45.5589332152158,
        302.20000000000005
      ],
      [
        0.9282765816897154,
        45.55893707089126,
        301.79999999999995
      ],
      [
        0.9284453932195902,
        45.55894469842315,
        301
      ],
      [
        0.9286290407180786,
        45.55894469842315,
        300.4
      ],
      [
        0.9286665078252554,
        45.558948470279574,
        300.4
      ],
      [
        0.9287882968783379,
        45.55896372534335,
        300.20000000000005
      ],
      [
        0.9289551805704832,
        45.55897520855069,
        300
      ],
      [
        0.9291012771427631,
        45.55901711806655,
        300.20000000000005
      ],
      [
        0.929090129211545,
        45.55909724906087,
        300.79999999999995
      ],
      [
        0.929014440625906,
        45.559204034507275,
        300.4
      ],
      [
        0.9289609640836716,
        45.55929564870894,
        300.20000000000005
      ],
      [
        0.9289352316409349,
        45.55932993069291,
        299.79999999999995
      ],
      [
        0.9288429468870163,
        45.55943671613932,
        299.4
      ],
      [
        0.9288248419761658,
        45.55949396453798,
        299
      ],
      [
        0.9288234170526266,
        45.55956261232495,
        299
      ],
      [
        0.9287901408970356,
        45.55965037085116,
        300
      ],
      [
        0.9287354908883572,
        45.55974952876568,
        300.20000000000005
      ],
      [
        0.9286803379654884,
        45.5598106328398,
        300
      ],
      [
        0.9286622330546379,
        45.55986016988754,
        300.20000000000005
      ],
      [
        0.9286163840442896,
        45.559997549280524,
        299.79999999999995
      ],
      [
        0.9285696130245924,
        45.56011573411524,
        299.6
      ],
      [
        0.9285784140229225,
        45.560230230912566,
        299
      ],
      [
        0.9286683518439531,
        45.56034087203443,
        299
      ],
      [
        0.9286715369671583,
        45.56036375463009,
        299
      ],
      [
        0.928629795089364,
        45.56045905686915,
        299.20000000000005
      ],
      [
        0.9284961875528097,
        45.56053918786347,
        298.79999999999995
      ],
      [
        0.9284160565584898,
        45.56060020811856,
        298.79999999999995
      ],
      [
        0.9284096863120794,
        45.560646057128906,
        298.6
      ],
      [
        0.9284014720469713,
        45.56073373183608,
        298.4
      ],
      [
        0.9283996280282736,
        45.56074135936797,
        298.4
      ],
      [
        0.9284072555601597,
        45.56083674542606,
        298.6
      ],
      [
        0.928362412378192,
        45.56093590334058,
        298.4
      ],
      [
        0.92832176014781,
        45.56107328273356,
        299
      ],
      [
        0.9282953571528196,
        45.56117244064808,
        299.20000000000005
      ],
      [
        0.928259901702404,
        45.5612715985626,
        299.20000000000005
      ],
      [
        0.928250765427947,
        45.56129070930183,
        299.4
      ],
      [
        0.9282256197184324,
        45.561374612152576,
        299.6
      ],
      [
        0.9281742386519909,
        45.561477625742555,
        300
      ],
      [
        0.928110871464014,
        45.56156538426876,
        300.4
      ],
      [
        0.9280707221478224,
        45.561614921316504,
        300.79999999999995
      ],
      [
        0.9280601609498262,
        45.561634032055736,
        301
      ],
      [
        0.9280252922326326,
        45.561676025390625,
        301.20000000000005
      ],
      [
        0.9279646910727024,
        45.561752300709486,
        301.20000000000005
      ],
      [
        0.9279439877718687,
        45.56178658269346,
        301.20000000000005
      ],
      [
        0.927891181781888,
        45.56184768676758,
        301.4
      ],
      [
        0.927860839292407,
        45.561874341219664,
        301.4
      ],
      [
        0.9278220310807228,
        45.56196209974587,
        301.6
      ],
      [
        0.9277884196490049,
        45.56201934814453,
        301.6
      ],
      [
        0.9277491923421621,
        45.562110878527164,
        301.6
      ],
      [
        0.9277634415775537,
        45.562229147180915,
        301.4
      ],
      [
        0.9278243780136108,
        45.56233207695186,
        301
      ],
      [
        0.9279273077845573,
        45.562423691153526,
        301.20000000000005
      ],
      [
        0.9280255436897278,
        45.56250759400427,
        301.20000000000005
      ],
      [
        0.9280915092676878,
        45.56253433227539,
        301.20000000000005
      ],
      [
        0.9281524457037449,
        45.56254958733916,
        301.20000000000005
      ],
      [
        0.9282693732529879,
        45.562560986727476,
        301.4
      ],
      [
        0.928290244191885,
        45.562564842402935,
        301.4
      ],
      [
        0.9284614864736795,
        45.56258009746671,
        302.20000000000005
      ],
      [
        0.9285615663975477,
        45.56261823512614,
        302.20000000000005
      ],
      [
        0.9285823535174131,
        45.562664000317454,
        302.4
      ],
      [
        0.9285277035087347,
        45.562698282301426,
        302
      ],
      [
        0.9283420443534851,
        45.562728876248,
        301.6
      ],
      [
        0.9281936846673489,
        45.56270976550877,
        301.79999999999995
      ],
      [
        0.9280154015868902,
        45.562702137976885,
        302
      ],
      [
        0.9278858173638582,
        45.56271362118423,
        302.4
      ],
      [
        0.9278556425124407,
        45.562721248716116,
        302.6
      ],
      [
        0.9277368709445,
        45.562744131311774,
        303
      ],
      [
        0.9276098012924194,
        45.562705993652344,
        303.20000000000005
      ],
      [
        0.9274630341678858,
        45.56263726204634,
        302.6
      ],
      [
        0.927320122718811,
        45.56255335919559,
        302.6
      ],
      [
        0.927211157977581,
        45.56246945634484,
        302.4
      ],
      [
        0.9271651413291693,
        45.562385553494096,
        302.20000000000005
      ],
      [
        0.9271294344216585,
        45.56230156682432,
        302.4
      ],
      [
        0.9271226450800896,
        45.56227868422866,
        302.6
      ],
      [
        0.9270840045064688,
        45.56217189878225,
        302.4
      ],
      [
        0.9270524885505438,
        45.562087995931506,
        302.79999999999995
      ],
      [
        0.9270091541111469,
        45.5619658716023,
        303
      ],
      [
        0.9269709326326847,
        45.56188196875155,
        302.79999999999995
      ],
      [
        0.9269528277218342,
        45.56177895516157,
        302.4
      ],
      [
        0.9269754588603973,
        45.56168742477894,
        302.79999999999995
      ],
      [
        0.9270380716770887,
        45.56160352192819,
        303
      ],
      [
        0.9270472917705774,
        45.561592038720846,
        303
      ],
      [
        0.9270773828029633,
        45.56154627352953,
        303
      ],
      [
        0.9271005168557167,
        45.56150050833821,
        303
      ],
      [
        0.9271935559809208,
        45.561374612152576,
        302.4
      ],
      [
        0.9272522293031216,
        45.56124494411051,
        302.20000000000005
      ],
      [
        0.9272544085979462,
        45.56111519224942,
        302
      ],
      [
        0.9272088948637247,
        45.56102751754224,
        302
      ],
      [
        0.9271420072764158,
        45.560886366292834,
        301.6
      ],
      [
        0.9270892012864351,
        45.56075661443174,
        301.6
      ],
      [
        0.9270560089498758,
        45.56066131219268,
        301.79999999999995
      ],
      [
        0.9269996825605631,
        45.56056207045913,
        302.20000000000005
      ],
      [
        0.9269093256443739,
        45.56045528501272,
        302.6
      ],
      [
        0.9268592018634081,
        45.56041329167783,
        302.79999999999995
      ],
      [
        0.9267830103635788,
        45.5603561270982,
        303.20000000000005
      ],
      [
        0.9267066512256861,
        45.56029887869954,
        303.6
      ],
      [
        0.9266639873385429,
        45.56024548597634,
        303.20000000000005
      ],
      [
        0.9266971796751022,
        45.56018061004579,
        303
      ],
      [
        0.9267815854400396,
        45.560096707195044,
        303
      ],
      [
        0.9268561005592346,
        45.55998992174864,
        303
      ],
      [
        0.9268550109118223,
        45.55994407273829,
        302.79999999999995
      ],
      [
        0.9268390852957964,
        45.559875424951315,
        303
      ],
      [
        0.9268447011709213,
        45.55976478382945,
        302.79999999999995
      ],
      [
        0.9268348105251789,
        45.5596808809787,
        302.4
      ],
      [
        0.9268263448029757,
        45.559657998383045,
        302.20000000000005
      ],
      [
        0.9267966728657484,
        45.55957023985684,
        302
      ],
      [
        0.92671905644238,
        45.559463454410434,
        302.4
      ],
      [
        0.9266449604183435,
        45.559390950948,
        303
      ],
      [
        0.9265577048063278,
        45.5593185313046,
        303.6
      ],
      [
        0.9265337325632572,
        45.55929942056537,
        303.6
      ],
      [
        0.9265136159956455,
        45.55927653796971,
        303.79999999999995
      ],
      [
        0.9264712035655975,
        45.55923840031028,
        304.20000000000005
      ],
      [
        0.9264116920530796,
        45.5591887794435,
        304.4
      ],
      [
        0.9263971913605928,
        45.55917352437973,
        304.6
      ],
      [
        0.9263460617512465,
        45.55913161486387,
        305
      ],
      [
        0.9263150487095118,
        45.55909724906087,
        305.20000000000005
      ],
      [
        0.9262986201792955,
        45.559085765853524,
        305.20000000000005
      ],
      [
        0.9262003842741251,
        45.559024745598435,
        305.6
      ],
      [
        0.9261810220777988,
        45.55901711806655,
        305.6
      ],
      [
        0.9260827861726284,
        45.55895609781146,
        306.20000000000005
      ],
      [
        0.9260270465165377,
        45.5588798224926,
        306.20000000000005
      ],
      [
        0.9260231908410788,
        45.558849312365055,
        306.4
      ],
      [
        0.9260041639208794,
        45.55875778198242,
        305.79999999999995
      ],
      [
        0.9259690437465906,
        45.5586776509881,
        304.4
      ],
      [
        0.9259581472724676,
        45.558650912716985,
        304.20000000000005
      ],
      [
        0.9259449038654566,
        45.558612775057554,
        303.4
      ],
      [
        0.9259008150547743,
        45.558551754802465,
        302.4
      ],
      [
        0.9258912596851587,
        45.55854027159512,
        302.4
      ],
      [
        0.925784558057785,
        45.5584220867604,
        301.79999999999995
      ],
      [
        0.9257447440177202,
        45.55834195576608,
        301.79999999999995
      ],
      [
        0.9257691353559494,
        45.55822745896876,
        301.79999999999995
      ],
      [
        0.9257957898080349,
        45.55818169377744,
        301.79999999999995
      ],
      [
        0.925814900547266,
        45.558139784261584,
        302
      ],
      [
        0.9258314967155457,
        45.558097790926695,
        302
      ],
      [
        0.9258601628243923,
        45.557998633012176,
        301.6
      ],
      [
        0.9258830454200506,
        45.55789176374674,
        301.6
      ],
      [
        0.9258858952671289,
        45.557880364358425,
        301.6
      ],
      [
        0.9259164892137051,
        45.557701075449586,
        301.6
      ],
      [
        0.9259688761085272,
        45.55759043432772,
        301.6
      ],
      [
        0.9260415472090244,
        45.55749504826963,
        301.6
      ],
      [
        0.9261213429272175,
        45.55746076628566,
        301.20000000000005
      ],
      [
        0.9261422138661146,
        45.55744928307831,
        301.20000000000005
      ],
      [
        0.9262228477746248,
        45.557403517886996,
        300.20000000000005
      ],
      [
        0.9262541960924864,
        45.55739211849868,
        299.6
      ],
      [
        0.9262880589812994,
        45.55737300775945,
        299.20000000000005
      ],
      [
        0.9263208322227001,
        45.55734249763191,
        298.6
      ],
      [
        0.9263428766280413,
        45.55730435997248,
        298
      ],
      [
        0.926387133076787,
        45.557208973914385,
        297.79999999999995
      ],
      [
        0.9264162182807922,
        45.55705642327666,
        297.79999999999995
      ],
      [
        0.926422756165266,
        45.55692289955914,
        297.20000000000005
      ],
      [
        0.9264413639903069,
        45.55689616128802,
        297
      ],
      [
        0.9264432080090046,
        45.556850396096706,
        296.6
      ],
      [
        0.9264591336250305,
        45.55670161731541,
        296.4
      ],
      [
        0.926466342061758,
        45.556560466066,
        296.4
      ],
      [
        0.926477825269103,
        45.55643079802394,
        296.4
      ],
      [
        0.9263998735696077,
        45.55635452270508,
        297.4
      ],
      [
        0.9263121988624334,
        45.55629727430642,
        297.79999999999995
      ],
      [
        0.9262499213218689,
        45.55626676417887,
        297.79999999999995
      ],
      [
        0.9261782560497522,
        45.5562515091151,
        297.6
      ],
      [
        0.9261007234454155,
        45.55623625405133,
        298
      ],
      [
        0.9260827861726284,
        45.55623239837587,
        298.20000000000005
      ],
      [
        0.9259065985679626,
        45.55618663318455,
        297.79999999999995
      ],
      [
        0.9257708117365837,
        45.55615226738155,
        297
      ],
      [
        0.9257349371910095,
        45.55613701231778,
        296.6
      ],
      [
        0.9255778603255749,
        45.556064592674375,
        296.4
      ],
      [
        0.925558665767312,
        45.556041710078716,
        296
      ],
      [
        0.9255600906908512,
        45.556041710078716,
        295.79999999999995
      ],
      [
        0.9255541395395994,
        45.55603022687137,
        295.20000000000005
      ],
      [
        0.9255469311028719,
        45.55603408254683,
        295.20000000000005
      ],
      [
        0.9254486951977015,
        45.55607599206269,
        296
      ],
      [
        0.9253922011703253,
        45.55607599206269,
        296
      ],
      [
        0.9253876749426126,
        45.556064592674375,
        295.79999999999995
      ],
      [
        0.9253922011703253,
        45.55607599206269,
        295.6
      ],
      [
        0.9253098908811808,
        45.55610650219023,
        296.20000000000005
      ],
      [
        0.9252702444791794,
        45.55611798539758,
        296.6
      ],
      [
        0.9251561667770147,
        45.55614463984966,
        296.79999999999995
      ],
      [
        0.9251153469085693,
        45.55613701231778,
        296.4
      ],
      [
        0.9250977449119091,
        45.55616752244532,
        296.4
      ],
      [
        0.925058601424098,
        45.55619426071644,
        297
      ],
      [
        0.925011495128274,
        45.55621337145567,
        297.20000000000005
      ],
      [
        0.9249601140618324,
        45.556243881583214,
        297.20000000000005
      ],
      [
        0.9248974174261093,
        45.5562515091151,
        297.4
      ],
      [
        0.9248722717165947,
        45.55624765343964,
        297
      ],
      [
        0.9248718526214361,
        45.55619426071644,
        297.4
      ],
      [
        0.9248985070735216,
        45.55615612305701,
        298
      ],
      [
        0.9249401651322842,
        45.55609124712646,
        298
      ],
      [
        0.9250072203576565,
        45.556003488600254,
        297.20000000000005
      ],
      [
        0.9250352159142494,
        45.555980606004596,
        296.79999999999995
      ],
      [
        0.9250560868531466,
        45.555961579084396,
        297
      ],
      [
        0.9250938054174185,
        45.55591195821762,
        298
      ],
      [
        0.9251275006681681,
        45.55587767623365,
        298.20000000000005
      ],
      [
        0.9252178575843573,
        45.55580894462764,
        298
      ],
      [
        0.9252826496958733,
        45.555747924372554,
        298
      ],
      [
        0.9253377187997103,
        45.555644910782576,
        297.79999999999995
      ],
      [
        0.9253748506307602,
        45.555587746202946,
        298.20000000000005
      ],
      [
        0.9253606013953686,
        45.555492360144854,
        298
      ],
      [
        0.9253072086721659,
        45.55539697408676,
        299
      ],
      [
        0.9252989944070578,
        45.555393202230334,
        299.4
      ],
      [
        0.9252620302140713,
        45.55538557469845,
        300.20000000000005
      ],
      [
        0.9252514690160751,
        45.555389346554875,
        300.20000000000005
      ],
      [
        0.9252521395683289,
        45.55539697408676,
        300.4
      ],
      [
        0.9252539835870266,
        45.55540082976222,
        300.4
      ],
      [
        0.9252539835870266,
        45.55540082976222,
        300.20000000000005
      ],
      [
        0.9252539835870266,
        45.55540082976222,
        300
      ],
      [
        0.9252502117305994,
        45.555370319634676,
        300.20000000000005
      ],
      [
        0.9252723399549723,
        45.55528256110847,
        300.6
      ],
      [
        0.9253199491649866,
        45.55524819530547,
        300.4
      ],
      [
        0.925400834530592,
        45.55519103072584,
        300.79999999999995
      ],
      [
        0.9254984837025404,
        45.55512229911983,
        301.20000000000005
      ],
      [
        0.9255104698240757,
        45.55511089973152,
        301.4
      ],
      [
        0.9255496133118868,
        45.55507653392851,
        301.6
      ],
      [
        0.9255886729806662,
        45.55504225194454,
        301.79999999999995
      ],
      [
        0.9256176743656397,
        45.55502314120531,
        302.20000000000005
      ],
      [
        0.9256310854107141,
        45.555015513673425,
        302.4
      ],
      [
        0.9257330093532801,
        45.554935382679105,
        302.6
      ],
      [
        0.9258594922721386,
        45.55483245290816,
        302.6
      ],
      [
        0.9260061755776405,
        45.554737066850066,
        302.20000000000005
      ],
      [
        0.9261101949959993,
        45.55465316399932,
        302
      ],
      [
        0.9261568821966648,
        45.55455392226577,
        302.20000000000005
      ],
      [
        0.9261512663215399,
        45.554538667201996,
        302.4
      ],
      [
        0.926093515008688,
        45.55442802608013,
        302.4
      ],
      [
        0.9260486718267202,
        45.55431361310184,
        302.4
      ],
      [
        0.9259618353098631,
        45.554202971979976,
        302.4
      ],
      [
        0.9258857276290655,
        45.55407330393791,
        302.4
      ],
      [
        0.9258017409592867,
        45.55394355207682,
        302
      ],
      [
        0.9257299918681383,
        45.553829139098525,
        301.79999999999995
      ],
      [
        0.9256467595696449,
        45.553710870444775,
        301.6
      ],
      [
        0.9255004953593016,
        45.55360794067383,
        301.79999999999995
      ],
      [
        0.9253173507750034,
        45.55352395400405,
        301.6
      ],
      [
        0.9251539036631584,
        45.55345153436065,
        302
      ],
      [
        0.9249815717339516,
        45.553394285961986,
        302.20000000000005
      ],
      [
        0.9247990138828754,
        45.55334089323878,
        302
      ],
      [
        0.9247647318989038,
        45.5533332657069,
        302
      ],
      [
        0.9246046375483274,
        45.55331038311124,
        301.6
      ],
      [
        0.9245600458234549,
        45.553318010643125,
        301.6
      ],
      [
        0.9244146198034286,
        45.55336377583444,
        302
      ],
      [
        0.9243265260010958,
        45.55339805781841,
        302
      ],
      [
        0.9242766536772251,
        45.55342094041407,
        302
      ],
      [
        0.924239857122302,
        45.553436279296875,
        302.20000000000005
      ],
      [
        0.9240940120071173,
        45.55350107140839,
        302.6
      ],
      [
        0.9240500908344984,
        45.553531581535935,
        302.79999999999995
      ],
      [
        0.9239283017814159,
        45.55360022932291,
        303.20000000000005
      ],
      [
        0.9239113703370094,
        45.55360794067383,
        303.20000000000005
      ],
      [
        0.9238400403410196,
        45.553634595125914,
        303.4
      ],
      [
        0.9237708896398544,
        45.5536422226578,
        303.4
      ],
      [
        0.9236178360879421,
        45.553611712530255,
        303.20000000000005
      ],
      [
        0.9235239587724209,
        45.553535437211394,
        302.4
      ],
      [
        0.923501243814826,
        45.55350107140839,
        302.20000000000005
      ],
      [
        0.923466207459569,
        45.55336377583444,
        301.6
      ],
      [
        0.9234779421240091,
        45.55320736952126,
        301.4
      ],
      [
        0.9234700631350279,
        45.553100584074855,
        301.6
      ],
      [
        0.9234531316906214,
        45.55306236259639,
        301.6
      ],
      [
        0.9234079532325268,
        45.55296706035733,
        302
      ],
      [
        0.9233297500759363,
        45.55281828157604,
        302
      ],
      [
        0.9232608508318663,
        45.55271526798606,
        302
      ],
      [
        0.9231977351009846,
        45.55259699933231,
        302
      ],
      [
        0.9231321047991514,
        45.55247873067856,
        301.6
      ],
      [
        0.9230749402195215,
        45.55239859968424,
        301.4
      ],
      [
        0.9230537340044975,
        45.55237194523215,
        301.4
      ],
      [
        0.9229710046201944,
        45.55227655917406,
        301.4
      ],
      [
        0.9228771273046732,
        45.55218502879143,
        301.6
      ],
      [
        0.9228503052145243,
        45.552169773727655,
        301.20000000000005
      ],
      [
        0.922708148136735,
        45.55206676013768,
        301.79999999999995
      ],
      [
        0.9226685017347336,
        45.552032394334674,
        302.20000000000005
      ],
      [
        0.922602703794837,
        45.55198662914336,
        302.6
      ],
      [
        0.9225610457360744,
        45.55195611901581,
        302.4
      ],
      [
        0.9224904701113701,
        45.55190272629261,
        301.79999999999995
      ],
      [
        0.9223365783691406,
        45.55180356837809,
        302.4
      ],
      [
        0.9222084190696478,
        45.551795940846205,
        301.6
      ],
      [
        0.9220580477267504,
        45.55186836048961,
        301.6
      ],
      [
        0.9219562914222479,
        45.551952347159386,
        301.20000000000005
      ],
      [
        0.9218671917915344,
        45.55202476680279,
        301.20000000000005
      ],
      [
        0.9218199178576469,
        45.55205913260579,
        301
      ],
      [
        0.9217212628573179,
        45.55213540792465,
        301
      ],
      [
        0.9216191712766886,
        45.55222316645086,
        301
      ],
      [
        0.9215621743351221,
        45.55225753225386,
        300.79999999999995
      ],
      [
        0.9215306583791971,
        45.55228041484952,
        300.79999999999995
      ],
      [
        0.9214040078222752,
        45.55232995189726,
        300.6
      ],
      [
        0.9212380461394787,
        45.552368089556694,
        301
      ],
      [
        0.9210326056927443,
        45.55237571708858,
        300.6
      ],
      [
        0.9208202082663774,
        45.55241008289158,
        300.4
      ],
      [
        0.9206291846930981,
        45.55245970375836,
        300.4
      ],
      [
        0.9204296953976154,
        45.55250161327422,
        300.20000000000005
      ],
      [
        0.9202574472874403,
        45.5525092408061,
        300
      ],
      [
        0.92023104429245,
        45.552429193630815,
        300
      ],
      [
        0.920333806425333,
        45.55233380757272,
        300.20000000000005
      ],
      [
        0.920371524989605,
        45.55226515978575,
        300
      ],
      [
        0.9203166235238314,
        45.55215451866388,
        299.6
      ],
      [
        0.9202209021896124,
        45.55207438766956,
        299.6
      ],
      [
        0.9200733806937933,
        45.55200573988259,
        299.20000000000005
      ],
      [
        0.9200663398951292,
        45.55197900161147,
        299
      ],
      [
        0.9201041422784328,
        45.55191798135638,
        298.79999999999995
      ],
      [
        0.9202220756560564,
        45.551834078505635,
        298.4
      ],
      [
        0.9202778153121471,
        45.55180734023452,
        298
      ],
      [
        0.9203513246029615,
        45.55174631997943,
        297.79999999999995
      ],
      [
        0.920450733974576,
        45.551639534533024,
        298.79999999999995
      ],
      [
        0.9204617142677307,
        45.55160139687359,
        299.20000000000005
      ],
      [
        0.9204779751598835,
        45.551536520943046,
        299.79999999999995
      ],
      [
        0.9204924758523703,
        45.55146401748061,
        299.79999999999995
      ],
      [
        0.9204961638897657,
        45.551422107964754,
        299.79999999999995
      ],
      [
        0.9205353911966085,
        45.551303839311004,
        299.4
      ],
      [
        0.9204607922583818,
        45.55119319818914,
        299.20000000000005
      ],
      [
        0.9203599579632282,
        45.551120694726706,
        299
      ],
      [
        0.9202467184513807,
        45.55104064755142,
        298.79999999999995
      ],
      [
        0.9202240034937859,
        45.551021536812186,
        298.79999999999995
      ],
      [
        0.9202084969729185,
        45.5510139092803,
        299
      ],
      [
        0.920029878616333,
        45.55095288902521,
        299.4
      ],
      [
        0.9199483226984739,
        45.550964288413525,
        299.79999999999995
      ],
      [
        0.9198826923966408,
        45.5509605165571,
        300
      ],
      [
        0.9198650065809488,
        45.55095288902521,
        300.20000000000005
      ],
      [
        0.9197323210537434,
        45.55093377828598,
        300.6
      ],
      [
        0.9196101129055023,
        45.550926150754094,
        300.79999999999995
      ],
      [
        0.9194409660995007,
        45.55091475136578,
        301
      ],
      [
        0.9193040058016777,
        45.55091475136578,
        301
      ],
      [
        0.9191765170544386,
        45.55089949630201,
        301
      ],
      [
        0.9190578293055296,
        45.55087275803089,
        300.4
      ],
      [
        0.9189087152481079,
        45.550830764696,
        299.6
      ],
      [
        0.9187973197549582,
        45.55075448937714,
        299.4
      ],
      [
        0.9187576733529568,
        45.55071635171771,
        299.79999999999995
      ],
      [
        0.9186829067766666,
        45.55063622072339,
        299.79999999999995
      ],
      [
        0.9185747802257538,
        45.550567572936416,
        300.79999999999995
      ],
      [
        0.918524069711566,
        45.55054469034076,
        301.20000000000005
      ],
      [
        0.9184696711599827,
        45.55050655268133,
        301.6
      ],
      [
        0.9184182062745094,
        45.55046078749001,
        301.6
      ],
      [
        0.9184019453823566,
        45.55041879415512,
        301.6
      ],
      [
        0.9183625504374504,
        45.550331035628915,
        301.20000000000005
      ],
      [
        0.9183244127780199,
        45.55025861598551,
        300.20000000000005
      ],
      [
        0.9182806592434645,
        45.55017848499119,
        299.20000000000005
      ],
      [
        0.9182160347700119,
        45.55008695460856,
        299.20000000000005
      ],
      [
        0.9182102512568235,
        45.55007169954479,
        299
      ],
      [
        0.9181719459593296,
        45.550014451146126,
        298.79999999999995
      ],
      [
        0.9181437827646732,
        45.549995340406895,
        298.6
      ],
      [
        0.9181131049990654,
        45.54996105842292,
        298
      ],
      [
        0.9180772304534912,
        45.54989241063595,
        297.79999999999995
      ],
      [
        0.918011013418436,
        45.54980465210974,
        297.20000000000005
      ],
      [
        0.9179756417870522,
        45.549716893583536,
        297
      ],
      [
        0.9179732110351324,
        45.54970549419522,
        297
      ],
      [
        0.9179431200027466,
        45.549602480605245,
        296.6
      ],
      [
        0.9179550223052502,
        45.54949183948338,
        296.20000000000005
      ],
      [
        0.917953010648489,
        45.54941933602095,
        296
      ],
      [
        0.9179824311286211,
        45.549365943297744,
        295.6
      ]
    ]
  }
}
