{
  "type": "Feature",
  "properties": {},
  "geometry": {
    "type": "LineString",
    "coordinates": [
      [
        100.04576543346047,
        9.47257786989212
      ],
      [
        100.04576543346047,
        9.47257786989212
      ],
      [
        100.04577356390655,
        9.472582899034023
      ],
      [
        100.04564850591123,
        9.472577953711152
      ],
      [
        100.04557876847684,
        9.472601842135191
      ],
      [
        100.04556577652693,
        9.4725979026407
      ],
      [
        100.04554448649287,
        9.472640817984939
      ],
      [
        100.0454914290458,
        9.472655737772584
      ],
      [
        100.04546435549855,
        9.472681218758225
      ],
      [
        100.04534047096968,
        9.472734611481428
      ],
      [
        100.04526427946985,
        9.472753638401628
      ],
      [
        100.04520149901509,
        9.472762020304799
      ],
      [
        100.04516218788922,
        9.472771408036351
      ],
      [
        100.0451460108161,
        9.472779789939523
      ],
      [
        100.04500578157604,
        9.472819855436683
      ],
      [
        100.04483026452363,
        9.472901495173573
      ],
      [
        100.0447606947273,
        9.47293795645237
      ],
      [
        100.04473546519876,
        9.472954217344522
      ],
      [
        100.04458869807422,
        9.472979363054037
      ],
      [
        100.0444065593183,
        9.47303812019527
      ],
      [
        100.04423229955137,
        9.473093608394265
      ],
      [
        100.04418435506523,
        9.473103666678071
      ],
      [
        100.0441631488502,
        9.473108192905784
      ],
      [
        100.04410774447024,
        9.473116490989923
      ],
      [
        100.0439990311861,
        9.473128225654364
      ],
      [
        100.04380616359413,
        9.473169045522809
      ],
      [
        100.04379660822451,
        9.473172146826982
      ],
      [
        100.04371203482151,
        9.473193101584911
      ],
      [
        100.04366903565824,
        9.473201483488083
      ],
      [
        100.04364523105323,
        9.473206847906113
      ],
      [
        100.04358387552202,
        9.473212631419301
      ],
      [
        100.04357197321951,
        9.473219336941838
      ],
      [
        100.04339662380517,
        9.47326677851379
      ],
      [
        100.04336678422987,
        9.473271891474724
      ],
      [
        100.04319185391068,
        9.47330885566771
      ],
      [
        100.04311566241086,
        9.473348334431648
      ],
      [
        100.04307492636144,
        9.473359817638993
      ],
      [
        100.04304676316679,
        9.473361829295754
      ],
      [
        100.04303838126361,
        9.473361074924469
      ],
      [
        100.04291030578315,
        9.473396698012948
      ],
      [
        100.04290100187063,
        9.473405247554183
      ],
      [
        100.04287946037948,
        9.473414216190577
      ],
      [
        100.04279907792807,
        9.473451348021626
      ],
      [
        100.04273051396012,
        9.473498370498419
      ],
      [
        100.04257033579051,
        9.473574813455343
      ],
      [
        100.04253881983459,
        9.473586296662688
      ],
      [
        100.04248693585396,
        9.473602222278714
      ],
      [
        100.04238911904395,
        9.473632564768195
      ],
      [
        100.04236598499119,
        9.473653184249997
      ],
      [
        100.04227939993143,
        9.473713282495737
      ],
      [
        100.04224528558552,
        9.473729124292731
      ],
      [
        100.04223849624395,
        9.473736081272364
      ],
      [
        100.04219960421324,
        9.473746055737138
      ],
      [
        100.04217102192342,
        9.473750330507755
      ],
      [
        100.04214654676616,
        9.473754605278373
      ],
      [
        100.04211989231408,
        9.473760388791561
      ],
      [
        100.04208317957819,
        9.473769692704082
      ],
      [
        100.04198100417852,
        9.473776733502746
      ],
      [
        100.04193272441626,
        9.473783522844315
      ],
      [
        100.04189089871943,
        9.473783103749156
      ],
      [
        100.0418437924236,
        9.473799532279372
      ],
      [
        100.04168218933046,
        9.473893493413925
      ],
      [
        100.04162167198956,
        9.473927272483706
      ],
      [
        100.04156953655183,
        9.473942276090384
      ],
      [
        100.04155553877354,
        9.473946383222938
      ],
      [
        100.04150080494583,
        9.473976474255323
      ],
      [
        100.04149183630943,
        9.473983263596892
      ],
      [
        100.04136300645769,
        9.474118547514081
      ],
      [
        100.04134029150009,
        9.474147213622928
      ],
      [
        100.04131338559091,
        9.474199349060655
      ],
      [
        100.0411931052804,
        9.474336560815573
      ],
      [
        100.04114021547139,
        9.474364472553134
      ],
      [
        100.04110995680094,
        9.474374949932098
      ],
      [
        100.04093619994819,
        9.47441945783794
      ],
      [
        100.04091097041965,
        9.474434293806553
      ],
      [
        100.04082807339728,
        9.474460696801543
      ],
      [
        100.04081969149411,
        9.474463379010558
      ],
      [
        100.04075850360096,
        9.474514089524746
      ],
      [
        100.04072648473084,
        9.474552646279335
      ],
      [
        100.04058985970914,
        9.47463302873075
      ],
      [
        100.0405852496624,
        9.474634621292353
      ],
      [
        100.04056186415255,
        9.474643170833588
      ],
      [
        100.04047016613185,
        9.474667394533753
      ],
      [
        100.04029121249914,
        9.474711818620563
      ],
      [
        100.04010563716292,
        9.474750626832247
      ],
      [
        100.03991955891252,
        9.474772000685334
      ],
      [
        100.039730546996,
        9.474789518862963
      ],
      [
        100.03960967995226,
        9.47481726296246
      ],
      [
        100.0394990388304,
        9.474814748391509
      ],
      [
        100.03937222063541,
        9.474819861352444
      ],
      [
        100.03920894116163,
        9.474750710651278
      ],
      [
        100.03908388316631,
        9.474721541628242
      ],
      [
        100.03899671137333,
        9.474688181653619
      ],
      [
        100.03880233503878,
        9.474667562171817
      ],
      [
        100.03868415020406,
        9.474695306271315
      ],
      [
        100.03850033506751,
        9.474730426445603
      ],
      [
        100.03831341862679,
        9.474750459194183
      ],
      [
        100.03819623962045,
        9.474739395081997
      ],
      [
        100.03805961459875,
        9.47473512031138
      ],
      [
        100.03794235177338,
        9.474747525528073
      ],
      [
        100.03776054829359,
        9.474762948229909
      ],
      [
        100.0376878771931,
        9.47478742338717
      ],
      [
        100.03751546144485,
        9.474857496097684
      ],
      [
        100.0373438000679,
        9.474948607385159
      ],
      [
        100.03728454001248,
        9.474986996501684
      ],
      [
        100.03710097633302,
        9.474989008158445
      ],
      [
        100.03705261275172,
        9.474995965138078
      ],
      [
        100.03700743429363,
        9.475000910460949
      ],
      [
        100.03699569962919,
        9.475000826641917
      ],
      [
        100.03696309402585,
        9.475009711459279
      ],
      [
        100.03693794831634,
        9.475021529942751
      ],
      [
        100.03686879761517,
        9.475044663995504
      ],
      [
        100.03668950870633,
        9.47511289268732
      ],
      [
        100.03662957809865,
        9.475115742534399
      ],
      [
        100.03648691810668,
        9.475149186328053
      ],
      [
        100.03637870773673,
        9.475194700062275
      ],
      [
        100.03619506023824,
        9.475233675912023
      ],
      [
        100.03601535223424,
        9.475279692560434
      ],
      [
        100.03592784516513,
        9.475308442488313
      ],
      [
        100.03590420819819,
        9.475315231829882
      ],
      [
        100.03589213825762,
        9.475320260971785
      ],
      [
        100.03585408441722,
        9.475333336740732
      ],
      [
        100.03581846132874,
        9.475345574319363
      ],
      [
        100.03579616546631,
        9.475352363660932
      ],
      [
        100.03568527288735,
        9.475371222943068
      ],
      [
        100.03558477386832,
        9.475392680615187
      ],
      [
        100.03554739058018,
        9.475394356995821
      ],
      [
        100.0355358235538,
        9.475367199629545
      ],
      [
        100.03551847301424,
        9.475306263193488
      ],
      [
        100.0354911480099,
        9.475274831056595
      ],
      [
        100.03545409999788,
        9.475238621234894
      ],
      [
        100.03538050688803,
        9.475252870470285
      ],
      [
        100.03522410057485,
        9.475363343954086
      ],
      [
        100.03515411168337,
        9.475418413057923
      ],
      [
        100.0351058319211,
        9.475471889600158
      ],
      [
        100.03507917746902,
        9.475484797731042
      ],
      [
        100.03507406450808,
        9.47548815049231
      ],
      [
        100.03507875837386,
        9.475501729175448
      ],
      [
        100.03507934510708,
        9.47550030425191
      ],
      [
        100.03507657907903,
        9.475508350878954
      ],
      [
        100.03507129848003,
        9.47552134282887
      ],
      [
        100.03507758490741,
        9.475519834086299
      ],
      [
        100.03507716581225,
        9.475521510466933
      ],
      [
        100.03507548943162,
        9.475522600114346
      ],
      [
        100.0350785907358,
        9.475524947047234
      ],
      [
        100.03509258851409,
        9.475525030866265
      ],
      [
        100.03509560599923,
        9.475530730560422
      ],
      [
        100.03508982248604,
        9.475536765530705
      ],
      [
        100.03507649526,
        9.475559145212173
      ],
      [
        100.0350680295378,
        9.475575657561421
      ],
      [
        100.03493576310575,
        9.475670205429196
      ],
      [
        100.03491430543363,
        9.47568646632135
      ],
      [
        100.03489033319056,
        9.475701386108994
      ],
      [
        100.03475991077721,
        9.475830802693963
      ],
      [
        100.034682713449,
        9.475910346955061
      ],
      [
        100.03467324189842,
        9.475915879011154
      ],
      [
        100.03464139066637,
        9.47594060562551
      ],
      [
        100.03454248420894,
        9.476046552881598
      ],
      [
        100.03447274677455,
        9.476096173748374
      ],
      [
        100.03445522859693,
        9.476118218153715
      ],
      [
        100.0344065297395,
        9.476166581735015
      ],
      [
        100.03431206569076,
        9.47622844018042
      ],
      [
        100.03425372764468,
        9.476271606981754
      ],
      [
        100.03423252142966,
        9.476300524547696
      ],
      [
        100.03414669074118,
        9.476368501782417
      ],
      [
        100.03412959165871,
        9.476380739361048
      ],
      [
        100.0340124964714,
        9.476498002186418
      ],
      [
        100.03400386311114,
        9.476502360776067
      ],
      [
        100.03390688449144,
        9.476581737399101
      ],
      [
        100.0338990893215,
        9.476588862016797
      ],
      [
        100.0338293518871,
        9.476653570309281
      ],
      [
        100.0337344687432,
        9.476767061278224
      ],
      [
        100.03368493169546,
        9.47681282646954
      ],
      [
        100.03365710377693,
        9.476838978007436
      ],
      [
        100.03364050760865,
        9.476856077089906
      ],
      [
        100.03351603634655,
        9.47699110955
      ],
      [
        100.03339441493154,
        9.477091692388058
      ],
      [
        100.03326684236526,
        9.477233178913593
      ],
      [
        100.03324345685542,
        9.477261258289218
      ],
      [
        100.0332148745656,
        9.477295875549316
      ],
      [
        100.03315569832921,
        9.477375503629446
      ],
      [
        100.0331096816808,
        9.477430237457156
      ],
      [
        100.03305880352855,
        9.477519672363997
      ],
      [
        100.03293047659099,
        9.477658476680517
      ],
      [
        100.03285076469183,
        9.47775143198669
      ],
      [
        100.03278940916061,
        9.477812368422747
      ],
      [
        100.03267826512456,
        9.477933486923575
      ],
      [
        100.03266829065979,
        9.477942120283842
      ],
      [
        100.03251959569752,
        9.478045804426074
      ],
      [
        100.03245413303375,
        9.478083942085505
      ],
      [
        100.03231826238334,
        9.478163486346602
      ],
      [
        100.03228926099837,
        9.478195253759623
      ],
      [
        100.03222832456231,
        9.47828116826713
      ],
      [
        100.03211064264178,
        9.478420726954937
      ],
      [
        100.03207351081073,
        9.478473030030727
      ],
      [
        100.0320546515286,
        9.478493062779307
      ],
      [
        100.03199966624379,
        9.478582749143243
      ],
      [
        100.03198952414095,
        9.478593561798334
      ],
      [
        100.03196001984179,
        9.47866665199399
      ],
      [
        100.0319423340261,
        9.47870914824307
      ],
      [
        100.03186413086951,
        9.478872260078788
      ],
      [
        100.03179422579706,
        9.479041490703821
      ],
      [
        100.03171937540174,
        9.479213571175933
      ],
      [
        100.03169414587319,
        9.479353548958898
      ],
      [
        100.03167998045683,
        9.479393865913153
      ],
      [
        100.03166623413563,
        9.47943820618093
      ],
      [
        100.03163279034197,
        9.4795261323452
      ],
      [
        100.03154779784381,
        9.479687986895442
      ],
      [
        100.03153304569423,
        9.479712462052703
      ],
      [
        100.03148837015033,
        9.479892086237669
      ],
      [
        100.03146096132696,
        9.479966601356864
      ],
      [
        100.0314224883914,
        9.480114122852683
      ],
      [
        100.03140522167087,
        9.480177825316787
      ],
      [
        100.03140036016703,
        9.480239935219288
      ],
      [
        100.03137085586786,
        9.480299782007933
      ],
      [
        100.03136649727821,
        9.480371531099081
      ],
      [
        100.03135677427053,
        9.480418050661683
      ],
      [
        100.03134101629257,
        9.480448728427291
      ],
      [
        100.03130941651762,
        9.480543276295066
      ],
      [
        100.03130690194666,
        9.480557441711426
      ],
      [
        100.03130254335701,
        9.480567667633295
      ],
      [
        100.03128527663648,
        9.480604380369186
      ],
      [
        100.0312633998692,
        9.480640003457665
      ],
      [
        100.03126222640276,
        9.480649558827281
      ],
      [
        100.03122995607555,
        9.480713596567512
      ],
      [
        100.03117321059108,
        9.480890119448304
      ],
      [
        100.03112895414233,
        9.481025822460651
      ],
      [
        100.03111051395535,
        9.481057422235608
      ],
      [
        100.03106558695436,
        9.481117688119411
      ],
      [
        100.0310612283647,
        9.481128919869661
      ],
      [
        100.03102258779109,
        9.481184994801879
      ],
      [
        100.03100389614701,
        9.48123486712575
      ],
      [
        100.03096609376371,
        9.481285996735096
      ],
      [
        100.03094497136772,
        9.481308544054627
      ],
      [
        100.03092108294368,
        9.481337629258633
      ],
      [
        100.03090775571764,
        9.48135162703693
      ],
      [
        100.0308730546385,
        9.481382723897696
      ],
      [
        100.03085494972765,
        9.481404684484005
      ],
      [
        100.03083801828325,
        9.481416922062635
      ],
      [
        100.03079770132899,
        9.481463190168142
      ],
      [
        100.03076702356339,
        9.481499316170812
      ],
      [
        100.03063115291297,
        9.481635270640254
      ],
      [
        100.03057683818042,
        9.481700649484992
      ],
      [
        100.03056560643017,
        9.481710372492671
      ],
      [
        100.03049938939512,
        9.481777008622885
      ],
      [
        100.03046711906791,
        9.481873232871294
      ],
      [
        100.03042562864721,
        9.481951519846916
      ],
      [
        100.03036511130631,
        9.482007846236229
      ],
      [
        100.03035094588995,
        9.48201036080718
      ],
      [
        100.03019956871867,
        9.482113793492317
      ],
      [
        100.03015296533704,
        9.482144806534052
      ],
      [
        100.03007845021784,
        9.4821716286242
      ],
      [
        100.03000033088028,
        9.482201635837555
      ],
      [
        100.0299636181444,
        9.482233319431543
      ],
      [
        100.02991181798279,
        9.482280844822526
      ],
      [
        100.02990167587996,
        9.482290735468268
      ],
      [
        100.02984090708196,
        9.482331722974777
      ],
      [
        100.02982020378113,
        9.48235628195107
      ],
      [
        100.0297490414232,
        9.482421157881618
      ],
      [
        100.02968450076878,
        9.482479831203818
      ],
      [
        100.02952532842755,
        9.482587957754731
      ],
      [
        100.02945458516479,
        9.482618970796466
      ],
      [
        100.02941133454442,
        9.482642021030188
      ],
      [
        100.02938501536846,
        9.482655432075262
      ],
      [
        100.02934218384326,
        9.482680326327682
      ],
      [
        100.02932106144726,
        9.482696754857898
      ],
      [
        100.0292688421905,
        9.482729528099298
      ],
      [
        100.02926096320152,
        9.482733132317662
      ],
      [
        100.02920589409769,
        9.482758110389113
      ],
      [
        100.02906139008701,
        9.482805049046874
      ],
      [
        100.02903079614043,
        9.482818879187107
      ],
      [
        100.02900782972574,
        9.482835056260228
      ],
      [
        100.02893012948334,
        9.48291476815939
      ],
      [
        100.02892166376114,
        9.482926167547703
      ],
      [
        100.02884170040488,
        9.482990708202124
      ],
      [
        100.0288166385144,
        9.483031528070569
      ],
      [
        100.02877405844629,
        9.483065558597445
      ],
      [
        100.02865847200155,
        9.483145102858543
      ],
      [
        100.0286456476897,
        9.483170919120312
      ],
      [
        100.0286247767508,
        9.483190281316638
      ],
      [
        100.02853986807168,
        9.483227664604783
      ],
      [
        100.02851807512343,
        9.483235962688923
      ],
      [
        100.02850709483027,
        9.483246523886919
      ],
      [
        100.02846007235348,
        9.483286337926984
      ],
      [
        100.02842872403562,
        9.483325565233827
      ],
      [
        100.02841162495315,
        9.483352806419134
      ],
      [
        100.02829193137586,
        9.483444336801767
      ],
      [
        100.02828069962561,
        9.483447186648846
      ],
      [
        100.02821708098054,
        9.48347333818674
      ],
      [
        100.02820316702127,
        9.483482642099261
      ],
      [
        100.02815220504999,
        9.483505859971046
      ],
      [
        100.02798993140459,
        9.483554977923632
      ],
      [
        100.02788817510009,
        9.483610801398754
      ],
      [
        100.02786227501929,
        9.483621446415782
      ],
      [
        100.02780703827739,
        9.483657907694578
      ],
      [
        100.02778164111078,
        9.483681628480554
      ],
      [
        100.02773369662464,
        9.48371808975935
      ],
      [
        100.02769036218524,
        9.483745079487562
      ],
      [
        100.02767125144601,
        9.483757568523288
      ],
      [
        100.02765876241028,
        9.483758322894573
      ],
      [
        100.02755893394351,
        9.483788749203086
      ],
      [
        100.02749397419393,
        9.483809703961015
      ],
      [
        100.02745994366705,
        9.483813559636474
      ],
      [
        100.02735416404903,
        9.483822947368026
      ],
      [
        100.02730772830546,
        9.483824037015438
      ],
      [
        100.02711863256991,
        9.483809871599078
      ],
      [
        100.0270726159215,
        9.483799561858177
      ],
      [
        100.02706155180931,
        9.483796376734972
      ],
      [
        100.02688905224204,
        9.483848847448826
      ],
      [
        100.02671546302736,
        9.483919255435467
      ],
      [
        100.02662108279765,
        9.483958147466183
      ],
      [
        100.02659778110683,
        9.483965020626783
      ],
      [
        100.02642955631018,
        9.484035763889551
      ],
      [
        100.02637457102537,
        9.48406107723713
      ],
      [
        100.02635705284774,
        9.484060322865844
      ],
      [
        100.02634598873556,
        9.484050935134292
      ],
      [
        100.02633626572788,
        9.484057137742639
      ],
      [
        100.02633567899466,
        9.484059233218431
      ],
      [
        100.02633794210851,
        9.484051605686545
      ],
      [
        100.02634850330651,
        9.484058311209083
      ],
      [
        100.02635478973389,
        9.484071554616094
      ],
      [
        100.02635654993355,
        9.484069123864174
      ],
      [
        100.02634841948748,
        9.484057556837797
      ],
      [
        100.02634095959365,
        9.484065352007747
      ],
      [
        100.02629016526043,
        9.48407532647252
      ],
      [
        100.02623786218464,
        9.484127294272184
      ],
      [
        100.02621690742671,
        9.484148332849145
      ],
      [
        100.02618539147079,
        9.484206838533282
      ],
      [
        100.02619125880301,
        9.48421991430223
      ],
      [
        100.02623819746077,
        9.48429468087852
      ],
      [
        100.02625169232488,
        9.484301889315248
      ],
      [
        100.02629888243973,
        9.484411273151636
      ],
      [
        100.02641547471285,
        9.48455267585814
      ],
      [
        100.02650457434356,
        9.484692150726914
      ],
      [
        100.02651404589415,
        9.484714278951287
      ],
      [
        100.02652972005308,
        9.484746884554625
      ],
      [
        100.02665461041033,
        9.484889544546604
      ],
      [
        100.0267993658781,
        9.484993228688836
      ],
      [
        100.02682819962502,
        9.485014015808702
      ],
      [
        100.02688276581466,
        9.485037485137582
      ],
      [
        100.02697052434087,
        9.485084507614374
      ],
      [
        100.02714780159295,
        9.485131949186325
      ],
      [
        100.02719398587942,
        9.485137229785323
      ],
      [
        100.02728291787207,
        9.48518349789083
      ],
      [
        100.02738073468208,
        9.485182827338576
      ],
      [
        100.02752272412181,
        9.485220545902848
      ],
      [
        100.0275440979749,
        9.485226916149259
      ],
      [
        100.02767133526504,
        9.485267903655767
      ],
      [
        100.02774115651846,
        9.485275112092495
      ],
      [
        100.02776940353215,
        9.485274609178305
      ],
      [
        100.02780871465802,
        9.485263293609023
      ],
      [
        100.02782455645502,
        9.485334539785981
      ],
      [
        100.02781977877021,
        9.485362032428384
      ],
      [
        100.02781977877021,
        9.485362032428384
      ],
      [
        100.02781650982797,
        9.48538038879633
      ],
      [
        100.02782036550343,
        9.485435709357262
      ],
      [
        100.02783855423331,
        9.485619273036718
      ],
      [
        100.02787417732179,
        9.485739218071103
      ],
      [
        100.02789043821394,
        9.48580409400165
      ],
      [
        100.02792748622596,
        9.485959243029356
      ],
      [
        100.0279497820884,
        9.486020095646381
      ],
      [
        100.02799303270876,
        9.486149847507477
      ],
      [
        100.02799705602229,
        9.486194187775254
      ],
      [
        100.02802991308272,
        9.48630591854453
      ],
      [
        100.02800376154482,
        9.486413206905127
      ],
      [
        100.02799554727972,
        9.486459894105792
      ],
      [
        100.02799403853714,
        9.48647053912282
      ],
      [
        100.02799236215651,
        9.486478166654706
      ],
      [
        100.02798020839691,
        9.48650767095387
      ],
      [
        100.02797652035952,
        9.486517729237676
      ],
      [
        100.02791893668473,
        9.486639434471726
      ],
      [
        100.02789999358356,
        9.486681092530489
      ],
      [
        100.02786797471344,
        9.486801121383905
      ],
      [
        100.02785867080092,
        9.486981583759189
      ],
      [
        100.02786319702864,
        9.487167159095407
      ],
      [
        100.02787266857922,
        9.48727142997086
      ],
      [
        100.0278757698834,
        9.487366396933794
      ],
      [
        100.02788180485368,
        9.487377125769854
      ],
      [
        100.0278860796243,
        9.487423310056329
      ],
      [
        100.02789714373648,
        9.487476786598563
      ],
      [
        100.02789999358356,
        9.48751769028604
      ],
      [
        100.02791759558022,
        9.48754501529038
      ],
      [
        100.02791943959892,
        9.487565299496055
      ],
      [
        100.02792857587337,
        9.487643921747804
      ],
      [
        100.02792052924633,
        9.487672671675682
      ],
      [
        100.02791072241962,
        9.487739726901054
      ],
      [
        100.02786512486637,
        9.48791591450572
      ],
      [
        100.0278982333839,
        9.48802974075079
      ],
      [
        100.02790024504066,
        9.488053880631924
      ],
      [
        100.02791893668473,
        9.488114984706044
      ],
      [
        100.02793997526169,
        9.488250268623233
      ],
      [
        100.02799160778522,
        9.488281030207872
      ],
      [
        100.02800024114549,
        9.488291256129742
      ],
      [
        100.02813233993948,
        9.488417655229568
      ],
      [
        100.02817290835083,
        9.48845093138516
      ],
      [
        100.02819419838488,
        9.48846761137247
      ],
      [
        100.02821490168571,
        9.488481860607862
      ],
      [
        100.02825790084898,
        9.488549837842584
      ],
      [
        100.02826795913279,
        9.48855654336512
      ],
      [
        100.02830098383129,
        9.488592082634568
      ],
      [
        100.0283937714994,
        9.488684702664614
      ],
      [
        100.02843174152076,
        9.488710770383477
      ],
      [
        100.02846929244697,
        9.488742286339402
      ],
      [
        100.02850667573512,
        9.488775813952088
      ],
      [
        100.02852503210306,
        9.488796684890985
      ],
      [
        100.02861798740923,
        9.488953342661262
      ],
      [
        100.0286662671715,
        9.489128105342388
      ],
      [
        100.02874497324228,
        9.489234974607825
      ],
      [
        100.02887195907533,
        9.489374533295631
      ],
      [
        100.02887438982725,
        9.489442510530353
      ],
      [
        100.02890104427934,
        9.489500680938363
      ],
      [
        100.02898176200688,
        9.489621464163065
      ],
      [
        100.02908385358751,
        9.489746186882257
      ],
      [
        100.02908661961555,
        9.489759681746364
      ],
      [
        100.02906197682023,
        9.489819444715977
      ],
      [
        100.02904169261456,
        9.489850290119648
      ],
      [
        100.02901688218117,
        9.489930504933
      ],
      [
        100.02895846031606,
        9.490026058629155
      ],
      [
        100.02887078560889,
        9.490198893472552
      ],
      [
        100.0288422871381,
        9.490245496854186
      ],
      [
        100.02882527187467,
        9.49029360897839
      ],
      [
        100.02881445921957,
        9.490314731374383
      ],
      [
        100.02880482003093,
        9.490326046943665
      ],
      [
        100.02868973650038,
        9.49046166613698
      ],
      [
        100.02863449975848,
        9.49063315987587
      ],
      [
        100.02863827161491,
        9.490678757429123
      ],
      [
        100.02864548005164,
        9.490726785734296
      ],
      [
        100.02866065129638,
        9.49077875353396
      ],
      [
        100.02865528687835,
        9.490905739367008
      ],
      [
        100.02861714921892,
        9.490970699116588
      ],
      [
        100.02861354500055,
        9.49098302051425
      ],
      [
        100.02861270681024,
        9.491012189537287
      ],
      [
        100.02861086279154,
        9.49102308601141
      ],
      [
        100.02860834822059,
        9.491035155951977
      ],
      [
        100.02860407344997,
        9.491089219227433
      ],
      [
        100.02860818058252,
        9.491131966933608
      ],
      [
        100.02861874178052,
        9.491243613883853
      ],
      [
        100.02861756831408,
        9.491264820098877
      ],
      [
        100.02863391302526,
        9.491323325783014
      ],
      [
        100.02863944508135,
        9.491345370188355
      ],
      [
        100.02865009009838,
        9.491433715447783
      ],
      [
        100.02865369431674,
        9.491461459547281
      ],
      [
        100.02865444868803,
        9.491492891684175
      ],
      [
        100.02865168265998,
        9.491541422903538
      ],
      [
        100.0286493357271,
        9.491552067920566
      ],
      [
        100.02864548005164,
        9.491603281348944
      ],
      [
        100.0286493357271,
        9.491696991026402
      ],
      [
        100.02865545451641,
        9.49172087945044
      ],
      [
        100.02865612506866,
        9.491731273010373
      ],
      [
        100.02866752445698,
        9.49178877286613
      ],
      [
        100.02867691218853,
        9.491821294650435
      ],
      [
        100.02867590636015,
        9.491842417046428
      ],
      [
        100.0286559574306,
        9.491918440908194
      ],
      [
        100.02864732407033,
        9.491965882480145
      ],
      [
        100.02864330075681,
        9.491992453113198
      ],
      [
        100.02864967100322,
        9.492077277973294
      ],
      [
        100.02864371985197,
        9.492096304893494
      ],
      [
        100.02858655527234,
        9.492203090339899
      ],
      [
        100.02856484614313,
        9.492248268797994
      ],
      [
        100.02851489000022,
        9.49236142449081
      ],
      [
        100.02846711315215,
        9.492476843297482
      ],
      [
        100.02836518920958,
        9.492633333429694
      ],
      [
        100.0283485930413,
        9.49265219271183
      ],
      [
        100.02834691666067,
        9.492658227682114
      ],
      [
        100.02833878621459,
        9.492703909054399
      ],
      [
        100.02831774763763,
        9.492790158838034
      ],
      [
        100.02831808291376,
        9.492806419730186
      ],
      [
        100.02832545898855,
        9.49281974695623
      ],
      [
        100.02833317033947,
        9.49285989627242
      ],
      [
        100.02831573598087,
        9.492900632321835
      ],
      [
        100.02828036434948,
        9.49295561760664
      ],
      [
        100.02826862968504,
        9.492987049743533
      ],
      [
        100.0282397121191,
        9.49302988126874
      ],
      [
        100.0281952880323,
        9.493212020024657
      ],
      [
        100.02819059416652,
        9.493235908448696
      ],
      [
        100.02818539738655,
        9.493244709447026
      ],
      [
        100.02809059806168,
        9.493404133245349
      ],
      [
        100.02798934467137,
        9.493571184575558
      ],
      [
        100.02798456698656,
        9.493597587570548
      ],
      [
        100.02794777043164,
        9.493688950315118
      ],
      [
        100.02794005908072,
        9.493728931993246
      ],
      [
        100.02791415899992,
        9.493818869814277
      ],
      [
        100.02785582095385,
        9.49395976960659
      ],
      [
        100.02783436328173,
        9.493996063247323
      ],
      [
        100.02782455645502,
        9.494013832882047
      ],
      [
        100.0278284959495,
        9.49407166801393
      ],
      [
        100.02784651704133,
        9.494111649692059
      ],
      [
        100.02785841934383,
        9.494137214496732
      ],
      [
        100.0278583355248,
        9.494147021323442
      ],
      [
        100.02785028889775,
        9.494196977466345
      ],
      [
        100.02783553674817,
        9.494213657453656
      ],
      [
        100.02781567163765,
        9.494236707687378
      ],
      [
        100.02780871465802,
        9.494244754314423
      ],
      [
        100.02777074463665,
        9.494271911680698
      ],
      [
        100.02770494669676,
        9.494315665215254
      ],
      [
        100.0277026835829,
        9.49436092749238
      ],
      [
        100.02770947292447,
        9.494408452883363
      ],
      [
        100.02772447653115,
        9.494444327428937
      ],
      [
        100.02772615291178,
        9.494623532518744
      ],
      [
        100.02772690728307,
        9.494651779532433
      ],
      [
        100.02771592698991,
        9.494736436754465
      ],
      [
        100.02771978266537,
        9.494772562757134
      ],
      [
        100.02772975713015,
        9.494815478101373
      ],
      [
        100.02774425782263,
        9.494851855561137
      ],
      [
        100.02775892615318,
        9.495010441169143
      ],
      [
        100.02778868190944,
        9.495185790583491
      ],
      [
        100.02780552953482,
        9.495211690664291
      ],
      [
        100.0278099719435,
        9.495225856080651
      ],
      [
        100.02784701995552,
        9.495406150817871
      ],
      [
        100.02787275239825,
        9.495554091408849
      ],
      [
        100.02787769772112,
        9.495588205754757
      ],
      [
        100.02789940685034,
        9.49563279747963
      ],
      [
        100.02791608683765,
        9.495710162445903
      ],
      [
        100.0279320962727,
        9.495732123032212
      ],
      [
        100.02796143293381,
        9.495820552110672
      ],
      [
        100.02797735854983,
        9.495838824659586
      ],
      [
        100.02803393639624,
        9.495915686711669
      ],
      [
        100.02808313816786,
        9.495949381962419
      ],
      [
        100.02811406739056,
        9.495978048071265
      ],
      [
        100.02815161831677,
        9.496009396389127
      ],
      [
        100.02823619171977,
        9.496041918173432
      ],
      [
        100.02828790806234,
        9.49605843052268
      ],
      [
        100.02845856361091,
        9.49610486626625
      ],
      [
        100.02860516309738,
        9.496143842115998
      ],
      [
        100.02878218889236,
        9.496198827400804
      ],
      [
        100.02879409119487,
        9.496226320043206
      ],
      [
        100.02883801236749,
        9.496259512379766
      ],
      [
        100.02892878837883,
        9.496280886232853
      ],
      [
        100.02898486331105,
        9.496303517371416
      ],
      [
        100.02901235595345,
        9.49630661867559
      ],
      [
        100.02919181250036,
        9.49635112658143
      ],
      [
        100.0292379129678,
        9.496375434100628
      ],
      [
        100.02928694710135,
        9.496402340009809
      ],
      [
        100.02933371812105,
        9.496425641700625
      ],
      [
        100.02938518300653,
        9.496448189020157
      ],
      [
        100.029526501894,
        9.496567463502288
      ],
      [
        100.02954117022455,
        9.496583975851536
      ],
      [
        100.02958115190268,
        9.496639044955373
      ],
      [
        100.0296113267541,
        9.496697634458542
      ],
      [
        100.02971635200083,
        9.49680064804852
      ],
      [
        100.02976639196277,
        9.496830068528652
      ],
      [
        100.02981919795275,
        9.49688614346087
      ],
      [
        100.02984166145325,
        9.496897710487247
      ],
      [
        100.02999027259648,
        9.496917743235826
      ],
      [
        100.03001525066793,
        9.496917491778731
      ],
      [
        100.03014391288161,
        9.49691011570394
      ],
      [
        100.03022085875273,
        9.49691548012197
      ],
      [
        100.03028984181583,
        9.496919335797429
      ],
      [
        100.03035421483219,
        9.496899135410786
      ],
      [
        100.03042135387659,
        9.496896201744676
      ],
      [
        100.03045085817575,
        9.496888993307948
      ],
      [
        100.03047726117074,
        9.496888155117631
      ],
      [
        100.03049016930163,
        9.49688664637506
      ],
      [
        100.03067633137107,
        9.496897961944342
      ],
      [
        100.03085318952799,
        9.496852196753025
      ],
      [
        100.03093348816037,
        9.496856052428484
      ],
      [
        100.03094748593867,
        9.496852699667215
      ],
      [
        100.03097732551396,
        9.49684901162982
      ],
      [
        100.03107966855168,
        9.496833588927984
      ],
      [
        100.03113104961812,
        9.496832164004445
      ],
      [
        100.03119341097772,
        9.496827637776732
      ],
      [
        100.03122107125819,
        9.49681674130261
      ],
      [
        100.03127647563815,
        9.496797630563378
      ],
      [
        100.03131377510726,
        9.496796038001776
      ],
      [
        100.03148728050292,
        9.496742393821478
      ],
      [
        100.0316333770752,
        9.496724959462881
      ],
      [
        100.03168199211359,
        9.496735269203782
      ],
      [
        100.03176329657435,
        9.496718002483249
      ],
      [
        100.0317903701216,
        9.4966877438128
      ],
      [
        100.03185507841408,
        9.496663436293602
      ],
      [
        100.0318836607039,
        9.496646923944354
      ],
      [
        100.03194116055965,
        9.496610295027494
      ],
      [
        100.03198969177902,
        9.496590094640851
      ],
      [
        100.03210854716599,
        9.496512897312641
      ],
      [
        100.0321894325316,
        9.496441734954715
      ],
      [
        100.0322084594518,
        9.496419774368405
      ],
      [
        100.0322948768735,
        9.49631692841649
      ],
      [
        100.03230485133827,
        9.496275940909982
      ],
      [
        100.03235162235796,
        9.496210981160402
      ],
      [
        100.03240803256631,
        9.496101262047887
      ],
      [
        100.03245647996664,
        9.495958685874939
      ],
      [
        100.03248707391322,
        9.495901353657246
      ],
      [
        100.0324981380254,
        9.495881153270602
      ],
      [
        100.03251096233726,
        9.49586195871234
      ],
      [
        100.03259838558733,
        9.495776882395148
      ],
      [
        100.0326173286885,
        9.495746288448572
      ],
      [
        100.03265580162406,
        9.49569490738213
      ],
      [
        100.03269695676863,
        9.495650315657258
      ],
      [
        100.03274632617831,
        9.495593821629882
      ],
      [
        100.03277054987848,
        9.495569681748748
      ],
      [
        100.03279871307313,
        9.495527520775795
      ],
      [
        100.03280801698565,
        9.49551846832037
      ],
      [
        100.03286082297564,
        9.495490221306682
      ],
      [
        100.03288521431386,
        9.4954530056566
      ],
      [
        100.03292704001069,
        9.495411096140742
      ],
      [
        100.03294179216027,
        9.495391063392162
      ],
      [
        100.03295788541436,
        9.495370611548424
      ],
      [
        100.03297062590718,
        9.495343957096338
      ],
      [
        100.03299015574157,
        9.495317051187158
      ],
      [
        100.03311051987112,
        9.495184700936079
      ],
      [
        100.0331231765449,
        9.495161231607199
      ],
      [
        100.03315745852888,
        9.495104234665632
      ],
      [
        100.03317765891552,
        9.495080262422562
      ],
      [
        100.03323088400066,
        9.495021756738424
      ],
      [
        100.03325745463371,
        9.494973560795188
      ],
      [
        100.03329182043672,
        9.494937602430582
      ],
      [
        100.03332501277328,
        9.49487004429102
      ],
      [
        100.03336859866977,
        9.494748758152127
      ],
      [
        100.03337605856359,
        9.494734676554799
      ],
      [
        100.03339466638863,
        9.494708692654967
      ],
      [
        100.03340455703437,
        9.49469461105764
      ],
      [
        100.03344403579831,
        9.494644990190864
      ],
      [
        100.03347194753587,
        9.494622275233269
      ],
      [
        100.03349399194121,
        9.49460769072175
      ],
      [
        100.03350832499564,
        9.494600482285023
      ],
      [
        100.03351494669914,
        9.494585646316409
      ],
      [
        100.03353347070515,
        9.494559075683355
      ],
      [
        100.03355191089213,
        9.494535271078348
      ],
      [
        100.03357487730682,
        9.494515489786863
      ],
      [
        100.03356490284204,
        9.49449336156249
      ],
      [
        100.03358979709446,
        9.494457067921758
      ],
      [
        100.03362131305039,
        9.49440786615014
      ],
      [
        100.0336551759392,
        9.494351707398891
      ],
      [
        100.03367646597326,
        9.494309965521097
      ],
      [
        100.03370831720531,
        9.494246682152152
      ],
      [
        100.03372692503035,
        9.494211478158832
      ],
      [
        100.03382172435522,
        9.49409605935216
      ],
      [
        100.03383597359061,
        9.494075942784548
      ],
      [
        100.03384971991181,
        9.494037888944149
      ],
      [
        100.03390286117792,
        9.493989022448659
      ],
      [
        100.0339435134083,
        9.493976533412933
      ],
      [
        100.03397461026907,
        9.493936970829964
      ],
      [
        100.0340315233916,
        9.493868490681052
      ],
      [
        100.03411752171814,
        9.493787018582225
      ],
      [
        100.0342630315572,
        9.49367101304233
      ],
      [
        100.03437769599259,
        9.493589038029313
      ],
      [
        100.03439085558057,
        9.493586020544171
      ],
      [
        100.03454667516053,
        9.493486611172557
      ],
      [
        100.03462370485067,
        9.493436319753528
      ],
      [
        100.03464818000793,
        9.493417963385582
      ],
      [
        100.03466720692813,
        9.493403378874063
      ],
      [
        100.0346898380667,
        9.49338611215353
      ],
      [
        100.03471104428172,
        9.493383346125484
      ],
      [
        100.03486937843263,
        9.493288798257709
      ],
      [
        100.03500717692077,
        9.493230963125825
      ],
      [
        100.03510373644531,
        9.493184611201286
      ],
      [
        100.03514824435115,
        9.493153933435678
      ],
      [
        100.03529970534146,
        9.493065336719155
      ],
      [
        100.03532635979354,
        9.493057793006301
      ],
      [
        100.0354750547558,
        9.49293709360063
      ],
      [
        100.0356167089194,
        9.492822932079434
      ],
      [
        100.03564529120922,
        9.492697371169925
      ],
      [
        100.0356346461922,
        9.49265948496759
      ],
      [
        100.03560455515981,
        9.492622101679444
      ],
      [
        100.03559089265764,
        9.492598380893469
      ],
      [
        100.03554973751307,
        9.492549179121852
      ],
      [
        100.03553917631507,
        9.492522776126862
      ],
      [
        100.03554051741958,
        9.492491176351905
      ],
      [
        100.03552786074579,
        9.492466701194644
      ],
      [
        100.03551512025297,
        9.492430156096816
      ],
      [
        100.03549441695213,
        9.49236930347979
      ],
      [
        100.0354753062129,
        9.492315826937556
      ],
      [
        100.0354613084346,
        9.492256985977292
      ],
      [
        100.03545778803527,
        9.492231756448746
      ],
      [
        100.03535150550306,
        9.492068560793996
      ],
      [
        100.03534731455147,
        9.492054982110858
      ],
      [
        100.03524463623762,
        9.491898156702518
      ],
      [
        100.03519442863762,
        9.49184887111187
      ],
      [
        100.03510574810207,
        9.491727082058787
      ],
      [
        100.03507180139422,
        9.491671677678823
      ],
      [
        100.0350490026176,
        9.49166170321405
      ],
      [
        100.03503567539155,
        9.491651393473148
      ],
      [
        100.03497524186969,
        9.491601018235087
      ],
      [
        100.03494305536151,
        9.49157478287816
      ],
      [
        100.0349266268313,
        9.491560449823737
      ],
      [
        100.03481950610876,
        9.49141108430922
      ],
      [
        100.03469285555184,
        9.491288959980011
      ],
      [
        100.03459671512246,
        9.491111682727933
      ],
      [
        100.03455623053014,
        9.491067510098219
      ],
      [
        100.03453368321061,
        9.491042029112577
      ],
      [
        100.0345098786056,
        9.491006908938289
      ],
      [
        100.03450426273048,
        9.490997521206737
      ],
      [
        100.034468639642,
        9.490941865369678
      ],
      [
        100.03442547284067,
        9.490897608920932
      ],
      [
        100.03439571708441,
        9.490854609757662
      ],
      [
        100.0343774445355,
        9.490825524553657
      ],
      [
        100.0343531370163,
        9.490774562582374
      ],
      [
        100.03422849811614,
        9.490632908418775
      ],
      [
        100.03421986475587,
        9.49062000028789
      ],
      [
        100.03418642096221,
        9.490553196519613
      ],
      [
        100.03415725193918,
        9.490518579259515
      ],
      [
        100.03408818505704,
        9.49042453430593
      ],
      [
        100.03408365882933,
        9.490410787984729
      ],
      [
        100.03405247814953,
        9.490324119105935
      ],
      [
        100.03404728136957,
        9.490300985053182
      ],
      [
        100.03404275514185,
        9.490246251225471
      ],
      [
        100.03395943902433,
        9.49016653932631
      ],
      [
        100.03386505879462,
        9.490065034478903
      ],
      [
        100.03383069299161,
        9.489988256245852
      ],
      [
        100.03382264636457,
        9.489935617893934
      ],
      [
        100.0338243227452,
        9.489739229902625
      ],
      [
        100.03381971269846,
        9.489708133041859
      ],
      [
        100.03382625058293,
        9.489691872149706
      ],
      [
        100.03385198302567,
        9.48966370895505
      ],
      [
        100.03390336409211,
        9.489622469991446
      ],
      [
        100.03399958834052,
        9.489548709243536
      ],
      [
        100.03400947898626,
        9.489542925730348
      ],
      [
        100.03402104601264,
        9.489538734778762
      ],
      [
        100.03411048091948,
        9.48948877863586
      ],
      [
        100.03425917588174,
        9.489470589905977
      ],
      [
        100.03428013063967,
        9.489464806392789
      ],
      [
        100.03433218225837,
        9.489453826099634
      ],
      [
        100.0343494489789,
        9.489454161375761
      ],
      [
        100.03437149338424,
        9.489454999566078
      ],
      [
        100.0345619302243,
        9.489434128627181
      ],
      [
        100.03457685001194,
        9.489426668733358
      ],
      [
        100.03458850085735,
        9.489420717582107
      ],
      [
        100.03474800847471,
        9.489347962662578
      ],
      [
        100.03482704982162,
        9.489313596859574
      ],
      [
        100.03484641201794,
        9.489305466413498
      ],
      [
        100.03486275672913,
        9.489296162500978
      ],
      [
        100.03488203510642,
        9.489287110045552
      ],
      [
        100.03497758880258,
        9.489231370389462
      ],
      [
        100.03500650636852,
        9.4892259221524
      ],
      [
        100.03509091213346,
        9.489168925210834
      ],
      [
        100.03512200899422,
        9.489156352356076
      ],
      [
        100.0351351685822,
        9.489156436175108
      ],
      [
        100.0352300517261,
        9.489128859713674
      ],
      [
        100.03530020825565,
        9.48910471983254
      ],
      [
        100.03540070727468,
        9.4890411850065
      ],
      [
        100.03545871004462,
        9.489021990448236
      ],
      [
        100.03549223765731,
        9.489021403715014
      ],
      [
        100.03554361872375,
        9.489014949649572
      ],
      [
        100.03555753268301,
        9.489006651565433
      ],
      [
        100.03558544442058,
        9.48899676091969
      ],
      [
        100.03570530563593,
        9.488954683765769
      ],
      [
        100.03577588126063,
        9.488922664895654
      ],
      [
        100.03588685765862,
        9.488874049857259
      ],
      [
        100.03597654402256,
        9.488833481445909
      ],
      [
        100.03601744771004,
        9.488813197240233
      ],
      [
        100.03605784848332,
        9.488797942176461
      ],
      [
        100.03608450293541,
        9.48878176510334
      ],
      [
        100.03616304136813,
        9.488746728748083
      ],
      [
        100.0362800527364,
        9.488698448985815
      ],
      [
        100.0363144185394,
        9.48867179453373
      ],
      [
        100.03632347099483,
        9.488666178658605
      ],
      [
        100.03636437468231,
        9.488650001585484
      ],
      [
        100.03646034747362,
        9.48850273154676
      ],
      [
        100.03651348873973,
        9.488329729065299
      ],
      [
        100.03652069717646,
        9.488316234201193
      ],
      [
        100.03652807325125,
        9.488302990794182
      ],
      [
        100.03654517233372,
        9.488262673839927
      ],
      [
        100.03656042739749,
        9.488173825666308
      ],
      [
        100.03658481873572,
        9.488088833168149
      ],
      [
        100.03660820424557,
        9.487978778779507
      ],
      [
        100.03661105409265,
        9.48795304633677
      ],
      [
        100.03663226030767,
        9.487886410206556
      ],
      [
        100.03665329888463,
        9.487854642793536
      ],
      [
        100.0366566516459,
        9.48784165084362
      ],
      [
        100.03666075877845,
        9.48782840743661
      ],
      [
        100.03667232580483,
        9.487803429365158
      ],
      [
        100.03667986951768,
        9.487752802670002
      ],
      [
        100.03668380901217,
        9.487724052742124
      ],
      [
        100.03669328056276,
        9.48765054345131
      ],
      [
        100.03670149482787,
        9.48757292702794
      ],
      [
        100.03671289421618,
        9.487512409687042
      ],
      [
        100.03671976737678,
        9.48747469112277
      ],
      [
        100.0367359444499,
        9.487311076372862
      ],
      [
        100.0367425661534,
        9.487167242914438
      ],
      [
        100.03674231469631,
        9.487140169367194
      ],
      [
        100.03674114122987,
        9.487071270123124
      ],
      [
        100.03673502244055,
        9.487006729468703
      ],
      [
        100.03675329498947,
        9.486894579604268
      ],
      [
        100.03673477098346,
        9.486783854663372
      ],
      [
        100.03672982566059,
        9.486762564629316
      ],
      [
        100.03672312013805,
        9.486741358414292
      ],
      [
        100.03672647289932,
        9.486707244068384
      ],
      [
        100.03673552535474,
        9.486695677042007
      ],
      [
        100.03677274100482,
        9.48658486828208
      ],
      [
        100.0367829669267,
        9.486552681773901
      ],
      [
        100.03679294139147,
        9.486526781693101
      ],
      [
        100.03683518618345,
        9.48647934012115
      ],
      [
        100.03691439516842,
        9.486428126692772
      ],
      [
        100.0369706377387,
        9.486394263803959
      ],
      [
        100.03698388114572,
        9.486382026225328
      ],
      [
        100.036989916116,
        9.486375153064728
      ],
      [
        100.03712746314704,
        9.486306589096785
      ],
      [
        100.03720675595105,
        9.486257135868073
      ],
      [
        100.03729526884854,
        9.486195612698793
      ],
      [
        100.03730331547558,
        9.48618714697659
      ],
      [
        100.03731270320714,
        9.486179854720831
      ],
      [
        100.03746449947357,
        9.486078517511487
      ],
      [
        100.03751152195036,
        9.48605664074421
      ],
      [
        100.03755720332265,
        9.48602445423603
      ],
      [
        100.03759006038308,
        9.485994949936867
      ],
      [
        100.0376844406128,
        9.485951196402311
      ],
      [
        100.0377050600946,
        9.485936779528856
      ],
      [
        100.03782416693866,
        9.485898558050394
      ],
      [
        100.03783523105085,
        9.485869137570262
      ],
      [
        100.03785191103816,
        9.485849104821682
      ],
      [
        100.0379172898829,
        9.485805016011
      ],
      [
        100.0379693415016,
        9.485757993534207
      ],
      [
        100.0380119215697,
        9.485720274969935
      ],
      [
        100.03811887465417,
        9.485640227794647
      ],
      [
        100.03820621408522,
        9.485580045729876
      ],
      [
        100.03832808695734,
        9.485471667721868
      ],
      [
        100.03836706280708,
        9.485444007441401
      ],
      [
        100.03837435506284,
        9.485437721014023
      ],
      [
        100.03843721933663,
        9.485384579747915
      ],
      [
        100.03846940584481,
        9.485358344390988
      ],
      [
        100.03859295509756,
        9.485282152891159
      ],
      [
        100.03860234282911,
        9.485273603349924
      ],
      [
        100.03862229175866,
        9.485254995524883
      ],
      [
        100.03865028731525,
        9.48523135855794
      ],
      [
        100.03872270695865,
        9.48515416122973
      ],
      [
        100.03876679576933,
        9.485109150409698
      ],
      [
        100.03884181380272,
        9.485077131539583
      ],
      [
        100.03883720375597,
        9.485054165124893
      ],
      [
        100.03896502777934,
        9.484908487647772
      ],
      [
        100.03902168944478,
        9.48486004024744
      ],
      [
        100.03915395587683,
        9.484793320298195
      ],
      [
        100.03917256370187,
        9.484784686937928
      ],
      [
        100.03918354399502,
        9.484774461016059
      ],
      [
        100.03924422897398,
        9.484729785472155
      ],
      [
        100.03925688564777,
        9.48472416959703
      ],
      [
        100.03926577046514,
        9.484718218445778
      ],
      [
        100.03938873298466,
        9.484615456312895
      ],
      [
        100.03943868912756,
        9.48456248268485
      ],
      [
        100.03944665193558,
        9.484559632837772
      ],
      [
        100.03945536911488,
        9.484550664201379
      ],
      [
        100.03949635662138,
        9.484523590654135
      ],
      [
        100.03950742073357,
        9.484517890959978
      ],
      [
        100.03956735134125,
        9.48447304777801
      ],
      [
        100.03958755172789,
        9.48446181602776
      ],
      [
        100.03961487673223,
        9.4844442140311
      ],
      [
        100.03970548510551,
        9.484377913177013
      ],
      [
        100.03973272629082,
        9.484348995611072
      ],
      [
        100.03975979983807,
        9.48431714437902
      ],
      [
        100.03978561609983,
        9.48430004529655
      ],
      [
        100.03991327248514,
        9.484163001179695
      ],
      [
        100.03992936573923,
        9.484156630933285
      ],
      [
        100.0400894600898,
        9.484065687283874
      ],
      [
        100.04017378203571,
        9.484008941799402
      ],
      [
        100.04030956886709,
        9.483952196314931
      ],
      [
        100.04044158384204,
        9.483887320384383
      ],
      [
        100.04060913808644,
        9.483809536322951
      ],
      [
        100.0406613573432,
        9.48377575725317
      ],
      [
        100.04078666679561,
        9.483705600723624
      ],
      [
        100.04087853245437,
        9.483648268505931
      ],
      [
        100.04104265011847,
        9.483561096712947
      ],
      [
        100.04110626876354,
        9.48353536427021
      ],
      [
        100.04115639254451,
        9.483507787808776
      ],
      [
        100.04118815995753,
        9.483491946011782
      ],
      [
        100.0412258785218,
        9.48346302844584
      ],
      [
        100.04124155268073,
        9.483445091173053
      ],
      [
        100.0413091108203,
        9.483361272141337
      ],
      [
        100.04147532396019,
        9.483277201652527
      ],
      [
        100.04153206944466,
        9.483226407319307
      ],
      [
        100.04154405556619,
        9.48322070762515
      ],
      [
        100.04164514131844,
        9.483151724562049
      ],
      [
        100.04171387292445,
        9.483103193342686
      ],
      [
        100.04174522124231,
        9.483087686821818
      ],
      [
        100.04177380353212,
        9.483072264119983
      ],
      [
        100.04182350821793,
        9.483043178915977
      ],
      [
        100.04195921123028,
        9.482917953282595
      ],
      [
        100.04212433472276,
        9.482816448435187
      ],
      [
        100.0421809963882,
        9.482770767062902
      ],
      [
        100.04229390062392,
        9.482667418196797
      ],
      [
        100.04231334663928,
        9.48264948092401
      ],
      [
        100.04245567135513,
        9.482534900307655
      ],
      [
        100.04252993501723,
        9.482470862567425
      ],
      [
        100.042539909482,
        9.482464324682951
      ],
      [
        100.04259388893843,
        9.482416715472937
      ],
      [
        100.04268768243492,
        9.482331303879619
      ],
      [
        100.04277879372239,
        9.482246143743396
      ],
      [
        100.04291030578315,
        9.482113290578127
      ],
      [
        100.04294115118682,
        9.482098454609513
      ],
      [
        100.04295162856579,
        9.482094515115023
      ],
      [
        100.04308892413974,
        9.481964092701674
      ],
      [
        100.0431408919394,
        9.481900641694665
      ],
      [
        100.04317617975175,
        9.481874909251928
      ],
      [
        100.0431839749217,
        9.481866359710693
      ],
      [
        100.04329109564424,
        9.481716742739081
      ],
      [
        100.04330283030868,
        9.481684304773808
      ],
      [
        100.04333669319749,
        9.481641054153442
      ],
      [
        100.04335488192737,
        9.481623787432909
      ],
      [
        100.04345621913671,
        9.48146939277649
      ],
      [
        100.0434654392302,
        9.481458831578493
      ],
      [
        100.0434963684529,
        9.481431171298027
      ],
      [
        100.04359292797744,
        9.481338802725077
      ],
      [
        100.04361933097243,
        9.48132237419486
      ],
      [
        100.04362653940916,
        9.481312986463308
      ],
      [
        100.04364565014839,
        9.48128717020154
      ],
      [
        100.04367138259113,
        9.48125833645463
      ],
      [
        100.0436919182539,
        9.481222797185183
      ],
      [
        100.0437040720135,
        9.481216259300709
      ],
      [
        100.04374338313937,
        9.481180468574166
      ],
      [
        100.04385771229863,
        9.481089357286692
      ],
      [
        100.04387707449496,
        9.481073766946793
      ],
      [
        100.04393281415105,
        9.481000676751137
      ],
      [
        100.04399433732033,
        9.480934794992208
      ],
      [
        100.04409911110997,
        9.480784926563501
      ],
      [
        100.04413800314069,
        9.480739329010248
      ],
      [
        100.04417815245688,
        9.480717787519097
      ],
      [
        100.04422978498042,
        9.480620808899403
      ],
      [
        100.04429935477674,
        9.480469012632966
      ],
      [
        100.04432165063918,
        9.480445124208927
      ],
      [
        100.04436523653567,
        9.480421487241983
      ],
      [
        100.04438602365553,
        9.480402544140816
      ],
      [
        100.04451376385987,
        9.480300955474377
      ],
      [
        100.04454678855836,
        9.48028109036386
      ],
      [
        100.04455961287022,
        9.48025275953114
      ],
      [
        100.04456137306988,
        9.480243874713778
      ],
      [
        100.04459347575903,
        9.48020196519792
      ],
      [
        100.04460638388991,
        9.480174975469708
      ],
      [
        100.0446103233844,
        9.480162402614951
      ],
      [
        100.0446311943233,
        9.480128036811948
      ],
      [
        100.044773099944,
        9.479991998523474
      ],
      [
        100.04480620846152,
        9.47996542789042
      ],
      [
        100.0449089705944,
        9.479871299117804
      ],
      [
        100.04505900666118,
        9.479759149253368
      ],
      [
        100.04520049318671,
        9.47963803075254
      ],
      [
        100.04523544572294,
        9.479618584737182
      ],
      [
        100.04533460363746,
        9.479538286104798
      ],
      [
        100.04539218731225,
        9.479500986635685
      ],
      [
        100.04544591531157,
        9.47948019951582
      ],
      [
        100.04550131969154,
        9.479426555335522
      ],
      [
        100.04552118480206,
        9.479406606405973
      ],
      [
        100.0455292314291,
        9.479398392140865
      ],
      [
        100.04555814899504,
        9.47936494834721
      ],
      [
        100.04559176042676,
        9.479335360229015
      ],
      [
        100.04565755836666,
        9.479291774332523
      ],
      [
        100.04567390307784,
        9.479282218962908
      ],
      [
        100.0457195006311,
        9.479236621409655
      ],
      [
        100.04579225555062,
        9.479204267263412
      ],
      [
        100.04596249200404,
        9.479114161804318
      ],
      [
        100.04601236432791,
        9.479073006659746
      ],
      [
        100.0460353307426,
        9.479059679433703
      ],
      [
        100.04611043259501,
        9.479034869000316
      ],
      [
        100.0462652463466,
        9.478973178192973
      ],
      [
        100.04628477618098,
        9.478958677500486
      ],
      [
        100.04631721414626,
        9.47894174605608
      ],
      [
        100.04635786637664,
        9.478907212615013
      ],
      [
        100.04639642313123,
        9.478881312534213
      ],
      [
        100.0464307051152,
        9.478848036378622
      ],
      [
        100.04645853303373,
        9.47883378714323
      ],
      [
        100.04655936732888,
        9.47876195423305
      ],
      [
        100.04659021273255,
        9.478741083294153
      ],
      [
        100.04665500484407,
        9.478683583438396
      ],
      [
        100.04674552939832,
        9.478612504899502
      ],
      [
        100.04676690325141,
        9.478597836568952
      ],
      [
        100.04679548554122,
        9.478583838790655
      ],
      [
        100.04684762097895,
        9.478550562635064
      ],
      [
        100.04688391461968,
        9.478527680039406
      ],
      [
        100.04703403450549,
        9.478405052796006
      ],
      [
        100.04707887768745,
        9.47836129926145
      ],
      [
        100.04716613329947,
        9.478312097489834
      ],
      [
        100.04719102755189,
        9.478292483836412
      ],
      [
        100.04733603447676,
        9.478213442489505
      ],
      [
        100.04738615825772,
        9.478173041716218
      ],
      [
        100.04743091762066,
        9.478147979825735
      ],
      [
        100.0475045107305,
        9.478105567395687
      ],
      [
        100.04753292538226,
        9.478091401979327
      ],
      [
        100.04761381074786,
        9.478044547140598
      ],
      [
        100.047756889835,
        9.47791613638401
      ],
      [
        100.0478398706764,
        9.47785117663443
      ],
      [
        100.04786694422364,
        9.47783600538969
      ],
      [
        100.04787490703166,
        9.47783156298101
      ],
      [
        100.04795520566404,
        9.477721592411399
      ],
      [
        100.04811991006136,
        9.477628050372005
      ],
      [
        100.04816081374884,
        9.477584296837449
      ],
      [
        100.04819065332413,
        9.477561917155981
      ],
      [
        100.0483079161495,
        9.477422526106238
      ],
      [
        100.04838394001126,
        9.477341808378696
      ],
      [
        100.0484220776707,
        9.477308113127947
      ],
      [
        100.04846189171076,
        9.477272909134626
      ],
      [
        100.04857420921326,
        9.477191688492894
      ],
      [
        100.04858736880124,
        9.477176601067185
      ],
      [
        100.04868526943028,
        9.477115496993065
      ],
      [
        100.04872776567936,
        9.47708297520876
      ],
      [
        100.0487564317882,
        9.4770497828722
      ],
      [
        100.04888811148703,
        9.476906871423125
      ],
      [
        100.04897721111774,
        9.476844007149339
      ],
      [
        100.04910469986498,
        9.47672582231462
      ],
      [
        100.0491158477962,
        9.476703945547342
      ],
      [
        100.04912054166198,
        9.476682571694255
      ],
      [
        100.04912951029837,
        9.476626580581069
      ],
      [
        100.04913403652608,
        9.476614510640502
      ],
      [
        100.04914183169603,
        9.476549215614796
      ],
      [
        100.0491245649755,
        9.476506970822811
      ],
      [
        100.04911148920655,
        9.476477717980742
      ],
      [
        100.04907561466098,
        9.476408902555704
      ],
      [
        100.04905608482659,
        9.476380068808794
      ],
      [
        100.04904585890472,
        9.476341092959046
      ],
      [
        100.04903982393444,
        9.476331621408463
      ],
      [
        100.04902247339487,
        9.476287951692939
      ],
      [
        100.04902289249003,
        9.476273786276579
      ],
      [
        100.04898559302092,
        9.476194242015481
      ],
      [
        100.04898492246866,
        9.476182842627168
      ],
      [
        100.04886313341558,
        9.476047558709979
      ],
      [
        100.04880856722593,
        9.475977821275592
      ],
      [
        100.04880412481725,
        9.475971451029181
      ],
      [
        100.04874184727669,
        9.475891822949052
      ],
      [
        100.04868543706834,
        9.475718569010496
      ],
      [
        100.04867068491876,
        9.47569040581584
      ],
      [
        100.048613185063,
        9.475536765530705
      ],
      [
        100.04857848398387,
        9.475444229319692
      ],
      [
        100.04854051396251,
        9.475306682288647
      ],
      [
        100.04851478151977,
        9.475205345079303
      ],
      [
        100.0484617240727,
        9.475092608481646
      ],
      [
        100.04842283204198,
        9.475021865218878
      ],
      [
        100.04841076210141,
        9.474974842742085
      ],
      [
        100.04838226363063,
        9.474895466119051
      ],
      [
        100.04837916232646,
        9.474884821102023
      ],
      [
        100.04836918786168,
        9.474864872172475
      ],
      [
        100.04832208156586,
        9.4747253973037
      ],
      [
        100.04832107573748,
        9.474571170285344
      ],
      [
        100.04831311292946,
        9.474496152251959
      ],
      [
        100.0483042281121,
        9.474459355697036
      ],
      [
        100.04831168800592,
        9.474372519180179
      ],
      [
        100.04829224199057,
        9.474266823381186
      ],
      [
        100.04826416261494,
        9.474213849753141
      ],
      [
        100.04824094474316,
        9.474181244149804
      ],
      [
        100.04816550761461,
        9.474015701562166
      ],
      [
        100.04816140048206,
        9.473985694348812
      ],
      [
        100.04811563529074,
        9.47389760054648
      ],
      [
        100.04809116013348,
        9.47387077845633
      ],
      [
        100.04806517623365,
        9.473835658282042
      ],
      [
        100.04804556258023,
        9.47378570213914
      ],
      [
        100.04798856563866,
        9.47360540740192
      ],
      [
        100.04797163419425,
        9.473578166216612
      ],
      [
        100.04794363863766,
        9.473526198416948
      ],
      [
        100.04783920012414,
        9.473382867872715
      ],
      [
        100.04783023148775,
        9.473362248390913
      ],
      [
        100.04780097864568,
        9.473283290863037
      ],
      [
        100.04779083654284,
        9.473257223144174
      ],
      [
        100.04776594229043,
        9.473223444074392
      ],
      [
        100.04773383960128,
        9.473142893984914
      ],
      [
        100.0477273017168,
        9.473119592294097
      ],
      [
        100.04768203943968,
        9.473019260913134
      ],
      [
        100.04766368307173,
        9.472988080233335
      ],
      [
        100.0476583186537,
        9.472977854311466
      ],
      [
        100.04764063283801,
        9.472936615347862
      ],
      [
        100.04760894924402,
        9.472899902611971
      ],
      [
        100.04752454347908,
        9.472795380279422
      ],
      [
        100.04748699255288,
        9.472744166851044
      ],
      [
        100.04748355597258,
        9.472707873210311
      ],
      [
        100.0474772695452,
        9.472622377797961
      ],
      [
        100.04747123457491,
        9.472615420818329
      ],
      [
        100.04745145328343,
        9.472582144662738
      ],
      [
        100.04744273610413,
        9.472559094429016
      ],
      [
        100.04743251018226,
        9.472515257075429
      ],
      [
        100.04737350158393,
        9.472399083897471
      ],
      [
        100.04733678884804,
        9.47232716716826
      ],
      [
        100.04732740111649,
        9.472302692010999
      ],
      [
        100.0472941249609,
        9.472203198820353
      ],
      [
        100.04730217158794,
        9.472175538539886
      ]
    ]
  }
}
