{
  "type": "Feature",
  "properties": {},
  "geometry": {
    "type": "LineString",
    "coordinates": [
      [
        0.9306660108268261,
        45.553970290347934,
        298.6
      ],
      [
        0.9306044038385153,
        45.55401605553925,
        298.79999999999995
      ],
      [
        0.9305857960134745,
        45.55403131060302,
        298.79999999999995
      ],
      [
        0.9305750671774149,
        45.554050421342254,
        298.6
      ],
      [
        0.9305659309029579,
        45.55419157259166,
        299
      ],
      [
        0.9305242728441954,
        45.554263992235065,
        299.6
      ],
      [
        0.9304826147854328,
        45.55429458618164,
        299.6
      ],
      [
        0.9304100275039673,
        45.5543708615005,
        299.6
      ],
      [
        0.9304350055754185,
        45.55443188175559,
        299.4
      ],
      [
        0.9304303955286741,
        45.55449290201068,
        299.20000000000005
      ],
      [
        0.930422181263566,
        45.554573033005,
        298.6
      ],
      [
        0.9303863067179918,
        45.5546264257282,
        297.79999999999995
      ],
      [
        0.9303501807153225,
        45.55465316399932,
        297.4
      ],
      [
        0.9302742406725883,
        45.55475232191384,
        296.79999999999995
      ],
      [
        0.9302536211907864,
        45.554798087105155,
        296.20000000000005
      ],
      [
        0.930223111063242,
        45.55484385229647,
        295.6
      ],
      [
        0.9301838837563992,
        45.55490110069513,
        295.20000000000005
      ],
      [
        0.93018245883286,
        45.55491250008345,
        294.4
      ],
      [
        0.9301667008548975,
        45.55493161082268,
        294
      ],
      [
        0.9301384538412094,
        45.55498500354588,
        293.79999999999995
      ],
      [
        0.9300911799073219,
        45.555053651332855,
        294
      ],
      [
        0.9300679620355368,
        45.55507653392851,
        293.79999999999995
      ],
      [
        0.9299580752849579,
        45.55516814813018,
        293.6
      ],
      [
        0.9298735857009888,
        45.55525967851281,
        293.6
      ],
      [
        0.9297856595367193,
        45.555370319634676,
        294
      ],
      [
        0.9297093003988266,
        45.5555038433522,
        294.20000000000005
      ],
      [
        0.9296766947954893,
        45.555568635463715,
        294.20000000000005
      ],
      [
        0.9296428319066763,
        45.5556296557188,
        294
      ],
      [
        0.9295523073524237,
        45.55575178004801,
        293.6
      ],
      [
        0.9295325260609388,
        45.55578991770744,
        293.4
      ],
      [
        0.9295197017490864,
        45.55583953857422,
        293
      ],
      [
        0.9294992499053478,
        45.55589670315385,
        293
      ],
      [
        0.9294441808015108,
        45.5560149718076,
        292.6
      ],
      [
        0.9294286742806435,
        45.55603785440326,
        292.6
      ],
      [
        0.9293792210519314,
        45.556159894913435,
        292.79999999999995
      ],
      [
        0.9293839149177074,
        45.55626290850341,
        293.79999999999995
      ],
      [
        0.9293943084776402,
        45.556278163567185,
        294.4
      ],
      [
        0.9294033609330654,
        45.55629727430642,
        295.6
      ],
      [
        0.9293990023434162,
        45.55630867369473,
        295.79999999999995
      ],
      [
        0.9293860103935003,
        45.55632778443396,
        296
      ],
      [
        0.9292819909751415,
        45.55639266036451,
        296
      ],
      [
        0.9291841741651297,
        45.5564536806196,
        296.4
      ],
      [
        0.9291406720876694,
        45.556499445810914,
        296.4
      ],
      [
        0.9290346410125494,
        45.55658334866166,
        296.20000000000005
      ],
      [
        0.9289592877030373,
        45.556674879044294,
        296
      ],
      [
        0.9288605488836765,
        45.55678174830973,
        296.6
      ],
      [
        0.92875468544662,
        45.55688090622425,
        296.6
      ],
      [
        0.9287240915000439,
        45.55693429894745,
        296.79999999999995
      ],
      [
        0.9287103451788425,
        45.55696103721857,
        297
      ],
      [
        0.9286570362746716,
        45.55702582933009,
        296.79999999999995
      ],
      [
        0.9286349918693304,
        45.55706019513309,
        296.79999999999995
      ],
      [
        0.9285621531307697,
        45.55716320872307,
        297.20000000000005
      ],
      [
        0.9285107720643282,
        45.55724333971739,
        296.79999999999995
      ],
      [
        0.928454864770174,
        45.557346269488335,
        297.6
      ],
      [
        0.9284304734319448,
        45.557388262823224,
        297.79999999999995
      ],
      [
        0.9283925872296095,
        45.55749504826963,
        298.4
      ],
      [
        0.9283886477351189,
        45.557540813460946,
        298.79999999999995
      ],
      [
        0.9283977001905441,
        45.55761331692338,
        299.4
      ],
      [
        0.9284047409892082,
        45.55765531025827,
        299.79999999999995
      ],
      [
        0.9284125361591578,
        45.5577124748379,
        300.20000000000005
      ],
      [
        0.9284214209765196,
        45.55776972323656,
        300.79999999999995
      ],
      [
        0.9284232649952173,
        45.55778497830033,
        300.79999999999995
      ],
      [
        0.928434832021594,
        45.55790324695408,
        301.20000000000005
      ],
      [
        0.9284527692943811,
        45.55804439820349,
        301.4
      ],
      [
        0.9284856263548136,
        45.55814741179347,
        301.20000000000005
      ],
      [
        0.9285621531307697,
        45.55826945230365,
        301
      ],
      [
        0.9285691939294338,
        45.558372465893626,
        301.4
      ],
      [
        0.9286128636449575,
        45.55846399627626,
        301.4
      ],
      [
        0.9286673460155725,
        45.55856315419078,
        301.20000000000005
      ],
      [
        0.9287463873624802,
        45.558654768392444,
        301.20000000000005
      ],
      [
        0.9288508258759975,
        45.55876540951431,
        301
      ],
      [
        0.9289601258933544,
        45.5588798224926,
        300.79999999999995
      ],
      [
        0.9289674181491137,
        45.55890270508826,
        300.79999999999995
      ],
      [
        0.9289530850946903,
        45.558929443359375,
        301.20000000000005
      ],
      [
        0.9289248380810022,
        45.558948470279574,
        301.79999999999995
      ],
      [
        0.9289100021123886,
        45.55895232595503,
        302.20000000000005
      ],
      [
        0.9287600498646498,
        45.558948470279574,
        302.20000000000005
      ],
      [
        0.928611271083355,
        45.55893707089126,
        302.4
      ],
      [
        0.9285898134112358,
        45.5589332152158,
        302.4
      ],
      [
        0.92849962413311,
        45.5589332152158,
        302
      ],
      [
        0.9284558705985546,
        45.5589332152158,
        301.79999999999995
      ],
      [
        0.9283578861504793,
        45.558929443359375,
        301.6
      ],
      [
        0.9283172339200974,
        45.5589332152158,
        301.6
      ],
      [
        0.9280845522880554,
        45.5589332152158,
        301
      ],
      [
        0.9280615858733654,
        45.55893707089126,
        300.79999999999995
      ],
      [
        0.9278677124530077,
        45.558929443359375,
        300.4
      ],
      [
        0.9276757668703794,
        45.558925587683916,
        299.79999999999995
      ],
      [
        0.9274318534880877,
        45.55892173200846,
        299
      ],
      [
        0.9272499661892653,
        45.558925587683916,
        298.79999999999995
      ],
      [
        0.9271164424717426,
        45.55892173200846,
        298.4
      ],
      [
        0.9269507322460413,
        45.55892173200846,
        298.20000000000005
      ],
      [
        0.9268333856016397,
        45.55892173200846,
        298
      ],
      [
        0.9265736304223537,
        45.558906476944685,
        297.6
      ],
      [
        0.9264063276350498,
        45.55890270508826,
        297.6
      ],
      [
        0.9262760728597641,
        45.55889122188091,
        298.20000000000005
      ],
      [
        0.9261946007609367,
        45.5588798224926,
        298.6
      ],
      [
        0.9261617437005043,
        45.55886456742883,
        298.79999999999995
      ],
      [
        0.9261339157819748,
        45.5588264297694,
        299
      ],
      [
        0.9260749071836472,
        45.55875392630696,
        298.4
      ],
      [
        0.9260651841759682,
        45.55873867124319,
        298.20000000000005
      ],
      [
        0.9259467478841543,
        45.55867379531264,
        297.20000000000005
      ],
      [
        0.9258663654327393,
        45.55862040258944,
        296.20000000000005
      ],
      [
        0.9258273057639599,
        45.558574637398124,
        295.6
      ],
      [
        0.9258164092898369,
        45.558551754802465,
        295.20000000000005
      ],
      [
        0.9257932752370834,
        45.55848687887192,
        294.4
      ],
      [
        0.9257821273058653,
        45.55846399627626,
        294.20000000000005
      ],
      [
        0.9257738292217255,
        45.55842585861683,
        294.20000000000005
      ],
      [
        0.9257801156491041,
        45.55841823108494,
        294.6
      ],
      [
        0.9257511980831623,
        45.55836098268628,
        295.79999999999995
      ],
      [
        0.9257506113499403,
        45.55829996243119,
        296.20000000000005
      ],
      [
        0.9257802832871675,
        45.55825042538345,
        296.6
      ],
      [
        0.9258477576076984,
        45.55810541845858,
        297.20000000000005
      ],
      [
        0.9258599113672972,
        45.55806342512369,
        297.20000000000005
      ],
      [
        0.9258853085339069,
        45.55799477733672,
        297.6
      ],
      [
        0.9258919302374125,
        45.55796426720917,
        297.79999999999995
      ],
      [
        0.9259107057005167,
        45.55790324695408,
        297.6
      ],
      [
        0.9259139746427536,
        45.55788799189031,
        297.6
      ],
      [
        0.9259469993412495,
        45.557739213109016,
        297.6
      ],
      [
        0.9259946085512638,
        45.55759806185961,
        298.4
      ],
      [
        0.9260489232838154,
        45.557483648881316,
        298.20000000000005
      ],
      [
        0.9260801039636135,
        45.557350125163794,
        297.79999999999995
      ],
      [
        0.9260928444564342,
        45.55724333971739,
        297.79999999999995
      ],
      [
        0.926123857498169,
        45.55711744353175,
        298
      ],
      [
        0.926123857498169,
        45.556972436606884,
        299
      ],
      [
        0.9261219296604395,
        45.55692667141557,
        299.4
      ],
      [
        0.9261241927742958,
        45.556873278692365,
        300
      ],
      [
        0.9261277131736279,
        45.55683891288936,
        300.20000000000005
      ],
      [
        0.9261372685432434,
        45.55678937584162,
        300.4
      ],
      [
        0.9261422138661146,
        45.55672449991107,
        300.4
      ],
      [
        0.9261572174727917,
        45.556594831869006,
        300.4
      ],
      [
        0.9261498413980007,
        45.55646130815148,
        300.20000000000005
      ],
      [
        0.9260272979736328,
        45.55639266036451,
        300.4
      ],
      [
        0.9258685447275639,
        45.556362150236964,
        300.20000000000005
      ],
      [
        0.9257177542895079,
        45.55637354962528,
        300.20000000000005
      ],
      [
        0.925699146464467,
        45.55637354962528,
        300.20000000000005
      ],
      [
        0.9255003277212381,
        45.55638503283262,
        300.4
      ],
      [
        0.9253711625933647,
        45.556381177157164,
        300.6
      ],
      [
        0.9251383971422911,
        45.556396432220936,
        300.20000000000005
      ],
      [
        0.9249164443463087,
        45.55641554296017,
        299.4
      ],
      [
        0.9248904604464769,
        45.556419314816594,
        299.4
      ],
      [
        0.9247494768351316,
        45.556434569880366,
        299
      ],
      [
        0.924594746902585,
        45.5564536806196,
        299.20000000000005
      ],
      [
        0.9244033042341471,
        45.55648419074714,
        299.4
      ],
      [
        0.9242361690849066,
        45.55646893568337,
        300
      ],
      [
        0.9242320619523525,
        45.55640791542828,
        300.6
      ],
      [
        0.9242458920925856,
        45.556377405300736,
        300.6
      ],
      [
        0.9243081696331501,
        45.55628964677453,
        300.4
      ],
      [
        0.9243290405720472,
        45.55626676417887,
        300.20000000000005
      ],
      [
        0.9244201518595219,
        45.556163750588894,
        299.6
      ],
      [
        0.9244247619062662,
        45.55615226738155,
        299.6
      ],
      [
        0.9244340658187866,
        45.556121757254004,
        299.4
      ],
      [
        0.9244328085333109,
        45.55603785440326,
        299.6
      ],
      [
        0.9243500791490078,
        45.55593484081328,
        300
      ],
      [
        0.9243131149560213,
        45.55583953857422,
        300.20000000000005
      ],
      [
        0.9244236722588539,
        45.55579754523933,
        300.20000000000005
      ],
      [
        0.924595333635807,
        45.55575555190444,
        300.20000000000005
      ],
      [
        0.9246859420090914,
        45.555725041776896,
        300.6
      ],
      [
        0.9247536677867174,
        45.55568313226104,
        300.79999999999995
      ],
      [
        0.924875708296895,
        45.5555762629956,
        300.79999999999995
      ],
      [
        0.9249912947416306,
        45.5555038433522,
        300.20000000000005
      ],
      [
        0.9251497127115726,
        45.55540460161865,
        300
      ],
      [
        0.925304526463151,
        45.555271077901125,
        300.4
      ],
      [
        0.9254555683583021,
        45.55515666492283,
        300.79999999999995
      ],
      [
        0.9255851525813341,
        45.55506127886474,
        300.79999999999995
      ],
      [
        0.9256253018975258,
        45.555034624412656,
        300.79999999999995
      ],
      [
        0.9257551375776529,
        45.55493161082268,
        301.4
      ],
      [
        0.9258248750120401,
        45.554874362424016,
        301.6
      ],
      [
        0.9258980490267277,
        45.55482482537627,
        301.79999999999995
      ],
      [
        0.926032243296504,
        45.55472943931818,
        301.6
      ],
      [
        0.9260943531990051,
        45.55466456338763,
        301.6
      ],
      [
        0.9261308144778013,
        45.55462257005274,
        301.6
      ],
      [
        0.9261399507522583,
        45.55451201274991,
        301.6
      ],
      [
        0.9260997176170349,
        45.55439751595259,
        301.79999999999995
      ],
      [
        0.9260235261172056,
        45.55426022037864,
        302
      ],
      [
        0.9259216021746397,
        45.55411521345377,
        302.20000000000005
      ],
      [
        0.925886482000351,
        45.554065676406026,
        302.20000000000005
      ],
      [
        0.9258354362100363,
        45.553989401087165,
        302.20000000000005
      ],
      [
        0.9257423132658005,
        45.553848249837756,
        302.20000000000005
      ],
      [
        0.9256574884057045,
        45.55373760871589,
        302.20000000000005
      ],
      [
        0.925547182559967,
        45.553634595125914,
        302.4
      ],
      [
        0.9254175145179033,
        45.55356209166348,
        302.6
      ],
      [
        0.9252754412591457,
        45.55350869894028,
        303
      ],
      [
        0.9252015128731728,
        45.55348204448819,
        303
      ],
      [
        0.9251041989773512,
        45.553455306217074,
        303.20000000000005
      ],
      [
        0.9249566774815321,
        45.5534056853503,
        303.4
      ],
      [
        0.9248089045286179,
        45.55334852077067,
        303.20000000000005
      ],
      [
        0.9246122650802135,
        45.55332563817501,
        303
      ],
      [
        0.9244534280151129,
        45.553356148302555,
        303.20000000000005
      ],
      [
        0.9242580458521843,
        45.55342479608953,
        303.4
      ],
      [
        0.9241027291864157,
        45.553493443876505,
        303.6
      ],
      [
        0.9240708779543638,
        45.553512554615736,
        303.6
      ],
      [
        0.9239720553159714,
        45.55356594733894,
        304
      ],
      [
        0.9239231888204813,
        45.55359645746648,
        304.20000000000005
      ],
      [
        0.9237871505320072,
        45.553653705865145,
        304.4
      ],
      [
        0.9236428141593933,
        45.5536231957376,
        304
      ],
      [
        0.9235334303230047,
        45.553531581535935,
        303
      ],
      [
        0.9234956279397011,
        45.553474416956306,
        302.6
      ],
      [
        0.9234791155904531,
        45.55342479608953,
        302.6
      ],
      [
        0.92349654994905,
        45.55328364484012,
        302.4
      ],
      [
        0.923508033156395,
        45.55314249359071,
        302.6
      ],
      [
        0.9234549757093191,
        45.553001342341304,
        303.20000000000005
      ],
      [
        0.9233883395791054,
        45.55288307368755,
        303.4
      ],
      [
        0.9233087114989758,
        45.552741922438145,
        303.4
      ],
      [
        0.9232590068131685,
        45.55263513699174,
        303.20000000000005
      ],
      [
        0.9232030995190144,
        45.552543606609106,
        303.20000000000005
      ],
      [
        0.9231764450669289,
        45.5525092408061,
        303
      ],
      [
        0.9230764489620924,
        45.55235669016838,
        302.79999999999995
      ],
      [
        0.9229348786175251,
        45.552207911387086,
        302.79999999999995
      ],
      [
        0.9228160232305527,
        45.55211638100445,
        302.6
      ],
      [
        0.9226299449801445,
        45.551975229755044,
        302.6
      ],
      [
        0.9226156957447529,
        45.55196760222316,
        302.6
      ],
      [
        0.9225078206509352,
        45.55187984369695,
        302.6
      ],
      [
        0.9223870374262333,
        45.551814967766404,
        302.20000000000005
      ],
      [
        0.9222671762108803,
        45.551776830106974,
        302
      ],
      [
        0.9221762325614691,
        45.55180734023452,
        301.6
      ],
      [
        0.9221235942095518,
        45.551830222830176,
        301.6
      ],
      [
        0.9220270346850157,
        45.55188361555338,
        301.20000000000005
      ],
      [
        0.9219636674970388,
        45.55192946456373,
        301.4
      ],
      [
        0.9218252822756767,
        45.55205913260579,
        301.20000000000005
      ],
      [
        0.9217305667698383,
        45.552146891132,
        301.20000000000005
      ],
      [
        0.921649681404233,
        45.55220405571163,
        301.4
      ],
      [
        0.9215935226529837,
        45.55224227719009,
        301.4
      ],
      [
        0.921540129929781,
        45.55228418670595,
        301.20000000000005
      ],
      [
        0.9214993100613356,
        45.552307069301605,
        301.20000000000005
      ],
      [
        0.9213981404900551,
        45.55234143510461,
        301.20000000000005
      ],
      [
        0.9213014133274555,
        45.55235669016838,
        301
      ],
      [
        0.9211002476513386,
        45.55236431770027,
        301.20000000000005
      ],
      [
        0.920885419473052,
        45.55239097215235,
        300.79999999999995
      ],
      [
        0.9207302704453468,
        45.55243296548724,
        300.79999999999995
      ],
      [
        0.9205786418169737,
        45.55245970375836,
        300.6
      ],
      [
        0.9205605369061232,
        45.552463475614786,
        300.6
      ],
      [
        0.920540252700448,
        45.55247110314667,
        300.6
      ],
      [
        0.9204395860433578,
        45.55250161327422,
        300.4
      ],
      [
        0.9204171225428581,
        45.5525092408061,
        300.4
      ],
      [
        0.9202778153121471,
        45.5524902138859,
        300.20000000000005
      ],
      [
        0.9202493168413639,
        45.55241393856704,
        299.79999999999995
      ],
      [
        0.9203362371772528,
        45.552307069301605,
        299.6
      ],
      [
        0.9203709382563829,
        45.552226938307285,
        299.6
      ],
      [
        0.9203576948493719,
        45.55219642817974,
        299.4
      ],
      [
        0.9202806651592255,
        45.55211638100445,
        299.6
      ],
      [
        0.9201494883745909,
        45.55203625001013,
        299.6
      ],
      [
        0.9201043099164963,
        45.5519637465477,
        299.20000000000005
      ],
      [
        0.9201110992580652,
        45.551952347159386,
        299
      ],
      [
        0.9202072396874428,
        45.551856961101294,
        298.6
      ],
      [
        0.9202209021896124,
        45.55184933356941,
        298.6
      ],
      [
        0.9203061461448669,
        45.551776830106974,
        298
      ],
      [
        0.9204251691699028,
        45.55168529972434,
        298.20000000000005
      ],
      [
        0.9204738680273294,
        45.55158614180982,
        298.4
      ],
      [
        0.9204981755465269,
        45.55154414847493,
        298.4
      ],
      [
        0.9205135144293308,
        45.551494527608156,
        298.4
      ],
      [
        0.9205394983291626,
        45.55139159783721,
        298.20000000000005
      ],
      [
        0.9205472934991121,
        45.55125807411969,
        298
      ],
      [
        0.9204527456313372,
        45.55117408744991,
        298.6
      ],
      [
        0.9203321300446987,
        45.55109404027462,
        299
      ],
      [
        0.9202265180647373,
        45.551044419407845,
        299
      ],
      [
        0.9201581217348576,
        45.55101005360484,
        299.20000000000005
      ],
      [
        0.9200197365134954,
        45.55097191594541,
        299
      ],
      [
        0.9198562894016504,
        45.55095666088164,
        299.6
      ],
      [
        0.91974095441401,
        45.55094903334975,
        300
      ],
      [
        0.9195511043071747,
        45.55091852322221,
        300.20000000000005
      ],
      [
        0.919455885887146,
        45.55092237889767,
        300.4
      ],
      [
        0.9194133896380663,
        45.55091852322221,
        300.6
      ],
      [
        0.91939109377563,
        45.55091475136578,
        300.6
      ],
      [
        0.9192102961242199,
        45.55089564062655,
        300.20000000000005
      ],
      [
        0.9190640319138765,
        45.550865130499005,
        300
      ],
      [
        0.918913995847106,
        45.5508117377758,
        299.6
      ],
      [
        0.9188209567219019,
        45.55073923431337,
        300.20000000000005
      ],
      [
        0.9186893608421087,
        45.55062482133508,
        300.6
      ],
      [
        0.918602105230093,
        45.550567572936416,
        301.20000000000005
      ],
      [
        0.9185556694865227,
        45.55053706280887,
        301.6
      ],
      [
        0.9185278415679932,
        45.55051803588867,
        301.79999999999995
      ],
      [
        0.9184570144861937,
        45.55046078749001,
        302
      ],
      [
        0.9184122551232576,
        45.55040739476681,
        301.79999999999995
      ],
      [
        0.9183546714484692,
        45.55030438117683,
        300.4
      ],
      [
        0.9183499775826931,
        45.550292897969484,
        300.4
      ],
      [
        0.9182841796427965,
        45.550174713134766,
        299.4
      ],
      [
        0.9182797372341156,
        45.55016322992742,
        299.4
      ],
      [
        0.9181982651352882,
        45.55007932707667,
        298.79999999999995
      ],
      [
        0.9181478060781956,
        45.549972457811236,
        298.4
      ],
      [
        0.9181428607553244,
        45.549957202747464,
        298.4
      ],
      [
        0.9181094169616699,
        45.54989241063595,
        297.6
      ],
      [
        0.9180922340601683,
        45.54986567236483,
        297.20000000000005
      ],
      [
        0.9180359076708555,
        45.5497931689024,
        297.20000000000005
      ],
      [
        0.9179770667105913,
        45.54970926605165,
        296.79999999999995
      ],
      [
        0.9179699420928955,
        45.549640618264675,
        296.20000000000005
      ],
      [
        0.9179661702364683,
        45.54962913505733,
        296.20000000000005
      ],
      [
        0.9179921541363001,
        45.54951472207904,
        295.6
      ],
      [
        0.9180175513029099,
        45.54940030910075,
        295.20000000000005
      ],
      [
        0.9180169645696878,
        45.5493888258934,
        295.20000000000005
      ],
      [
        0.91792032122612,
        45.54930869489908,
        294.6
      ],
      [
        0.9177802596241236,
        45.54925530217588,
        294.79999999999995
      ],
      [
        0.9176764916628599,
        45.54919051006436,
        294.4
      ],
      [
        0.9176401980221272,
        45.54917902685702,
        294.20000000000005
      ],
      [
        0.9176239371299744,
        45.54917139932513,
        294
      ]
    ]
  }
}
