{
  "type": "Feature",
  "properties": {},
  "geometry": {
    "type": "LineString",
    "coordinates": [
      [
        12.406937,
        58.989312
      ],
      [
        12.4065022,
        58.989605
      ],
      [
        12.4066573,
        58.9896941
      ],
      [
        12.4068509,
        58.9897874
      ],
      [
        12.4074697,
        58.9902124
      ],
      [
        12.4077147,
        58.9904394
      ],
      [
        12.407979,
        58.9907387
      ],
      [
        12.4080735,
        58.9908735
      ],
      [
        12.4081392,
        58.9910375
      ],
      [
        12.4081486,
        58.9911602
      ],
      [
        12.4081841,
        58.9912604
      ],
      [
        12.408227,
        58.991326
      ],
      [
        12.4083054,
        58.9913982
      ],
      [
        12.4091178,
        58.9921382
      ],
      [
        12.4092111,
        58.9922791
      ],
      [
        12.4092835,
        58.992373
      ],
      [
        12.4093284,
        58.9925229
      ],
      [
        12.4094324,
        58.9927143
      ],
      [
        12.409536,
        58.9928677
      ],
      [
        12.4099581,
        58.9933775
      ],
      [
        12.4101284,
        58.9936497
      ],
      [
        12.410233,
        58.9938142
      ],
      [
        12.4103455,
        58.9939374
      ],
      [
        12.4106461,
        58.99423
      ],
      [
        12.4109644,
        58.9945266
      ],
      [
        12.411035,
        58.9946708
      ],
      [
        12.4111289,
        58.9947827
      ],
      [
        12.4111664,
        58.9948711
      ],
      [
        12.4111795,
        58.9949423
      ],
      [
        12.4112026,
        58.995077
      ],
      [
        12.4111946,
        58.9952732
      ],
      [
        12.4111785,
        58.9954058
      ],
      [
        12.4111709,
        58.9955675
      ],
      [
        12.4111168,
        58.9957056
      ],
      [
        12.411047,
        58.9958217
      ],
      [
        12.4110095,
        58.9959143
      ],
      [
        12.4109983,
        58.9960476
      ],
      [
        12.4110021,
        58.9961705
      ],
      [
        12.4110249,
        58.9963149
      ],
      [
        12.411033,
        58.9964199
      ],
      [
        12.4110383,
        58.9964938
      ],
      [
        12.4110035,
        58.9965798
      ],
      [
        12.4109418,
        58.9966755
      ],
      [
        12.4108492,
        58.9967757
      ],
      [
        12.4107066,
        58.9969535
      ],
      [
        12.4106563,
        58.9970558
      ],
      [
        12.4106261,
        58.9971414
      ],
      [
        12.4106816,
        58.9973826
      ],
      [
        12.4107595,
        58.9975324
      ],
      [
        12.4108749,
        58.9976678
      ],
      [
        12.4109841,
        58.9977923
      ],
      [
        12.4110448,
        58.9979156
      ],
      [
        12.4110994,
        58.998112
      ],
      [
        12.41108,
        58.998161
      ],
      [
        12.4110183,
        58.9981963
      ],
      [
        12.41142,
        58.9984691
      ],
      [
        12.4116909,
        58.9986791
      ],
      [
        12.4118955,
        58.9988004
      ],
      [
        12.4120235,
        58.9988753
      ],
      [
        12.4121818,
        58.9989761
      ],
      [
        12.4123245,
        58.9991101
      ],
      [
        12.4124111,
        58.9992496
      ],
      [
        12.4124236,
        58.999369
      ],
      [
        12.412418,
        58.9994678
      ],
      [
        12.4124102,
        58.9995424
      ],
      [
        12.412425,
        58.9996066
      ],
      [
        12.4124625,
        58.9996729
      ],
      [
        12.4125079,
        58.9997288
      ],
      [
        12.4127683,
        58.9999934
      ],
      [
        12.4129903,
        59.0002069
      ],
      [
        12.4131975,
        59.0004893
      ],
      [
        12.4133051,
        59.0006056
      ],
      [
        12.4134067,
        59.0006731
      ],
      [
        12.4135864,
        59.0007117
      ],
      [
        12.4137855,
        59.0007026
      ],
      [
        12.4141791,
        59.0006427
      ],
      [
        12.414493,
        59.0006137
      ],
      [
        12.4147421,
        59.0006204
      ],
      [
        12.4150214,
        59.0006689
      ],
      [
        12.4152597,
        59.0007409
      ],
      [
        12.4163302,
        59.001184
      ],
      [
        12.416809,
        59.001352
      ],
      [
        12.4173619,
        59.0015303
      ],
      [
        12.4178658,
        59.0016601
      ],
      [
        12.4181582,
        59.0017402
      ],
      [
        12.4184167,
        59.0018223
      ],
      [
        12.4185632,
        59.0019149
      ],
      [
        12.4188489,
        59.0021221
      ],
      [
        12.4191452,
        59.0023335
      ],
      [
        12.4195288,
        59.0025883
      ],
      [
        12.419726,
        59.0027389
      ],
      [
        12.4199974,
        59.0029346
      ],
      [
        12.4202634,
        59.0030943
      ],
      [
        12.4205209,
        59.0032235
      ],
      [
        12.4207407,
        59.0033222
      ],
      [
        12.4210706,
        59.0034613
      ],
      [
        12.4213211,
        59.0035871
      ],
      [
        12.4215504,
        59.0037383
      ],
      [
        12.4217895,
        59.0039325
      ],
      [
        12.4221057,
        59.0041824
      ],
      [
        12.4222612,
        59.0043343
      ],
      [
        12.4224107,
        59.0045201
      ],
      [
        12.4225335,
        59.0047598
      ],
      [
        12.4225947,
        59.004937
      ],
      [
        12.4226696,
        59.0050989
      ],
      [
        12.4228044,
        59.0053123
      ],
      [
        12.4228871,
        59.0054246
      ],
      [
        12.4230082,
        59.0055706
      ],
      [
        12.4230953,
        59.0057796
      ],
      [
        12.4231356,
        59.0059725
      ],
      [
        12.4231946,
        59.0062045
      ],
      [
        12.4232617,
        59.0063426
      ],
      [
        12.4233368,
        59.0064601
      ],
      [
        12.4234697,
        59.0066133
      ],
      [
        12.4236251,
        59.0067584
      ],
      [
        12.4237512,
        59.0068952
      ],
      [
        12.4238343,
        59.0070111
      ],
      [
        12.4239287,
        59.0071784
      ],
      [
        12.423998,
        59.0073371
      ],
      [
        12.4240579,
        59.0074879
      ],
      [
        12.4240758,
        59.0076561
      ],
      [
        12.4241011,
        59.0078307
      ],
      [
        12.4241348,
        59.0079559
      ],
      [
        12.4242072,
        59.0080318
      ],
      [
        12.4243215,
        59.0081375
      ],
      [
        12.4244553,
        59.0082389
      ],
      [
        12.4247502,
        59.0084623
      ],
      [
        12.4250078,
        59.0086381
      ],
      [
        12.4252224,
        59.0087597
      ],
      [
        12.425445,
        59.0088259
      ],
      [
        12.4254158,
        59.0089157
      ],
      [
        12.4246265,
        59.0092148
      ],
      [
        12.4244478,
        59.0094141
      ],
      [
        12.4240011,
        59.0096288
      ],
      [
        12.4236735,
        59.0099278
      ],
      [
        12.4229438,
        59.0102499
      ],
      [
        12.4223481,
        59.0104262
      ],
      [
        12.4218865,
        59.0107406
      ],
      [
        12.4216333,
        59.0111009
      ],
      [
        12.4213057,
        59.011377
      ],
      [
        12.4213355,
        59.0115916
      ],
      [
        12.421261,
        59.0117067
      ],
      [
        12.4206654,
        59.0117987
      ],
      [
        12.4204271,
        59.0119673
      ],
      [
        12.4203527,
        59.0121437
      ],
      [
        12.42071,
        59.0122433
      ],
      [
        12.4210228,
        59.0125194
      ],
      [
        12.4212164,
        59.012987
      ],
      [
        12.4216333,
        59.0132554
      ],
      [
        12.4221247,
        59.013401
      ],
      [
        12.4221247,
        59.013516
      ],
      [
        12.4222439,
        59.013884
      ],
      [
        12.4225864,
        59.0141754
      ],
      [
        12.4225864,
        59.0142597
      ],
      [
        12.4228092,
        59.0144554
      ],
      [
        12.4235525,
        59.0147933
      ],
      [
        12.4243579,
        59.0150539
      ],
      [
        12.42476,
        59.0153063
      ],
      [
        12.4258572,
        59.0158052
      ],
      [
        12.4262636,
        59.0160642
      ],
      [
        12.4264061,
        59.0161233
      ],
      [
        12.4268936,
        59.0164705
      ],
      [
        12.4270229,
        59.0165386
      ],
      [
        12.4271692,
        59.0165823
      ],
      [
        12.4273919,
        59.0165947
      ],
      [
        12.4278988,
        59.0165989
      ],
      [
        12.4280906,
        59.0166024
      ],
      [
        12.4282982,
        59.0166329
      ],
      [
        12.4284232,
        59.0166783
      ],
      [
        12.4285653,
        59.0167785
      ],
      [
        12.4287068,
        59.0169053
      ],
      [
        12.4293614,
        59.0179434
      ],
      [
        12.4297119,
        59.0182177
      ],
      [
        12.4299105,
        59.0184766
      ],
      [
        12.4300473,
        59.0187293
      ],
      [
        12.4300814,
        59.0189401
      ],
      [
        12.4300601,
        59.0191924
      ],
      [
        12.4301018,
        59.0193945
      ],
      [
        12.4302015,
        59.0195204
      ],
      [
        12.4304054,
        59.0197151
      ],
      [
        12.4305786,
        59.0198493
      ],
      [
        12.4307701,
        59.0199471
      ],
      [
        12.4309431,
        59.0200064
      ],
      [
        12.4310657,
        59.020034
      ],
      [
        12.4312086,
        59.0200527
      ],
      [
        12.4312527,
        59.0201817
      ],
      [
        12.4310161,
        59.0208507
      ],
      [
        12.4309141,
        59.0211806
      ],
      [
        12.4308337,
        59.0213463
      ],
      [
        12.430662,
        59.0214568
      ],
      [
        12.4305896,
        59.0215603
      ],
      [
        12.4306547,
        59.0216258
      ],
      [
        12.4304938,
        59.0216985
      ],
      [
        12.4303678,
        59.0217675
      ],
      [
        12.4301901,
        59.0218792
      ],
      [
        12.4299606,
        59.0220435
      ],
      [
        12.4296902,
        59.0222535
      ],
      [
        12.4290052,
        59.022796
      ],
      [
        12.4287826,
        59.0229975
      ],
      [
        12.4286194,
        59.023163
      ],
      [
        12.4284317,
        59.0233853
      ],
      [
        12.4283137,
        59.0235441
      ],
      [
        12.4281898,
        59.0237416
      ],
      [
        12.4281072,
        59.0239155
      ],
      [
        12.4280563,
        59.0240756
      ],
      [
        12.4278706,
        59.0247577
      ],
      [
        12.4278111,
        59.0249389
      ],
      [
        12.4277151,
        59.0251497
      ],
      [
        12.427647,
        59.0252414
      ],
      [
        12.4275529,
        59.0253269
      ],
      [
        12.4274232,
        59.0254016
      ],
      [
        12.427282,
        59.0254663
      ],
      [
        12.427163,
        59.025502
      ],
      [
        12.4269896,
        59.0255243
      ],
      [
        12.4268353,
        59.0255376
      ],
      [
        12.4266288,
        59.0255169
      ],
      [
        12.4264644,
        59.0254648
      ],
      [
        12.4262225,
        59.0253785
      ],
      [
        12.4263084,
        59.0256082
      ],
      [
        12.4263808,
        59.0257311
      ],
      [
        12.4265203,
        59.0258194
      ],
      [
        12.4266517,
        59.0258829
      ],
      [
        12.4266786,
        59.0259451
      ],
      [
        12.4266464,
        59.0262267
      ],
      [
        12.4266357,
        59.0263329
      ],
      [
        12.4266491,
        59.0264461
      ],
      [
        12.4267268,
        59.0265455
      ],
      [
        12.4268717,
        59.0266918
      ],
      [
        12.4269951,
        59.0268782
      ],
      [
        12.4270997,
        59.0270563
      ],
      [
        12.4272499,
        59.027204
      ],
      [
        12.4275664,
        59.0274262
      ],
      [
        12.4278185,
        59.0276139
      ],
      [
        12.4279687,
        59.0277809
      ],
      [
        12.4280599,
        59.0279645
      ],
      [
        12.4280867,
        59.0281177
      ],
      [
        12.4280814,
        59.028264
      ],
      [
        12.428084,
        59.028311
      ],
      [
        12.4281484,
        59.0283551
      ],
      [
        12.4283469,
        59.0283979
      ],
      [
        12.4286259,
        59.0284366
      ],
      [
        12.4287626,
        59.0284794
      ],
      [
        12.4289477,
        59.0285125
      ],
      [
        12.429173,
        59.0285967
      ],
      [
        12.4293286,
        59.0286616
      ],
      [
        12.4294493,
        59.0287347
      ],
      [
        12.4295056,
        59.028812
      ],
      [
        12.4296236,
        59.0289846
      ],
      [
        12.4297778,
        59.0292332
      ],
      [
        12.4299495,
        59.0294209
      ],
      [
        12.4301426,
        59.0295741
      ],
      [
        12.4302901,
        59.0296804
      ],
      [
        12.4304725,
        59.0297522
      ],
      [
        12.4307193,
        59.029846
      ],
      [
        12.4308212,
        59.0298502
      ],
      [
        12.4309499,
        59.0298571
      ],
      [
        12.4310331,
        59.0298929
      ],
      [
        12.4311913,
        59.0299965
      ],
      [
        12.4313388,
        59.0300765
      ],
      [
        12.4314461,
        59.0301317
      ],
      [
        12.4317009,
        59.0302076
      ],
      [
        12.431886,
        59.0302987
      ],
      [
        12.4320201,
        59.0303484
      ],
      [
        12.4320657,
        59.0303953
      ],
      [
        12.4320872,
        59.0304437
      ],
      [
        12.4320309,
        59.0305196
      ],
      [
        12.4320309,
        59.0305775
      ],
      [
        12.4320818,
        59.0306797
      ],
      [
        12.4321542,
        59.0307887
      ],
      [
        12.4322937,
        59.0309281
      ],
      [
        12.4324412,
        59.0310979
      ],
      [
        12.4326156,
        59.0312331
      ],
      [
        12.4327658,
        59.0313587
      ],
      [
        12.4328704,
        59.0314277
      ],
      [
        12.4328945,
        59.0314885
      ],
      [
        12.4328409,
        59.0316223
      ],
      [
        12.4328275,
        59.0317328
      ],
      [
        12.4328489,
        59.0318266
      ],
      [
        12.4329187,
        59.0319563
      ],
      [
        12.4329991,
        59.0320626
      ],
      [
        12.4331091,
        59.032144
      ],
      [
        12.4332754,
        59.0322089
      ],
      [
        12.4335651,
        59.0323138
      ],
      [
        12.4337046,
        59.0323994
      ],
      [
        12.433962,
        59.0325912
      ],
      [
        12.4340861,
        59.0326568
      ],
      [
        12.4342283,
        59.0327147
      ],
      [
        12.4342953,
        59.0327706
      ],
      [
        12.4343382,
        59.0328127
      ],
      [
        12.4343771,
        59.0328831
      ],
      [
        12.4344764,
        59.0329404
      ],
      [
        12.4345622,
        59.0329942
      ],
      [
        12.4346319,
        59.0330246
      ],
      [
        12.4346815,
        59.0330646
      ],
      [
        12.4347634,
        59.0331412
      ],
      [
        12.434817,
        59.0332005
      ],
      [
        12.4348814,
        59.033302
      ],
      [
        12.4349095,
        59.0333668
      ],
      [
        12.4349484,
        59.0334186
      ],
      [
        12.4350396,
        59.0334917
      ],
      [
        12.4351684,
        59.033578
      ],
      [
        12.4352207,
        59.0336187
      ],
      [
        12.4352529,
        59.0336787
      ],
      [
        12.4352904,
        59.0337257
      ],
      [
        12.4353977,
        59.0337615
      ],
      [
        12.4355519,
        59.0337443
      ],
      [
        12.4357142,
        59.0337539
      ],
      [
        12.4358376,
        59.0337795
      ],
      [
        12.4360723,
        59.033854
      ],
      [
        12.4362439,
        59.0339258
      ],
      [
        12.43637,
        59.0340003
      ],
      [
        12.436547,
        59.0341507
      ],
      [
        12.4367267,
        59.0343053
      ],
      [
        12.4368555,
        59.0344488
      ],
      [
        12.4369735,
        59.0345634
      ],
      [
        12.4370808,
        59.034642
      ],
      [
        12.4371854,
        59.0346793
      ],
      [
        12.4373436,
        59.0347566
      ],
      [
        12.4374375,
        59.0348256
      ],
      [
        12.4375555,
        59.034878
      ],
      [
        12.4376494,
        59.0349373
      ],
      [
        12.4377513,
        59.0351168
      ],
      [
        12.4377808,
        59.035212
      ],
      [
        12.4378425,
        59.0353017
      ],
      [
        12.4379418,
        59.035361
      ],
      [
        12.4380812,
        59.0354093
      ],
      [
        12.438159,
        59.0354673
      ],
      [
        12.438261,
        59.0355239
      ],
      [
        12.4384058,
        59.0355653
      ],
      [
        12.4385265,
        59.0356398
      ],
      [
        12.4386794,
        59.0357847
      ],
      [
        12.4388108,
        59.0358992
      ],
      [
        12.4389664,
        59.0359696
      ],
      [
        12.4392078,
        59.0359917
      ],
      [
        12.4396208,
        59.036011
      ],
      [
        12.4399534,
        59.0360027
      ],
      [
        12.4404067,
        59.0359724
      ],
      [
        12.4408681,
        59.0359558
      ],
      [
        12.44097,
        59.036069
      ],
      [
        12.44108,
        59.036345
      ],
      [
        12.4412141,
        59.0366844
      ],
      [
        12.4412623,
        59.0368362
      ],
      [
        12.441265,
        59.0369425
      ],
      [
        12.4412677,
        59.0371164
      ],
      [
        12.4412516,
        59.0372268
      ],
      [
        12.4411846,
        59.0373427
      ],
      [
        12.4411524,
        59.0374848
      ],
      [
        12.4411631,
        59.03762
      ],
      [
        12.4412248,
        59.0377525
      ],
      [
        12.4412892,
        59.0378767
      ],
      [
        12.4413374,
        59.0380271
      ],
      [
        12.4413616,
        59.038143
      ],
      [
        12.441367,
        59.0382396
      ],
      [
        12.4413455,
        59.038379
      ],
      [
        12.4413589,
        59.0385115
      ],
      [
        12.4414125,
        59.0386784
      ],
      [
        12.441434,
        59.038815
      ],
      [
        12.4414313,
        59.0389599
      ],
      [
        12.4413911,
        59.0391021
      ],
      [
        12.4413294,
        59.0394125
      ],
      [
        12.4412704,
        59.0397754
      ],
      [
        12.441257,
        59.0399838
      ],
      [
        12.4413696,
        59.0402004
      ],
      [
        12.4414662,
        59.0402584
      ],
      [
        12.4417371,
        59.0402887
      ],
      [
        12.4419409,
        59.0403315
      ],
      [
        12.4420348,
        59.0403853
      ],
      [
        12.4421984,
        59.0405743
      ],
      [
        12.4423781,
        59.0407234
      ],
      [
        12.4426651,
        59.0408475
      ],
      [
        12.4429092,
        59.0409179
      ],
      [
        12.4435851,
        59.0411014
      ],
      [
        12.443679,
        59.0411442
      ],
      [
        12.4437461,
        59.0412408
      ],
      [
        12.4437568,
        59.041434
      ],
      [
        12.4437565,
        59.041525
      ],
      [
        12.4437766,
        59.0416168
      ],
      [
        12.4438195,
        59.0417175
      ],
      [
        12.4439134,
        59.0418872
      ],
      [
        12.443967,
        59.0419962
      ],
      [
        12.4439831,
        59.0420866
      ],
      [
        12.4439791,
        59.0421859
      ],
      [
        12.4439281,
        59.0422894
      ],
      [
        12.4438611,
        59.0424094
      ],
      [
        12.4438393,
        59.0424598
      ],
      [
        12.4438527,
        59.0425433
      ],
      [
        12.4439117,
        59.0426681
      ],
      [
        12.4439922,
        59.0427433
      ],
      [
        12.444133,
        59.0428289
      ],
      [
        12.4442672,
        59.0428874
      ],
      [
        12.4445981,
        59.043037
      ],
      [
        12.4449047,
        59.0431718
      ],
      [
        12.4451275,
        59.0432516
      ],
      [
        12.445246,
        59.043291
      ],
      [
        12.445319,
        59.0433415
      ],
      [
        12.4453869,
        59.043407
      ],
      [
        12.4454067,
        59.0434995
      ],
      [
        12.4453596,
        59.0436087
      ],
      [
        12.4453041,
        59.0436832
      ],
      [
        12.4452637,
        59.0437372
      ],
      [
        12.4451955,
        59.0438116
      ],
      [
        12.4450929,
        59.0438642
      ],
      [
        12.4449799,
        59.043914
      ],
      [
        12.4448418,
        59.0439671
      ],
      [
        12.4447179,
        59.0440616
      ],
      [
        12.4446969,
        59.0441341
      ],
      [
        12.4446178,
        59.0442651
      ],
      [
        12.4445699,
        59.0443492
      ],
      [
        12.4453965,
        59.0446964
      ],
      [
        12.4455076,
        59.0447556
      ],
      [
        12.4455868,
        59.0448069
      ],
      [
        12.4456672,
        59.0448798
      ],
      [
        12.4457208,
        59.0449584
      ],
      [
        12.4457772,
        59.0450743
      ],
      [
        12.4458222,
        59.0452229
      ],
      [
        12.445859,
        59.0454495
      ],
      [
        12.4458966,
        59.0456413
      ],
      [
        12.4459636,
        59.0458027
      ],
      [
        12.446042,
        59.045934
      ],
      [
        12.4456866,
        59.0459676
      ],
      [
        12.4454828,
        59.045969
      ],
      [
        12.4453326,
        59.045951
      ],
      [
        12.4451475,
        59.0459055
      ],
      [
        12.4449383,
        59.0458614
      ],
      [
        12.4447988,
        59.0458462
      ],
      [
        12.4446996,
        59.0458862
      ],
      [
        12.4444206,
        59.0460628
      ],
      [
        12.4442721,
        59.0461394
      ],
      [
        12.4441192,
        59.046207
      ],
      [
        12.44402,
        59.0462663
      ],
      [
        12.4439717,
        59.0463187
      ],
      [
        12.443969,
        59.0463946
      ],
      [
        12.4440388,
        59.046516
      ],
      [
        12.4440951,
        59.0466636
      ],
      [
        12.4441434,
        59.0467891
      ],
      [
        12.4441809,
        59.0468912
      ],
      [
        12.4442185,
        59.0469961
      ],
      [
        12.4442963,
        59.0471023
      ],
      [
        12.4444143,
        59.0472127
      ],
      [
        12.4445886,
        59.0473672
      ],
      [
        12.4446342,
        59.0474127
      ],
      [
        12.4445806,
        59.0474968
      ],
      [
        12.4444491,
        59.0475175
      ],
      [
        12.4443472,
        59.0475424
      ],
      [
        12.4442346,
        59.0475989
      ],
      [
        12.444087,
        59.0476734
      ],
      [
        12.4440039,
        59.0477548
      ],
      [
        12.4439771,
        59.0478431
      ],
      [
        12.4439596,
        59.0479052
      ],
      [
        12.443906,
        59.0479714
      ],
      [
        12.4437692,
        59.0480735
      ],
      [
        12.4435841,
        59.0481438
      ],
      [
        12.4434152,
        59.0482142
      ],
      [
        12.4433508,
        59.0482501
      ],
      [
        12.4433132,
        59.0483011
      ],
      [
        12.4433132,
        59.0483549
      ],
      [
        12.443383,
        59.0484625
      ],
      [
        12.4434929,
        59.0485673
      ],
      [
        12.4435251,
        59.0486418
      ],
      [
        12.4435171,
        59.0487439
      ],
      [
        12.4435171,
        59.0488239
      ],
      [
        12.443568,
        59.0489095
      ],
      [
        12.44367,
        59.0489977
      ],
      [
        12.4437933,
        59.0490791
      ],
      [
        12.4438658,
        59.0491371
      ],
      [
        12.4438845,
        59.0492116
      ],
      [
        12.4438363,
        59.049384
      ],
      [
        12.4437424,
        59.0495219
      ],
      [
        12.4436029,
        59.0496282
      ],
      [
        12.4435493,
        59.0496861
      ],
      [
        12.4435359,
        59.0497689
      ],
      [
        12.4435654,
        59.0498461
      ],
      [
        12.4436297,
        59.0499247
      ],
      [
        12.4436619,
        59.0500351
      ],
      [
        12.443627,
        59.0501096
      ],
      [
        12.4435546,
        59.0502061
      ],
      [
        12.4435063,
        59.0502958
      ],
      [
        12.443501,
        59.05038
      ],
      [
        12.443509,
        59.0504834
      ],
      [
        12.4434876,
        59.0505593
      ],
      [
        12.4434178,
        59.0506255
      ],
      [
        12.4433602,
        59.0507069
      ],
      [
        12.4433307,
        59.0508255
      ],
      [
        12.4433468,
        59.0509455
      ],
      [
        12.4434058,
        59.0510683
      ],
      [
        12.4435157,
        59.051209
      ],
      [
        12.4435882,
        59.0513248
      ],
      [
        12.4436418,
        59.0514531
      ],
      [
        12.4437249,
        59.0516462
      ],
      [
        12.4437491,
        59.0517787
      ],
      [
        12.443792,
        59.0518545
      ],
      [
        12.4438912,
        59.0519262
      ],
      [
        12.443969,
        59.0520076
      ],
      [
        12.4440522,
        59.0521828
      ],
      [
        12.4441407,
        59.0522863
      ],
      [
        12.4442346,
        59.0523814
      ],
      [
        12.4443284,
        59.0524532
      ],
      [
        12.4443928,
        59.0525235
      ],
      [
        12.4444143,
        59.0526187
      ],
      [
        12.4444035,
        59.0526849
      ],
      [
        12.4444035,
        59.0527732
      ],
      [
        12.4444331,
        59.0528738
      ],
      [
        12.4445108,
        59.0530021
      ],
      [
        12.4446342,
        59.0531732
      ],
      [
        12.4447227,
        59.0532642
      ],
      [
        12.4448193,
        59.0533332
      ],
      [
        12.4448542,
        59.0533966
      ],
      [
        12.4448676,
        59.0534932
      ],
      [
        12.4448407,
        59.0535704
      ],
      [
        12.4447844,
        59.0536269
      ],
      [
        12.4447898,
        59.0536863
      ],
      [
        12.4448461,
        59.0537594
      ],
      [
        12.4451143,
        59.0538297
      ],
      [
        12.4454174,
        59.0538642
      ],
      [
        12.4456374,
        59.0538725
      ],
      [
        12.4457554,
        59.0539056
      ],
      [
        12.4458573,
        59.0539607
      ],
      [
        12.4459565,
        59.0540559
      ],
      [
        12.4460531,
        59.0542628
      ],
      [
        12.4461443,
        59.0545276
      ],
      [
        12.446155,
        59.0547483
      ],
      [
        12.4461658,
        59.05498
      ],
      [
        12.4461591,
        59.0551621
      ],
      [
        12.4461242,
        59.0552834
      ],
      [
        12.4460813,
        59.0553855
      ],
      [
        12.4460705,
        59.0554945
      ],
      [
        12.446092,
        59.0556131
      ],
      [
        12.4461349,
        59.0557082
      ],
      [
        12.4462824,
        59.0558241
      ],
      [
        12.4464809,
        59.0559096
      ],
      [
        12.4468833,
        59.0560461
      ],
      [
        12.4472722,
        59.056162
      ],
      [
        12.4477872,
        59.0563385
      ],
      [
        12.447991,
        59.0563923
      ],
      [
        12.4483209,
        59.056453
      ],
      [
        12.4486508,
        59.056544
      ],
      [
        12.448919,
        59.0566571
      ],
      [
        12.4492516,
        59.0568047
      ],
      [
        12.4496164,
        59.0569605
      ],
      [
        12.4499168,
        59.0571122
      ],
      [
        12.450169,
        59.0571536
      ],
      [
        12.450543,
        59.057135
      ],
      [
        12.4510219,
        59.0571288
      ],
      [
        12.4513545,
        59.0571191
      ],
      [
        12.4515583,
        59.0571398
      ],
      [
        12.4519446,
        59.0572198
      ],
      [
        12.4524783,
        59.0573384
      ],
      [
        12.4527727,
        59.0574207
      ],
      [
        12.4526452,
        59.0575372
      ],
      [
        12.4525724,
        59.0576666
      ],
      [
        12.4525423,
        59.0577152
      ],
      [
        12.4526475,
        59.0577255
      ],
      [
        12.4535367,
        59.057798
      ],
      [
        12.4540973,
        59.057849
      ],
      [
        12.4546069,
        59.0578766
      ],
      [
        12.4549977,
        59.0578985
      ],
      [
        12.4552794,
        59.0579128
      ],
      [
        12.455644,
        59.0576012
      ],
      [
        12.4555893,
        59.0578773
      ],
      [
        12.4555743,
        59.0579792
      ],
      [
        12.4555859,
        59.0580931
      ],
      [
        12.4557422,
        59.0583042
      ],
      [
        12.4558622,
        59.0582549
      ],
      [
        12.4558542,
        59.0581722
      ],
      [
        12.4558864,
        59.0580894
      ],
      [
        12.4560178,
        59.0580522
      ],
      [
        12.4561922,
        59.0580577
      ],
      [
        12.4565784,
        59.0580936
      ],
      [
        12.45708,
        59.0581391
      ],
      [
        12.4575976,
        59.0581942
      ],
      [
        12.4579544,
        59.0582411
      ],
      [
        12.4581716,
        59.0583391
      ],
      [
        12.458346,
        59.0584287
      ],
      [
        12.4584773,
        59.0585252
      ],
      [
        12.4586517,
        59.0586135
      ],
      [
        12.4588153,
        59.0586783
      ],
      [
        12.4590782,
        59.0587279
      ],
      [
        12.4594296,
        59.0587721
      ],
      [
        12.4599821,
        59.0588231
      ],
      [
        12.4603093,
        59.0588328
      ],
      [
        12.4606714,
        59.0588259
      ],
      [
        12.4609343,
        59.0587941
      ],
      [
        12.4611462,
        59.0587693
      ],
      [
        12.4612366,
        59.0587581
      ],
      [
        12.4619463,
        59.0583697
      ],
      [
        12.4623048,
        59.0581758
      ],
      [
        12.4626709,
        59.057953
      ],
      [
        12.4628439,
        59.0578203
      ],
      [
        12.4630671,
        59.0576332
      ],
      [
        12.46357,
        59.057175
      ]
    ]
  }
}
