{
  "type": "Feature",
  "properties": {},
  "geometry": {
    "type": "LineString",
    "coordinates": [
      [
        -2.888617,
        54.923765,
        -18.2
      ],
      [
        -2.888617,
        54.923765,
        -18.2
      ],
      [
        -2.888617,
        54.923765,
        -18.2
      ],
      [
        -2.888569,
        54.924223,
        20.2
      ],
      [
        -2.888569,
        54.924223,
        20.6
      ],
      [
        -2.888515,
        54.924226,
        20.6
      ],
      [
        -2.888407,
        54.924169,
        21.2
      ],
      [
        -2.888332,
        54.924136,
        21.4
      ],
      [
        -2.88809,
        54.924004,
        21.6
      ],
      [
        -2.888055,
        54.923978,
        20.8
      ],
      [
        -2.887622,
        54.923599,
        22.2
      ],
      [
        -2.887311,
        54.923226,
        23
      ],
      [
        -2.887101,
        54.922892,
        21.6
      ],
      [
        -2.886711,
        54.922498,
        22.4
      ],
      [
        -2.886339,
        54.922117,
        24.4
      ],
      [
        -2.88664,
        54.921697,
        25.6
      ],
      [
        -2.88671,
        54.921484,
        23.6
      ],
      [
        -2.886682,
        54.921456,
        23.2
      ],
      [
        -2.886402,
        54.921171,
        19.6
      ],
      [
        -2.885763,
        54.920906,
        17.8
      ],
      [
        -2.885792,
        54.9205,
        19
      ],
      [
        -2.885877,
        54.920418,
        17.2
      ],
      [
        -2.885966,
        54.920298,
        16.6
      ],
      [
        -2.886007,
        54.920264,
        17
      ],
      [
        -2.886259,
        54.920058,
        17.4
      ],
      [
        -2.886287,
        54.920031,
        18
      ],
      [
        -2.886551,
        54.919853,
        18.2
      ],
      [
        -2.886714,
        54.919711,
        18.2
      ],
      [
        -2.887013,
        54.919488,
        17.2
      ],
      [
        -2.887355,
        54.919238,
        16.4
      ],
      [
        -2.88777,
        54.918857,
        16.4
      ],
      [
        -2.888033,
        54.918431,
        20.4
      ],
      [
        -2.888433,
        54.918157,
        20.6
      ],
      [
        -2.888541,
        54.918148,
        20.4
      ],
      [
        -2.888757,
        54.918106,
        20
      ],
      [
        -2.889217,
        54.917973,
        19.4
      ],
      [
        -2.889281,
        54.917941,
        19.8
      ],
      [
        -2.889904,
        54.917754,
        18.2
      ],
      [
        -2.890378,
        54.917394,
        20.8
      ],
      [
        -2.890565,
        54.917275,
        21.8
      ],
      [
        -2.890934,
        54.917111,
        21.4
      ],
      [
        -2.891127,
        54.917009,
        21.2
      ],
      [
        -2.891693,
        54.916695,
        18.8
      ],
      [
        -2.892167,
        54.916465,
        20.6
      ],
      [
        -2.892659,
        54.916322,
        22.8
      ],
      [
        -2.892753,
        54.916364,
        21.8
      ],
      [
        -2.89279,
        54.916379,
        21.6
      ],
      [
        -2.893069,
        54.916499,
        21
      ],
      [
        -2.893136,
        54.916489,
        21.4
      ],
      [
        -2.89382,
        54.916287,
        23.4
      ],
      [
        -2.894432,
        54.915994,
        25.4
      ],
      [
        -2.894955,
        54.91565,
        25.6
      ],
      [
        -2.895247,
        54.91539,
        25.6
      ],
      [
        -2.895773,
        54.915042,
        24.6
      ],
      [
        -2.89604,
        54.91494,
        25.4
      ],
      [
        -2.896805,
        54.914858,
        22.6
      ],
      [
        -2.896913,
        54.914856,
        22.2
      ],
      [
        -2.897608,
        54.914671,
        24.2
      ],
      [
        -2.898027,
        54.914438,
        27.8
      ],
      [
        -2.898512,
        54.914176,
        26.6
      ],
      [
        -2.898912,
        54.914212,
        29
      ],
      [
        -2.898969,
        54.914206,
        29.2
      ],
      [
        -2.899022,
        54.914188,
        28.6
      ],
      [
        -2.899587,
        54.913872,
        29
      ],
      [
        -2.899701,
        54.913788,
        30.8
      ],
      [
        -2.899763,
        54.91374,
        31.4
      ],
      [
        -2.899783,
        54.913728,
        31.8
      ],
      [
        -2.899857,
        54.913673,
        31.6
      ],
      [
        -2.899911,
        54.913643,
        32.2
      ],
      [
        -2.90043,
        54.913296,
        35.8
      ],
      [
        -2.900979,
        54.912968,
        34.8
      ],
      [
        -2.901186,
        54.912852,
        32.8
      ],
      [
        -2.901735,
        54.912503,
        29.6
      ],
      [
        -2.901943,
        54.912292,
        32
      ],
      [
        -2.902195,
        54.911865,
        34
      ],
      [
        -2.902274,
        54.911668,
        33.8
      ],
      [
        -2.902392,
        54.911331,
        28.8
      ],
      [
        -2.902397,
        54.911269,
        26.6
      ],
      [
        -2.902363,
        54.910893,
        25.2
      ],
      [
        -2.902384,
        54.910758,
        23.8
      ],
      [
        -2.902528,
        54.910303,
        24.8
      ],
      [
        -2.90291,
        54.909911,
        22.2
      ],
      [
        -2.903091,
        54.909749,
        22
      ],
      [
        -2.903466,
        54.909448,
        21.2
      ],
      [
        -2.903947,
        54.909097,
        22.8
      ],
      [
        -2.904155,
        54.908947,
        22.4
      ],
      [
        -2.904171,
        54.908935,
        22
      ],
      [
        -2.9042,
        54.908911,
        21.6
      ],
      [
        -2.904213,
        54.908899,
        21.8
      ],
      [
        -2.904239,
        54.908877,
        21.8
      ],
      [
        -2.904258,
        54.908852,
        22
      ],
      [
        -2.904287,
        54.908826,
        22
      ],
      [
        -2.904319,
        54.908804,
        22
      ],
      [
        -2.904811,
        54.908447,
        21.4
      ],
      [
        -2.905179,
        54.908171,
        21.8
      ],
      [
        -2.905583,
        54.907782,
        23.6
      ],
      [
        -2.906016,
        54.9074,
        25.2
      ],
      [
        -2.906305,
        54.907097,
        25.4
      ],
      [
        -2.906781,
        54.906733,
        23.8
      ],
      [
        -2.906945,
        54.906605,
        24.8
      ],
      [
        -2.907593,
        54.906363,
        21.6
      ],
      [
        -2.907704,
        54.906328,
        23.2
      ],
      [
        -2.908019,
        54.906091,
        24
      ],
      [
        -2.908611,
        54.90579,
        24
      ],
      [
        -2.909163,
        54.905449,
        25.4
      ],
      [
        -2.909209,
        54.905429,
        25.6
      ],
      [
        -2.909911,
        54.905224,
        21.8
      ],
      [
        -2.910711,
        54.90521,
        23.8
      ],
      [
        -2.911489,
        54.905176,
        19.4
      ],
      [
        -2.91209,
        54.905128,
        18.8
      ],
      [
        -2.912336,
        54.905045,
        19.8
      ],
      [
        -2.913084,
        54.904934,
        19
      ],
      [
        -2.913853,
        54.90503,
        22.4
      ],
      [
        -2.913936,
        54.905067,
        22
      ],
      [
        -2.914016,
        54.905099,
        22
      ],
      [
        -2.914574,
        54.905368,
        25.2
      ],
      [
        -2.915289,
        54.905562,
        19.6
      ],
      [
        -2.916056,
        54.905651,
        19.2
      ],
      [
        -2.916634,
        54.905659,
        17.8
      ],
      [
        -2.917394,
        54.905553,
        18
      ],
      [
        -2.917766,
        54.905465,
        18.8
      ],
      [
        -2.917787,
        54.905459,
        18.8
      ],
      [
        -2.91845,
        54.905222,
        20
      ],
      [
        -2.91913,
        54.904984,
        20.4
      ],
      [
        -2.919765,
        54.90472,
        20.4
      ],
      [
        -2.920056,
        54.904572,
        22
      ],
      [
        -2.920125,
        54.904498,
        21.4
      ],
      [
        -2.920183,
        54.904408,
        18.6
      ],
      [
        -2.920154,
        54.904342,
        16
      ],
      [
        -2.92019,
        54.904279,
        16.6
      ],
      [
        -2.920181,
        54.904278,
        17.4
      ],
      [
        -2.92018,
        54.904281,
        17.6
      ],
      [
        -2.920192,
        54.90424,
        17.2
      ],
      [
        -2.920244,
        54.904018,
        19.2
      ],
      [
        -2.920287,
        54.904013,
        19.2
      ],
      [
        -2.920312,
        54.904016,
        18.6
      ],
      [
        -2.920429,
        54.904025,
        17.8
      ],
      [
        -2.920497,
        54.904028,
        17.2
      ],
      [
        -2.920573,
        54.904031,
        16.6
      ],
      [
        -2.920615,
        54.904037,
        16.8
      ],
      [
        -2.920753,
        54.904051,
        16.6
      ],
      [
        -2.920791,
        54.904053,
        16.4
      ],
      [
        -2.920808,
        54.904048,
        17.2
      ],
      [
        -2.920887,
        54.904041,
        18.4
      ],
      [
        -2.920947,
        54.904044,
        19
      ],
      [
        -2.921035,
        54.904059,
        18
      ],
      [
        -2.921114,
        54.904056,
        16
      ],
      [
        -2.921343,
        54.904059,
        13
      ],
      [
        -2.921433,
        54.904043,
        12.4
      ],
      [
        -2.921916,
        54.903926,
        14.8
      ],
      [
        -2.922275,
        54.903848,
        14.2
      ],
      [
        -2.922802,
        54.903784,
        18.6
      ],
      [
        -2.923576,
        54.903732,
        17.4
      ],
      [
        -2.923803,
        54.903753,
        17.4
      ],
      [
        -2.923954,
        54.903765,
        17.2
      ],
      [
        -2.924318,
        54.903835,
        17.6
      ],
      [
        -2.924985,
        54.903973,
        19
      ],
      [
        -2.925747,
        54.904067,
        18.8
      ],
      [
        -2.926542,
        54.904091,
        20
      ],
      [
        -2.92733,
        54.904102,
        18.4
      ],
      [
        -2.927459,
        54.90409,
        17.8
      ],
      [
        -2.927475,
        54.904083,
        17
      ],
      [
        -2.92777,
        54.904207,
        18.4
      ],
      [
        -2.92779,
        54.904214,
        18.4
      ],
      [
        -2.927886,
        54.904243,
        17.4
      ],
      [
        -2.927911,
        54.90425,
        17.2
      ],
      [
        -2.928101,
        54.904315,
        15.6
      ],
      [
        -2.928762,
        54.904567,
        21.6
      ],
      [
        -2.928891,
        54.904646,
        20.2
      ],
      [
        -2.929344,
        54.904869,
        17.6
      ],
      [
        -2.929829,
        54.904835,
        17.6
      ],
      [
        -2.930347,
        54.904818,
        16
      ],
      [
        -2.930492,
        54.904816,
        15
      ],
      [
        -2.930713,
        54.904804,
        14
      ],
      [
        -2.931291,
        54.904694,
        16
      ],
      [
        -2.931962,
        54.904452,
        13.2
      ],
      [
        -2.932628,
        54.904262,
        16.2
      ],
      [
        -2.932805,
        54.904143,
        17
      ],
      [
        -2.932849,
        54.904119,
        16.8
      ],
      [
        -2.933209,
        54.903879,
        19.6
      ],
      [
        -2.933303,
        54.903797,
        20.4
      ],
      [
        -2.933596,
        54.903625,
        17.2
      ],
      [
        -2.933896,
        54.90345,
        17.4
      ],
      [
        -2.934129,
        54.903261,
        17.8
      ],
      [
        -2.934161,
        54.903238,
        17.6
      ],
      [
        -2.934653,
        54.902872,
        17.4
      ],
      [
        -2.934929,
        54.902585,
        18.8
      ],
      [
        -2.934959,
        54.902563,
        18.8
      ],
      [
        -2.935054,
        54.902482,
        17.6
      ],
      [
        -2.935224,
        54.902344,
        15.4
      ],
      [
        -2.935226,
        54.902332,
        15
      ],
      [
        -2.935247,
        54.902246,
        17.8
      ],
      [
        -2.935269,
        54.902194,
        17.4
      ],
      [
        -2.93559,
        54.901782,
        20.2
      ],
      [
        -2.93563,
        54.901746,
        20
      ],
      [
        -2.935789,
        54.901585,
        19.2
      ],
      [
        -2.936093,
        54.901259,
        15.2
      ],
      [
        -2.936446,
        54.901088,
        17.2
      ],
      [
        -2.936601,
        54.901108,
        17.4
      ],
      [
        -2.936898,
        54.901292,
        18.8
      ],
      [
        -2.93703,
        54.901222,
        21.8
      ],
      [
        -2.936954,
        54.901109,
        24.2
      ],
      [
        -2.936943,
        54.901097,
        24.2
      ],
      [
        -2.93693,
        54.901085,
        24
      ],
      [
        -2.936685,
        54.900881,
        21.4
      ],
      [
        -2.936466,
        54.900703,
        17
      ],
      [
        -2.936355,
        54.900604,
        15
      ],
      [
        -2.936194,
        54.90044,
        16.2
      ],
      [
        -2.936188,
        54.900431,
        16.2
      ],
      [
        -2.936184,
        54.90041,
        16.4
      ],
      [
        -2.936177,
        54.9004,
        16.4
      ],
      [
        -2.936105,
        54.900328,
        17.8
      ],
      [
        -2.936056,
        54.900277,
        18
      ],
      [
        -2.935993,
        54.900218,
        18.4
      ],
      [
        -2.935944,
        54.900146,
        18.4
      ],
      [
        -2.935775,
        54.90003,
        19
      ],
      [
        -2.935706,
        54.899972,
        19
      ],
      [
        -2.935604,
        54.899878,
        18.8
      ],
      [
        -2.935232,
        54.899571,
        19.4
      ],
      [
        -2.935243,
        54.899603,
        19.2
      ],
      [
        -2.935578,
        54.899881,
        14.6
      ],
      [
        -2.935651,
        54.899887,
        14.2
      ],
      [
        -2.935872,
        54.899821,
        13.4
      ],
      [
        -2.936332,
        54.899573,
        23.8
      ],
      [
        -2.936545,
        54.899479,
        20.8
      ],
      [
        -2.936684,
        54.899436,
        19.2
      ],
      [
        -2.937404,
        54.899243,
        20.6
      ],
      [
        -2.937652,
        54.899164,
        17.8
      ],
      [
        -2.938115,
        54.899045,
        13.6
      ],
      [
        -2.938263,
        54.89903,
        11.6
      ],
      [
        -2.93903,
        54.899057,
        15.6
      ],
      [
        -2.939393,
        54.899154,
        17
      ],
      [
        -2.94015,
        54.899304,
        19.8
      ],
      [
        -2.940897,
        54.89945,
        17.6
      ],
      [
        -2.941598,
        54.899662,
        18.2
      ],
      [
        -2.942276,
        54.899895,
        14.2
      ],
      [
        -2.942875,
        54.900202,
        18
      ],
      [
        -2.943365,
        54.90055,
        19.8
      ],
      [
        -2.943895,
        54.900891,
        17.2
      ],
      [
        -2.944356,
        54.9011,
        21.2
      ],
      [
        -2.944961,
        54.901405,
        20.2
      ],
      [
        -2.945539,
        54.901687,
        22
      ],
      [
        -2.94516,
        54.902087,
        19.8
      ],
      [
        -2.944979,
        54.902267,
        19.8
      ],
      [
        -2.944822,
        54.902404,
        19
      ],
      [
        -2.944698,
        54.902523,
        19.4
      ],
      [
        -2.944356,
        54.902937,
        18.2
      ],
      [
        -2.944312,
        54.903113,
        18.4
      ],
      [
        -2.9443,
        54.903137,
        18.6
      ],
      [
        -2.944298,
        54.903186,
        18.8
      ],
      [
        -2.944378,
        54.903639,
        21
      ],
      [
        -2.944563,
        54.904049,
        23
      ],
      [
        -2.944576,
        54.904088,
        23
      ],
      [
        -2.944579,
        54.904101,
        22.8
      ],
      [
        -2.944584,
        54.904115,
        22.6
      ],
      [
        -2.944591,
        54.904129,
        22.2
      ],
      [
        -2.94473,
        54.904448,
        19
      ],
      [
        -2.944766,
        54.904511,
        19
      ],
      [
        -2.944849,
        54.904597,
        20
      ],
      [
        -2.945268,
        54.904974,
        15.6
      ],
      [
        -2.945941,
        54.905213,
        18.8
      ],
      [
        -2.946461,
        54.905303,
        19
      ],
      [
        -2.947248,
        54.905386,
        15.2
      ],
      [
        -2.947477,
        54.905387,
        16.2
      ],
      [
        -2.948257,
        54.905401,
        19.6
      ],
      [
        -2.94886,
        54.905402,
        19
      ],
      [
        -2.948898,
        54.905406,
        19
      ],
      [
        -2.949106,
        54.905394,
        19.4
      ],
      [
        -2.949787,
        54.905342,
        19.2
      ],
      [
        -2.950308,
        54.905281,
        19
      ],
      [
        -2.950648,
        54.905207,
        18.4
      ],
      [
        -2.951128,
        54.905118,
        15.4
      ],
      [
        -2.95126,
        54.905064,
        16.4
      ],
      [
        -2.951476,
        54.904987,
        18
      ],
      [
        -2.951502,
        54.904979,
        18.4
      ],
      [
        -2.952205,
        54.904766,
        28.4
      ],
      [
        -2.952599,
        54.904676,
        21.2
      ],
      [
        -2.952811,
        54.904588,
        20.6
      ],
      [
        -2.952941,
        54.904525,
        20.2
      ],
      [
        -2.953589,
        54.904266,
        22.2
      ],
      [
        -2.953908,
        54.904143,
        19.6
      ],
      [
        -2.954013,
        54.904139,
        19.2
      ],
      [
        -2.954505,
        54.904122,
        16.6
      ],
      [
        -2.954887,
        54.903995,
        18.2
      ],
      [
        -2.955446,
        54.903682,
        23
      ],
      [
        -2.955733,
        54.903498,
        21.4
      ],
      [
        -2.956112,
        54.903298,
        17.2
      ],
      [
        -2.956399,
        54.903109,
        15.6
      ],
      [
        -2.956818,
        54.902808,
        21.2
      ],
      [
        -2.956945,
        54.902739,
        20.8
      ],
      [
        -2.95723,
        54.90263,
        16.8
      ],
      [
        -2.957292,
        54.902578,
        16.2
      ],
      [
        -2.957733,
        54.902194,
        21.8
      ],
      [
        -2.958303,
        54.901869,
        23.8
      ],
      [
        -2.958671,
        54.901466,
        20.6
      ],
      [
        -2.958825,
        54.901341,
        22.6
      ],
      [
        -2.958851,
        54.901314,
        20.4
      ],
      [
        -2.958946,
        54.901241,
        19.6
      ],
      [
        -2.959248,
        54.900991,
        19
      ],
      [
        -2.959379,
        54.900896,
        17.6
      ],
      [
        -2.959606,
        54.900706,
        17.8
      ],
      [
        -2.95994,
        54.900459,
        16.6
      ],
      [
        -2.960319,
        54.900051,
        19.2
      ],
      [
        -2.960485,
        54.899754,
        19.4
      ],
      [
        -2.960761,
        54.899587,
        16.8
      ],
      [
        -2.961069,
        54.89949,
        16.2
      ],
      [
        -2.961331,
        54.8994,
        15
      ],
      [
        -2.961436,
        54.899376,
        15.4
      ],
      [
        -2.961557,
        54.899328,
        16.2
      ],
      [
        -2.961787,
        54.899293,
        16
      ],
      [
        -2.962002,
        54.899266,
        15.8
      ],
      [
        -2.962032,
        54.899279,
        17.6
      ],
      [
        -2.962164,
        54.899249,
        19.4
      ],
      [
        -2.962504,
        54.899183,
        23.8
      ],
      [
        -2.96276,
        54.899159,
        25.2
      ],
      [
        -2.963095,
        54.899047,
        32.8
      ],
      [
        -2.963674,
        54.899009,
        27.8
      ],
      [
        -2.963717,
        54.899007,
        28
      ],
      [
        -2.963761,
        54.899005,
        28.2
      ],
      [
        -2.964462,
        54.89897,
        29.4
      ],
      [
        -2.964892,
        54.898953,
        28
      ],
      [
        -2.965472,
        54.898931,
        25
      ],
      [
        -2.965529,
        54.898938,
        24.8
      ],
      [
        -2.965718,
        54.898937,
        25.4
      ],
      [
        -2.965802,
        54.898924,
        26.6
      ],
      [
        -2.966038,
        54.898912,
        28.6
      ],
      [
        -2.966188,
        54.898916,
        27
      ],
      [
        -2.966401,
        54.898928,
        26.8
      ],
      [
        -2.966513,
        54.898942,
        25.6
      ],
      [
        -2.966978,
        54.899032,
        27.2
      ],
      [
        -2.967741,
        54.899168,
        28.4
      ],
      [
        -2.968284,
        54.899235,
        14
      ],
      [
        -2.968534,
        54.899222,
        14.8
      ],
      [
        -2.968864,
        54.899273,
        17
      ],
      [
        -2.968892,
        54.89928,
        17.6
      ],
      [
        -2.968963,
        54.899288,
        18.2
      ],
      [
        -2.969106,
        54.899304,
        19.4
      ],
      [
        -2.969331,
        54.899352,
        20.2
      ],
      [
        -2.969484,
        54.899352,
        23.8
      ],
      [
        -2.969564,
        54.899374,
        24.6
      ],
      [
        -2.969655,
        54.899369,
        23.6
      ],
      [
        -2.969725,
        54.899356,
        23.2
      ],
      [
        -2.969746,
        54.899352,
        23.4
      ],
      [
        -2.969769,
        54.899349,
        23.8
      ],
      [
        -2.969818,
        54.899343,
        24.4
      ],
      [
        -2.970003,
        54.899384,
        25.8
      ],
      [
        -2.970094,
        54.899431,
        26.6
      ],
      [
        -2.970429,
        54.899597,
        24.4
      ],
      [
        -2.971041,
        54.899654,
        30
      ],
      [
        -2.971065,
        54.899663,
        30.2
      ],
      [
        -2.971513,
        54.899766,
        26.8
      ],
      [
        -2.97165,
        54.899775,
        24.4
      ],
      [
        -2.972265,
        54.899888,
        22.8
      ],
      [
        -2.972679,
        54.89995,
        19.6
      ],
      [
        -2.972697,
        54.899949,
        19.6
      ],
      [
        -2.972817,
        54.899984,
        20
      ],
      [
        -2.973397,
        54.900164,
        21.6
      ],
      [
        -2.973761,
        54.900228,
        29.6
      ],
      [
        -2.974505,
        54.900376,
        28
      ],
      [
        -2.974915,
        54.900464,
        26.8
      ],
      [
        -2.975255,
        54.900548,
        28.6
      ],
      [
        -2.975974,
        54.900746,
        31.6
      ],
      [
        -2.976327,
        54.90085,
        28.6
      ],
      [
        -2.977023,
        54.901069,
        28.4
      ],
      [
        -2.977343,
        54.901192,
        27.6
      ],
      [
        -2.977963,
        54.901454,
        26.8
      ],
      [
        -2.978407,
        54.90176,
        19.6
      ],
      [
        -2.978472,
        54.901819,
        18
      ],
      [
        -2.978479,
        54.90183,
        18
      ],
      [
        -2.978483,
        54.901843,
        17.8
      ],
      [
        -2.978516,
        54.901865,
        16.6
      ],
      [
        -2.978589,
        54.901895,
        17.6
      ],
      [
        -2.978626,
        54.901906,
        17.8
      ],
      [
        -2.978643,
        54.901911,
        17.8
      ],
      [
        -2.978695,
        54.901919,
        17.8
      ],
      [
        -2.97878,
        54.901952,
        17.4
      ],
      [
        -2.978979,
        54.901971,
        18.8
      ],
      [
        -2.979007,
        54.901976,
        19
      ],
      [
        -2.979117,
        54.902003,
        19.8
      ],
      [
        -2.979195,
        54.902034,
        20.6
      ],
      [
        -2.979214,
        54.902046,
        20.8
      ],
      [
        -2.979446,
        54.902159,
        23.8
      ],
      [
        -2.979658,
        54.902305,
        25.4
      ],
      [
        -2.979856,
        54.902453,
        24.8
      ],
      [
        -2.979877,
        54.902489,
        22.8
      ],
      [
        -2.979927,
        54.902491,
        22
      ],
      [
        -2.980089,
        54.902521,
        20.2
      ],
      [
        -2.980322,
        54.902652,
        18.6
      ],
      [
        -2.980377,
        54.902704,
        18.2
      ],
      [
        -2.980433,
        54.902752,
        16.6
      ],
      [
        -2.980449,
        54.902774,
        16
      ],
      [
        -2.980457,
        54.902786,
        16.4
      ],
      [
        -2.980477,
        54.902807,
        16.4
      ],
      [
        -2.980632,
        54.902954,
        15.6
      ],
      [
        -2.98069,
        54.902998,
        20
      ],
      [
        -2.980772,
        54.903058,
        22.4
      ],
      [
        -2.980882,
        54.903169,
        24.6
      ],
      [
        -2.980904,
        54.903287,
        24.8
      ],
      [
        -2.980921,
        54.903319,
        26
      ],
      [
        -2.980927,
        54.903549,
        22.6
      ],
      [
        -2.980962,
        54.903596,
        21.2
      ],
      [
        -2.98106,
        54.903682,
        20.4
      ],
      [
        -2.981129,
        54.903788,
        18.6
      ],
      [
        -2.981513,
        54.90419,
        17.8
      ],
      [
        -2.981623,
        54.904301,
        17
      ],
      [
        -2.981839,
        54.904604,
        16
      ],
      [
        -2.981856,
        54.904646,
        16.2
      ],
      [
        -2.981888,
        54.904738,
        14
      ],
      [
        -2.981869,
        54.904764,
        13.4
      ],
      [
        -2.981863,
        54.904791,
        12.8
      ],
      [
        -2.981887,
        54.904817,
        12.2
      ],
      [
        -2.981904,
        54.904833,
        12
      ],
      [
        -2.982001,
        54.904907,
        14
      ],
      [
        -2.982023,
        54.904927,
        14.2
      ],
      [
        -2.982031,
        54.904938,
        14.4
      ],
      [
        -2.982046,
        54.90495,
        14.6
      ],
      [
        -2.982113,
        54.905005,
        17
      ],
      [
        -2.982163,
        54.905047,
        19.6
      ],
      [
        -2.98221,
        54.905094,
        20.4
      ],
      [
        -2.98224,
        54.905119,
        21.2
      ],
      [
        -2.982272,
        54.905149,
        20.4
      ],
      [
        -2.982287,
        54.905165,
        20.6
      ],
      [
        -2.982306,
        54.905194,
        20.6
      ],
      [
        -2.98233,
        54.905231,
        21.2
      ],
      [
        -2.982343,
        54.905243,
        21
      ],
      [
        -2.982375,
        54.905275,
        22
      ],
      [
        -2.982515,
        54.905448,
        21.4
      ],
      [
        -2.982553,
        54.905484,
        20.4
      ],
      [
        -2.982587,
        54.90553,
        19.8
      ],
      [
        -2.982606,
        54.905561,
        19.8
      ],
      [
        -2.982646,
        54.905669,
        21.4
      ],
      [
        -2.982763,
        54.905868,
        21.6
      ],
      [
        -2.982976,
        54.906235,
        22.2
      ],
      [
        -2.982999,
        54.906322,
        22.2
      ],
      [
        -2.983137,
        54.906522,
        23.2
      ],
      [
        -2.983203,
        54.906617,
        23.2
      ],
      [
        -2.983289,
        54.906765,
        17.8
      ],
      [
        -2.983503,
        54.907101,
        11.4
      ],
      [
        -2.98368,
        54.907554,
        14.8
      ],
      [
        -2.983846,
        54.907873,
        12.6
      ],
      [
        -2.984021,
        54.908016,
        14.8
      ],
      [
        -2.984486,
        54.908378,
        17.4
      ],
      [
        -2.984605,
        54.9085,
        16.8
      ],
      [
        -2.984834,
        54.908692,
        16.2
      ],
      [
        -2.985005,
        54.908905,
        15
      ],
      [
        -2.985038,
        54.908942,
        14
      ],
      [
        -2.985206,
        54.909136,
        12.8
      ],
      [
        -2.985356,
        54.909584,
        9
      ],
      [
        -2.98538,
        54.910039,
        9
      ],
      [
        -2.98544,
        54.910367,
        8.6
      ],
      [
        -2.985305,
        54.910639,
        12.4
      ],
      [
        -2.985422,
        54.910821,
        11
      ],
      [
        -2.985834,
        54.911099,
        13.6
      ],
      [
        -2.986323,
        54.911457,
        13.2
      ],
      [
        -2.986474,
        54.911563,
        13.4
      ],
      [
        -2.98674,
        54.911778,
        14
      ],
      [
        -2.986756,
        54.9118,
        14
      ],
      [
        -2.986805,
        54.911842,
        12.6
      ],
      [
        -2.986683,
        54.912134,
        12.4
      ],
      [
        -2.986298,
        54.912512,
        16.6
      ],
      [
        -2.98632,
        54.912521,
        17.2
      ],
      [
        -2.986535,
        54.912619,
        15.8
      ],
      [
        -2.986723,
        54.912701,
        17.2
      ],
      [
        -2.987325,
        54.912988,
        15.8
      ],
      [
        -2.987349,
        54.913057,
        15.4
      ],
      [
        -2.987352,
        54.913084,
        14.4
      ],
      [
        -2.988058,
        54.913285,
        12.6
      ],
      [
        -2.988082,
        54.91329,
        12.8
      ],
      [
        -2.988104,
        54.913295,
        13
      ],
      [
        -2.988127,
        54.9133,
        13.2
      ],
      [
        -2.988555,
        54.913449,
        12.4
      ],
      [
        -2.988647,
        54.913482,
        13
      ],
      [
        -2.988938,
        54.91355,
        17
      ],
      [
        -2.989607,
        54.91378,
        17
      ],
      [
        -2.990147,
        54.91397,
        18.2
      ],
      [
        -2.990421,
        54.914044,
        17.6
      ],
      [
        -2.991026,
        54.91412,
        16.8
      ],
      [
        -2.991788,
        54.913987,
        23.4
      ],
      [
        -2.991968,
        54.913956,
        22.6
      ],
      [
        -2.992097,
        54.913938,
        21.4
      ],
      [
        -2.992196,
        54.913924,
        19.8
      ],
      [
        -2.992463,
        54.913876,
        18
      ],
      [
        -2.992539,
        54.913883,
        17.4
      ],
      [
        -2.992739,
        54.913873,
        17.2
      ],
      [
        -2.993069,
        54.913836,
        18.4
      ],
      [
        -2.993319,
        54.91382,
        17.8
      ],
      [
        -2.993627,
        54.9138,
        17.8
      ],
      [
        -2.994417,
        54.91371,
        13.2
      ],
      [
        -2.995207,
        54.913631,
        16.4
      ],
      [
        -2.995979,
        54.913543,
        13.6
      ],
      [
        -2.996485,
        54.913498,
        11.4
      ],
      [
        -2.997264,
        54.913443,
        11.6
      ],
      [
        -2.99756,
        54.91341,
        11.6
      ],
      [
        -2.998009,
        54.913398,
        13.2
      ],
      [
        -2.9981,
        54.91345,
        13.4
      ],
      [
        -2.998783,
        54.913672,
        12.4
      ],
      [
        -2.999213,
        54.913897,
        15
      ],
      [
        -2.999486,
        54.914042,
        16.6
      ],
      [
        -2.999505,
        54.914053,
        16.6
      ],
      [
        -2.999742,
        54.914171,
        16.8
      ],
      [
        -2.999886,
        54.914217,
        15.6
      ],
      [
        -3.000028,
        54.914259,
        15.6
      ],
      [
        -3.00012,
        54.914292,
        15.8
      ],
      [
        -3.000323,
        54.91435,
        15.2
      ],
      [
        -3.00039,
        54.914364,
        15.2
      ],
      [
        -3.000487,
        54.914369,
        14
      ],
      [
        -3.000913,
        54.914384,
        16
      ],
      [
        -3.001366,
        54.914429,
        19.4
      ],
      [
        -3.001796,
        54.914501,
        20.8
      ],
      [
        -3.001947,
        54.914524,
        21.2
      ],
      [
        -3.002612,
        54.914775,
        19.4
      ],
      [
        -3.003127,
        54.915056,
        17.4
      ],
      [
        -3.003023,
        54.915073,
        17
      ],
      [
        -3.003046,
        54.915097,
        16.6
      ],
      [
        -3.002971,
        54.915155,
        14.4
      ],
      [
        -3.002933,
        54.915175,
        13.2
      ],
      [
        -3.00288,
        54.915221,
        8.8
      ],
      [
        -3.002994,
        54.915288,
        8.4
      ],
      [
        -3.003701,
        54.915468,
        8.2
      ],
      [
        -3.004215,
        54.915703,
        8
      ],
      [
        -3.00452,
        54.915697,
        9
      ],
      [
        -3.004572,
        54.915691,
        9.2
      ],
      [
        -3.004659,
        54.915697,
        9.2
      ],
      [
        -3.005375,
        54.915745,
        5.6
      ],
      [
        -3.006096,
        54.915934,
        10
      ],
      [
        -3.00686,
        54.916039,
        9.8
      ],
      [
        -3.006924,
        54.91605,
        10
      ],
      [
        -3.007321,
        54.916115,
        10.6
      ],
      [
        -3.007693,
        54.915741,
        8.2
      ],
      [
        -3.008022,
        54.915334,
        7.4
      ],
      [
        -3.008353,
        54.9155,
        6.8
      ],
      [
        -3.008513,
        54.915605,
        8.8
      ],
      [
        -3.008767,
        54.915733,
        10.4
      ],
      [
        -3.008793,
        54.915747,
        11.4
      ],
      [
        -3.009144,
        54.915914,
        14.2
      ],
      [
        -3.009215,
        54.915951,
        15.2
      ],
      [
        -3.009346,
        54.916035,
        17
      ],
      [
        -3.00972,
        54.916428,
        18
      ],
      [
        -3.00981,
        54.916612,
        17.8
      ],
      [
        -3.009931,
        54.916774,
        16.8
      ],
      [
        -3.010312,
        54.917174,
        16.4
      ],
      [
        -3.010645,
        54.917452,
        16
      ],
      [
        -3.010723,
        54.917519,
        16.4
      ],
      [
        -3.011134,
        54.917914,
        17.8
      ],
      [
        -3.011481,
        54.918325,
        17.2
      ],
      [
        -3.011533,
        54.9184,
        17.4
      ],
      [
        -3.011592,
        54.918507,
        17.2
      ],
      [
        -3.011637,
        54.918546,
        12.8
      ],
      [
        -3.01166,
        54.918571,
        11.6
      ],
      [
        -3.011892,
        54.91882,
        12
      ],
      [
        -3.011934,
        54.918868,
        12
      ],
      [
        -3.012175,
        54.919296,
        13.6
      ],
      [
        -3.012251,
        54.919443,
        14.8
      ],
      [
        -3.01225,
        54.919479,
        16
      ],
      [
        -3.012465,
        54.91991,
        16.4
      ],
      [
        -3.01251,
        54.919979,
        16.2
      ],
      [
        -3.012941,
        54.920352,
        17
      ],
      [
        -3.01338,
        54.920733,
        16.8
      ],
      [
        -3.013534,
        54.920877,
        16.6
      ],
      [
        -3.013966,
        54.921255,
        14.4
      ],
      [
        -3.014335,
        54.921514,
        6
      ],
      [
        -3.014716,
        54.921778,
        9.8
      ],
      [
        -3.01519,
        54.921996,
        11.4
      ],
      [
        -3.015228,
        54.922021,
        11.4
      ],
      [
        -3.015819,
        54.922331,
        8.4
      ],
      [
        -3.016031,
        54.922471,
        11.2
      ],
      [
        -3.016047,
        54.92248,
        11.2
      ],
      [
        -3.016622,
        54.922751,
        9.2
      ],
      [
        -3.016667,
        54.92277,
        9.2
      ],
      [
        -3.016755,
        54.922808,
        9.4
      ],
      [
        -3.01693,
        54.922881,
        9.8
      ],
      [
        -3.017203,
        54.922995,
        12
      ],
      [
        -3.017222,
        54.923004,
        12
      ],
      [
        -3.017262,
        54.923022,
        12.2
      ],
      [
        -3.017324,
        54.923048,
        12.4
      ],
      [
        -3.017342,
        54.923057,
        12.8
      ],
      [
        -3.017383,
        54.923072,
        13.2
      ],
      [
        -3.017408,
        54.923078,
        13.2
      ],
      [
        -3.017803,
        54.923225,
        13
      ],
      [
        -3.018336,
        54.923433,
        19.8
      ],
      [
        -3.018358,
        54.923441,
        20.4
      ],
      [
        -3.018414,
        54.923471,
        22.4
      ],
      [
        -3.018497,
        54.923538,
        25.8
      ],
      [
        -3.018574,
        54.923593,
        25.8
      ],
      [
        -3.018601,
        54.923623,
        25.6
      ],
      [
        -3.018655,
        54.923701,
        26.6
      ],
      [
        -3.018639,
        54.923796,
        28.4
      ],
      [
        -3.018517,
        54.923938,
        30.8
      ],
      [
        -3.01844,
        54.924016,
        29.8
      ],
      [
        -3.018359,
        54.924096,
        29
      ],
      [
        -3.018344,
        54.924109,
        28.8
      ],
      [
        -3.018329,
        54.924123,
        28.8
      ],
      [
        -3.018314,
        54.924138,
        29
      ],
      [
        -3.018301,
        54.924153,
        29.2
      ],
      [
        -3.018228,
        54.924306,
        32.8
      ],
      [
        -3.018225,
        54.924321,
        33.4
      ],
      [
        -3.018223,
        54.924336,
        33.8
      ],
      [
        -3.018252,
        54.924453,
        30.8
      ],
      [
        -3.018256,
        54.924492,
        30.8
      ],
      [
        -3.018348,
        54.924526,
        29.8
      ],
      [
        -3.018436,
        54.924612,
        28.8
      ],
      [
        -3.018521,
        54.924713,
        27.2
      ],
      [
        -3.01876,
        54.924839,
        22.4
      ],
      [
        -3.018785,
        54.924837,
        22
      ],
      [
        -3.01881,
        54.924834,
        22
      ],
      [
        -3.018857,
        54.924829,
        21.6
      ],
      [
        -3.018937,
        54.924828,
        19.8
      ],
      [
        -3.019074,
        54.924829,
        18.2
      ],
      [
        -3.01983,
        54.924674,
        24.2
      ],
      [
        -3.02028,
        54.924538,
        19.4
      ],
      [
        -3.0203,
        54.924533,
        19.2
      ],
      [
        -3.02068,
        54.924376,
        22.4
      ],
      [
        -3.020781,
        54.924346,
        22
      ],
      [
        -3.020849,
        54.924332,
        20.8
      ],
      [
        -3.020986,
        54.924309,
        20.6
      ],
      [
        -3.021489,
        54.924301,
        19.4
      ],
      [
        -3.021541,
        54.924302,
        20.2
      ],
      [
        -3.021641,
        54.924311,
        20.8
      ],
      [
        -3.021766,
        54.924309,
        21.6
      ],
      [
        -3.022558,
        54.924311,
        12.8
      ],
      [
        -3.022585,
        54.924315,
        13
      ],
      [
        -3.022611,
        54.924314,
        12.8
      ],
      [
        -3.022686,
        54.92431,
        13.2
      ],
      [
        -3.022778,
        54.924306,
        14
      ],
      [
        -3.022877,
        54.924308,
        15.4
      ],
      [
        -3.023666,
        54.924287,
        21
      ],
      [
        -3.024451,
        54.924278,
        15.6
      ],
      [
        -3.024509,
        54.924275,
        15.8
      ],
      [
        -3.024536,
        54.924276,
        16
      ],
      [
        -3.024643,
        54.924275,
        17
      ],
      [
        -3.025414,
        54.924234,
        22.4
      ],
      [
        -3.025714,
        54.924222,
        22
      ],
      [
        -3.026505,
        54.924198,
        15.2
      ],
      [
        -3.027092,
        54.924208,
        14.2
      ],
      [
        -3.027474,
        54.924207,
        19.4
      ],
      [
        -3.028256,
        54.924179,
        22.4
      ],
      [
        -3.029034,
        54.924097,
        28
      ],
      [
        -3.029813,
        54.92403,
        30.6
      ],
      [
        -3.030591,
        54.923935,
        29.2
      ],
      [
        -3.03136,
        54.923829,
        27.2
      ],
      [
        -3.031894,
        54.92379,
        32.2
      ],
      [
        -3.032459,
        54.923744,
        28.8
      ],
      [
        -3.032753,
        54.9237,
        28.4
      ],
      [
        -3.033533,
        54.923623,
        28
      ],
      [
        -3.03422,
        54.923603,
        26.2
      ],
      [
        -3.034984,
        54.923477,
        25.2
      ],
      [
        -3.035071,
        54.923437,
        25.4
      ],
      [
        -3.035599,
        54.923303,
        20.4
      ],
      [
        -3.036301,
        54.923198,
        18
      ],
      [
        -3.036525,
        54.92316,
        18.4
      ],
      [
        -3.036753,
        54.923132,
        19.2
      ],
      [
        -3.03712,
        54.923091,
        17.6
      ],
      [
        -3.037882,
        54.922973,
        18.4
      ],
      [
        -3.038645,
        54.922833,
        19.8
      ],
      [
        -3.03941,
        54.92273,
        14
      ],
      [
        -3.039762,
        54.92269,
        14.8
      ],
      [
        -3.039853,
        54.92268,
        15.4
      ],
      [
        -3.039928,
        54.922671,
        16.2
      ],
      [
        -3.040175,
        54.922637,
        16
      ],
      [
        -3.040489,
        54.922569,
        15.8
      ],
      [
        -3.040612,
        54.922547,
        17.2
      ],
      [
        -3.041025,
        54.922422,
        15.8
      ],
      [
        -3.041064,
        54.922402,
        15.6
      ],
      [
        -3.041541,
        54.922316,
        12.2
      ],
      [
        -3.041768,
        54.921876,
        12.2
      ],
      [
        -3.041939,
        54.921426,
        13.6
      ],
      [
        -3.042079,
        54.921386,
        10.8
      ],
      [
        -3.042445,
        54.921477,
        10.4
      ],
      [
        -3.043002,
        54.921548,
        16.6
      ],
      [
        -3.043532,
        54.921611,
        15
      ],
      [
        -3.044054,
        54.921674,
        13
      ],
      [
        -3.044539,
        54.921752,
        13.8
      ],
      [
        -3.045086,
        54.921763,
        22.4
      ],
      [
        -3.04581,
        54.92195,
        14
      ],
      [
        -3.046268,
        54.922103,
        15.8
      ],
      [
        -3.0469,
        54.922271,
        19.6
      ],
      [
        -3.046998,
        54.922281,
        20.6
      ],
      [
        -3.047753,
        54.92239,
        23.8
      ],
      [
        -3.048257,
        54.922441,
        20
      ],
      [
        -3.048307,
        54.922413,
        18.4
      ],
      [
        -3.048358,
        54.922391,
        17.6
      ],
      [
        -3.048644,
        54.922391,
        18.4
      ],
      [
        -3.049432,
        54.92239,
        20.6
      ],
      [
        -3.050173,
        54.922363,
        29.8
      ],
      [
        -3.050302,
        54.922375,
        30
      ],
      [
        -3.050351,
        54.922381,
        30.2
      ],
      [
        -3.050451,
        54.922382,
        29.6
      ],
      [
        -3.050564,
        54.922395,
        25.2
      ],
      [
        -3.05081,
        54.922432,
        24.6
      ],
      [
        -3.05088,
        54.92244,
        25.2
      ],
      [
        -3.050905,
        54.922442,
        25.4
      ],
      [
        -3.05096,
        54.922442,
        25.6
      ],
      [
        -3.051053,
        54.922437,
        26.2
      ],
      [
        -3.051161,
        54.922439,
        26
      ],
      [
        -3.051402,
        54.922445,
        25.4
      ],
      [
        -3.051763,
        54.922387,
        23.4
      ],
      [
        -3.052089,
        54.922347,
        19.8
      ],
      [
        -3.052847,
        54.922241,
        13.4
      ],
      [
        -3.053628,
        54.92217,
        16.2
      ],
      [
        -3.053762,
        54.922127,
        15.4
      ],
      [
        -3.053942,
        54.922101,
        16
      ],
      [
        -3.05418,
        54.922045,
        20.6
      ],
      [
        -3.054373,
        54.921971,
        24.6
      ],
      [
        -3.054359,
        54.921944,
        23.4
      ],
      [
        -3.054381,
        54.921933,
        22.4
      ],
      [
        -3.054479,
        54.921928,
        22
      ],
      [
        -3.055209,
        54.921882,
        21.2
      ],
      [
        -3.055981,
        54.921755,
        20.4
      ],
      [
        -3.056183,
        54.921693,
        21.2
      ],
      [
        -3.056236,
        54.921718,
        19.8
      ],
      [
        -3.056306,
        54.921704,
        20
      ],
      [
        -3.056431,
        54.921636,
        18
      ],
      [
        -3.056466,
        54.92161,
        17.6
      ],
      [
        -3.056492,
        54.921604,
        17.2
      ],
      [
        -3.056518,
        54.921596,
        16.4
      ],
      [
        -3.056522,
        54.921595,
        16.4
      ],
      [
        -3.056526,
        54.921592,
        17
      ],
      [
        -3.056532,
        54.92159,
        17
      ],
      [
        -3.056554,
        54.921576,
        17.4
      ],
      [
        -3.056548,
        54.921553,
        17.8
      ],
      [
        -3.056541,
        54.921547,
        17.8
      ],
      [
        -3.056531,
        54.921535,
        18
      ],
      [
        -3.056523,
        54.92153,
        18
      ],
      [
        -3.056494,
        54.92151,
        17.8
      ],
      [
        -3.056477,
        54.921504,
        17.8
      ],
      [
        -3.056474,
        54.921508,
        17.8
      ],
      [
        -3.056477,
        54.921503,
        17.6
      ],
      [
        -3.056511,
        54.921483,
        17.8
      ],
      [
        -3.056528,
        54.921479,
        17.8
      ],
      [
        -3.056532,
        54.921486,
        17.6
      ],
      [
        -3.056554,
        54.921493,
        17.2
      ],
      [
        -3.05648,
        54.921499,
        15.8
      ],
      [
        -3.056413,
        54.921459,
        14.4
      ],
      [
        -3.056382,
        54.921483,
        14
      ],
      [
        -3.056366,
        54.921502,
        13.6
      ],
      [
        -3.056598,
        54.921597,
        10.6
      ],
      [
        -3.056674,
        54.921609,
        12
      ],
      [
        -3.056717,
        54.921601,
        11.4
      ],
      [
        -3.057002,
        54.921522,
        10
      ],
      [
        -3.057705,
        54.92137,
        8
      ],
      [
        -3.058348,
        54.921269,
        7.6
      ],
      [
        -3.058375,
        54.921263,
        8
      ],
      [
        -3.058427,
        54.921251,
        8.2
      ],
      [
        -3.058869,
        54.921196,
        13
      ],
      [
        -3.059056,
        54.921188,
        15
      ],
      [
        -3.059246,
        54.921172,
        16
      ],
      [
        -3.059417,
        54.921155,
        19
      ],
      [
        -3.06019,
        54.921069,
        22
      ],
      [
        -3.060982,
        54.921082,
        17.4
      ],
      [
        -3.061314,
        54.921083,
        11.4
      ],
      [
        -3.061591,
        54.92108,
        9.4
      ],
      [
        -3.0621,
        54.921044,
        20
      ],
      [
        -3.062297,
        54.92104,
        20.8
      ],
      [
        -3.062505,
        54.921097,
        21.2
      ],
      [
        -3.063293,
        54.92106,
        20
      ],
      [
        -3.064036,
        54.920921,
        22
      ],
      [
        -3.064724,
        54.920697,
        21.2
      ],
      [
        -3.064969,
        54.920705,
        20
      ],
      [
        -3.065346,
        54.920725,
        16
      ],
      [
        -3.066115,
        54.920849,
        22.2
      ],
      [
        -3.066871,
        54.92097,
        18.6
      ],
      [
        -3.067003,
        54.92099,
        15.4
      ],
      [
        -3.067074,
        54.921007,
        14.2
      ],
      [
        -3.067312,
        54.921056,
        12.6
      ],
      [
        -3.067959,
        54.921152,
        17.8
      ],
      [
        -3.068015,
        54.921157,
        17.8
      ],
      [
        -3.068043,
        54.921162,
        17.6
      ],
      [
        -3.068071,
        54.921169,
        17.4
      ],
      [
        -3.068098,
        54.921174,
        17.4
      ],
      [
        -3.06815,
        54.921182,
        15.8
      ],
      [
        -3.068364,
        54.921209,
        16
      ],
      [
        -3.068454,
        54.921227,
        15.4
      ],
      [
        -3.068875,
        54.921282,
        12.8
      ],
      [
        -3.069622,
        54.921406,
        6
      ],
      [
        -3.069788,
        54.921439,
        5.6
      ],
      [
        -3.070474,
        54.921513,
        13
      ],
      [
        -3.071072,
        54.921577,
        20.2
      ],
      [
        -3.071361,
        54.921633,
        19.6
      ],
      [
        -3.071403,
        54.921647,
        19.4
      ],
      [
        -3.071571,
        54.921694,
        18.2
      ],
      [
        -3.072061,
        54.92173,
        13.4
      ],
      [
        -3.072241,
        54.921771,
        15
      ],
      [
        -3.072993,
        54.921867,
        18.2
      ],
      [
        -3.073184,
        54.921878,
        18.2
      ],
      [
        -3.073478,
        54.921892,
        18.4
      ],
      [
        -3.074258,
        54.921924,
        10.8
      ],
      [
        -3.07428,
        54.921925,
        10.2
      ],
      [
        -3.074369,
        54.921935,
        8.6
      ],
      [
        -3.074725,
        54.92197,
        8.6
      ],
      [
        -3.07475,
        54.921972,
        8.4
      ],
      [
        -3.074827,
        54.921985,
        9.4
      ],
      [
        -3.074983,
        54.921992,
        10.2
      ],
      [
        -3.075231,
        54.921994,
        12.2
      ],
      [
        -3.075507,
        54.92204,
        12.8
      ],
      [
        -3.075532,
        54.922043,
        12.6
      ],
      [
        -3.076127,
        54.922059,
        11.6
      ],
      [
        -3.076823,
        54.922104,
        10.6
      ],
      [
        -3.077207,
        54.922131,
        14.6
      ],
      [
        -3.077997,
        54.922159,
        16.6
      ],
      [
        -3.078511,
        54.922178,
        15.6
      ],
      [
        -3.078563,
        54.922181,
        15.4
      ],
      [
        -3.078587,
        54.922179,
        15.4
      ],
      [
        -3.078634,
        54.92218,
        15
      ],
      [
        -3.079412,
        54.922242,
        18.2
      ],
      [
        -3.079557,
        54.922259,
        16.6
      ],
      [
        -3.080337,
        54.92231,
        20.6
      ],
      [
        -3.081136,
        54.922334,
        15
      ],
      [
        -3.081756,
        54.922386,
        15
      ],
      [
        -3.082173,
        54.922373,
        12.2
      ],
      [
        -3.082198,
        54.922372,
        11.6
      ],
      [
        -3.082525,
        54.922398,
        13.4
      ],
      [
        -3.082597,
        54.922393,
        14.4
      ],
      [
        -3.082645,
        54.922391,
        15.6
      ],
      [
        -3.082691,
        54.922395,
        16.6
      ],
      [
        -3.082758,
        54.922407,
        17
      ],
      [
        -3.083222,
        54.922437,
        16.4
      ],
      [
        -3.083426,
        54.922465,
        11
      ],
      [
        -3.083561,
        54.922473,
        6.4
      ],
      [
        -3.083613,
        54.922462,
        7.4
      ],
      [
        -3.083694,
        54.922473,
        7.4
      ],
      [
        -3.08409,
        54.922492,
        12.2
      ],
      [
        -3.084243,
        54.922497,
        13.2
      ],
      [
        -3.084702,
        54.92253,
        15.2
      ],
      [
        -3.084886,
        54.922536,
        15.6
      ],
      [
        -3.085001,
        54.92251,
        12
      ],
      [
        -3.085479,
        54.922541,
        4.4
      ],
      [
        -3.085702,
        54.922476,
        6.6
      ],
      [
        -3.085779,
        54.92249,
        9
      ],
      [
        -3.085852,
        54.922497,
        9.8
      ],
      [
        -3.085948,
        54.922504,
        10
      ],
      [
        -3.08607,
        54.922517,
        10.6
      ],
      [
        -3.086863,
        54.922595,
        12.8
      ],
      [
        -3.087262,
        54.922633,
        13.2
      ],
      [
        -3.087514,
        54.922638,
        14
      ],
      [
        -3.087537,
        54.922638,
        13.8
      ],
      [
        -3.087976,
        54.922655,
        10.6
      ],
      [
        -3.088102,
        54.922649,
        10
      ],
      [
        -3.08889,
        54.922719,
        12.8
      ],
      [
        -3.089071,
        54.922741,
        13.8
      ],
      [
        -3.089812,
        54.922775,
        9.8
      ],
      [
        -3.090154,
        54.922829,
        9.8
      ],
      [
        -3.090392,
        54.922839,
        10.2
      ],
      [
        -3.090914,
        54.922864,
        9.6
      ],
      [
        -3.091705,
        54.922907,
        14
      ],
      [
        -3.09247,
        54.922995,
        15.2
      ],
      [
        -3.092954,
        54.923007,
        15.2
      ],
      [
        -3.09375,
        54.923062,
        12.4
      ],
      [
        -3.094287,
        54.923095,
        13
      ],
      [
        -3.094403,
        54.92311,
        12.8
      ],
      [
        -3.094843,
        54.923188,
        14.6
      ],
      [
        -3.095403,
        54.923211,
        12.8
      ],
      [
        -3.095838,
        54.923227,
        11.2
      ],
      [
        -3.0963,
        54.923276,
        14
      ],
      [
        -3.096365,
        54.923275,
        13.8
      ],
      [
        -3.09639,
        54.923277,
        14
      ],
      [
        -3.096765,
        54.923302,
        13.6
      ],
      [
        -3.097535,
        54.923369,
        12.8
      ],
      [
        -3.09828,
        54.923409,
        11.8
      ],
      [
        -3.09835,
        54.923411,
        11.8
      ],
      [
        -3.099122,
        54.923457,
        18.4
      ],
      [
        -3.099277,
        54.923448,
        16
      ],
      [
        -3.100046,
        54.923533,
        19.2
      ],
      [
        -3.100069,
        54.923531,
        19.6
      ],
      [
        -3.10083,
        54.923639,
        19.2
      ],
      [
        -3.100856,
        54.923641,
        19
      ],
      [
        -3.101624,
        54.923737,
        17.6
      ],
      [
        -3.101998,
        54.923723,
        12.6
      ],
      [
        -3.102148,
        54.923701,
        10.6
      ],
      [
        -3.102472,
        54.92369,
        11.8
      ],
      [
        -3.102915,
        54.923761,
        13.4
      ],
      [
        -3.103172,
        54.923785,
        13.8
      ],
      [
        -3.10324,
        54.923792,
        13.4
      ],
      [
        -3.103983,
        54.923872,
        16.4
      ],
      [
        -3.10449,
        54.923901,
        16
      ],
      [
        -3.104847,
        54.923924,
        17.6
      ],
      [
        -3.105333,
        54.923937,
        14.6
      ],
      [
        -3.105554,
        54.923952,
        15.6
      ],
      [
        -3.106314,
        54.924039,
        17.4
      ],
      [
        -3.106473,
        54.924039,
        17.6
      ],
      [
        -3.106593,
        54.92405,
        15
      ],
      [
        -3.106865,
        54.924076,
        14.2
      ],
      [
        -3.107238,
        54.92411,
        13.4
      ],
      [
        -3.107329,
        54.924114,
        13
      ],
      [
        -3.108104,
        54.924199,
        15.4
      ],
      [
        -3.108171,
        54.9242,
        15.8
      ],
      [
        -3.108228,
        54.924193,
        15.8
      ],
      [
        -3.108489,
        54.924205,
        17.2
      ],
      [
        -3.108736,
        54.924227,
        16.2
      ],
      [
        -3.108889,
        54.924221,
        13.6
      ],
      [
        -3.109666,
        54.924303,
        13.8
      ],
      [
        -3.110179,
        54.924315,
        15.2
      ],
      [
        -3.110253,
        54.924323,
        15.4
      ],
      [
        -3.110827,
        54.924359,
        14.8
      ],
      [
        -3.111122,
        54.92438,
        17.4
      ],
      [
        -3.111475,
        54.924422,
        20.4
      ],
      [
        -3.111517,
        54.924427,
        19.6
      ],
      [
        -3.111725,
        54.924446,
        17.4
      ],
      [
        -3.112357,
        54.924508,
        14.2
      ],
      [
        -3.112717,
        54.92453,
        17
      ],
      [
        -3.113419,
        54.924582,
        13
      ],
      [
        -3.113482,
        54.924576,
        13.4
      ],
      [
        -3.11367,
        54.924602,
        14.2
      ],
      [
        -3.113697,
        54.924608,
        14
      ],
      [
        -3.113722,
        54.924611,
        14.2
      ],
      [
        -3.113741,
        54.924615,
        13.6
      ],
      [
        -3.113759,
        54.924617,
        13.4
      ],
      [
        -3.113849,
        54.924616,
        13
      ],
      [
        -3.113881,
        54.924614,
        12.8
      ],
      [
        -3.114436,
        54.924646,
        14.4
      ],
      [
        -3.114994,
        54.924696,
        17
      ],
      [
        -3.115754,
        54.924781,
        13
      ],
      [
        -3.116096,
        54.924812,
        14.8
      ],
      [
        -3.116411,
        54.924812,
        16.4
      ],
      [
        -3.116448,
        54.924805,
        16.4
      ],
      [
        -3.116833,
        54.924834,
        16
      ],
      [
        -3.117348,
        54.924889,
        14.8
      ],
      [
        -3.118127,
        54.924938,
        14.8
      ],
      [
        -3.118246,
        54.924951,
        14.2
      ],
      [
        -3.118341,
        54.924964,
        15.8
      ],
      [
        -3.118364,
        54.924972,
        15.6
      ],
      [
        -3.118511,
        54.925002,
        15
      ],
      [
        -3.118542,
        54.925021,
        15
      ],
      [
        -3.118751,
        54.92511,
        15.8
      ],
      [
        -3.118771,
        54.92513,
        16
      ],
      [
        -3.118902,
        54.925147,
        14.6
      ],
      [
        -3.118961,
        54.925151,
        14.6
      ],
      [
        -3.119042,
        54.925155,
        14.6
      ],
      [
        -3.119118,
        54.925116,
        14.2
      ],
      [
        -3.119132,
        54.925006,
        15
      ],
      [
        -3.11914,
        54.924908,
        13
      ],
      [
        -3.119348,
        54.924894,
        13.8
      ],
      [
        -3.1194,
        54.924901,
        14.2
      ],
      [
        -3.119504,
        54.924907,
        15.2
      ],
      [
        -3.120289,
        54.924993,
        13.8
      ],
      [
        -3.120686,
        54.925033,
        13.6
      ],
      [
        -3.121117,
        54.925058,
        12.6
      ],
      [
        -3.121166,
        54.925059,
        13
      ],
      [
        -3.121212,
        54.92506,
        12.8
      ],
      [
        -3.121728,
        54.925099,
        14
      ],
      [
        -3.121774,
        54.925098,
        14
      ],
      [
        -3.122348,
        54.925144,
        12.6
      ],
      [
        -3.122367,
        54.925144,
        12.6
      ],
      [
        -3.122387,
        54.925144,
        12.6
      ],
      [
        -3.122457,
        54.925154,
        12.6
      ],
      [
        -3.122521,
        54.92516,
        12.6
      ],
      [
        -3.122636,
        54.925162,
        12.2
      ],
      [
        -3.122804,
        54.925182,
        12.4
      ],
      [
        -3.122832,
        54.925188,
        12.4
      ],
      [
        -3.122859,
        54.925189,
        13.2
      ],
      [
        -3.122898,
        54.925195,
        12.4
      ],
      [
        -3.122955,
        54.925208,
        10.8
      ],
      [
        -3.123212,
        54.925231,
        11
      ],
      [
        -3.123236,
        54.925232,
        11
      ],
      [
        -3.12326,
        54.925234,
        11.2
      ],
      [
        -3.123337,
        54.925238,
        11
      ],
      [
        -3.123462,
        54.925249,
        13.2
      ],
      [
        -3.123656,
        54.925261,
        12.8
      ],
      [
        -3.123743,
        54.925257,
        11
      ],
      [
        -3.123827,
        54.925253,
        10.2
      ],
      [
        -3.123868,
        54.92526,
        9.6
      ],
      [
        -3.124411,
        54.925304,
        10.6
      ],
      [
        -3.124658,
        54.925315,
        11
      ],
      [
        -3.125006,
        54.925359,
        11.8
      ],
      [
        -3.125116,
        54.925362,
        12.4
      ],
      [
        -3.125166,
        54.925362,
        12.4
      ],
      [
        -3.125423,
        54.92539,
        12.8
      ],
      [
        -3.125504,
        54.925405,
        13.4
      ],
      [
        -3.125855,
        54.925427,
        12.4
      ],
      [
        -3.125979,
        54.925454,
        11.8
      ],
      [
        -3.126029,
        54.925453,
        12.2
      ],
      [
        -3.126076,
        54.925466,
        11.8
      ],
      [
        -3.126374,
        54.92546,
        12.2
      ],
      [
        -3.126559,
        54.925492,
        13
      ],
      [
        -3.126581,
        54.925492,
        13
      ],
      [
        -3.126647,
        54.925491,
        12.6
      ],
      [
        -3.127011,
        54.925496,
        12.6
      ],
      [
        -3.127158,
        54.92551,
        13
      ],
      [
        -3.12752,
        54.925543,
        13.6
      ],
      [
        -3.128301,
        54.925617,
        12.2
      ],
      [
        -3.128436,
        54.925623,
        11.2
      ],
      [
        -3.128529,
        54.925641,
        10.6
      ],
      [
        -3.128703,
        54.925642,
        10
      ],
      [
        -3.128824,
        54.92565,
        10.6
      ],
      [
        -3.129052,
        54.925668,
        12.4
      ],
      [
        -3.129121,
        54.925672,
        12.2
      ],
      [
        -3.129268,
        54.925688,
        11.4
      ],
      [
        -3.129376,
        54.925685,
        12.6
      ],
      [
        -3.129653,
        54.925717,
        14.4
      ],
      [
        -3.129646,
        54.925735,
        14.6
      ],
      [
        -3.129583,
        54.9258,
        16
      ],
      [
        -3.129603,
        54.925833,
        17
      ],
      [
        -3.1299,
        54.925903,
        17
      ],
      [
        -3.129986,
        54.925883,
        15.8
      ],
      [
        -3.130154,
        54.925869,
        15.4
      ],
      [
        -3.130218,
        54.925872,
        15.2
      ],
      [
        -3.130458,
        54.925942,
        15.8
      ],
      [
        -3.130488,
        54.925997,
        14.2
      ],
      [
        -3.13092,
        54.926025,
        14.4
      ],
      [
        -3.131398,
        54.926035,
        13.8
      ],
      [
        -3.131449,
        54.926042,
        14.2
      ],
      [
        -3.131727,
        54.926072,
        16
      ],
      [
        -3.132281,
        54.926116,
        13.6
      ],
      [
        -3.132559,
        54.926138,
        9.2
      ],
      [
        -3.13335,
        54.92613,
        13
      ],
      [
        -3.133558,
        54.926139,
        5.6
      ],
      [
        -3.134338,
        54.926178,
        9.8
      ],
      [
        -3.134946,
        54.926203,
        11.2
      ],
      [
        -3.135722,
        54.926268,
        10.6
      ],
      [
        -3.136476,
        54.926294,
        10.6
      ],
      [
        -3.137234,
        54.9264,
        10
      ],
      [
        -3.137496,
        54.926435,
        10.2
      ],
      [
        -3.137729,
        54.92649,
        7.8
      ],
      [
        -3.137774,
        54.926513,
        5
      ],
      [
        -3.137843,
        54.926514,
        3.6
      ],
      [
        -3.137887,
        54.926513,
        3.6
      ],
      [
        -3.138662,
        54.926535,
        14.2
      ],
      [
        -3.139435,
        54.926657,
        13.4
      ],
      [
        -3.140162,
        54.926768,
        12.4
      ],
      [
        -3.140474,
        54.926793,
        13.6
      ],
      [
        -3.140586,
        54.926801,
        13.4
      ],
      [
        -3.141365,
        54.926882,
        14.2
      ],
      [
        -3.141737,
        54.926926,
        13
      ],
      [
        -3.142084,
        54.926955,
        11.8
      ],
      [
        -3.142866,
        54.927058,
        10.4
      ],
      [
        -3.143656,
        54.927124,
        12
      ],
      [
        -3.144415,
        54.927224,
        14.8
      ],
      [
        -3.144837,
        54.927245,
        13.6
      ],
      [
        -3.144887,
        54.927238,
        14.4
      ],
      [
        -3.145058,
        54.927248,
        15.6
      ],
      [
        -3.145598,
        54.927284,
        12
      ],
      [
        -3.14585,
        54.927285,
        12
      ],
      [
        -3.146151,
        54.927293,
        14.2
      ],
      [
        -3.146464,
        54.927289,
        15.6
      ],
      [
        -3.146649,
        54.927294,
        15.8
      ],
      [
        -3.146692,
        54.927293,
        15.8
      ],
      [
        -3.146783,
        54.927302,
        14.6
      ],
      [
        -3.147036,
        54.927304,
        16.4
      ],
      [
        -3.14782,
        54.927301,
        20.6
      ],
      [
        -3.148027,
        54.927298,
        23
      ],
      [
        -3.148243,
        54.927278,
        24
      ],
      [
        -3.148525,
        54.927257,
        22.6
      ],
      [
        -3.148533,
        54.927226,
        20.8
      ],
      [
        -3.148308,
        54.926793,
        11.2
      ],
      [
        -3.148267,
        54.926709,
        11.2
      ],
      [
        -3.148015,
        54.926271,
        6
      ],
      [
        -3.147926,
        54.926009,
        15.8
      ],
      [
        -3.148459,
        54.925697,
        16.6
      ],
      [
        -3.148583,
        54.92566,
        15.6
      ],
      [
        -3.148634,
        54.925626,
        15.8
      ],
      [
        -3.149019,
        54.925425,
        14
      ],
      [
        -3.14964,
        54.925155,
        10.8
      ],
      [
        -3.150288,
        54.924904,
        13.2
      ],
      [
        -3.150733,
        54.924721,
        11.2
      ],
      [
        -3.150983,
        54.924603,
        11.6
      ],
      [
        -3.151105,
        54.924564,
        12.8
      ],
      [
        -3.151424,
        54.924525,
        12.6
      ],
      [
        -3.151673,
        54.924458,
        10.8
      ],
      [
        -3.151951,
        54.924379,
        9.8
      ],
      [
        -3.152229,
        54.924252,
        13.8
      ],
      [
        -3.15277,
        54.924061,
        14.2
      ],
      [
        -3.153401,
        54.923825,
        14.6
      ],
      [
        -3.153758,
        54.923689,
        15.6
      ],
      [
        -3.153919,
        54.923615,
        17
      ],
      [
        -3.154278,
        54.923489,
        15.4
      ],
      [
        -3.154369,
        54.923449,
        14.2
      ],
      [
        -3.155064,
        54.923212,
        17.2
      ],
      [
        -3.155525,
        54.923023,
        16.8
      ],
      [
        -3.155701,
        54.922979,
        17.4
      ],
      [
        -3.156332,
        54.922721,
        14
      ],
      [
        -3.15703,
        54.922508,
        13.8
      ],
      [
        -3.157555,
        54.922351,
        12
      ],
      [
        -3.157553,
        54.922387,
        13.2
      ],
      [
        -3.158108,
        54.922701,
        13.8
      ],
      [
        -3.158811,
        54.922868,
        18.8
      ],
      [
        -3.159006,
        54.922929,
        17.2
      ],
      [
        -3.159677,
        54.923153,
        20.6
      ],
      [
        -3.160228,
        54.923315,
        15.2
      ],
      [
        -3.160343,
        54.923352,
        15
      ],
      [
        -3.160918,
        54.923641,
        15.6
      ],
      [
        -3.161638,
        54.923831,
        16.4
      ],
      [
        -3.162403,
        54.923902,
        14.8
      ],
      [
        -3.163132,
        54.924059,
        16
      ],
      [
        -3.163852,
        54.924232,
        17.8
      ],
      [
        -3.164323,
        54.924376,
        13.4
      ],
      [
        -3.164737,
        54.924741,
        12.6
      ],
      [
        -3.164978,
        54.92516,
        15
      ],
      [
        -3.164999,
        54.92519,
        15.4
      ],
      [
        -3.165005,
        54.925206,
        16
      ],
      [
        -3.165033,
        54.925265,
        16
      ],
      [
        -3.165104,
        54.925479,
        15.2
      ],
      [
        -3.165156,
        54.925603,
        13
      ],
      [
        -3.165487,
        54.926006,
        12.6
      ],
      [
        -3.16564,
        54.92645,
        10.2
      ],
      [
        -3.165694,
        54.926545,
        10.4
      ],
      [
        -3.165909,
        54.926987,
        14.6
      ],
      [
        -3.166015,
        54.927436,
        15
      ],
      [
        -3.166047,
        54.927704,
        11.6
      ],
      [
        -3.166055,
        54.927719,
        11.2
      ],
      [
        -3.16606,
        54.927733,
        10.8
      ],
      [
        -3.166071,
        54.927747,
        11
      ],
      [
        -3.166078,
        54.927778,
        10.6
      ],
      [
        -3.166105,
        54.927861,
        10.6
      ],
      [
        -3.16611,
        54.927875,
        10.4
      ],
      [
        -3.166122,
        54.927904,
        10.2
      ],
      [
        -3.166124,
        54.927918,
        10.2
      ],
      [
        -3.166124,
        54.927931,
        10
      ],
      [
        -3.166121,
        54.927946,
        9.6
      ],
      [
        -3.166118,
        54.927961,
        9.2
      ],
      [
        -3.166117,
        54.927977,
        9
      ],
      [
        -3.166116,
        54.927992,
        8.8
      ],
      [
        -3.166118,
        54.928021,
        8.4
      ],
      [
        -3.166132,
        54.928206,
        5.6
      ],
      [
        -3.166144,
        54.928221,
        6.2
      ],
      [
        -3.166154,
        54.928245,
        5.8
      ],
      [
        -3.166165,
        54.928264,
        5.2
      ],
      [
        -3.166173,
        54.928287,
        5.2
      ],
      [
        -3.166178,
        54.928314,
        5.6
      ],
      [
        -3.166181,
        54.928346,
        6
      ],
      [
        -3.166183,
        54.928376,
        6
      ],
      [
        -3.166193,
        54.928406,
        6.4
      ],
      [
        -3.166217,
        54.928468,
        7
      ],
      [
        -3.166273,
        54.928651,
        7.4
      ],
      [
        -3.166319,
        54.928824,
        7.6
      ],
      [
        -3.166365,
        54.928917,
        9.8
      ],
      [
        -3.166619,
        54.929004,
        11.8
      ],
      [
        -3.166967,
        54.929123,
        15.2
      ],
      [
        -3.166972,
        54.929296,
        12.6
      ],
      [
        -3.167185,
        54.929736,
        9.4
      ],
      [
        -3.16733,
        54.92998,
        9.4
      ],
      [
        -3.167414,
        54.930277,
        10.6
      ],
      [
        -3.167415,
        54.930289,
        10.2
      ],
      [
        -3.16743,
        54.930317,
        9
      ],
      [
        -3.167498,
        54.930394,
        6.6
      ],
      [
        -3.167508,
        54.930415,
        9.4
      ],
      [
        -3.167558,
        54.930428,
        8.6
      ],
      [
        -3.167674,
        54.930538,
        8.8
      ],
      [
        -3.167775,
        54.930625,
        10.8
      ],
      [
        -3.168214,
        54.930916,
        12.8
      ],
      [
        -3.168689,
        54.931295,
        13
      ],
      [
        -3.168787,
        54.931346,
        12.4
      ],
      [
        -3.169002,
        54.931437,
        9.2
      ],
      [
        -3.169381,
        54.931716,
        9.2
      ],
      [
        -3.16944,
        54.931738,
        8.6
      ],
      [
        -3.169545,
        54.931816,
        7.4
      ],
      [
        -3.169985,
        54.932179,
        9.6
      ],
      [
        -3.170009,
        54.932224,
        10.4
      ],
      [
        -3.169618,
        54.932613,
        9.2
      ],
      [
        -3.169178,
        54.932989,
        11.6
      ],
      [
        -3.168644,
        54.933325,
        10
      ],
      [
        -3.168407,
        54.933448,
        10.2
      ],
      [
        -3.167927,
        54.933808,
        9.8
      ],
      [
        -3.167286,
        54.934081,
        13.8
      ],
      [
        -3.167099,
        54.934158,
        16
      ]
    ]
  }
}
