{
  "type": "Feature",
  "properties": {},
  "geometry": {
    "type": "LineString",
    "coordinates": [
      [
        -8.828964,
        37.066066,
        49.97819
      ],
      [
        -8.829301,
        37.06594,
        52.63758
      ],
      [
        -8.829683,
        37.065311,
        52.02542
      ],
      [
        -8.829798,
        37.065224,
        53.43151
      ],
      [
        -8.830352,
        37.064949,
        59.21112
      ],
      [
        -8.83139,
        37.064629,
        63.45864
      ],
      [
        -8.831157,
        37.063565,
        52.88304
      ],
      [
        -8.831365,
        37.063347,
        51.15579
      ],
      [
        -8.83159,
        37.063302,
        52.74482
      ],
      [
        -8.831769,
        37.063158,
        48.08586
      ],
      [
        -8.832094,
        37.062992,
        39.7691
      ],
      [
        -8.832192,
        37.063726,
        51.05376
      ],
      [
        -8.832569,
        37.064385,
        49.03277
      ],
      [
        -8.832631,
        37.064748,
        50.90191
      ],
      [
        -8.832722,
        37.064742,
        51.24562
      ],
      [
        -8.832747,
        37.064679,
        51.08412
      ],
      [
        -8.832893,
        37.06379,
        44.79529
      ],
      [
        -8.83332,
        37.063389,
        37.03786
      ],
      [
        -8.833607,
        37.062964,
        32.00414
      ],
      [
        -8.834493,
        37.062313,
        20.86261
      ],
      [
        -8.834705,
        37.062318,
        22.4711
      ],
      [
        -8.834694,
        37.062231,
        20.16528
      ],
      [
        -8.834886,
        37.061972,
        14.92846
      ],
      [
        -8.835046,
        37.06206,
        17.92874
      ],
      [
        -8.835225,
        37.061826,
        13.02804
      ],
      [
        -8.835504,
        37.061786,
        13.20031
      ],
      [
        -8.835866,
        37.061827,
        15.61091
      ],
      [
        -8.83598,
        37.061667,
        12.62776
      ],
      [
        -8.836323,
        37.061643,
        13.77325
      ],
      [
        -8.836713,
        37.061712,
        17.09664
      ],
      [
        -8.837104,
        37.061988,
        24.41803
      ],
      [
        -8.837171,
        37.061965,
        24.33412
      ],
      [
        -8.837295,
        37.061535,
        16.90257
      ],
      [
        -8.837601,
        37.061332,
        14.00932
      ],
      [
        -8.837998,
        37.061243,
        15.05019
      ],
      [
        -8.838081,
        37.061282,
        16.76938
      ],
      [
        -8.838277,
        37.06125,
        16.77876
      ],
      [
        -8.838472,
        37.06133,
        18.80749
      ],
      [
        -8.838605,
        37.061159,
        14.08615
      ],
      [
        -8.838885,
        37.061137,
        12.51943
      ],
      [
        -8.839082,
        37.061621,
        18.27999
      ],
      [
        -8.83935,
        37.061802,
        17.26704
      ],
      [
        -8.839517,
        37.062019,
        17.04949
      ],
      [
        -8.839664,
        37.062059,
        13.42911
      ],
      [
        -8.83979,
        37.062278,
        12.59067
      ],
      [
        -8.839976,
        37.062373,
        9.2689
      ],
      [
        -8.840125,
        37.06223,
        7.93103
      ],
      [
        -8.839923,
        37.061501,
        5.70957
      ],
      [
        -8.840025,
        37.061375,
        5.88241
      ],
      [
        -8.840279,
        37.061286,
        10.57136
      ],
      [
        -8.840644,
        37.061442,
        25.55833
      ],
      [
        -8.840858,
        37.061408,
        32.31061
      ],
      [
        -8.841062,
        37.061502,
        40.51704
      ],
      [
        -8.841349,
        37.061457,
        49.50522
      ],
      [
        -8.841744,
        37.061126,
        56.29144
      ],
      [
        -8.841905,
        37.061104,
        58.83426
      ],
      [
        -8.842224,
        37.060922,
        59.81655
      ],
      [
        -8.842215,
        37.060687,
        53.73816
      ],
      [
        -8.84233,
        37.060534,
        49.99832
      ],
      [
        -8.842554,
        37.060414,
        49.28616
      ],
      [
        -8.842852,
        37.060368,
        52.34238
      ],
      [
        -8.843768,
        37.060024,
        48.01507
      ],
      [
        -8.84415,
        37.060003,
        46.08204
      ],
      [
        -8.844379,
        37.060067,
        48.0519
      ],
      [
        -8.8449,
        37.059815,
        40.70279
      ],
      [
        -8.845521,
        37.060034,
        37.89437
      ],
      [
        -8.845601,
        37.059915,
        34.02164
      ],
      [
        -8.845855,
        37.059812,
        30.57354
      ],
      [
        -8.845851,
        37.059664,
        27.47022
      ],
      [
        -8.846028,
        37.059696,
        30.96246
      ],
      [
        -8.846387,
        37.059764,
        41.24271
      ],
      [
        -8.846465,
        37.059527,
        42.23228
      ],
      [
        -8.846417,
        37.059388,
        39.47435
      ],
      [
        -8.846814,
        37.059128,
        43.90347
      ],
      [
        -8.846847,
        37.059005,
        40.80894
      ],
      [
        -8.847094,
        37.059027,
        42.19379
      ],
      [
        -8.847255,
        37.058965,
        40.93769
      ],
      [
        -8.847498,
        37.059015,
        42.94425
      ],
      [
        -8.847661,
        37.05915,
        45.74128
      ],
      [
        -8.847871,
        37.059481,
        48.71014
      ],
      [
        -8.84812,
        37.059592,
        48.53218
      ],
      [
        -8.848285,
        37.059753,
        47.78403
      ],
      [
        -8.848418,
        37.059997,
        47.05207
      ],
      [
        -8.848823,
        37.06002,
        49.1181
      ],
      [
        -8.849142,
        37.060398,
        49.14622
      ],
      [
        -8.849214,
        37.060454,
        49.29396
      ],
      [
        -8.849346,
        37.060433,
        50.16016
      ],
      [
        -8.849471,
        37.060371,
        51.44338
      ],
      [
        -8.849797,
        37.059998,
        57.55951
      ],
      [
        -8.85011,
        37.059862,
        61.10947
      ],
      [
        -8.850398,
        37.059642,
        63.9451
      ],
      [
        -8.850766,
        37.059685,
        62.94919
      ],
      [
        -8.850886,
        37.059821,
        62.64328
      ],
      [
        -8.85107,
        37.05989,
        63.73849
      ],
      [
        -8.85139,
        37.05984,
        66.25677
      ],
      [
        -8.851517,
        37.059909,
        67.22016
      ],
      [
        -8.85159,
        37.060063,
        68.01871
      ],
      [
        -8.851315,
        37.060704,
        69.14002
      ],
      [
        -8.851302,
        37.061453,
        70.33026
      ],
      [
        -8.851531,
        37.06176,
        72.71165
      ],
      [
        -8.851628,
        37.062805,
        76.64447
      ],
      [
        -8.851924,
        37.063312,
        76.67944
      ],
      [
        -8.851972,
        37.063699,
        77.34455
      ],
      [
        -8.851743,
        37.064286,
        77.75834
      ],
      [
        -8.851677,
        37.064866,
        74.99949
      ],
      [
        -8.851477,
        37.065241,
        73.03093
      ],
      [
        -8.851039,
        37.065633,
        72.80518
      ],
      [
        -8.85099,
        37.065857,
        70.43797
      ],
      [
        -8.850132,
        37.066264,
        66.38417
      ],
      [
        -8.849848,
        37.066711,
        58.18516
      ],
      [
        -8.849876,
        37.066752,
        57.28984
      ],
      [
        -8.850072,
        37.066748,
        56.21007
      ],
      [
        -8.851173,
        37.066513,
        56.50366
      ],
      [
        -8.851928,
        37.066285,
        54.76647
      ],
      [
        -8.852428,
        37.065907,
        53.86921
      ],
      [
        -8.853297,
        37.065543,
        47.47836
      ],
      [
        -8.854356,
        37.065306,
        39.02827
      ],
      [
        -8.855086,
        37.06484,
        29.90706
      ],
      [
        -8.855719,
        37.063841,
        23.05812
      ],
      [
        -8.856178,
        37.06286,
        18.05376
      ],
      [
        -8.85655,
        37.062294,
        10.16241
      ],
      [
        -8.856681,
        37.06136,
        9.62129
      ],
      [
        -8.856826,
        37.061093,
        7.7668
      ],
      [
        -8.856346,
        37.060624,
        10.74999
      ],
      [
        -8.856144,
        37.060216,
        12.32127
      ],
      [
        -8.856033,
        37.059762,
        14.15364
      ],
      [
        -8.855766,
        37.059552,
        14.64615
      ],
      [
        -8.855748,
        37.059128,
        16.7689
      ],
      [
        -8.855304,
        37.058678,
        17.69661
      ],
      [
        -8.855123,
        37.058359,
        16.45479
      ],
      [
        -8.855066,
        37.058099,
        16.69875
      ],
      [
        -8.855206,
        37.056984,
        14.94998
      ],
      [
        -8.854627,
        37.056367,
        13.69783
      ],
      [
        -8.854728,
        37.056122,
        11.89806
      ],
      [
        -8.854856,
        37.056013,
        11.75624
      ],
      [
        -8.855455,
        37.054963,
        21.64212
      ],
      [
        -8.856473,
        37.05472,
        48.46428
      ],
      [
        -8.856819,
        37.054351,
        51.18621
      ],
      [
        -8.856953,
        37.053992,
        50.81967
      ],
      [
        -8.857412,
        37.05342,
        51.38553
      ],
      [
        -8.857344,
        37.053106,
        51.33582
      ],
      [
        -8.857159,
        37.052837,
        50.51089
      ],
      [
        -8.857094,
        37.052315,
        49.6083
      ],
      [
        -8.857835,
        37.051561,
        57.14554
      ],
      [
        -8.857817,
        37.051122,
        55.8685
      ],
      [
        -8.857926,
        37.050891,
        55.6255
      ],
      [
        -8.858079,
        37.050057,
        52.21403
      ],
      [
        -8.858069,
        37.049684,
        46.80874
      ],
      [
        -8.858444,
        37.049436,
        44.14254
      ],
      [
        -8.858975,
        37.049241,
        45.04501
      ],
      [
        -8.859275,
        37.049076,
        46.30503
      ],
      [
        -8.859475,
        37.048865,
        47.20818
      ],
      [
        -8.859484,
        37.048664,
        46.01566
      ],
      [
        -8.859647,
        37.048276,
        46.58732
      ],
      [
        -8.859801,
        37.048242,
        48.62071
      ],
      [
        -8.859709,
        37.04801,
        46.72591
      ],
      [
        -8.859927,
        37.047592,
        48.44845
      ],
      [
        -8.860158,
        37.047361,
        49.94206
      ],
      [
        -8.860377,
        37.047314,
        50.39975
      ],
      [
        -8.860551,
        37.047193,
        50.00036
      ],
      [
        -8.86131,
        37.046337,
        49.27432
      ],
      [
        -8.861386,
        37.046022,
        48.15814
      ],
      [
        -8.861664,
        37.045762,
        47.69155
      ],
      [
        -8.86184,
        37.045727,
        48.1046
      ],
      [
        -8.862223,
        37.045448,
        47.87155
      ],
      [
        -8.863176,
        37.045055,
        47.03198
      ],
      [
        -8.863565,
        37.044803,
        46.07932
      ],
      [
        -8.863868,
        37.044355,
        42.93879
      ],
      [
        -8.864361,
        37.04392,
        41.72134
      ],
      [
        -8.864779,
        37.043175,
        37.04904
      ],
      [
        -8.865052,
        37.042904,
        31.66011
      ],
      [
        -8.865163,
        37.042871,
        30.10515
      ],
      [
        -8.865272,
        37.042988,
        30.1072
      ],
      [
        -8.865284,
        37.043498,
        36.00308
      ],
      [
        -8.865439,
        37.044087,
        40.18551
      ],
      [
        -8.865607,
        37.044342,
        40.92556
      ],
      [
        -8.865835,
        37.04447,
        39.63301
      ],
      [
        -8.867505,
        37.044976,
        15.45868
      ],
      [
        -8.868016,
        37.045583,
        22.7697
      ],
      [
        -8.868073,
        37.045729,
        23.51646
      ],
      [
        -8.868144,
        37.045677,
        21.54141
      ],
      [
        -8.868531,
        37.045924,
        15.76564
      ],
      [
        -8.86881,
        37.045956,
        11.43149
      ],
      [
        -8.869191,
        37.046135,
        9.12689
      ],
      [
        -8.86926,
        37.046384,
        12.40762
      ],
      [
        -8.86984,
        37.046716,
        19.64374
      ],
      [
        -8.870105,
        37.046789,
        20.96994
      ],
      [
        -8.870332,
        37.046953,
        22.95077
      ],
      [
        -8.870685,
        37.047086,
        22.22244
      ],
      [
        -8.871128,
        37.046975,
        14.68245
      ],
      [
        -8.87128,
        37.047001,
        11.27655
      ],
      [
        -8.871349,
        37.047133,
        9.74839
      ],
      [
        -8.871538,
        37.04715,
        6.13566
      ],
      [
        -8.8715,
        37.047361,
        6.70039
      ],
      [
        -8.871675,
        37.047482,
        4.88772
      ],
      [
        -8.871908,
        37.047545,
        4.93186
      ],
      [
        -8.872189,
        37.047222,
        6.92273
      ],
      [
        -8.872262,
        37.047023,
        7.18634
      ],
      [
        -8.872319,
        37.046964,
        7.69349
      ],
      [
        -8.872411,
        37.046998,
        9.38305
      ],
      [
        -8.87249,
        37.046918,
        10.39325
      ],
      [
        -8.872402,
        37.046583,
        6.92482
      ],
      [
        -8.8722,
        37.046321,
        3.68626
      ],
      [
        -8.872207,
        37.04625,
        3.4081
      ],
      [
        -8.872285,
        37.046271,
        4.07324
      ],
      [
        -8.873054,
        37.046441,
        24.70856
      ],
      [
        -8.874019,
        37.046156,
        34.15336
      ],
      [
        -8.874541,
        37.046205,
        33.70768
      ],
      [
        -8.875352,
        37.046158,
        22.4852
      ],
      [
        -8.875782,
        37.045902,
        14.03596
      ],
      [
        -8.876191,
        37.045909,
        10.90766
      ],
      [
        -8.876586,
        37.045685,
        7.65569
      ],
      [
        -8.877,
        37.045731,
        5.83672
      ],
      [
        -8.877341,
        37.045941,
        5.28658
      ],
      [
        -8.877774,
        37.046047,
        4.02694
      ],
      [
        -8.878135,
        37.046214,
        3.07826
      ],
      [
        -8.878326,
        37.046444,
        3.37623
      ],
      [
        -8.878374,
        37.046719,
        5.29788
      ],
      [
        -8.878863,
        37.046877,
        5.09663
      ],
      [
        -8.879052,
        37.046995,
        5.76653
      ],
      [
        -8.880077,
        37.047091,
        7.09293
      ],
      [
        -8.879846,
        37.046678,
        4.42793
      ],
      [
        -8.879798,
        37.046267,
        3.51669
      ],
      [
        -8.879878,
        37.046222,
        3.82874
      ],
      [
        -8.879847,
        37.046045,
        3.59335
      ],
      [
        -8.879965,
        37.045739,
        3.6646
      ],
      [
        -8.879936,
        37.045007,
        1.75518
      ],
      [
        -8.880102,
        37.044885,
        2.285
      ],
      [
        -8.880251,
        37.044771,
        2.92167
      ],
      [
        -8.880427,
        37.044734,
        3.9291
      ],
      [
        -8.880951,
        37.044959,
        7.32105
      ],
      [
        -8.881162,
        37.044939,
        7.77627
      ],
      [
        -8.88123,
        37.044845,
        7.70657
      ],
      [
        -8.881195,
        37.044674,
        7.24467
      ],
      [
        -8.881499,
        37.044201,
        7.29842
      ],
      [
        -8.881532,
        37.043949,
        6.25973
      ],
      [
        -8.881835,
        37.043587,
        5.06329
      ],
      [
        -8.882056,
        37.043726,
        7.00118
      ],
      [
        -8.882682,
        37.043538,
        6.7294
      ],
      [
        -8.882807,
        37.043547,
        6.75785
      ],
      [
        -8.883898,
        37.043818,
        11.94387
      ],
      [
        -8.884492,
        37.044054,
        15.616
      ],
      [
        -8.884729,
        37.044383,
        20.26697
      ],
      [
        -8.884807,
        37.044399,
        20.59111
      ],
      [
        -8.884866,
        37.044579,
        24.30559
      ],
      [
        -8.885666,
        37.044759,
        35.87552
      ],
      [
        -8.885739,
        37.044913,
        38.57103
      ],
      [
        -8.885983,
        37.045042,
        40.6857
      ],
      [
        -8.886082,
        37.045129,
        41.15105
      ],
      [
        -8.886291,
        37.04516,
        40.86081
      ],
      [
        -8.886379,
        37.045048,
        40.24773
      ],
      [
        -8.886487,
        37.04504,
        40.06379
      ],
      [
        -8.886749,
        37.044412,
        38.59924
      ],
      [
        -8.886765,
        37.044284,
        38.58015
      ],
      [
        -8.886522,
        37.043772,
        38.29046
      ],
      [
        -8.886516,
        37.043156,
        36.20165
      ],
      [
        -8.886433,
        37.042916,
        28.88646
      ],
      [
        -8.886622,
        37.04258,
        26.89207
      ],
      [
        -8.887004,
        37.04248,
        29.43357
      ],
      [
        -8.887167,
        37.042495,
        30.65956
      ],
      [
        -8.887463,
        37.042617,
        34.0281
      ],
      [
        -8.887554,
        37.042773,
        36.77667
      ],
      [
        -8.887791,
        37.042796,
        37.44868
      ],
      [
        -8.887876,
        37.042961,
        39.28524
      ],
      [
        -8.888151,
        37.043036,
        39.92259
      ],
      [
        -8.88839,
        37.042934,
        39.05936
      ],
      [
        -8.888636,
        37.043024,
        40.00781
      ],
      [
        -8.888953,
        37.042969,
        39.64398
      ],
      [
        -8.889064,
        37.042639,
        35.4062
      ],
      [
        -8.889213,
        37.042461,
        32.18352
      ],
      [
        -8.889665,
        37.042312,
        27.06608
      ],
      [
        -8.889871,
        37.042543,
        31.04241
      ],
      [
        -8.89027,
        37.042525,
        30.40048
      ],
      [
        -8.890478,
        37.042747,
        35.58281
      ],
      [
        -8.890799,
        37.042788,
        38.00332
      ],
      [
        -8.891222,
        37.041729,
        18.90276
      ],
      [
        -8.891601,
        37.04158,
        22.58751
      ],
      [
        -8.891717,
        37.041572,
        22.70974
      ],
      [
        -8.891776,
        37.041676,
        24.97169
      ],
      [
        -8.891709,
        37.041916,
        31.39
      ],
      [
        -8.891744,
        37.042026,
        34.26345
      ],
      [
        -8.892223,
        37.041941,
        24.66797
      ],
      [
        -8.892418,
        37.0421,
        24.64844
      ],
      [
        -8.8927,
        37.042154,
        19.58628
      ],
      [
        -8.893209,
        37.042704,
        13.49343
      ],
      [
        -8.894328,
        37.043255,
        6.04575
      ],
      [
        -8.894481,
        37.043287,
        6.53628
      ],
      [
        -8.894876,
        37.043171,
        6.72599
      ],
      [
        -8.894967,
        37.043065,
        4.99316
      ],
      [
        -8.895289,
        37.042936,
        6.63719
      ],
      [
        -8.895772,
        37.042949,
        4.77267
      ],
      [
        -8.896045,
        37.042851,
        3.28855
      ],
      [
        -8.896131,
        37.043005,
        3.65572
      ],
      [
        -8.896383,
        37.0433,
        6.41047
      ],
      [
        -8.896506,
        37.043425,
        8.6265
      ],
      [
        -8.89714,
        37.043779,
        8.29991
      ],
      [
        -8.897218,
        37.043745,
        6.67707
      ],
      [
        -8.897416,
        37.043813,
        5.53953
      ],
      [
        -8.897589,
        37.044023,
        6.2753
      ],
      [
        -8.897897,
        37.044882,
        5.11167
      ],
      [
        -8.898092,
        37.045908,
        4.82791
      ],
      [
        -8.898199,
        37.045985,
        4.86896
      ],
      [
        -8.898467,
        37.046018,
        8.46807
      ],
      [
        -8.898651,
        37.045835,
        14.12932
      ],
      [
        -8.89865,
        37.045406,
        13.48233
      ],
      [
        -8.898873,
        37.045175,
        20.99649
      ],
      [
        -8.899106,
        37.044753,
        29.05205
      ],
      [
        -8.899334,
        37.043754,
        41.08195
      ],
      [
        -8.899547,
        37.043618,
        44.62878
      ],
      [
        -8.900051,
        37.042818,
        47.5952
      ],
      [
        -8.900652,
        37.042137,
        46.84927
      ],
      [
        -8.900802,
        37.041793,
        46.96935
      ],
      [
        -8.901124,
        37.041358,
        46.30628
      ],
      [
        -8.901269,
        37.040885,
        45.89611
      ],
      [
        -8.901601,
        37.040582,
        45.84966
      ],
      [
        -8.902779,
        37.038777,
        49.83564
      ],
      [
        -8.903013,
        37.03851,
        49.24499
      ],
      [
        -8.903517,
        37.038219,
        49.1432
      ],
      [
        -8.904383,
        37.037791,
        50.3131
      ],
      [
        -8.905978,
        37.037185,
        52.97879
      ],
      [
        -8.906268,
        37.037017,
        52.09387
      ],
      [
        -8.906584,
        37.036647,
        50.36752
      ],
      [
        -8.906896,
        37.03611,
        47.89812
      ],
      [
        -8.907024,
        37.035532,
        46.61661
      ],
      [
        -8.90703,
        37.035156,
        46.62103
      ],
      [
        -8.907225,
        37.034913,
        46.26739
      ],
      [
        -8.907464,
        37.034369,
        48.45739
      ],
      [
        -8.907567,
        37.033984,
        48.80618
      ],
      [
        -8.907483,
        37.033693,
        48.04114
      ],
      [
        -8.907619,
        37.033384,
        47.0805
      ],
      [
        -8.907463,
        37.033137,
        46.82592
      ],
      [
        -8.906746,
        37.032692,
        44.08702
      ],
      [
        -8.906636,
        37.032483,
        43.94169
      ],
      [
        -8.906399,
        37.032277,
        43.80728
      ],
      [
        -8.9063,
        37.031947,
        44.16158
      ],
      [
        -8.906686,
        37.029989,
        40.07339
      ],
      [
        -8.906652,
        37.029796,
        39.83212
      ],
      [
        -8.906291,
        37.029326,
        39.5345
      ],
      [
        -8.906635,
        37.028567,
        39.31474
      ],
      [
        -8.906659,
        37.028155,
        38.75648
      ],
      [
        -8.906849,
        37.027893,
        38.10424
      ],
      [
        -8.908102,
        37.027348,
        34.19006
      ],
      [
        -8.908281,
        37.025657,
        31.74791
      ],
      [
        -8.908382,
        37.025411,
        30.18029
      ],
      [
        -8.908638,
        37.025151,
        25.45237
      ],
      [
        -8.909765,
        37.02511,
        20.87928
      ],
      [
        -8.91004,
        37.025011,
        21.44066
      ],
      [
        -8.910288,
        37.024994,
        23.38064
      ],
      [
        -8.910736,
        37.024807,
        25.27201
      ],
      [
        -8.91107,
        37.024492,
        24.50993
      ],
      [
        -8.911605,
        37.024147,
        26.36926
      ],
      [
        -8.912443,
        37.023936,
        24.72046
      ],
      [
        -8.912707,
        37.023552,
        23.79705
      ],
      [
        -8.912677,
        37.023342,
        21.64805
      ],
      [
        -8.912891,
        37.022873,
        14.42195
      ],
      [
        -8.913108,
        37.022795,
        14.59348
      ],
      [
        -8.913068,
        37.022725,
        12.84998
      ],
      [
        -8.913329,
        37.022516,
        11.20084
      ],
      [
        -8.913868,
        37.022437,
        12.35041
      ],
      [
        -8.914002,
        37.022385,
        11.86474
      ],
      [
        -8.914399,
        37.02255,
        15.07403
      ],
      [
        -8.914742,
        37.022436,
        13.64248
      ],
      [
        -8.915233,
        37.022423,
        11.50364
      ],
      [
        -8.916078,
        37.022615,
        9.40197
      ],
      [
        -8.916202,
        37.022786,
        12.50462
      ],
      [
        -8.916384,
        37.022693,
        10.45711
      ],
      [
        -8.916861,
        37.022658,
        9.75721
      ],
      [
        -8.917018,
        37.02259,
        9.10616
      ],
      [
        -8.917427,
        37.022584,
        9.02579
      ],
      [
        -8.918242,
        37.022709,
        7.14408
      ],
      [
        -8.918812,
        37.022618,
        6.55629
      ],
      [
        -8.919419,
        37.02238,
        4.22863
      ],
      [
        -8.91969,
        37.022373,
        2.94306
      ],
      [
        -8.919825,
        37.022512,
        3.48568
      ],
      [
        -8.920417,
        37.022282,
        2.03365
      ],
      [
        -8.920636,
        37.022275,
        2.86551
      ],
      [
        -8.920717,
        37.022402,
        3.73211
      ],
      [
        -8.921308,
        37.021929,
        6.27383
      ],
      [
        -8.922099,
        37.021566,
        5.01146
      ],
      [
        -8.922543,
        37.021293,
        3.85658
      ],
      [
        -8.923645,
        37.021125,
        6.28857
      ],
      [
        -8.924382,
        37.020774,
        -0.44553
      ],
      [
        -8.924531,
        37.020548,
        -0.75301
      ],
      [
        -8.925001,
        37.020323,
        0.52317
      ],
      [
        -8.925064,
        37.020381,
        0.44478
      ],
      [
        -8.925296,
        37.020258,
        0.91153
      ],
      [
        -8.925471,
        37.020444,
        0.60655
      ],
      [
        -8.926588,
        37.019696,
        -1.14098
      ],
      [
        -8.926571,
        37.019632,
        -0.88287
      ],
      [
        -8.926591,
        37.019529,
        -0.43205
      ],
      [
        -8.92676,
        37.019415,
        0.68851
      ],
      [
        -8.926543,
        37.019057,
        0.64054
      ],
      [
        -8.926993,
        37.01876,
        2.19864
      ],
      [
        -8.927516,
        37.018079,
        -0.51319
      ],
      [
        -8.927849,
        37.017449,
        -0.28775
      ],
      [
        -8.928026,
        37.016617,
        0.46043
      ],
      [
        -8.927968,
        37.01589,
        0.00148
      ],
      [
        -8.928534,
        37.015156,
        1.96192
      ],
      [
        -8.930448,
        37.01337,
        10.55088
      ],
      [
        -8.931152,
        37.012606,
        17.82448
      ],
      [
        -8.931655,
        37.011794,
        23.61953
      ],
      [
        -8.932786,
        37.011038,
        31.10134
      ],
      [
        -8.932502,
        37.010461,
        31.81626
      ],
      [
        -8.932565,
        37.010353,
        31.68961
      ],
      [
        -8.932844,
        37.010228,
        31.59307
      ],
      [
        -8.932662,
        37.009884,
        31.65336
      ],
      [
        -8.933097,
        37.009671,
        31.86785
      ],
      [
        -8.934039,
        37.007533,
        34.73506
      ]
    ]
  }
}
