{
  "type": "Feature",
  "properties": {},
  "geometry": {
    "type": "LineString",
    "coordinates": [
      [
        -8.828964,
        37.066066
      ],
      [
        -8.832293,
        37.064275
      ],
      [
        -8.835351,
        37.061776
      ],
      [
        -8.832839,
        37.064482
      ],
      [
        -8.835351,
        37.061776
      ],
      [
        -8.839614,
        37.061476
      ],
      [
        -8.845811,
        37.059559
      ],
      [
        -8.84975,
        37.058263
      ],
      [
        -8.853016,
        37.056583
      ],
      [
        -8.855029,
        37.055605
      ],
      [
        -8.856695,
        37.054382
      ],
      [
        -8.859237,
        37.049043
      ],
      [
        -8.865339,
        37.043318
      ],
      [
        -8.868067,
        37.045758
      ],
      [
        -8.872365,
        37.046807
      ],
      [
        -8.878138,
        37.046328
      ],
      [
        -8.872409,
        37.046765
      ],
      [
        -8.878879,
        37.046888
      ],
      [
        -8.883152,
        37.043663
      ],
      [
        -8.880282,
        37.047007
      ],
      [
        -8.883019,
        37.043632
      ],
      [
        -8.886614,
        37.044029
      ],
      [
        -8.892119,
        37.042031
      ],
      [
        -8.897577,
        37.04408
      ],
      [
        -8.904343,
        37.037852
      ],
      [
        -8.90757,
        37.03384
      ],
      [
        -8.906489,
        37.030787
      ],
      [
        -8.907136,
        37.027729
      ],
      [
        -8.910037,
        37.024995
      ],
      [
        -8.914525,
        37.022507
      ],
      [
        -8.919576,
        37.022369
      ],
      [
        -8.924672,
        37.020661
      ],
      [
        -8.926734,
        37.019382
      ],
      [
        -8.92802,
        37.015771
      ],
      [
        -8.931419,
        37.01209
      ],
      [
        -8.934783,
        37.007286
      ],
      [
        -8.933404,
        37.009591
      ],
      [
        -8.934039,
        37.007533
      ]
    ]
  }
}
