{
  "type": "Feature",
  "properties": {
    "id": "24011469911",
    "activity": "hiking",
    "name": "Torbay Hiking",
    "date": "2026-08-17T14:46:21Z",
    "distanceKm": 4.01,
    "movingTimeSeconds": 2847,
    "elapsedTimeSeconds": 3025,
    "ascentM": 144,
    "descentM": 138
  },
  "geometry": {
    "type": "LineString",
    "coordinates": [
      [
        -3.515296094119549,
        50.479965414851904,
        88
      ],
      [
        -3.5151716228574514,
        50.47999106347561,
        87.39999999999998
      ],
      [
        -3.515073386952281,
        50.48000087030232,
        87
      ],
      [
        -3.5149048268795013,
        50.47999785281718,
        86
      ],
      [
        -3.5148723050951958,
        50.47999056056142,
        85.60000000000002
      ],
      [
        -3.5148120392113924,
        50.47997103072703,
        85.60000000000002
      ],
      [
        -3.5147775057703257,
        50.47995904460549,
        85.60000000000002
      ],
      [
        -3.514692932367325,
        50.47993306070566,
        85
      ],
      [
        -3.514678683131933,
        50.47993096522987,
        84.79999999999995
      ],
      [
        -3.5145424772053957,
        50.47989433631301,
        84.60000000000002
      ],
      [
        -3.5145159903913736,
        50.47987966798246,
        84.60000000000002
      ],
      [
        -3.514401074498892,
        50.47981973737478,
        84.60000000000002
      ],
      [
        -3.514288505539298,
        50.47978151589632,
        84.79999999999995
      ],
      [
        -3.5142372082918882,
        50.4797619022429,
        84.60000000000002
      ],
      [
        -3.51418842561543,
        50.47974497079849,
        84.20000000000005
      ],
      [
        -3.5141531378030777,
        50.47972812317312,
        84.20000000000005
      ],
      [
        -3.5140831489115953,
        50.47968562692404,
        83.79999999999995
      ],
      [
        -3.513968987390399,
        50.47961530275643,
        83
      ],
      [
        -3.5138798877596855,
        50.479612201452255,
        82.79999999999995
      ],
      [
        -3.513845605775714,
        50.47960113734007,
        82.79999999999995
      ],
      [
        -3.513770503923297,
        50.47957414761186,
        82.39999999999998
      ],
      [
        -3.513705711811781,
        50.47955143265426,
        82.20000000000005
      ],
      [
        -3.513488955795765,
        50.47946727834642,
        82.60000000000002
      ],
      [
        -3.513363813981414,
        50.47941883094609,
        84
      ],
      [
        -3.513347301632166,
        50.479409862309694,
        84.20000000000005
      ],
      [
        -3.5132696013897657,
        50.479365438222885,
        84.60000000000002
      ],
      [
        -3.5132075753062963,
        50.47933149151504,
        85
      ],
      [
        -3.5131751373410225,
        50.4793163202703,
        85
      ],
      [
        -3.513069525361061,
        50.47925370745361,
        84.60000000000002
      ],
      [
        -3.5129519272595644,
        50.479166116565466,
        84
      ],
      [
        -3.512881100177765,
        50.479104928672314,
        83.79999999999995
      ],
      [
        -3.5127440560609102,
        50.479020522907376,
        83.79999999999995
      ],
      [
        -3.512608353048563,
        50.478933518752456,
        83.60000000000002
      ],
      [
        -3.51248262450099,
        50.47892748378217,
        83.39999999999998
      ],
      [
        -3.5123593267053366,
        50.47892488539219,
        82.79999999999995
      ],
      [
        -3.5123210214078426,
        50.47892136499286,
        82.79999999999995
      ],
      [
        -3.512159502133727,
        50.47886327840388,
        81.79999999999995
      ],
      [
        -3.512137793004513,
        50.47882623039186,
        81.39999999999998
      ],
      [
        -3.512138295918703,
        50.47878926619887,
        81.20000000000005
      ],
      [
        -3.512091524899006,
        50.47869388014078,
        80.79999999999995
      ],
      [
        -3.5121145751327276,
        50.47863855957985,
        80.60000000000002
      ],
      [
        -3.512136787176132,
        50.47861986793578,
        80.39999999999998
      ],
      [
        -3.5122100450098515,
        50.47853026539087,
        79.79999999999995
      ],
      [
        -3.5122197680175304,
        50.478518111631274,
        79.79999999999995
      ],
      [
        -3.5122394654899836,
        50.47847544774413,
        79.60000000000002
      ],
      [
        -3.512301743030548,
        50.47836547717452,
        79
      ],
      [
        -3.5123199317604303,
        50.47832893207669,
        78.60000000000002
      ],
      [
        -3.5123663675040007,
        50.478274282068014,
        78.60000000000002
      ],
      [
        -3.512387741357088,
        50.47822415828705,
        78.60000000000002
      ],
      [
        -3.512418670579791,
        50.4781627189368,
        78.39999999999998
      ],
      [
        -3.5124754160642624,
        50.47802726738155,
        79.39999999999998
      ],
      [
        -3.51251682266593,
        50.47794286161661,
        79
      ],
      [
        -3.5125527810305357,
        50.47789349220693,
        79.39999999999998
      ],
      [
        -3.512596618384123,
        50.47778461128473,
        79.20000000000005
      ],
      [
        -3.5125963669270277,
        50.4777691885829,
        79.20000000000005
      ],
      [
        -3.512591253966093,
        50.47774236649275,
        79.60000000000002
      ],
      [
        -3.5126087721437216,
        50.477684615179896,
        79.60000000000002
      ],
      [
        -3.512635761871934,
        50.47758026048541,
        80
      ],
      [
        -3.512569796293974,
        50.47750004567206,
        80
      ],
      [
        -3.5124072711914778,
        50.47744740732014,
        80.39999999999998
      ],
      [
        -3.512338623404503,
        50.47743449918926,
        80.79999999999995
      ],
      [
        -3.5122279822826385,
        50.47741455025971,
        81.20000000000005
      ],
      [
        -3.512094207108021,
        50.47739552333951,
        81.79999999999995
      ],
      [
        -3.5120745934545994,
        50.47739317640662,
        81.79999999999995
      ],
      [
        -3.5120179317891598,
        50.47738336957991,
        82
      ],
      [
        -3.511996725574136,
        50.47738169319928,
        82.20000000000005
      ],
      [
        -3.511867895722389,
        50.47738370485604,
        82.20000000000005
      ],
      [
        -3.5118163470178843,
        50.47738772816956,
        82.20000000000005
      ],
      [
        -3.511615600436926,
        50.47735897824168,
        81
      ],
      [
        -3.511548712849617,
        50.477336682379246,
        81
      ],
      [
        -3.5113470442593098,
        50.47730692662299,
        81
      ],
      [
        -3.5112107545137405,
        50.47729535959661,
        81.20000000000005
      ],
      [
        -3.511028280481696,
        50.47726510092616,
        81.39999999999998
      ],
      [
        -3.511007409542799,
        50.47726451419294,
        81.39999999999998
      ],
      [
        -3.510815044865012,
        50.4772319085896,
        82
      ],
      [
        -3.510718485340476,
        50.47720793634653,
        82.20000000000005
      ],
      [
        -3.51057356223464,
        50.47717650420964,
        82.79999999999995
      ],
      [
        -3.5104889050126076,
        50.47717650420964,
        83
      ],
      [
        -3.510465770959854,
        50.477175833657384,
        83.20000000000005
      ],
      [
        -3.510399805381894,
        50.47716887667775,
        83.39999999999998
      ],
      [
        -3.5103623382747173,
        50.477155381813645,
        83.39999999999998
      ],
      [
        -3.5101812053471804,
        50.477084470912814,
        83
      ],
      [
        -3.5100577399134636,
        50.47706485725939,
        83
      ],
      [
        -3.5099596716463566,
        50.47705530188978,
        82.79999999999995
      ],
      [
        -3.509780718013644,
        50.47702529467642,
        82
      ],
      [
        -3.5097005870193243,
        50.477031748741865,
        81.60000000000002
      ],
      [
        -3.5095653869211674,
        50.47702604904771,
        81.79999999999995
      ],
      [
        -3.509352821856737,
        50.4770196788013,
        81.79999999999995
      ],
      [
        -3.5092110838741064,
        50.477019092068076,
        81.79999999999995
      ],
      [
        -3.5091615468263626,
        50.477016661316156,
        81.79999999999995
      ],
      [
        -3.5089289490133524,
        50.476996544748545,
        81.60000000000002
      ],
      [
        -3.5088606365025043,
        50.47698246315122,
        81
      ],
      [
        -3.508726106956601,
        50.476970728486776,
        80.60000000000002
      ],
      [
        -3.508556457236409,
        50.47695463523269,
        79.79999999999995
      ],
      [
        -3.5084230173379183,
        50.47696352005005,
        79
      ],
      [
        -3.508398374542594,
        50.47696117311716,
        78.60000000000002
      ],
      [
        -3.5083054192364216,
        50.476949606090784,
        77.39999999999998
      ],
      [
        -3.5082559660077095,
        50.47694784589112,
        76.60000000000002
      ],
      [
        -3.50823643617332,
        50.476945247501135,
        76.39999999999998
      ],
      [
        -3.5081205144524574,
        50.47692940570414,
        75.60000000000002
      ],
      [
        -3.5080094542354345,
        50.47693024389446,
        75.60000000000002
      ],
      [
        -3.5079708974808455,
        50.47693099826574,
        75.60000000000002
      ],
      [
        -3.507848521694541,
        50.47692923806608,
        75.39999999999998
      ],
      [
        -3.507800241932273,
        50.47692261636257,
        75.60000000000002
      ],
      [
        -3.5076387226581573,
        50.47690249979496,
        76.39999999999998
      ],
      [
        -3.5075576696544886,
        50.47689604572952,
        77.60000000000002
      ],
      [
        -3.5074730962514877,
        50.47688984312117,
        78.79999999999995
      ],
      [
        -3.5074340365827084,
        50.47689185477793,
        79.39999999999998
      ],
      [
        -3.507410315796733,
        50.4768933635205,
        79.79999999999995
      ],
      [
        -3.507391456514597,
        50.47689034603536,
        80
      ],
      [
        -3.5073536541312933,
        50.47688347287476,
        80.60000000000002
      ],
      [
        -3.5073143430054188,
        50.47687953338027,
        81
      ],
      [
        -3.507293304428458,
        50.476881293579936,
        81.39999999999998
      ],
      [
        -3.507232116535306,
        50.476889088749886,
        82.39999999999998
      ],
      [
        -3.5071765445172787,
        50.47688104212284,
        83.39999999999998
      ],
      [
        -3.5071127582341433,
        50.476878276094794,
        84.20000000000005
      ],
      [
        -3.5070546716451645,
        50.47687123529613,
        84.60000000000002
      ],
      [
        -3.506948808208108,
        50.47685262747109,
        85.39999999999998
      ],
      [
        -3.5068203136324883,
        50.4768399707973,
        85.60000000000002
      ],
      [
        -3.5067969281226397,
        50.4768383782357,
        85.60000000000002
      ],
      [
        -3.5067748837172985,
        50.47683686949313,
        85.79999999999995
      ],
      [
        -3.5065280366688967,
        50.476819183677435,
        86.39999999999998
      ],
      [
        -3.5063675232231617,
        50.47680635936558,
        86.60000000000002
      ],
      [
        -3.5062136314809322,
        50.47681046649814,
        86.60000000000002
      ],
      [
        -3.506166273728013,
        50.47680971212685,
        86.79999999999995
      ],
      [
        -3.5061201732605696,
        50.47680686227977,
        86.79999999999995
      ],
      [
        -3.505973992869258,
        50.476798731833696,
        86.39999999999998
      ],
      [
        -3.5059532057493925,
        50.47679495997727,
        86.39999999999998
      ],
      [
        -3.5058444924652576,
        50.476790852844715,
        86.60000000000002
      ],
      [
        -3.505849689245224,
        50.47679998911917,
        86.79999999999995
      ],
      [
        -3.50585144944489,
        50.47683695331216,
        86.79999999999995
      ],
      [
        -3.505838792771101,
        50.47685011290014,
        86.79999999999995
      ],
      [
        -3.5057623498141766,
        50.47687844373286,
        86.79999999999995
      ],
      [
        -3.5056032612919807,
        50.476904762908816,
        87.20000000000005
      ],
      [
        -3.505498571321368,
        50.47694491222501,
        87
      ],
      [
        -3.505381140857935,
        50.477003334090114,
        85.60000000000002
      ],
      [
        -3.5053465235978365,
        50.477018589153886,
        85
      ],
      [
        -3.505296064540744,
        50.47704138793051,
        84.39999999999998
      ],
      [
        -3.505227752029896,
        50.4771005641669,
        84.20000000000005
      ],
      [
        -3.5051643010228872,
        50.47711791470647,
        84.20000000000005
      ],
      [
        -3.5051420889794827,
        50.47711992636323,
        84
      ],
      [
        -3.505118954926729,
        50.47711950726807,
        84
      ],
      [
        -3.5050989221781492,
        50.47710919752717,
        83.79999999999995
      ],
      [
        -3.504995908588171,
        50.477084554731846,
        83.39999999999998
      ],
      [
        -3.504971181973815,
        50.47707927413285,
        83.39999999999998
      ],
      [
        -3.5047018714249134,
        50.47701397910714,
        83.20000000000005
      ],
      [
        -3.5045416932553053,
        50.47696611844003,
        83.39999999999998
      ],
      [
        -3.5044264420866966,
        50.47694072127342,
        83.79999999999995
      ],
      [
        -3.5042091831564903,
        50.47691356390715,
        84.60000000000002
      ],
      [
        -3.5041852109134197,
        50.47691322863102,
        84.79999999999995
      ],
      [
        -3.5041221790015697,
        50.47690534964204,
        85.39999999999998
      ],
      [
        -3.5040329955518246,
        50.47684986144304,
        85.39999999999998
      ],
      [
        -3.504024865105748,
        50.47683712095022,
        85.39999999999998
      ],
      [
        -3.504041712731123,
        50.47684634104371,
        85.39999999999998
      ],
      [
        -3.504171883687377,
        50.476907696574926,
        84.60000000000002
      ],
      [
        -3.504284033551812,
        50.47697617672384,
        83.39999999999998
      ],
      [
        -3.5043834429234266,
        50.47703334130347,
        83.39999999999998
      ],
      [
        -3.5045281145721674,
        50.4771005641669,
        84
      ],
      [
        -3.504644203931093,
        50.47715152613819,
        83.20000000000005
      ],
      [
        -3.504700781777501,
        50.477174827829,
        82.39999999999998
      ],
      [
        -3.5047236643731594,
        50.47718111425638,
        82.20000000000005
      ],
      [
        -3.5048729460686445,
        50.47723081894219,
        81.79999999999995
      ],
      [
        -3.5049138497561216,
        50.47723978757858,
        81.20000000000005
      ],
      [
        -3.5049954056739807,
        50.477268286049366,
        80.60000000000002
      ],
      [
        -3.505163798108697,
        50.4773167334497,
        80.79999999999995
      ],
      [
        -3.5053429193794727,
        50.477381106466055,
        80
      ],
      [
        -3.5053604375571012,
        50.4773907456547,
        80
      ],
      [
        -3.5055245552212,
        50.47750163823366,
        79.79999999999995
      ],
      [
        -3.5056110564619303,
        50.47756852582097,
        79.39999999999998
      ],
      [
        -3.5057491902261972,
        50.47766081057489,
        79.20000000000005
      ],
      [
        -3.505771989002824,
        50.477678161114454,
        79
      ],
      [
        -3.5058201011270285,
        50.47771328128874,
        78.60000000000002
      ],
      [
        -3.5058952029794455,
        50.47773415222764,
        77.79999999999995
      ],
      [
        -3.505931831896305,
        50.477747060358524,
        76.79999999999995
      ],
      [
        -3.5060221888124943,
        50.47774530015886,
        75.60000000000002
      ],
      [
        -3.506064098328352,
        50.477747647091746,
        74.79999999999995
      ],
      [
        -3.506074408069253,
        50.47775477170944,
        74.39999999999998
      ],
      [
        -3.5061146412044764,
        50.477770613506436,
        73.20000000000005
      ],
      [
        -3.5061282198876143,
        50.477783270180225,
        72.79999999999995
      ],
      [
        -3.5061095282435417,
        50.47779089771211,
        72.20000000000005
      ],
      [
        -3.5060839634388685,
        50.477807242423296,
        71
      ],
      [
        -3.5060536209493876,
        50.4778244253248,
        70.60000000000002
      ],
      [
        -3.506010454148054,
        50.47784898430109,
        70.39999999999998
      ],
      [
        -3.5059974621981382,
        50.4778587911278,
        70.20000000000005
      ],
      [
        -3.505985224619508,
        50.47786859795451,
        70
      ],
      [
        -3.5059756692498922,
        50.477886367589235,
        68.79999999999995
      ],
      [
        -3.505986062809825,
        50.477886870503426,
        68.60000000000002
      ],
      [
        -3.5060005635023117,
        50.477886870503426,
        68.39999999999998
      ],
      [
        -3.5060307383537292,
        50.47790179029107,
        67.79999999999995
      ],
      [
        -3.5060801915824413,
        50.47790958546102,
        66.79999999999995
      ],
      [
        -3.5061249509453773,
        50.47791738063097,
        65.79999999999995
      ],
      [
        -3.5061752423644066,
        50.47792534343898,
        64.79999999999995
      ],
      [
        -3.5061890725046396,
        50.477927355095744,
        64.39999999999998
      ],
      [
        -3.5062341671437025,
        50.477941520512104,
        63.39999999999998
      ],
      [
        -3.5062385257333517,
        50.47795702703297,
        62.39999999999998
      ],
      [
        -3.5062400344759226,
        50.477962559089065,
        62.200000000000045
      ],
      [
        -3.50630977191031,
        50.47797345556319,
        62
      ],
      [
        -3.5063275415450335,
        50.47799306921661,
        61
      ],
      [
        -3.506333325058222,
        50.47802207060158,
        60.200000000000045
      ],
      [
        -3.5063386894762516,
        50.47807227820158,
        59.799999999999955
      ],
      [
        -3.5063563752919436,
        50.478127179667354,
        59.200000000000045
      ],
      [
        -3.506378000602126,
        50.47816255129874,
        58.799999999999955
      ],
      [
        -3.5064212512224913,
        50.478215692564845,
        57.799999999999955
      ],
      [
        -3.506523510441184,
        50.47827470116317,
        57.39999999999998
      ],
      [
        -3.5066417790949345,
        50.478342175483704,
        56.60000000000002
      ],
      [
        -3.506723251193762,
        50.47837142832577,
        55.60000000000002
      ],
      [
        -3.506753845140338,
        50.478378888219595,
        55.39999999999998
      ],
      [
        -3.50682869553566,
        50.47843479551375,
        55
      ],
      [
        -3.506887536495924,
        50.47843965701759,
        54.799999999999955
      ],
      [
        -3.5069265123456717,
        50.47843714244664,
        54.200000000000045
      ],
      [
        -3.506941683590412,
        50.47843580134213,
        53.799999999999955
      ],
      [
        -3.507013600319624,
        50.478421887382865,
        53.200000000000045
      ],
      [
        -3.5070732794702053,
        50.47840763814747,
        53
      ],
      [
        -3.5071182902902365,
        50.478397915139794,
        52
      ],
      [
        -3.5072099044919014,
        50.47839900478721,
        50.799999999999955
      ],
      [
        -3.5073527321219444,
        50.47840051352978,
        49.799999999999955
      ],
      [
        -3.5074081365019083,
        50.47840017825365,
        49.60000000000002
      ],
      [
        -3.507470414042473,
        50.47839565202594,
        49
      ],
      [
        -3.5075106471776962,
        50.47839975915849,
        48.60000000000002
      ],
      [
        -3.507564039900899,
        50.47839657403529,
        47.39999999999998
      ],
      [
        -3.5076386388391256,
        50.47839288599789,
        46.39999999999998
      ],
      [
        -3.5077229607850313,
        50.478383246809244,
        45.60000000000002
      ],
      [
        -3.507744837552309,
        50.47838123515248,
        45.39999999999998
      ],
      [
        -3.5077803768217564,
        50.478389617055655,
        44.39999999999998
      ],
      [
        -3.5077824722975492,
        50.47839665785432,
        44
      ],
      [
        -3.507784651592374,
        50.478404369205236,
        43.799999999999955
      ],
      [
        -3.507795548066497,
        50.47844250686467,
        43.200000000000045
      ],
      [
        -3.5077871661633253,
        50.47847343608737,
        42.60000000000002
      ],
      [
        -3.5077724140137434,
        50.478485841304064,
        42.200000000000045
      ],
      [
        -3.5077638644725084,
        50.478497575968504,
        42
      ],
      [
        -3.5077046044170856,
        50.47854711301625,
        41.200000000000045
      ],
      [
        -3.50769504904747,
        50.47855759039521,
        41
      ],
      [
        -3.5076828114688396,
        50.47856932505965,
        40.799999999999955
      ],
      [
        -3.507664203643799,
        50.478607127442956,
        40.200000000000045
      ],
      [
        -3.5076896846294403,
        50.478604109957814,
        40
      ],
      [
        -3.507705442607403,
        50.47860394231975,
        39.799999999999955
      ],
      [
        -3.5077782813459635,
        50.47859514132142,
        38.60000000000002
      ],
      [
        -3.5078156646341085,
        50.47858877107501,
        38.39999999999998
      ],
      [
        -3.507930999621749,
        50.478569408878684,
        37.60000000000002
      ],
      [
        -3.507949272170663,
        50.478567564859986,
        37.200000000000045
      ],
      [
        -3.5080698877573013,
        50.47858877107501,
        36.39999999999998
      ],
      [
        -3.5081237833946943,
        50.47863772138953,
        35.200000000000045
      ],
      [
        -3.5081834625452757,
        50.47865624539554,
        33.799999999999955
      ],
      [
        -3.5082102846354246,
        50.47867091372609,
        32.60000000000002
      ],
      [
        -3.508236100897193,
        50.478698909282684,
        32
      ],
      [
        -3.5082492604851723,
        50.478721456602216,
        31.399999999999977
      ],
      [
        -3.5082592349499464,
        50.47874618321657,
        30.200000000000045
      ],
      [
        -3.508257893845439,
        50.47875381074846,
        30
      ],
      [
        -3.5082424711436033,
        50.47877786681056,
        28.799999999999955
      ],
      [
        -3.5082427226006985,
        50.47879236750305,
        28
      ],
      [
        -3.508251439779997,
        50.47880125232041,
        27.799999999999955
      ],
      [
        -3.5082904156297445,
        50.47881633974612,
        27.399999999999977
      ],
      [
        -3.5083072632551193,
        50.47882195562124,
        27.200000000000045
      ],
      [
        -3.5083248652517796,
        50.47882757149637,
        26.600000000000023
      ],
      [
        -3.5083402041345835,
        50.47883394174278,
        25.600000000000023
      ],
      [
        -3.508375659584999,
        50.47883394174278,
        24.399999999999977
      ],
      [
        -3.508414216339588,
        50.47882128506899,
        23.399999999999977
      ],
      [
        -3.5084630828350782,
        50.478808460757136,
        22.200000000000045
      ],
      [
        -3.5084868874400854,
        50.478805946186185,
        21.600000000000023
      ],
      [
        -3.508505830541253,
        50.47880326397717,
        21.200000000000045
      ],
      [
        -3.5085699521005154,
        50.478790774941444,
        20
      ],
      [
        -3.508654609322548,
        50.478772670030594,
        19
      ],
      [
        -3.508786791935563,
        50.47875632531941,
        18.399999999999977
      ],
      [
        -3.508816547691822,
        50.47874333336949,
        18.200000000000045
      ],
      [
        -3.5088214091956615,
        50.47873637638986,
        18.200000000000045
      ],
      [
        -3.5088491532951593,
        50.47872355207801,
        18
      ],
      [
        -3.508895840495825,
        50.47871332615614,
        18.200000000000045
      ],
      [
        -3.5089239198714495,
        50.47872162424028,
        18
      ],
      [
        -3.5089230816811323,
        50.47872028313577,
        17.799999999999955
      ],
      [
        -3.508973205462098,
        50.47873830422759,
        17.799999999999955
      ],
      [
        -3.5089327208697796,
        50.47877686098218,
        16.799999999999955
      ],
      [
        -3.50890732370317,
        50.478799659758806,
        15.799999999999955
      ],
      [
        -3.5088985227048397,
        50.478810304775834,
        15.600000000000023
      ],
      [
        -3.5088917333632708,
        50.47883779741824,
        14.799999999999955
      ],
      [
        -3.5088932421058416,
        50.4788482747972,
        14.600000000000023
      ],
      [
        -3.5089082457125187,
        50.47886101529002,
        13.799999999999955
      ],
      [
        -3.5089183878153563,
        50.47886973246932,
        13.399999999999977
      ],
      [
        -3.5089416056871414,
        50.478891441598535,
        12.200000000000045
      ],
      [
        -3.5089808329939842,
        50.47890149988234,
        11.199999999999989
      ],
      [
        -3.509017126634717,
        50.478891441598535,
        10.600000000000023
      ],
      [
        -3.5090623889118433,
        50.47888574190438,
        10
      ],
      [
        -3.509094826877117,
        50.47888875938952,
        9.800000000000011
      ],
      [
        -3.5091283544898033,
        50.47890971414745,
        9.399999999999977
      ],
      [
        -3.509156433865428,
        50.478932932019234,
        8.800000000000011
      ],
      [
        -3.509212927892804,
        50.47896855510771,
        8.199999999999989
      ],
      [
        -3.5093388240784407,
        50.47897727228701,
        8
      ],
      [
        -3.5094932187348604,
        50.47897760756314,
        7.800000000000011
      ],
      [
        -3.5095432586967945,
        50.47898003831506,
        7.800000000000011
      ],
      [
        -3.5095806419849396,
        50.47898221760988,
        7.600000000000023
      ],
      [
        -3.5096890199929476,
        50.47899244353175,
        7.399999999999977
      ],
      [
        -3.5097087174654007,
        50.47899629920721,
        7.399999999999977
      ],
      [
        -3.5098870005458593,
        50.479032257571816,
        6.800000000000011
      ],
      [
        -3.509908625856042,
        50.47903158701956,
        6.800000000000011
      ],
      [
        -3.5101520363241434,
        50.479068802669644,
        7.199999999999989
      ],
      [
        -3.5102962888777256,
        50.47913175076246,
        7.600000000000023
      ],
      [
        -3.510342473164201,
        50.479152873158455,
        7.800000000000011
      ],
      [
        -3.5104309860616922,
        50.47918011434376,
        8.399999999999977
      ],
      [
        -3.510506758466363,
        50.4792195931077,
        8.399999999999977
      ],
      [
        -3.5105895716696978,
        50.47926502302289,
        8.600000000000023
      ],
      [
        -3.5106671042740345,
        50.47928899526596,
        8.600000000000023
      ],
      [
        -3.510796520859003,
        50.479357643052936,
        8.399999999999977
      ],
      [
        -3.5109341517090797,
        50.47942629083991,
        8.800000000000011
      ],
      [
        -3.511025682091713,
        50.47946937382221,
        9
      ],
      [
        -3.5110709443688393,
        50.47957079485059,
        9.800000000000011
      ],
      [
        -3.5110750515013933,
        50.479594180360436,
        10
      ],
      [
        -3.511105813086033,
        50.47965536825359,
        11
      ],
      [
        -3.511123163625598,
        50.47966483980417,
        11.199999999999989
      ],
      [
        -3.511201534420252,
        50.47971798107028,
        11.800000000000011
      ],
      [
        -3.51122735068202,
        50.47972938045859,
        12.200000000000045
      ],
      [
        -3.5112472157925367,
        50.479717729613185,
        12.399999999999977
      ],
      [
        -3.5113224014639854,
        50.47970574349165,
        13
      ],
      [
        -3.5113628022372723,
        50.47970389947295,
        13
      ],
      [
        -3.5114605352282524,
        50.47969711013138,
        12
      ],
      [
        -3.511620881035924,
        50.47971446067095,
        12.600000000000023
      ],
      [
        -3.511629765853286,
        50.47969509847462,
        12.600000000000023
      ],
      [
        -3.511653235182166,
        50.47968462109566,
        12.399999999999977
      ],
      [
        -3.511794302612543,
        50.47964128665626,
        11.600000000000023
      ],
      [
        -3.5119169298559427,
        50.479603903368115,
        11.199999999999989
      ],
      [
        -3.5119513794779778,
        50.47959233634174,
        11
      ],
      [
        -3.5120015032589436,
        50.47959786839783,
        11.399999999999977
      ],
      [
        -3.5120304208248854,
        50.479615554213524,
        11.800000000000011
      ],
      [
        -3.512079454958439,
        50.479641454294324,
        12.200000000000045
      ],
      [
        -3.5121316742151976,
        50.47965972684324,
        12.399999999999977
      ],
      [
        -3.5121608432382345,
        50.479679675772786,
        13.399999999999977
      ],
      [
        -3.512180708348751,
        50.479687387123704,
        14.200000000000045
      ],
      [
        -3.5122094582766294,
        50.479693757370114,
        14.600000000000023
      ],
      [
        -3.5122613422572613,
        50.479714376851916,
        15
      ],
      [
        -3.51232185959816,
        50.47972787171602,
        15.600000000000023
      ],
      [
        -3.5123952012509108,
        50.47974195331335,
        16.200000000000045
      ],
      [
        -3.512404002249241,
        50.47974145039916,
        16.399999999999977
      ],
      [
        -3.512431913986802,
        50.47974580898881,
        16.399999999999977
      ],
      [
        -3.5124496836215258,
        50.4797479044646,
        16.600000000000023
      ],
      [
        -3.512489078566432,
        50.47975352033973,
        17.399999999999977
      ],
      [
        -3.5124982986599207,
        50.479754358530045,
        17
      ],
      [
        -3.5124982986599207,
        50.479754358530045,
        16.799999999999955
      ],
      [
        -3.5124982986599207,
        50.479754358530045,
        16.799999999999955
      ],
      [
        -3.512454628944397,
        50.479773469269276,
        16
      ],
      [
        -3.5124459117650986,
        50.47977187670767,
        15.600000000000023
      ],
      [
        -3.5124121326953173,
        50.4797893948853,
        14.399999999999977
      ],
      [
        -3.5123934410512447,
        50.479801297187805,
        13.399999999999977
      ],
      [
        -3.512351280078292,
        50.47981143929064,
        12.200000000000045
      ],
      [
        -3.5123389586806297,
        50.479818899184465,
        12
      ],
      [
        -3.512358572334051,
        50.479848235845566,
        11.199999999999989
      ],
      [
        -3.5123708099126816,
        50.47985100187361,
        11.199999999999989
      ],
      [
        -3.512468207627535,
        50.4799225833267,
        11.600000000000023
      ],
      [
        -3.5125401243567467,
        50.479973293840885,
        12
      ],
      [
        -3.512554708868265,
        50.479983016848564,
        12.200000000000045
      ],
      [
        -3.512628050521016,
        50.48003548756242,
        12.600000000000023
      ],
      [
        -3.5126633383333683,
        50.48010153695941,
        12.799999999999955
      ],
      [
        -3.5127378534525633,
        50.48019382171333,
        13
      ],
      [
        -3.512851009145379,
        50.480282166972756,
        13
      ],
      [
        -3.5129724629223347,
        50.480375960469246,
        13.200000000000045
      ],
      [
        -3.513025436550379,
        50.48041979782283,
        13.200000000000045
      ],
      [
        -3.5130915697664022,
        50.48046514391899,
        13.200000000000045
      ],
      [
        -3.51318234577775,
        50.480525409802794,
        13.399999999999977
      ],
      [
        -3.5132281109690666,
        50.48056371510029,
        13.600000000000023
      ],
      [
        -3.513253927230835,
        50.480585088953376,
        13.600000000000023
      ],
      [
        -3.5133424401283264,
        50.480633368715644,
        13.200000000000045
      ],
      [
        -3.513444112613797,
        50.48068022355437,
        13.200000000000045
      ],
      [
        -3.513569002971053,
        50.48073286190629,
        13.799999999999955
      ],
      [
        -3.5136436857283115,
        50.480764796957374,
        14
      ],
      [
        -3.5137079749256372,
        50.48082967288792,
        13.399999999999977
      ],
      [
        -3.513786094263196,
        50.480903182178736,
        13.200000000000045
      ],
      [
        -3.5138789657503366,
        50.48096990212798,
        13.200000000000045
      ],
      [
        -3.5139311850070953,
        50.48100954852998,
        13.399999999999977
      ],
      [
        -3.513950128108263,
        50.48101658932865,
        13.200000000000045
      ],
      [
        -3.514026990160346,
        50.48108071088791,
        13.200000000000045
      ],
      [
        -3.514089686796069,
        50.48111046664417,
        13
      ],
      [
        -3.514155987650156,
        50.48116981051862,
        13
      ],
      [
        -3.514176942408085,
        50.481192944571376,
        13
      ],
      [
        -3.5142904333770275,
        50.481293024495244,
        13.200000000000045
      ],
      [
        -3.514381041750312,
        50.48134809359908,
        13.200000000000045
      ],
      [
        -3.5144415590912104,
        50.481379609555006,
        13
      ],
      [
        -3.5145072732120752,
        50.4814300686121,
        12.799999999999955
      ],
      [
        -3.514675833284855,
        50.481510451063514,
        13.200000000000045
      ],
      [
        -3.5147981252521276,
        50.48157323151827,
        13
      ],
      [
        -3.5148788429796696,
        50.48163257539272,
        12.799999999999955
      ],
      [
        -3.51491404697299,
        50.481664929538965,
        12
      ],
      [
        -3.514927625656128,
        50.481690829619765,
        11.399999999999977
      ],
      [
        -3.514919076114893,
        50.48170717433095,
        10.800000000000011
      ],
      [
        -3.5149238537997007,
        50.481771463528275,
        10.399999999999977
      ],
      [
        -3.51495947688818,
        50.48177498392761,
        10.800000000000011
      ],
      [
        -3.5149895679205656,
        50.48178445547819,
        11.800000000000011
      ],
      [
        -3.515017982572317,
        50.48181287012994,
        13
      ],
      [
        -3.5150160547345877,
        50.48185612075031,
        13.399999999999977
      ],
      [
        -3.515038350597024,
        50.48188554123044,
        13.200000000000045
      ],
      [
        -3.5150600597262383,
        50.4819533508271,
        13.399999999999977
      ],
      [
        -3.5150775779038668,
        50.48201613128185,
        13.200000000000045
      ],
      [
        -3.515095515176654,
        50.482058795168996,
        13.200000000000045
      ],
      [
        -3.515103980898857,
        50.48208503052592,
        13.399999999999977
      ],
      [
        -3.5151297133415937,
        50.48215921036899,
        13.399999999999977
      ],
      [
        -3.5151380952447653,
        50.482182344421744,
        13.600000000000023
      ],
      [
        -3.5151451360434294,
        50.48218670301139,
        13.399999999999977
      ],
      [
        -3.5151451360434294,
        50.48218670301139,
        13.399999999999977
      ],
      [
        -3.5151451360434294,
        50.48218670301139,
        13.399999999999977
      ],
      [
        -3.5151781607419252,
        50.48214948736131,
        13.200000000000045
      ],
      [
        -3.5152234230190516,
        50.482124174013734,
        13.399999999999977
      ],
      [
        -3.5152809228748083,
        50.482096849009395,
        13.799999999999955
      ],
      [
        -3.515296010300517,
        50.48205653205514,
        14.200000000000045
      ],
      [
        -3.5153076611459255,
        50.48200330697,
        15
      ],
      [
        -3.515311349183321,
        50.48197480849922,
        15.399999999999977
      ],
      [
        -3.515320820733905,
        50.48192166723311,
        16.399999999999977
      ],
      [
        -3.515322580933571,
        50.48190750181675,
        16.600000000000023
      ],
      [
        -3.5153220780193806,
        50.48189350403845,
        16.799999999999955
      ],
      [
        -3.5153212398290634,
        50.48187950626016,
        17
      ],
      [
        -3.515321072191,
        50.48186542466283,
        17.200000000000045
      ],
      [
        -3.515313360840082,
        50.48183625563979,
        17.600000000000023
      ],
      [
        -3.51530397310853,
        50.48177171498537,
        18.600000000000023
      ],
      [
        -3.5152905620634556,
        50.481716226786375,
        19.399999999999977
      ],
      [
        -3.51528687402606,
        50.4817044083029,
        19.600000000000023
      ],
      [
        -3.5152189806103706,
        50.481654703617096,
        20.399999999999977
      ],
      [
        -3.5152036417275667,
        50.481646824628115,
        20.600000000000023
      ],
      [
        -3.515161732211709,
        50.481607681140304,
        21.399999999999977
      ],
      [
        -3.5151465609669685,
        50.481594102457166,
        21.600000000000023
      ],
      [
        -3.515078919008374,
        50.48154682852328,
        22.399999999999977
      ],
      [
        -3.5149942617863417,
        50.48148379661143,
        22.799999999999955
      ],
      [
        -3.5149769112467766,
        50.48146393150091,
        22.799999999999955
      ],
      [
        -3.5149101074784994,
        50.481413220986724,
        23.200000000000045
      ],
      [
        -3.5148488357663155,
        50.48137290403247,
        23.600000000000023
      ],
      [
        -3.51484221406281,
        50.48136695288122,
        23.799999999999955
      ],
      [
        -3.514775913208723,
        50.48130802810192,
        24.799999999999955
      ],
      [
        -3.514774739742279,
        50.481296041980386,
        25
      ],
      [
        -3.5148052498698235,
        50.48124357126653,
        25.399999999999977
      ],
      [
        -3.514816900715232,
        50.4812418948859,
        25.600000000000023
      ],
      [
        -3.5149024799466133,
        50.48123971559107,
        25.799999999999955
      ],
      [
        -3.514950843527913,
        50.48124147579074,
        26
      ],
      [
        -3.515080511569977,
        50.48127072863281,
        27.200000000000045
      ],
      [
        -3.5150929167866707,
        50.48127634450793,
        27.399999999999977
      ],
      [
        -3.5151639115065336,
        50.4813143145293,
        28.399999999999977
      ],
      [
        -3.515212694182992,
        50.48133778385818,
        29
      ],
      [
        -3.5152419470250607,
        50.481347842141986,
        29.399999999999977
      ],
      [
        -3.5153280291706324,
        50.48138111829758,
        30.200000000000045
      ],
      [
        -3.5153424460440874,
        50.48138757236302,
        30.399999999999977
      ],
      [
        -3.5153559409081936,
        50.48139511607587,
        30.600000000000023
      ],
      [
        -3.515460127964616,
        50.48143467865884,
        31.600000000000023
      ],
      [
        -3.515477478504181,
        50.48144239000976,
        31.799999999999955
      ],
      [
        -3.515563979744911,
        50.48147005029023,
        32.60000000000002
      ],
      [
        -3.5156202223151922,
        50.4814937710762,
        33.39999999999998
      ],
      [
        -3.5156383272260427,
        50.481502655893564,
        33.60000000000002
      ],
      [
        -3.5157367307692766,
        50.48154833726585,
        34.799999999999955
      ],
      [
        -3.5157738626003265,
        50.48156635835767,
        35.60000000000002
      ],
      [
        -3.5157994274049997,
        50.481572058051825,
        36
      ],
      [
        -3.5158353857696056,
        50.48155914992094,
        37
      ],
      [
        -3.5158392414450645,
        50.481541799381375,
        37.799999999999955
      ],
      [
        -3.5158478748053312,
        50.481534926220775,
        38.200000000000045
      ],
      [
        -3.5158659797161818,
        50.481524700298905,
        39
      ],
      [
        -3.515877714380622,
        50.481515899300575,
        39.200000000000045
      ],
      [
        -3.5158948972821236,
        50.48150491900742,
        39.39999999999998
      ],
      [
        -3.51595432497561,
        50.4814681224525,
        40
      ],
      [
        -3.5159803926944733,
        50.48145110718906,
        40.39999999999998
      ],
      [
        -3.516042083501816,
        50.48143266700208,
        41.39999999999998
      ],
      [
        -3.516070833429694,
        50.481429900974035,
        42
      ],
      [
        -3.5161331109702587,
        50.48141347244382,
        42.799999999999955
      ],
      [
        -3.5161772835999727,
        50.4814041685313,
        43.200000000000045
      ],
      [
        -3.516246182844043,
        50.48140131868422,
        43.799999999999955
      ],
      [
        -3.5163042694330215,
        50.48140291124582,
        44.60000000000002
      ],
      [
        -3.516322458162904,
        50.481402073055506,
        44.799999999999955
      ],
      [
        -3.516354225575924,
        50.48140374943614,
        46
      ],
      [
        -3.5163658764213324,
        50.48142227344215,
        47
      ],
      [
        -3.516378700733185,
        50.48144029453397,
        47.60000000000002
      ],
      [
        -3.516382221132517,
        50.48145052045584,
        48
      ],
      [
        -3.5163906030356884,
        50.481474744156,
        48.200000000000045
      ],
      [
        -3.516428992152214,
        50.48151372000575,
        49.200000000000045
      ],
      [
        -3.516437290236354,
        50.4815164860338,
        49.60000000000002
      ],
      [
        -3.516454389318824,
        50.481527550145984,
        50.39999999999998
      ],
      [
        -3.5164895094931126,
        50.4815508518368,
        51.60000000000002
      ],
      [
        -3.5164983943104744,
        50.48155755735934,
        51.799999999999955
      ],
      [
        -3.5165271442383528,
        50.481560910120606,
        52.60000000000002
      ],
      [
        -3.516549188643694,
        50.481564262881875,
        53.200000000000045
      ],
      [
        -3.5165641084313393,
        50.48156535252929,
        53.799999999999955
      ],
      [
        -3.516610376536846,
        50.48156560398638,
        54.799999999999955
      ],
      [
        -3.516647005453706,
        50.48157524317503,
        55.60000000000002
      ],
      [
        -3.516664272174239,
        50.48157884739339,
        56
      ],
      [
        -3.516729734838009,
        50.481602316722274,
        57.200000000000045
      ],
      [
        -3.5167333390563726,
        50.48160860314965,
        57.60000000000002
      ],
      [
        -3.5167471691966057,
        50.48162704333663,
        57.799999999999955
      ],
      [
        -3.516750941053033,
        50.4816285520792,
        58
      ],
      [
        -3.5167548805475235,
        50.481649339199066,
        58
      ],
      [
        -3.5166559740900993,
        50.48165042884648,
        57.200000000000045
      ],
      [
        -3.5165705624967813,
        50.48166308552027,
        56
      ],
      [
        -3.516543572768569,
        50.48166752792895,
        55.60000000000002
      ],
      [
        -3.516530329361558,
        50.48167456872761,
        55.200000000000045
      ],
      [
        -3.5165213607251644,
        50.48167917877436,
        55
      ],
      [
        -3.516488252207637,
        50.481680100783706,
        54.39999999999998
      ],
      [
        -3.5164061933755875,
        50.48168814741075,
        53.60000000000002
      ],
      [
        -3.516339724883437,
        50.481710359454155,
        52.39999999999998
      ],
      [
        -3.516307035461068,
        50.481732320040464,
        52
      ],
      [
        -3.516221959143877,
        50.481795435771346,
        53.200000000000045
      ],
      [
        -3.516207877546549,
        50.48180188983679,
        53.60000000000002
      ],
      [
        -3.516163118183613,
        50.481819827109575,
        54.200000000000045
      ],
      [
        -3.516148952767253,
        50.48182091675699,
        54.39999999999998
      ],
      [
        -3.5161372181028128,
        50.481825191527605,
        54.60000000000002
      ],
      [
        -3.5160781256854534,
        50.48185243271291,
        55.39999999999998
      ],
      [
        -3.516064714640379,
        50.48185830004513,
        55.799999999999955
      ],
      [
        -3.5160204581916332,
        50.48189006745815,
        56.60000000000002
      ],
      [
        -3.516011657193303,
        50.481896102428436,
        56.799999999999955
      ],
      [
        -3.515950469300151,
        50.48193843103945,
        57.60000000000002
      ],
      [
        -3.51594015955925,
        50.48194413073361,
        58
      ],
      [
        -3.5158543288707733,
        50.48195745795965,
        58.60000000000002
      ],
      [
        -3.5158845875412226,
        50.48194228671491,
        57.799999999999955
      ],
      [
        -3.5158911254256964,
        50.48196307383478,
        57.799999999999955
      ],
      [
        -3.51592012681067,
        50.48202526755631,
        57
      ],
      [
        -3.515925742685795,
        50.482038175687194,
        56.60000000000002
      ],
      [
        -3.515939489006996,
        50.482060723006725,
        55.799999999999955
      ],
      [
        -3.515958096832037,
        50.48207857646048,
        54.60000000000002
      ],
      [
        -3.515966311097145,
        50.48209223896265,
        54.200000000000045
      ],
      [
        -3.5159614495933056,
        50.48211227171123,
        53.39999999999998
      ],
      [
        -3.515950134024024,
        50.482152588665485,
        52.200000000000045
      ],
      [
        -3.515944518148899,
        50.482188295572996,
        51
      ],
      [
        -3.515948038548231,
        50.482210759073496,
        49.60000000000002
      ],
      [
        -3.5159473679959774,
        50.48222132027149,
        49.200000000000045
      ],
      [
        -3.5159488767385483,
        50.48224085010588,
        48.200000000000045
      ],
      [
        -3.515961952507496,
        50.48228762112558,
        47
      ],
      [
        -3.515966897830367,
        50.48231343738735,
        46
      ],
      [
        -3.5159674007445574,
        50.4823436960578,
        45
      ],
      [
        -3.5159735195338726,
        50.48235660418868,
        44.799999999999955
      ],
      [
        -3.51600612513721,
        50.48240144737065,
        43.60000000000002
      ],
      [
        -3.5160383954644203,
        50.482436483725905,
        43
      ],
      [
        -3.5160648822784424,
        50.48245676793158,
        42.60000000000002
      ],
      [
        -3.5160870105028152,
        50.4825041256845,
        41.39999999999998
      ],
      [
        -3.5160892736166716,
        50.48253430053592,
        40.799999999999955
      ],
      [
        -3.5161027684807777,
        50.48259783536196,
        40.39999999999998
      ],
      [
        -3.516126237809658,
        50.4826544970274,
        40.39999999999998
      ],
      [
        -3.516142750158906,
        50.48274795524776,
        39.799999999999955
      ],
      [
        -3.5161756072193384,
        50.48284116201103,
        40.200000000000045
      ],
      [
        -3.5161844920367002,
        50.482859099283814,
        40.39999999999998
      ],
      [
        -3.516256408765912,
        50.48292129300535,
        41.60000000000002
      ],
      [
        -3.516361601650715,
        50.482972925528884,
        42.200000000000045
      ],
      [
        -3.516428405418992,
        50.4830239713192,
        42.60000000000002
      ],
      [
        -3.5164644476026297,
        50.48304056748748,
        42.799999999999955
      ],
      [
        -3.5165725741535425,
        50.48308365046978,
        43.60000000000002
      ],
      [
        -3.516655471175909,
        50.483121452853084,
        44
      ],
      [
        -3.5167404636740685,
        50.4831672180444,
        44.799999999999955
      ],
      [
        -3.5167810320854187,
        50.48318817280233,
        45
      ],
      [
        -3.5168797709047794,
        50.48323670402169,
        45.799999999999955
      ],
      [
        -3.5168923437595367,
        50.4832430742681,
        46
      ],
      [
        -3.51694674231112,
        50.48327459022403,
        46.799999999999955
      ],
      [
        -3.516982449218631,
        50.48334550112486,
        48
      ],
      [
        -3.5169890709221363,
        50.48335522413254,
        48.39999999999998
      ],
      [
        -3.517020922154188,
        50.483394116163254,
        49.39999999999998
      ],
      [
        -3.517058305442333,
        50.48342755995691,
        50.39999999999998
      ],
      [
        -3.5170738957822323,
        50.48343594186008,
        50.39999999999998
      ],
      [
        -3.5171194095164537,
        50.48345731571317,
        51.200000000000045
      ],
      [
        -3.51715344004333,
        50.48346804454923,
        51.60000000000002
      ],
      [
        -3.5171939246356487,
        50.48348388634622,
        52
      ],
      [
        -3.5172658413648605,
        50.48352152109146,
        52.799999999999955
      ],
      [
        -3.5173385962843895,
        50.48357684165239,
        53.39999999999998
      ],
      [
        -3.5174013767391443,
        50.48362227156758,
        53.799999999999955
      ],
      [
        -3.5174558591097593,
        50.48364574089646,
        54.200000000000045
      ],
      [
        -3.517523081973195,
        50.483686896041036,
        54.799999999999955
      ],
      [
        -3.517583515495062,
        50.48372293822467,
        55.39999999999998
      ],
      [
        -3.5176686756312847,
        50.48376283608377,
        56
      ],
      [
        -3.5177058912813663,
        50.483779767528176,
        56.200000000000045
      ],
      [
        -3.517772275954485,
        50.48380793072283,
        57
      ],
      [
        -3.5178693383932114,
        50.48385042697191,
        57.60000000000002
      ],
      [
        -3.5178984235972166,
        50.48386316746473,
        58
      ],
      [
        -3.517975201830268,
        50.483904741704464,
        58.60000000000002
      ],
      [
        -3.518023733049631,
        50.4839355032891,
        59.200000000000045
      ],
      [
        -3.5180562548339367,
        50.483950171619654,
        59.60000000000002
      ],
      [
        -3.5181095637381077,
        50.4839719645679,
        60.200000000000045
      ],
      [
        -3.5181876830756664,
        50.484000546857715,
        60.799999999999955
      ],
      [
        -3.5182392317801714,
        50.48402678221464,
        61.200000000000045
      ],
      [
        -3.518300000578165,
        50.48406416550279,
        62
      ],
      [
        -3.518327996134758,
        50.48407757654786,
        62.39999999999998
      ],
      [
        -3.518427489325404,
        50.48413281328976,
        63.200000000000045
      ],
      [
        -3.518439894542098,
        50.484143290668726,
        63.60000000000002
      ],
      [
        -3.518514074385166,
        50.48417975194752,
        64.60000000000002
      ],
      [
        -3.518535951152444,
        50.48419240862131,
        65
      ],
      [
        -3.518608957529068,
        50.484209675341845,
        65.60000000000002
      ],
      [
        -3.518656650558114,
        50.484242867678404,
        66.20000000000005
      ],
      [
        -3.518687915056944,
        50.48427538946271,
        66.60000000000002
      ],
      [
        -3.5187309980392456,
        50.48433842137456,
        67.79999999999995
      ],
      [
        -3.5187384579330683,
        50.48435342498124,
        68
      ],
      [
        -3.518762933090329,
        50.48439030535519,
        68.79999999999995
      ],
      [
        -3.518820432946086,
        50.48444311134517,
        70
      ],
      [
        -3.518837783485651,
        50.48445040360093,
        70.20000000000005
      ],
      [
        -3.518889332190156,
        50.48447337001562,
        71
      ],
      [
        -3.518941132351756,
        50.48450320959091,
        72
      ],
      [
        -3.5189827904105186,
        50.484538497403264,
        72.79999999999995
      ],
      [
        -3.5190282203257084,
        50.484578059986234,
        73.20000000000005
      ],
      [
        -3.519116146489978,
        50.48461485654116,
        73.60000000000002
      ],
      [
        -3.519161744043231,
        50.48463296145201,
        74.20000000000005
      ],
      [
        -3.519250424578786,
        50.484670009464025,
        75.20000000000005
      ],
      [
        -3.5192681942135096,
        50.484672943130136,
        75.39999999999998
      ],
      [
        -3.5193815175443888,
        50.48468434251845,
        76.60000000000002
      ],
      [
        -3.5193992033600807,
        50.48468375578523,
        77.20000000000005
      ],
      [
        -3.519382942467928,
        50.48468819819391,
        77.39999999999998
      ],
      [
        -3.5194426216185093,
        50.48468987457454,
        77.60000000000002
      ],
      [
        -3.5194596368819475,
        50.48468928784132,
        77.79999999999995
      ],
      [
        -3.5195115208625793,
        50.48467369750142,
        78.79999999999995
      ],
      [
        -3.5195282846689224,
        50.48466933891177,
        79
      ],
      [
        -3.5195706970989704,
        50.48466087318957,
        79.60000000000002
      ],
      [
        -3.519599363207817,
        50.484656849876046,
        80
      ],
      [
        -3.519624676555395,
        50.48465852625668,
        80.39999999999998
      ],
      [
        -3.5196608025580645,
        50.48465492203832,
        81.20000000000005
      ],
      [
        -3.5197143629193306,
        50.48464436084032,
        82.20000000000005
      ],
      [
        -3.519726013764739,
        50.484644612297416,
        82.20000000000005
      ],
      [
        -3.519786363467574,
        50.48464100807905,
        83.39999999999998
      ],
      [
        -3.519785860553384,
        50.484640672802925,
        83.39999999999998
      ],
      [
        -3.519783513620496,
        50.484645115211606,
        83.60000000000002
      ],
      [
        -3.5197886265814304,
        50.48464050516486,
        83.20000000000005
      ],
      [
        -3.5198705177754164,
        50.48463178798556,
        84
      ],
      [
        -3.5198858566582203,
        50.48462960869074,
        84.39999999999998
      ],
      [
        -3.5199446976184845,
        50.48460857011378,
        85.39999999999998
      ],
      [
        -3.5199902951717377,
        50.484586944803596,
        86
      ],
      [
        -3.5200195480138063,
        50.48457747325301,
        86.60000000000002
      ],
      [
        -3.5201367270201445,
        50.484543861821294,
        87.79999999999995
      ],
      [
        -3.5201967414468527,
        50.48449625261128,
        88.79999999999995
      ],
      [
        -3.520254995673895,
        50.48445870168507,
        89.20000000000005
      ],
      [
        -3.520333869382739,
        50.48438913188875,
        89.79999999999995
      ],
      [
        -3.520348621532321,
        50.48437664285302,
        90
      ],
      [
        -3.520433697849512,
        50.48432433977723,
        91
      ],
      [
        -3.5204524733126163,
        50.4843173827976,
        91
      ],
      [
        -3.5205695684999228,
        50.484265834093094,
        92
      ],
      [
        -3.5206538904458284,
        50.48423775471747,
        92.39999999999998
      ],
      [
        -3.5207840614020824,
        50.484192073345184,
        92.79999999999995
      ],
      [
        -3.5208196844905615,
        50.48417908139527,
        93.20000000000005
      ],
      [
        -3.5210013203322887,
        50.4841292090714,
        93.60000000000002
      ],
      [
        -3.521103747189045,
        50.48409601673484,
        93.79999999999995
      ],
      [
        -3.521163174882531,
        50.48408344388008,
        94.39999999999998
      ],
      [
        -3.521246323361993,
        50.48404823988676,
        94.20000000000005
      ],
      [
        -3.521300721913576,
        50.48396090045571,
        94.39999999999998
      ],
      [
        -3.5213329922407866,
        50.483822263777256,
        94.20000000000005
      ],
      [
        -3.521415889263153,
        50.48372528515756,
        93.20000000000005
      ],
      [
        -3.5213960241526365,
        50.48359653912485,
        92.39999999999998
      ],
      [
        -3.5213978681713343,
        50.48355773091316,
        92.20000000000005
      ],
      [
        -3.5213997960090637,
        50.48350442200899,
        91.60000000000002
      ],
      [
        -3.5214134585112333,
        50.48334022052586,
        91.39999999999998
      ],
      [
        -3.5214272048324347,
        50.48327182419598,
        92.20000000000005
      ],
      [
        -3.5214322339743376,
        50.483219185844064,
        92
      ],
      [
        -3.5214440524578094,
        50.483160680159926,
        92
      ],
      [
        -3.521485961973667,
        50.48307107761502,
        92
      ],
      [
        -3.521527536213398,
        50.482921628281474,
        92.39999999999998
      ],
      [
        -3.521493338048458,
        50.48283060081303,
        92
      ],
      [
        -3.5214738920331,
        50.48280084505677,
        92.20000000000005
      ],
      [
        -3.5214181523770094,
        50.48276798799634,
        92.79999999999995
      ],
      [
        -3.5213969461619854,
        50.48276572488248,
        93
      ],
      [
        -3.521349923685193,
        50.482760360464454,
        93.20000000000005
      ],
      [
        -3.5212708823382854,
        50.482708560302854,
        93.39999999999998
      ],
      [
        -3.5212581418454647,
        50.48266732133925,
        94.20000000000005
      ],
      [
        -3.521255375817418,
        50.48265374265611,
        94.20000000000005
      ],
      [
        -3.5212490055710077,
        50.48264058306813,
        94.39999999999998
      ],
      [
        -3.5212105326354504,
        50.482608983293176,
        94.20000000000005
      ],
      [
        -3.52114699780941,
        50.482571264728904,
        94.39999999999998
      ],
      [
        -3.5210815351456404,
        50.482536563649774,
        94.60000000000002
      ],
      [
        -3.5209325049072504,
        50.482501946389675,
        95.20000000000005
      ],
      [
        -3.5209133103489876,
        50.4824988450855,
        95.39999999999998
      ],
      [
        -3.520728824660182,
        50.48244830220938,
        96
      ],
      [
        -3.520678784698248,
        50.4824332986027,
        96.20000000000005
      ],
      [
        -3.5206592548638582,
        50.48242776654661,
        96.39999999999998
      ],
      [
        -3.5206141602247953,
        50.48241460695863,
        96.39999999999998
      ],
      [
        -3.5204771161079407,
        50.48237915150821,
        96.39999999999998
      ],
      [
        -3.5203387308865786,
        50.48235367052257,
        97
      ],
      [
        -3.520153071731329,
        50.482271863147616,
        96.79999999999995
      ],
      [
        -3.520170757547021,
        50.48219089396298,
        97.20000000000005
      ],
      [
        -3.5203068796545267,
        50.48210925422609,
        96.79999999999995
      ],
      [
        -3.520338647067547,
        50.48208771273494,
        96.79999999999995
      ],
      [
        -3.5204765293747187,
        50.482006408274174,
        96.60000000000002
      ],
      [
        -3.520535621792078,
        50.48197070136666,
        96.79999999999995
      ],
      [
        -3.5207100491970778,
        50.48186416737735,
        96.39999999999998
      ],
      [
        -3.520905263721943,
        50.48173609189689,
        96.60000000000002
      ],
      [
        -3.5211133863776922,
        50.481611704453826,
        96.20000000000005
      ],
      [
        -3.5212649311870337,
        50.48151028342545,
        96
      ],
      [
        -3.521408010274172,
        50.48142512328923,
        95.60000000000002
      ],
      [
        -3.521428043022752,
        50.48142327927053,
        95.79999999999995
      ],
      [
        -3.5215551126748323,
        50.481457309797406,
        95.39999999999998
      ],
      [
        -3.5216145403683186,
        50.481467451900244,
        95.20000000000005
      ],
      [
        -3.5216048173606396,
        50.48146384768188,
        95.20000000000005
      ],
      [
        -3.5216304659843445,
        50.48144431784749,
        94.60000000000002
      ],
      [
        -3.521792236715555,
        50.48140726983547,
        94.79999999999995
      ],
      [
        -3.5219629760831594,
        50.48144482076168,
        95
      ],
      [
        -3.522117119282484,
        50.48149754293263,
        95
      ],
      [
        -3.5223199613392353,
        50.481576919555664,
        96.20000000000005
      ],
      [
        -3.5223401617258787,
        50.48158412799239,
        96.20000000000005
      ],
      [
        -3.522492880001664,
        50.48168135806918,
        97.60000000000002
      ],
      [
        -3.5225000884383917,
        50.481697116047144,
        97.79999999999995
      ],
      [
        -3.522559432312846,
        50.48175763338804,
        98.39999999999998
      ],
      [
        -3.522586841136217,
        50.481780264526606,
        98.60000000000002
      ],
      [
        -3.522672923281789,
        50.48188746906817,
        98.39999999999998
      ],
      [
        -3.5226927883923054,
        50.48191420733929,
        98.39999999999998
      ],
      [
        -3.522750874981284,
        50.481952764093876,
        98.20000000000005
      ],
      [
        -3.522836286574602,
        50.48204437829554,
        97.79999999999995
      ],
      [
        -3.5229123942553997,
        50.48213331028819,
        98.20000000000005
      ],
      [
        -3.522933851927519,
        50.48215619288385,
        98.39999999999998
      ],
      [
        -3.523017168045044,
        50.48222375102341,
        98.39999999999998
      ],
      [
        -3.523091096431017,
        50.482298182323575,
        98
      ],
      [
        -3.5231195949018,
        50.48233179375529,
        98.20000000000005
      ],
      [
        -3.5231477580964565,
        50.48235911875963,
        98.20000000000005
      ],
      [
        -3.5231721494346857,
        50.48237898387015,
        98.39999999999998
      ],
      [
        -3.523182710632682,
        50.48239423893392,
        98.39999999999998
      ],
      [
        -3.5231456626206636,
        50.48238384537399,
        98.20000000000005
      ],
      [
        -3.523122863844037,
        50.48237856477499,
        97.60000000000002
      ],
      [
        -3.523122863844037,
        50.48237856477499,
        97.39999999999998
      ],
      [
        -3.523122863844037,
        50.48237856477499,
        97.20000000000005
      ],
      [
        -3.5232195910066366,
        50.48242927528918,
        97.39999999999998
      ],
      [
        -3.5233273822814226,
        50.482496079057455,
        98.20000000000005
      ],
      [
        -3.5233276337385178,
        50.482507310807705,
        98.20000000000005
      ],
      [
        -3.5233107022941113,
        50.482509741559625,
        98.20000000000005
      ],
      [
        -3.523283042013645,
        50.48249624669552,
        98
      ],
      [
        -3.5232351813465357,
        50.482469676062465,
        98.39999999999998
      ],
      [
        -3.523177932947874,
        50.48242432996631,
        99
      ],
      [
        -3.523149434477091,
        50.48239658586681,
        98.79999999999995
      ],
      [
        -3.5231248755007982,
        50.4823590349406,
        98.60000000000002
      ],
      [
        -3.523116409778595,
        50.482345037162304,
        98.60000000000002
      ],
      [
        -3.5230069421231747,
        50.48224763944745,
        98.39999999999998
      ],
      [
        -3.5229454189538956,
        50.4821846075356,
        98.20000000000005
      ],
      [
        -3.522874340415001,
        50.48210673965514,
        98.20000000000005
      ],
      [
        -3.5227808821946383,
        50.48200372606516,
        98.39999999999998
      ],
      [
        -3.522756155580282,
        50.48197698779404,
        98.60000000000002
      ],
      [
        -3.52270376868546,
        50.48192451708019,
        98.60000000000002
      ],
      [
        -3.5226847417652607,
        50.481905825436115,
        98.79999999999995
      ],
      [
        -3.5226548183709383,
        50.48179962672293,
        98.39999999999998
      ],
      [
        -3.522703181952238,
        50.481720082461834,
        98.20000000000005
      ],
      [
        -3.5228432435542345,
        50.481614051386714,
        98.79999999999995
      ],
      [
        -3.5228426568210125,
        50.48159267753363,
        98.39999999999998
      ],
      [
        -3.5228320956230164,
        50.481513971462846,
        98
      ],
      [
        -3.522850200533867,
        50.48140366561711,
        97.60000000000002
      ],
      [
        -3.5228582471609116,
        50.48139142803848,
        97.39999999999998
      ],
      [
        -3.5229667089879513,
        50.48128506168723,
        97.20000000000005
      ],
      [
        -3.523042229935527,
        50.481197303161025,
        96.79999999999995
      ],
      [
        -3.523077853024006,
        50.481162182986736,
        96.39999999999998
      ],
      [
        -3.5231366101652384,
        50.48109797760844,
        96.20000000000005
      ],
      [
        -3.523223614320159,
        50.48099177889526,
        95.60000000000002
      ],
      [
        -3.523256303742528,
        50.48096789047122,
        95.39999999999998
      ],
      [
        -3.5232590697705746,
        50.48095263540745,
        94.79999999999995
      ],
      [
        -3.52325102314353,
        50.48095338977873,
        94.79999999999995
      ],
      [
        -3.5232472512871027,
        50.480952048674226,
        94.79999999999995
      ],
      [
        -3.5232366900891066,
        50.480944253504276,
        94.79999999999995
      ],
      [
        -3.523191176354885,
        50.480904104188085,
        95.20000000000005
      ],
      [
        -3.5231966245919466,
        50.48089102841914,
        95.20000000000005
      ],
      [
        -3.523208862170577,
        50.480833780020475,
        94.39999999999998
      ],
      [
        -3.523209113627672,
        50.48082229681313,
        94.20000000000005
      ],
      [
        -3.5231961216777563,
        50.48079899512231,
        94.20000000000005
      ],
      [
        -3.523195283487439,
        50.48079388216138,
        94
      ]
    ]
  }
}
