{
  "type": "Feature",
  "properties": {
    "id": "intervals-178057969",
    "activity": "hiking",
    "name": "South Hams Hiking",
    "date": "2025-07-24T06:56:41Z",
    "distanceKm": 3.62,
    "movingTimeSeconds": 2885,
    "elapsedTimeSeconds": 3244,
    "ascentM": 37,
    "descentM": 198
  },
  "geometry": {
    "type": "LineString",
    "coordinates": [
      [
        -3.881821548566222,
        50.510299522429705,
        459.4
      ],
      [
        -3.8817032799124718,
        50.51033774390817,
        458.79999999999995
      ],
      [
        -3.8816165272146463,
        50.510353753343225,
        458.4
      ],
      [
        -3.8815802335739136,
        50.51035853102803,
        458.4
      ],
      [
        -3.881403123959899,
        50.510397758334875,
        458
      ],
      [
        -3.8813546765595675,
        50.51040940918028,
        458
      ],
      [
        -3.8813440315425396,
        50.51041267812252,
        458
      ],
      [
        -3.8812777306884527,
        50.5104258377105,
        457.20000000000005
      ],
      [
        -3.8812403474003077,
        50.51043371669948,
        457
      ],
      [
        -3.8810905627906322,
        50.510451067239046,
        457
      ],
      [
        -3.8809909019619226,
        50.510452911257744,
        456.20000000000005
      ],
      [
        -3.8809217512607574,
        50.51047034561634,
        456.20000000000005
      ],
      [
        -3.8807785883545876,
        50.51049616187811,
        455.79999999999995
      ],
      [
        -3.88074011541903,
        50.510505717247725,
        455.6
      ],
      [
        -3.88064774684608,
        50.510527258738875,
        455.20000000000005
      ],
      [
        -3.8805294781923294,
        50.51056606695056,
        455
      ],
      [
        -3.8804732356220484,
        50.51058207638562,
        454.79999999999995
      ],
      [
        -3.8803235348314047,
        50.51063546910882,
        454.6
      ],
      [
        -3.880159417167306,
        50.5106864310801,
        454.6
      ],
      [
        -3.8800956308841705,
        50.510706128552556,
        454
      ],
      [
        -3.8800232950598,
        50.51072247326374,
        453.6
      ],
      [
        -3.87993679381907,
        50.51073060370982,
        454
      ],
      [
        -3.879918437451124,
        50.51073043607175,
        454.4
      ],
      [
        -3.8797863386571407,
        50.5107471998781,
        453.79999999999995
      ],
      [
        -3.8796290941536427,
        50.51075365394354,
        453.20000000000005
      ],
      [
        -3.87961626984179,
        50.51075373776257,
        453
      ],
      [
        -3.879469921812415,
        50.51076429896057,
        452.6
      ],
      [
        -3.8793917186558247,
        50.510773938149214,
        452
      ],
      [
        -3.8792837597429752,
        50.510782822966576,
        451.4
      ],
      [
        -3.8792109210044146,
        50.510789696127176,
        450.79999999999995
      ],
      [
        -3.8791918102651834,
        50.510791121050715,
        450.6
      ],
      [
        -3.879063483327627,
        50.510789612308145,
        450
      ],
      [
        -3.8790145330131054,
        50.510797156021,
        449.79999999999995
      ],
      [
        -3.8790000323206186,
        50.51080151461065,
        449.6
      ],
      [
        -3.8789049815386534,
        50.5108058732003,
        448.6
      ],
      [
        -3.878836166113615,
        50.51081140525639,
        448.4
      ],
      [
        -3.8787536043673754,
        50.51083143800497,
        447.79999999999995
      ],
      [
        -3.878668863326311,
        50.510841496288776,
        447.6
      ],
      [
        -3.8785919174551964,
        50.510854152962565,
        447.4
      ],
      [
        -3.8784775882959366,
        50.51087183877826,
        447
      ],
      [
        -3.8783563021570444,
        50.51088089123368,
        446.4
      ],
      [
        -3.8782588206231594,
        50.51088994368911,
        446
      ],
      [
        -3.878228645771742,
        50.510888267308474,
        446
      ],
      [
        -3.878233004361391,
        50.51088801585138,
        445.79999999999995
      ],
      [
        -3.878197045996785,
        50.51089840941131,
        445.6
      ],
      [
        -3.878178270533681,
        50.51090276800096,
        445.4
      ],
      [
        -3.878057822585106,
        50.510914251208305,
        444.20000000000005
      ],
      [
        -3.878015913069248,
        50.51092288456857,
        444
      ],
      [
        -3.877807203680277,
        50.51095029339194,
        443.4
      ],
      [
        -3.877750877290964,
        50.510957669466734,
        443.20000000000005
      ],
      [
        -3.877658760175109,
        50.510980216786265,
        442.6
      ],
      [
        -3.877575946971774,
        50.51105079241097,
        443.4
      ],
      [
        -3.87752590700984,
        50.51111885346472,
        444.6
      ],
      [
        -3.877501180395484,
        50.511153219267726,
        445.4
      ],
      [
        -3.8774736877530813,
        50.51120753400028,
        445.4
      ],
      [
        -3.8774712570011616,
        50.51121876575053,
        445.6
      ],
      [
        -3.8774606119841337,
        50.51123955287039,
        446
      ],
      [
        -3.8774491287767887,
        50.511256316676736,
        446
      ],
      [
        -3.8774280063807964,
        50.51128942519426,
        445.6
      ],
      [
        -3.8773781340569258,
        50.51135170273483,
        446.6
      ],
      [
        -3.8772958237677813,
        50.51140450872481,
        447
      ],
      [
        -3.877285849303007,
        50.51146309822798,
        447.20000000000005
      ],
      [
        -3.8772860169410706,
        50.51151850260794,
        448
      ],
      [
        -3.8772786408662796,
        50.511573404073715,
        448.20000000000005
      ],
      [
        -3.877293560653925,
        50.5116225220263,
        449.4
      ],
      [
        -3.877292638644576,
        50.51165672019124,
        449.20000000000005
      ],
      [
        -3.87727621011436,
        50.5117192491889,
        449.20000000000005
      ],
      [
        -3.87727084569633,
        50.511717069894075,
        449.20000000000005
      ],
      [
        -3.8772317860275507,
        50.511737605556846,
        448.79999999999995
      ],
      [
        -3.8772209733724594,
        50.511744897812605,
        448.79999999999995
      ],
      [
        -3.877165401354432,
        50.51179753616452,
        448.6
      ],
      [
        -3.8771565165370703,
        50.5118056666106,
        448.79999999999995
      ],
      [
        -3.877071440219879,
        50.511868949979544,
        449.20000000000005
      ],
      [
        -3.8770649023354053,
        50.5118764936924,
        449.4
      ],
      [
        -3.8770698476582766,
        50.511876409873366,
        449
      ],
      [
        -3.877103291451931,
        50.5119111109525,
        449.4
      ],
      [
        -3.877107733860612,
        50.511966766789556,
        449.79999999999995
      ],
      [
        -3.877099771052599,
        50.512002473697066,
        450.20000000000005
      ],
      [
        -3.877071524038911,
        50.512108001857996,
        449.79999999999995
      ],
      [
        -3.877047887071967,
        50.5121249333024,
        449.6
      ],
      [
        -3.8770265132188797,
        50.51214194856584,
        449.4
      ],
      [
        -3.8769779819995165,
        50.512191066518426,
        450
      ],
      [
        -3.876959541812539,
        50.512221325188875,
        450.6
      ],
      [
        -3.8769279420375824,
        50.51223901100457,
        450.4
      ],
      [
        -3.8769020419567823,
        50.512268766760826,
        450
      ],
      [
        -3.8768699392676353,
        50.5122840218246,
        449.79999999999995
      ],
      [
        -3.876868849620223,
        50.51229081116617,
        450
      ],
      [
        -3.8768442906439304,
        50.512315621599555,
        450.79999999999995
      ],
      [
        -3.8768400996923447,
        50.51232668571174,
        450.79999999999995
      ],
      [
        -3.8768380880355835,
        50.51232324913144,
        450.20000000000005
      ],
      [
        -3.8768380880355835,
        50.51232324913144,
        449.79999999999995
      ],
      [
        -3.876860551536083,
        50.51231922581792,
        449.79999999999995
      ],
      [
        -3.876895336434245,
        50.51230019889772,
        450.20000000000005
      ],
      [
        -3.876922493800521,
        50.51229349337518,
        450.4
      ],
      [
        -3.876941269263625,
        50.51229919306934,
        450.4
      ],
      [
        -3.8769571110606194,
        50.512322997674346,
        451
      ],
      [
        -3.876966582611203,
        50.51234311424196,
        451.4
      ],
      [
        -3.876977814361453,
        50.51236557774246,
        452
      ],
      [
        -3.8769690971821547,
        50.51241452805698,
        451.6
      ],
      [
        -3.876950740814209,
        50.51248845644295,
        452.4
      ],
      [
        -3.876944202929735,
        50.51249901764095,
        452.20000000000005
      ],
      [
        -3.8769396767020226,
        50.51250094547868,
        451.79999999999995
      ],
      [
        -3.876939592882991,
        50.51250119693577,
        451.6
      ],
      [
        -3.8769323844462633,
        50.51251519471407,
        451.20000000000005
      ],
      [
        -3.8769250083714724,
        50.51251930184662,
        451
      ],
      [
        -3.8769146148115396,
        50.51252407953143,
        451
      ],
      [
        -3.876822916790843,
        50.512552661821246,
        451.20000000000005
      ],
      [
        -3.876730464398861,
        50.512557942420244,
        450.79999999999995
      ],
      [
        -3.876727530732751,
        50.51256028935313,
        451
      ],
      [
        -3.876727530732751,
        50.51256028935313,
        451
      ],
      [
        -3.8767250161617994,
        50.51256054081023,
        450.79999999999995
      ],
      [
        -3.8767238426953554,
        50.512559954077005,
        450.6
      ],
      [
        -3.8767278660088778,
        50.51256062462926,
        450.6
      ],
      [
        -3.876727530732751,
        50.51256028935313,
        450.6
      ],
      [
        -3.8767034746706486,
        50.51255811005831,
        450.4
      ],
      [
        -3.8766985293477774,
        50.51255660131574,
        450.4
      ],
      [
        -3.8766996189951897,
        50.512566324323416,
        450
      ],
      [
        -3.876671204343438,
        50.512579986825585,
        450.4
      ],
      [
        -3.876666510477662,
        50.51258074119687,
        451.20000000000005
      ],
      [
        -3.8766358327120543,
        50.51261284388602,
        451
      ],
      [
        -3.8765333220362663,
        50.512681072577834,
        450.6
      ],
      [
        -3.8764536939561367,
        50.512692891061306,
        450.20000000000005
      ],
      [
        -3.8763821963220835,
        50.51269800402224,
        449.6
      ],
      [
        -3.87621003203094,
        50.512688867747784,
        449.20000000000005
      ],
      [
        -3.876198213547468,
        50.51269196905196,
        449
      ],
      [
        -3.876103162765503,
        50.51270680502057,
        448.4
      ],
      [
        -3.8760460820049047,
        50.51270931959152,
        448
      ],
      [
        -3.8759266398847103,
        50.512700015679,
        447.6
      ],
      [
        -3.8758244644850492,
        50.5126778036356,
        446.79999999999995
      ],
      [
        -3.875796552747488,
        50.51266388967633,
        446.79999999999995
      ],
      [
        -3.875693455338478,
        50.512644946575165,
        446.20000000000005
      ],
      [
        -3.875664956867695,
        50.51264712586999,
        445.79999999999995
      ],
      [
        -3.875663196668029,
        50.51264679059386,
        445.6
      ],
      [
        -3.875604523345828,
        50.5126294400543,
        445.4
      ],
      [
        -3.875545682385564,
        50.512623991817236,
        444.79999999999995
      ],
      [
        -3.8754860032349825,
        50.51261552609503,
        444
      ],
      [
        -3.8753808103501797,
        50.51258644089103,
        443.79999999999995
      ],
      [
        -3.8753563351929188,
        50.512574538588524,
        443.6
      ],
      [
        -3.8752939738333225,
        50.51255760714412,
        443.20000000000005
      ],
      [
        -3.8752381503582,
        50.512546291574836,
        442.6
      ],
      [
        -3.875189535319805,
        50.512527264654636,
        443
      ],
      [
        -3.8750972505658865,
        50.51250144839287,
        442.20000000000005
      ],
      [
        -3.875008150935173,
        50.512465154752135,
        441.4
      ],
      [
        -3.8749959971755743,
        50.51245953887701,
        441.20000000000005
      ],
      [
        -3.874870603904128,
        50.512468004599214,
        440.79999999999995
      ],
      [
        -3.874747809022665,
        50.512475380674005,
        440.79999999999995
      ],
      [
        -3.8747087493538857,
        50.512478817254305,
        440.4
      ],
      [
        -3.8746033888310194,
        50.512481248006225,
        439.4
      ],
      [
        -3.8745686877518892,
        50.51247512921691,
        439.4
      ],
      [
        -3.8744800072163343,
        50.512467082589865,
        438.79999999999995
      ],
      [
        -3.8744030613452196,
        50.51247026771307,
        438.79999999999995
      ],
      [
        -3.874397026374936,
        50.51247236318886,
        438.79999999999995
      ],
      [
        -3.874356457963586,
        50.51247169263661,
        438.20000000000005
      ],
      [
        -3.874339358881116,
        50.51247085444629,
        438
      ],
      [
        -3.87431220151484,
        50.51247353665531,
        438
      ],
      [
        -3.8742039911448956,
        50.51249574869871,
        437.4
      ],
      [
        -3.874174151569605,
        50.51250102929771,
        437.20000000000005
      ],
      [
        -3.874155879020691,
        50.51249532960355,
        437
      ],
      [
        -3.874155795201659,
        50.51249532960355,
        436.20000000000005
      ],
      [
        -3.874130230396986,
        50.51248979754746,
        437.20000000000005
      ],
      [
        -3.874106090515852,
        50.51249273121357,
        437.4
      ],
      [
        -3.874077759683132,
        50.51250413060188,
        437.6
      ],
      [
        -3.8740727305412292,
        50.51252441480756,
        437.20000000000005
      ],
      [
        -3.874078430235386,
        50.512544782832265,
        436.20000000000005
      ],
      [
        -3.8740809448063374,
        50.5125586129725,
        435.79999999999995
      ],
      [
        -3.874111119657755,
        50.51260362379253,
        437.6
      ],
      [
        -3.8741250336170197,
        50.5126138497144,
        439.6
      ],
      [
        -3.8741394504904747,
        50.51262566819787,
        439.6
      ],
      [
        -3.8741697929799557,
        50.512661542743444,
        439.6
      ],
      [
        -3.87419736944139,
        50.512705128639936,
        439.6
      ],
      [
        -3.874228298664093,
        50.51273521967232,
        439.4
      ],
      [
        -3.8743155542761087,
        50.512830689549446,
        439
      ],
      [
        -3.8743233494460583,
        50.5128432624042,
        438.79999999999995
      ],
      [
        -3.8744104374200106,
        50.51295197568834,
        439.20000000000005
      ],
      [
        -3.874511858448386,
        50.51303520798683,
        439
      ],
      [
        -3.874601712450385,
        50.5131368804723,
        438.6
      ],
      [
        -3.8746227510273457,
        50.51317158155143,
        438.4
      ],
      [
        -3.8746469747275114,
        50.51322899758816,
        438.4
      ],
      [
        -3.8746822625398636,
        50.51332966424525,
        438.20000000000005
      ],
      [
        -3.874692153185606,
        50.51336394622922,
        437.4
      ],
      [
        -3.874690979719162,
        50.51336302421987,
        437.20000000000005
      ],
      [
        -3.8746913988143206,
        50.51338850520551,
        436.20000000000005
      ],
      [
        -3.874685363844037,
        50.51340686157346,
        437
      ],
      [
        -3.8746634032577276,
        50.513414070010185,
        437.6
      ],
      [
        -3.8746599666774273,
        50.513414489105344,
        438.4
      ],
      [
        -3.8746599666774273,
        50.513414489105344,
        438.4
      ],
      [
        -3.8746599666774273,
        50.513414489105344,
        438.6
      ],
      [
        -3.8746599666774273,
        50.513414489105344,
        438.20000000000005
      ],
      [
        -3.8746882136911154,
        50.51340518519282,
        438.6
      ],
      [
        -3.8747008703649044,
        50.51340610720217,
        438.20000000000005
      ],
      [
        -3.8747265189886093,
        50.51345195621252,
        436.4
      ],
      [
        -3.8747276924550533,
        50.5134632717818,
        436.79999999999995
      ],
      [
        -3.8747147005051374,
        50.51350115798414,
        437.6
      ],
      [
        -3.8747110962867737,
        50.51351213827729,
        438.6
      ],
      [
        -3.8747197296470404,
        50.51355547271669,
        438
      ],
      [
        -3.874720484018326,
        50.513563519343734,
        437.6
      ],
      [
        -3.8747231662273407,
        50.51356301642954,
        436.79999999999995
      ],
      [
        -3.8747231662273407,
        50.51356301642954,
        437
      ],
      [
        -3.874703971669078,
        50.51361816935241,
        437
      ],
      [
        -3.8747450429946184,
        50.51369754597545,
        437
      ],
      [
        -3.8747576996684074,
        50.51376912742853,
        436.6
      ],
      [
        -3.874760717153549,
        50.51378237083554,
        436.4
      ],
      [
        -3.874782845377922,
        50.51388488151133,
        435.6
      ],
      [
        -3.8747885450720787,
        50.513898292556405,
        434.79999999999995
      ],
      [
        -3.874797346070409,
        50.51392477937043,
        433.6
      ],
      [
        -3.8748637307435274,
        50.51403500139713,
        434.79999999999995
      ],
      [
        -3.874927768483758,
        50.51411546766758,
        434.20000000000005
      ],
      [
        -3.8749382458627224,
        50.514120580628514,
        434.20000000000005
      ],
      [
        -3.874991722404957,
        50.514185624197125,
        431.79999999999995
      ],
      [
        -3.875002535060048,
        50.51419937051833,
        431.4
      ],
      [
        -3.875052575021982,
        50.51426215097308,
        431.20000000000005
      ],
      [
        -3.8750848453491926,
        50.51428687758744,
        432.6
      ],
      [
        -3.875124827027321,
        50.51430900581181,
        433.79999999999995
      ],
      [
        -3.8751555886119604,
        50.51431621424854,
        433.79999999999995
      ],
      [
        -3.8752746116369963,
        50.514368852600455,
        432.6
      ],
      [
        -3.8752909563481808,
        50.51437631249428,
        432.6
      ],
      [
        -3.8753544073551893,
        50.514394752681255,
        431.6
      ],
      [
        -3.8753731828182936,
        50.51440380513668,
        431.4
      ],
      [
        -3.875418109819293,
        50.514458706602454,
        432.20000000000005
      ],
      [
        -3.8754264917224646,
        50.514475889503956,
        432.6
      ],
      [
        -3.8754568342119455,
        50.514500699937344,
        433.4
      ],
      [
        -3.875461360439658,
        50.514512015506625,
        433.6
      ],
      [
        -3.8754944689571857,
        50.5145338922739,
        434
      ],
      [
        -3.8755239732563496,
        50.514544285833836,
        434
      ],
      [
        -3.875583317130804,
        50.514563312754035,
        434.6
      ],
      [
        -3.875670740380883,
        50.51458904519677,
        435
      ],
      [
        -3.875703765079379,
        50.51460798829794,
        435
      ],
      [
        -3.8757068663835526,
        50.51462081260979,
        435
      ],
      [
        -3.8757015857845545,
        50.51467286422849,
        435.20000000000005
      ],
      [
        -3.8756372965872288,
        50.51478425972164,
        434.6
      ],
      [
        -3.8756417389959097,
        50.514878975227475,
        434
      ],
      [
        -3.875646600499749,
        50.514938151463866,
        433.6
      ],
      [
        -3.8756508752703667,
        50.514959106221795,
        433.20000000000005
      ],
      [
        -3.875662861391902,
        50.515005039051175,
        432.6
      ],
      [
        -3.875660263001919,
        50.515053402632475,
        432.79999999999995
      ],
      [
        -3.8756435830146074,
        50.51516496576369,
        432.6
      ],
      [
        -3.875640733167529,
        50.51529614254832,
        432.79999999999995
      ],
      [
        -3.8756481930613518,
        50.515368143096566,
        431
      ],
      [
        -3.8756527192890644,
        50.5153714120388,
        430.20000000000005
      ],
      [
        -3.875654647126794,
        50.515375854447484,
        430.20000000000005
      ],
      [
        -3.8756589218974113,
        50.515388175845146,
        431
      ],
      [
        -3.875657245516777,
        50.51546595990658,
        431.20000000000005
      ],
      [
        -3.8756370451301336,
        50.515555227175355,
        432
      ],
      [
        -3.8756377156823874,
        50.51556687802076,
        432.20000000000005
      ],
      [
        -3.8756517972797155,
        50.515654385089874,
        432.4
      ],
      [
        -3.8756538927555084,
        50.51568053662777,
        432.20000000000005
      ],
      [
        -3.875651713460684,
        50.51575396209955,
        431.20000000000005
      ],
      [
        -3.8756471034139395,
        50.515803415328264,
        430.20000000000005
      ],
      [
        -3.8755585066974163,
        50.515832835808396,
        430.6
      ],
      [
        -3.875517351552844,
        50.51583216525614,
        429.79999999999995
      ],
      [
        -3.875426072627306,
        50.515827387571335,
        428.6
      ],
      [
        -3.875403692945838,
        50.51582721993327,
        428.4
      ],
      [
        -3.875303277745843,
        50.51582747139037,
        427.6
      ],
      [
        -3.8751497212797403,
        50.51583979278803,
        426.6
      ],
      [
        -3.875112673267722,
        50.51583996042609,
        426
      ],
      [
        -3.874965403228998,
        50.51584088243544,
        425.4
      ],
      [
        -3.874950148165226,
        50.51583887077868,
        425.20000000000005
      ],
      [
        -3.874860042706132,
        50.51583350636065,
        424.4
      ],
      [
        -3.874807320535183,
        50.51583241671324,
        424
      ],
      [
        -3.8747574482113123,
        50.515825459733605,
        423.4
      ],
      [
        -3.874632054939866,
        50.5158172454685,
        422.20000000000005
      ],
      [
        -3.8746125251054764,
        50.51581934094429,
        422
      ],
      [
        -3.874521916732192,
        50.51582177169621,
        421.20000000000005
      ],
      [
        -3.874462740495801,
        50.515826381742954,
        420.6
      ],
      [
        -3.8744192384183407,
        50.51582948304713,
        420.4
      ],
      [
        -3.8743868842720985,
        50.51583392545581,
        420
      ],
      [
        -3.8743306417018175,
        50.515845995396376,
        419
      ],
      [
        -3.8743132911622524,
        50.515851359814405,
        418.79999999999995
      ],
      [
        -3.87426040135324,
        50.515864100307226,
        418.6
      ],
      [
        -3.8742219284176826,
        50.51586569286883,
        418.6
      ],
      [
        -3.8741731457412243,
        50.515865944325924,
        418.6
      ],
      [
        -3.874064516276121,
        50.5158637650311,
        418
      ],
      [
        -3.8740447349846363,
        50.51586527377367,
        417.79999999999995
      ],
      [
        -3.8739213533699512,
        50.51586736924946,
        417.20000000000005
      ],
      [
        -3.8738773483783007,
        50.51587709225714,
        416.79999999999995
      ],
      [
        -3.8737890031188726,
        50.515896286815405,
        416
      ],
      [
        -3.873749440535903,
        50.51590131595731,
        415.6
      ],
      [
        -3.873626561835408,
        50.51591103896499,
        414.6
      ],
      [
        -3.873610133305192,
        50.515912966802716,
        414.6
      ],
      [
        -3.8735074549913406,
        50.515929060056806,
        413.79999999999995
      ],
      [
        -3.873474597930908,
        50.51593350246549,
        413.6
      ],
      [
        -3.8734017591923475,
        50.51594825461507,
        413.4
      ],
      [
        -3.8733090553432703,
        50.51596166566014,
        413.6
      ],
      [
        -3.8732912857085466,
        50.51596535369754,
        413.79999999999995
      ],
      [
        -3.873183326795697,
        50.515987649559975,
        412.79999999999995
      ],
      [
        -3.873154828324914,
        50.51599393598735,
        412.4
      ],
      [
        -3.8730344641953707,
        50.51601530984044,
        411.79999999999995
      ],
      [
        -3.872957769781351,
        50.51602637395263,
        411.4
      ],
      [
        -3.8728801533579826,
        50.51603827625513,
        411
      ],
      [
        -3.872787281870842,
        50.516032157465816,
        410.4
      ],
      [
        -3.872769344598055,
        50.51603375002742,
        410.20000000000005
      ],
      [
        -3.872696254402399,
        50.51603919826448,
        409.20000000000005
      ],
      [
        -3.8726655766367912,
        50.51604112610221,
        409
      ],
      [
        -3.8725877087563276,
        50.51605336368084,
        408
      ],
      [
        -3.8725630659610033,
        50.516055542975664,
        407.4
      ],
      [
        -3.8725318014621735,
        50.51605864427984,
        407
      ],
      [
        -3.8724690210074186,
        50.5160812754184,
        406.20000000000005
      ],
      [
        -3.87237380258739,
        50.51610759459436,
        406.20000000000005
      ],
      [
        -3.872345555573702,
        50.51610700786114,
        406.6
      ],
      [
        -3.872260730713606,
        50.516098123043776,
        405.79999999999995
      ],
      [
        -3.8721468206495047,
        50.51606275141239,
        405
      ],
      [
        -3.8721394445747137,
        50.51605738699436,
        404.79999999999995
      ],
      [
        -3.872143719345331,
        50.51605436950922,
        404.79999999999995
      ],
      [
        -3.872083956375718,
        50.51609636284411,
        403.6
      ],
      [
        -3.8720096927136183,
        50.51613701507449,
        402.79999999999995
      ],
      [
        -3.8719639275223017,
        50.51614053547382,
        402.6
      ],
      [
        -3.8719527795910835,
        50.51614128984511,
        402.6
      ],
      [
        -3.8719278015196323,
        50.51613072864711,
        403
      ],
      [
        -3.871803330257535,
        50.51613701507449,
        402
      ],
      [
        -3.8717481773346663,
        50.516143469139934,
        401.6
      ],
      [
        -3.871675170958042,
        50.51615361124277,
        401.4
      ],
      [
        -3.871583640575409,
        50.51616718992591,
        400.20000000000005
      ],
      [
        -3.8715325109660625,
        50.516172889620066,
        399.79999999999995
      ],
      [
        -3.8715222850441933,
        50.5161814391613,
        399.79999999999995
      ],
      [
        -3.871438717469573,
        50.51619149744511,
        399.6
      ],
      [
        -3.871355904266238,
        50.5162089318037,
        399.20000000000005
      ],
      [
        -3.8713034335523844,
        50.516212871298194,
        398.79999999999995
      ],
      [
        -3.8712533097714186,
        50.51621278747916,
        398
      ],
      [
        -3.871185416355729,
        50.51622150465846,
        397.6
      ],
      [
        -3.871143087744713,
        50.51622686907649,
        397
      ],
      [
        -3.8711131643503904,
        50.51623080857098,
        396.6
      ],
      [
        -3.8710734341293573,
        50.51623206585646,
        396
      ],
      [
        -3.8710080552846193,
        50.51622209139168,
        395.20000000000005
      ],
      [
        -3.8709792215377092,
        50.516223181039095,
        394.79999999999995
      ],
      [
        -3.87092599645257,
        50.51622879691422,
        394.20000000000005
      ],
      [
        -3.870868915691972,
        50.51624145358801,
        393.6
      ],
      [
        -3.8708365615457296,
        50.516248662024736,
        393.20000000000005
      ],
      [
        -3.87071393430233,
        50.51626492291689,
        392.4
      ],
      [
        -3.8706958293914795,
        50.51626743748784,
        392.4
      ],
      [
        -3.8705954141914845,
        50.51629727706313,
        391.6
      ],
      [
        -3.8705812487751245,
        50.516302809119225,
        391.4
      ],
      [
        -3.870477732270956,
        50.51632854156196,
        390.6
      ],
      [
        -3.8703984394669533,
        50.516330637037754,
        390.20000000000005
      ],
      [
        -3.8703738804906607,
        50.51633373834193,
        389.79999999999995
      ],
      [
        -3.8702659215778112,
        50.51631789654493,
        389.20000000000005
      ],
      [
        -3.8702461402863264,
        50.51631680689752,
        388.79999999999995
      ],
      [
        -3.870118148624897,
        50.516344299539924,
        388.20000000000005
      ],
      [
        -3.8701030611991882,
        50.516347317025065,
        388
      ],
      [
        -3.86998831294477,
        50.516356537118554,
        387.20000000000005
      ],
      [
        -3.8699472416192293,
        50.51635888405144,
        386.79999999999995
      ],
      [
        -3.86981975287199,
        50.51635829731822,
        386.20000000000005
      ],
      [
        -3.8697501830756664,
        50.516353184357285,
        385.6
      ],
      [
        -3.8696821220219135,
        50.516352429986,
        384.6
      ],
      [
        -3.8695664517581463,
        50.516324350610375,
        384.79999999999995
      ],
      [
        -3.869514148682356,
        50.51630733534694,
        384.4
      ],
      [
        -3.8694432377815247,
        50.516294091939926,
        383.79999999999995
      ],
      [
        -3.869414571672678,
        50.5162937566638,
        383.4
      ],
      [
        -3.8693635258823633,
        50.51628646440804,
        382.79999999999995
      ],
      [
        -3.869332345202565,
        50.516274059191346,
        382.20000000000005
      ],
      [
        -3.8693143241107464,
        50.51626827567816,
        381.6
      ],
      [
        -3.869328573346138,
        50.516263246536255,
        381.20000000000005
      ],
      [
        -3.869328573346138,
        50.516263246536255,
        381.20000000000005
      ],
      [
        -3.869328573346138,
        50.516263246536255,
        381.20000000000005
      ],
      [
        -3.869328824803233,
        50.51626299507916,
        381.20000000000005
      ],
      [
        -3.869326813146472,
        50.516261318698525,
        381.20000000000005
      ],
      [
        -3.869303511455655,
        50.51624790765345,
        380.79999999999995
      ],
      [
        -3.8692607637494802,
        50.51622427068651,
        380.6
      ],
      [
        -3.8692215364426374,
        50.516210943460464,
        380
      ],
      [
        -3.869194546714425,
        50.516204154118896,
        379.79999999999995
      ],
      [
        -3.8691369630396366,
        50.516177751123905,
        379
      ],
      [
        -3.869086839258671,
        50.5161608196795,
        378.4
      ],
      [
        -3.8690457679331303,
        50.516131315380335,
        378
      ],
      [
        -3.868972510099411,
        50.51608563400805,
        377
      ],
      [
        -3.8689621165394783,
        50.516077503561974,
        377
      ],
      [
        -3.868914255872369,
        50.5160310678184,
        376.20000000000005
      ],
      [
        -3.86890453286469,
        50.516018411144614,
        376
      ],
      [
        -3.8688992522656918,
        50.51600608974695,
        375.79999999999995
      ],
      [
        -3.8688627909868956,
        50.515961749479175,
        375.4
      ],
      [
        -3.868846194818616,
        50.51595462486148,
        375.4
      ],
      [
        -3.8687082286924124,
        50.51590592600405,
        374.79999999999995
      ],
      [
        -3.868683585897088,
        50.51589712500572,
        374.4
      ],
      [
        -3.8686337135732174,
        50.51588874310255,
        373.79999999999995
      ],
      [
        -3.868566658347845,
        50.51585144363344,
        373
      ],
      [
        -3.868528688326478,
        50.515836691483855,
        373
      ],
      [
        -3.868507817387581,
        50.515828896313906,
        373
      ],
      [
        -3.868407653644681,
        50.51579201593995,
        372.6
      ],
      [
        -3.8683280255645514,
        50.51574013195932,
        371.79999999999995
      ],
      [
        -3.868314865976572,
        50.51573325879872,
        371.6
      ],
      [
        -3.8682617247104645,
        50.51568455994129,
        370.4
      ],
      [
        -3.868243284523487,
        50.515673998743296,
        370.20000000000005
      ],
      [
        -3.8681473955512047,
        50.515653882175684,
        369.6
      ],
      [
        -3.868074305355549,
        50.51564726047218,
        369.20000000000005
      ],
      [
        -3.8680332340300083,
        50.515648517757654,
        369
      ],
      [
        -3.8679097685962915,
        50.515654385089874,
        368.20000000000005
      ],
      [
        -3.8678868860006332,
        50.51565723493695,
        368.20000000000005
      ],
      [
        -3.8677471596747637,
        50.515665281564,
        367.20000000000005
      ],
      [
        -3.867724444717169,
        50.5156684666872,
        367.20000000000005
      ],
      [
        -3.8675764203071594,
        50.51570115610957,
        366.6
      ],
      [
        -3.867522943764925,
        50.515705766156316,
        366.20000000000005
      ],
      [
        -3.8674385379999876,
        50.51571758463979,
        366
      ],
      [
        -3.8673119712620974,
        50.5157377012074,
        365
      ],
      [
        -3.867294955998659,
        50.51574147306383,
        364.79999999999995
      ],
      [
        -3.867219015955925,
        50.51576150581241,
        363.79999999999995
      ],
      [
        -3.8671594206243753,
        50.51578070037067,
        363.4
      ],
      [
        -3.8670294173061848,
        50.51581632345915,
        363.4
      ],
      [
        -3.8669691514223814,
        50.51582847721875,
        362.79999999999995
      ],
      [
        -3.866834118962288,
        50.51585027016699,
        362
      ],
      [
        -3.866795478388667,
        50.51585898734629,
        361.79999999999995
      ],
      [
        -3.8667098991572857,
        50.51587834954262,
        361
      ],
      [
        -3.8667194545269012,
        50.515882540494204,
        361
      ],
      [
        -3.866793718189001,
        50.5158756673336,
        362.6
      ],
      [
        -3.8668722566217184,
        50.51586091518402,
        362.4
      ],
      [
        -3.8668893557041883,
        50.51585923880339,
        362.6
      ],
      [
        -3.8669036887586117,
        50.5158584844321,
        362.79999999999995
      ],
      [
        -3.867013491690159,
        50.515827387571335,
        363.6
      ],
      [
        -3.8670730870217085,
        50.51580861210823,
        364
      ],
      [
        -3.8671302516013384,
        50.51579444669187,
        364.4
      ],
      [
        -3.8671943731606007,
        50.515796123072505,
        365
      ],
      [
        -3.8672292418777943,
        50.51580601371825,
        365.6
      ],
      [
        -3.8672450836747885,
        50.51580861210823,
        365.79999999999995
      ],
      [
        -3.8672498613595963,
        50.51580173894763,
        365.79999999999995
      ],
      [
        -3.8672615960240364,
        50.51580970175564,
        366
      ],
      [
        -3.867252878844738,
        50.51581489853561,
        366
      ],
      [
        -3.867191607132554,
        50.51586292684078,
        366
      ],
      [
        -3.86717920191586,
        50.5158722307533,
        366
      ],
      [
        -3.867119522765279,
        50.51593450829387,
        365.6
      ],
      [
        -3.8671007473021746,
        50.51594724878669,
        365.4
      ],
      [
        -3.8670528028160334,
        50.515987733379006,
        365.20000000000005
      ],
      [
        -3.867039894685149,
        50.515993516892195,
        365
      ],
      [
        -3.867038721218705,
        50.51600290462375,
        365
      ],
      [
        -3.867020448669791,
        50.516018494963646,
        364.79999999999995
      ],
      [
        -3.867027573287487,
        50.5160191655159,
        364.79999999999995
      ],
      [
        -3.86707317084074,
        50.515987733379006,
        364.6
      ],
      [
        -3.8671740889549255,
        50.51590207032859,
        365.20000000000005
      ],
      [
        -3.867264110594988,
        50.51582898013294,
        365.79999999999995
      ],
      [
        -3.867269139736891,
        50.51583057269454,
        366
      ],
      [
        -3.86728473007679,
        50.51583551801741,
        366.20000000000005
      ],
      [
        -3.8672947883605957,
        50.515840630978346,
        366.4
      ],
      [
        -3.867305014282465,
        50.515846414491534,
        366.6
      ],
      [
        -3.8673336803913116,
        50.51587005145848,
        367.20000000000005
      ],
      [
        -3.8673737458884716,
        50.51591908559203,
        367.79999999999995
      ],
      [
        -3.867396544665098,
        50.515960743650794,
        368.20000000000005
      ],
      [
        -3.8674311619251966,
        50.516029726713896,
        368.20000000000005
      ],
      [
        -3.867484303191304,
        50.51613056100905,
        368.79999999999995
      ],
      [
        -3.867441639304161,
        50.51620239391923,
        367.79999999999995
      ],
      [
        -3.8673934433609247,
        50.516261821612716,
        367
      ],
      [
        -3.867377433925867,
        50.51628948189318,
        366.20000000000005
      ],
      [
        -3.8673614244908094,
        50.51638025790453,
        366.79999999999995
      ],
      [
        -3.867323035374284,
        50.516457203775644,
        366
      ],
      [
        -3.8672986440360546,
        50.51649282686412,
        366.4
      ],
      [
        -3.8672883342951536,
        50.51651269197464,
        367
      ],
      [
        -3.8672844786196947,
        50.51651319488883,
        367.6
      ],
      [
        -3.8672672118991613,
        50.51652409136295,
        367.4
      ],
      [
        -3.8672539684921503,
        50.51654353737831,
        366.6
      ],
      [
        -3.867221362888813,
        50.51655761897564,
        367
      ],
      [
        -3.86711566708982,
        50.51664135418832,
        365.6
      ],
      [
        -3.8670097198337317,
        50.51671335473657,
        364.79999999999995
      ],
      [
        -3.866996392607689,
        50.516723496839404,
        364.6
      ],
      [
        -3.8669161777943373,
        50.51679968833923,
        364.6
      ],
      [
        -3.866918943822384,
        50.516877975314856,
        365.79999999999995
      ],
      [
        -3.8669158425182104,
        50.516903875395656,
        365.79999999999995
      ],
      [
        -3.866911483928561,
        50.51696623675525,
        364.6
      ],
      [
        -3.866919782012701,
        50.517029436305165,
        364.4
      ],
      [
        -3.8669714145362377,
        50.51714384928346,
        364.79999999999995
      ],
      [
        -3.8669600151479244,
        50.51721325144172,
        363.20000000000005
      ],
      [
        -3.866951046511531,
        50.51722599193454,
        363.20000000000005
      ],
      [
        -3.8669126573950052,
        50.5173194501549,
        363.20000000000005
      ],
      [
        -3.8669166807085276,
        50.517443837597966,
        362.6
      ],
      [
        -3.866928666830063,
        50.51747057586908,
        362.20000000000005
      ],
      [
        -3.866979042068124,
        50.517537631094456,
        362.6
      ],
      [
        -3.86698130518198,
        50.5175422411412,
        360.6
      ],
      [
        -3.866974012926221,
        50.517536625266075,
        360.4
      ],
      [
        -3.866973342373967,
        50.51753603853285,
        359.79999999999995
      ],
      [
        -3.866986082866788,
        50.51754777319729,
        360.79999999999995
      ],
      [
        -3.867007791996002,
        50.51758222281933,
        361.79999999999995
      ],
      [
        -3.8670217897742987,
        50.517620695754886,
        362.79999999999995
      ],
      [
        -3.8670332729816437,
        50.51767232827842,
        363.20000000000005
      ],
      [
        -3.8670551497489214,
        50.51770552061498,
        362.6
      ],
      [
        -3.8670875877141953,
        50.51775807514787,
        362.20000000000005
      ],
      [
        -3.867087420076132,
        50.517781879752874,
        361.79999999999995
      ],
      [
        -3.867127150297165,
        50.51783678121865,
        361.4
      ],
      [
        -3.8671655394136906,
        50.517899142578244,
        360.6
      ],
      [
        -3.8671623542904854,
        50.51790039986372,
        359
      ],
      [
        -3.8671631924808025,
        50.51790392026305,
        358.79999999999995
      ],
      [
        -3.867178363725543,
        50.51794197410345,
        359.4
      ],
      [
        -3.8672365341335535,
        50.51800777204335,
        359.79999999999995
      ],
      [
        -3.867268553003669,
        50.518085304647684,
        358.79999999999995
      ],
      [
        -3.8672618474811316,
        50.51812067627907,
        357.79999999999995
      ],
      [
        -3.867274420335889,
        50.51814632490277,
        357.4
      ],
      [
        -3.867288250476122,
        50.51820960827172,
        356.79999999999995
      ],
      [
        -3.867282634600997,
        50.518272556364536,
        356.79999999999995
      ],
      [
        -3.8672839757055044,
        50.51835922524333,
        355.4
      ],
      [
        -3.8672848138958216,
        50.518368780612946,
        355
      ],
      [
        -3.8672836404293776,
        50.518378587439656,
        354.20000000000005
      ],
      [
        -3.8672868255525827,
        50.518472883850336,
        354.20000000000005
      ],
      [
        -3.867285316810012,
        50.51861177198589,
        354.4
      ],
      [
        -3.867260003462434,
        50.518727442249656,
        353.20000000000005
      ],
      [
        -3.867259081453085,
        50.518742529675364,
        352.79999999999995
      ],
      [
        -3.867258159443736,
        50.51879424601793,
        351.79999999999995
      ],
      [
        -3.867253800854087,
        50.51882115192711,
        351.4
      ],
      [
        -3.8672277331352234,
        50.518940007314086,
        350.79999999999995
      ],
      [
        -3.867214070633054,
        50.51897479221225,
        350.6
      ],
      [
        -3.867180375382304,
        50.51906146109104,
        349.20000000000005
      ],
      [
        -3.867162186652422,
        50.519118290394545,
        348.20000000000005
      ],
      [
        -3.867140142247081,
        50.519169671460986,
        348.20000000000005
      ],
      [
        -3.86710150167346,
        50.51929774694145,
        347.6
      ],
      [
        -3.867093538865447,
        50.519321132451296,
        347
      ],
      [
        -3.8670554850250483,
        50.519403191283345,
        346.6
      ],
      [
        -3.8670333568006754,
        50.519434958696365,
        346
      ],
      [
        -3.8670185208320618,
        50.51950100809336,
        345
      ],
      [
        -3.8670121505856514,
        50.51952221430838,
        344.6
      ],
      [
        -3.8669832330197096,
        50.51962883211672,
        344.20000000000005
      ],
      [
        -3.866968983784318,
        50.51963939331472,
        343.4
      ],
      [
        -3.8669593445956707,
        50.51966520957649,
        342.79999999999995
      ],
      [
        -3.86694660410285,
        50.51968733780086,
        342.4
      ],
      [
        -3.866930427029729,
        50.51972731947899,
        341.20000000000005
      ],
      [
        -3.866923889145255,
        50.519749112427235,
        340.79999999999995
      ],
      [
        -3.866916596889496,
        50.519786747172475,
        340.20000000000005
      ],
      [
        -3.866892121732235,
        50.519819017499685,
        339.79999999999995
      ],
      [
        -3.8668904453516006,
        50.51988121122122,
        339.4
      ],
      [
        -3.8668736815452576,
        50.51990903913975,
        339
      ],
      [
        -3.8668719213455915,
        50.51991398446262,
        337.79999999999995
      ],
      [
        -3.8668704126030207,
        50.51990979351103,
        337.79999999999995
      ],
      [
        -3.8668575044721365,
        50.51995916292071,
        337.6
      ],
      [
        -3.8668518885970116,
        50.52002512849867,
        339
      ],
      [
        -3.866866724565625,
        50.52004097029567,
        338.6
      ],
      [
        -3.8668887689709663,
        50.52005379460752,
        337.79999999999995
      ],
      [
        -3.866929756477475,
        50.52008111961186,
        336.79999999999995
      ],
      [
        -3.8669258169829845,
        50.52008950151503,
        336.79999999999995
      ],
      [
        -3.8669429160654545,
        50.52011992782354,
        335.79999999999995
      ],
      [
        -3.8669493701308966,
        50.52012596279383,
        335.6
      ],
      [
        -3.866983987390995,
        50.52016166970134,
        335.79999999999995
      ],
      [
        -3.867030842229724,
        50.52022000774741,
        336.4
      ],
      [
        -3.867041151970625,
        50.52023886702955,
        336.79999999999995
      ],
      [
        -3.86704433709383,
        50.52028798498213,
        337.6
      ],
      [
        -3.8670373801141977,
        50.5202915892005,
        337.6
      ],
      [
        -3.867034949362278,
        50.520285135135055,
        337.4
      ],
      [
        -3.8670813851058483,
        50.52028798498213,
        337.79999999999995
      ],
      [
        -3.867099490016699,
        50.520293014124036,
        338
      ],
      [
        -3.867122707888484,
        50.52031522616744,
        338.20000000000005
      ],
      [
        -3.867123546078801,
        50.52033073268831,
        338.20000000000005
      ],
      [
        -3.867123546078801,
        50.52033240906894,
        338.20000000000005
      ],
      [
        -3.867123629897833,
        50.52033240906894,
        338.20000000000005
      ],
      [
        -3.8671125657856464,
        50.520355962216854,
        338.6
      ],
      [
        -3.8670878391712904,
        50.52036811597645,
        338.6
      ],
      [
        -3.8670442532747984,
        50.520364763215184,
        338.6
      ],
      [
        -3.8669240567833185,
        50.5203312356025,
        338.20000000000005
      ],
      [
        -3.8667956460267305,
        50.520351184532046,
        337.4
      ],
      [
        -3.8667273335158825,
        50.5203674454242,
        337
      ],
      [
        -3.8666678220033646,
        50.52036317065358,
        336.79999999999995
      ],
      [
        -3.8665456138551235,
        50.520373648032546,
        335.79999999999995
      ],
      [
        -3.866508901119232,
        50.52037482149899,
        335.6
      ],
      [
        -3.8663939014077187,
        50.52037758752704,
        335.20000000000005
      ],
      [
        -3.866351405158639,
        50.5203862208873,
        335
      ],
      [
        -3.8662425242364407,
        50.52042528055608,
        334.79999999999995
      ],
      [
        -3.8662230782210827,
        50.52042670547962,
        334.79999999999995
      ],
      [
        -3.8661048095673323,
        50.52044237963855,
        334
      ],
      [
        -3.866008333861828,
        50.5204520188272,
        333.79999999999995
      ],
      [
        -3.8659666758030653,
        50.52045998163521,
        333.79999999999995
      ],
      [
        -3.865946978330612,
        50.52046358585358,
        333.79999999999995
      ],
      [
        -3.8657507579773664,
        50.52045922726393,
        333.20000000000005
      ],
      [
        -3.865692336112261,
        50.520453695207834,
        332.79999999999995
      ],
      [
        -3.8656278792768717,
        50.520455623045564,
        332.6
      ],
      [
        -3.8655356783419847,
        50.52046190947294,
        331.6
      ],
      [
        -3.8655245304107666,
        50.52046040073037,
        331.4
      ],
      [
        -3.865460492670536,
        50.52044573239982,
        330.4
      ],
      [
        -3.865441717207432,
        50.52043877542019,
        330.20000000000005
      ],
      [
        -3.865389581769705,
        50.52042863331735,
        329.6
      ],
      [
        -3.865374494343996,
        50.520430728793144,
        329.4
      ],
      [
        -3.865353539586067,
        50.52043349482119,
        329.4
      ],
      [
        -3.865225547924638,
        50.52044531330466,
        328.79999999999995
      ],
      [
        -3.865133598446846,
        50.52044087089598,
        328.4
      ],
      [
        -3.865075008943677,
        50.520452773198485,
        327.79999999999995
      ],
      [
        -3.8650424871593714,
        50.520463502034545,
        327.4
      ],
      [
        -3.8649299181997776,
        50.52048278041184,
        327.20000000000005
      ],
      [
        -3.8648097217082977,
        50.5205038189888,
        326.6
      ],
      [
        -3.864767560735345,
        50.52050096914172,
        326.20000000000005
      ],
      [
        -3.864660942927003,
        50.520511362701654,
        325.6
      ],
      [
        -3.8645462784916162,
        50.52051748149097,
        325.4
      ],
      [
        -3.8644504733383656,
        50.520531982183456,
        325.79999999999995
      ],
      [
        -3.864339077845216,
        50.520593924447894,
        326.4
      ],
      [
        -3.8642749562859535,
        50.52062661387026,
        326.20000000000005
      ],
      [
        -3.8642369862645864,
        50.520639354363084,
        325.79999999999995
      ],
      [
        -3.864181414246559,
        50.5206401925534,
        325.6
      ],
      [
        -3.86417705565691,
        50.52063734270632,
        325.6
      ],
      [
        -3.8641044683754444,
        50.520668774843216,
        325.6
      ],
      [
        -3.863986199721694,
        50.520716635510325,
        325.6
      ],
      [
        -3.8639389257878065,
        50.520730800926685,
        325.20000000000005
      ],
      [
        -3.8638723734766245,
        50.52076131105423,
        325
      ],
      [
        -3.8637872133404016,
        50.52079760469496,
        325
      ],
      [
        -3.8636748120188713,
        50.520805567502975,
        324.79999999999995
      ],
      [
        -3.8636579643934965,
        50.52081327885389,
        324.79999999999995
      ],
      [
        -3.8635826110839844,
        50.520852506160736,
        324.6
      ],
      [
        -3.863465180620551,
        50.520903803408146,
        324.4
      ],
      [
        -3.863417487591505,
        50.52091813646257,
        324.20000000000005
      ],
      [
        -3.863351186737418,
        50.52094160579145,
        323.4
      ],
      [
        -3.8633215986192226,
        50.520957950502634,
        323
      ],
      [
        -3.863238785415888,
        50.52097974345088,
        322.6
      ],
      [
        -3.8631852250546217,
        50.520992148667574,
        322.6
      ],
      [
        -3.8631307426840067,
        50.52102768793702,
        322.4
      ],
      [
        -3.8630344346165657,
        50.52107655443251,
        322.20000000000005
      ],
      [
        -3.862986322492361,
        50.52109164185822,
        322
      ],
      [
        -3.8628927804529667,
        50.521130701527,
        321.6
      ],
      [
        -3.8627696502953768,
        50.52117956802249,
        320.6
      ],
      [
        -3.8627188559621572,
        50.52121527493,
        320.4
      ],
      [
        -3.862599916756153,
        50.52127545699477,
        320.6
      ],
      [
        -3.8624776247888803,
        50.521424151957035,
        321.4
      ],
      [
        -3.8624652195721865,
        50.521450974047184,
        322
      ],
      [
        -3.862459436058998,
        50.52146455273032,
        322.20000000000005
      ],
      [
        -3.8624378945678473,
        50.521515011787415,
        322.6
      ],
      [
        -3.862426746636629,
        50.52153336815536,
        322.79999999999995
      ],
      [
        -3.8623774610459805,
        50.52157988771796,
        321.20000000000005
      ],
      [
        -3.862366061657667,
        50.521586425602436,
        321
      ],
      [
        -3.862282494083047,
        50.5216368008405,
        321.4
      ],
      [
        -3.8622532412409782,
        50.52165205590427,
        321.4
      ],
      [
        -3.862238824367523,
        50.52165951579809,
        321.4
      ],
      [
        -3.862212924286723,
        50.5216814763844,
        321
      ],
      [
        -3.8621330447494984,
        50.52175867371261,
        320.79999999999995
      ],
      [
        -3.862017961218953,
        50.5218577478081,
        322
      ],
      [
        -3.862002119421959,
        50.52187727764249,
        322
      ],
      [
        -3.861964987590909,
        50.52196855656803,
        322.20000000000005
      ],
      [
        -3.8619707711040974,
        50.52196763455868,
        322.4
      ],
      [
        -3.8619583658874035,
        50.52203284576535,
        322
      ],
      [
        -3.8618794921785593,
        50.52211180329323,
        321.79999999999995
      ],
      [
        -3.8617789931595325,
        50.522237280383706,
        321.6
      ],
      [
        -3.861707244068384,
        50.522320764139295,
        321.4
      ],
      [
        -3.8616606406867504,
        50.52237725816667,
        321.4
      ],
      [
        -3.861625185236335,
        50.52241858094931,
        321
      ],
      [
        -3.861576234921813,
        50.52248488180339,
        320.79999999999995
      ],
      [
        -3.8615531008690596,
        50.52252033725381,
        320
      ],
      [
        -3.8615287095308304,
        50.52260457538068,
        320.6
      ],
      [
        -3.861535917967558,
        50.52267397753894,
        319.79999999999995
      ],
      [
        -3.861530888825655,
        50.52273818291724,
        320
      ],
      [
        -3.8615287095308304,
        50.52273583598435,
        319.6
      ],
      [
        -3.861496774479747,
        50.52272510714829,
        319.6
      ],
      [
        -3.861449919641018,
        50.52273281849921,
        319.4
      ],
      [
        -3.861405411735177,
        50.52277539856732,
        318.6
      ],
      [
        -3.861393677070737,
        50.5227883066982,
        318.4
      ],
      [
        -3.861360400915146,
        50.522838262841105,
        317.4
      ],
      [
        -3.861337937414646,
        50.52287363447249,
        317.20000000000005
      ],
      [
        -3.861331148073077,
        50.52294152788818,
        316.6
      ],
      [
        -3.861313881352544,
        50.52294949069619,
        316.4
      ],
      [
        -3.8613019790500402,
        50.522954603657126,
        316.4
      ],
      [
        -3.8612433057278395,
        50.52300254814327,
        315.4
      ],
      [
        -3.8612394500523806,
        50.523014701902866,
        315.20000000000005
      ],
      [
        -3.8612158969044685,
        50.52313313819468,
        315
      ],
      [
        -3.8611821178346872,
        50.523205222561955,
        314
      ],
      [
        -3.861177172511816,
        50.523229110985994,
        313.6
      ],
      [
        -3.8612000551074743,
        50.52331795915961,
        313.79999999999995
      ],
      [
        -3.8611702993512154,
        50.52337445318699,
        312.79999999999995
      ],
      [
        -3.861147668212652,
        50.523391300812364,
        312.20000000000005
      ],
      [
        -3.8611336704343557,
        50.52340043708682,
        311.79999999999995
      ],
      [
        -3.8610482588410378,
        50.52346975542605,
        311.4
      ],
      [
        -3.8610040862113237,
        50.52350755780935,
        311.4
      ],
      [
        -3.8609708100557327,
        50.52353085950017,
        311.20000000000005
      ],
      [
        -3.860896546393633,
        50.52354862913489,
        310.79999999999995
      ],
      [
        -3.860861510038376,
        50.52356128580868,
        310.79999999999995
      ],
      [
        -3.860736871138215,
        50.52359137684107,
        311.6
      ],
      [
        -3.860723292455077,
        50.52360026165843,
        311.79999999999995
      ],
      [
        -3.86060225777328,
        50.523658599704504,
        312
      ],
      [
        -3.860502177849412,
        50.52370101213455,
        312.20000000000005
      ],
      [
        -3.8604316860437393,
        50.52373914979398,
        312.6
      ],
      [
        -3.8603828195482492,
        50.5237555783242,
        312.6
      ],
      [
        -3.860305706039071,
        50.52377862855792,
        312.4
      ],
      [
        -3.8602013513445854,
        50.523818945512176,
        312.20000000000005
      ],
      [
        -3.8600346352905035,
        50.52388180978596,
        311.79999999999995
      ],
      [
        -3.85989373549819,
        50.52395808510482,
        312.6
      ],
      [
        -3.859876887872815,
        50.5239662155509,
        312.6
      ],
      [
        -3.859721990302205,
        50.524054476991296,
        312.4
      ],
      [
        -3.859588634222746,
        50.52411935292184,
        312.20000000000005
      ],
      [
        -3.8594636600464582,
        50.52417232654989,
        311.79999999999995
      ],
      [
        -3.8593239337205887,
        50.52424089051783,
        311.79999999999995
      ],
      [
        -3.8592044916003942,
        50.52430199459195,
        311.20000000000005
      ],
      [
        -3.859155373647809,
        50.52431473508477,
        310.6
      ],
      [
        -3.859090832993388,
        50.52432554773986,
        310.20000000000005
      ],
      [
        -3.8589276373386383,
        50.524383801966906,
        309.6
      ],
      [
        -3.8588071893900633,
        50.524412048980594,
        308.79999999999995
      ],
      [
        -3.8587552215903997,
        50.524431159719825,
        308.20000000000005
      ],
      [
        -3.858685400336981,
        50.52445152774453,
        308
      ],
      [
        -3.8585968036204576,
        50.52447499707341,
        307.20000000000005
      ],
      [
        -3.858561934903264,
        50.52448715083301,
        306.79999999999995
      ],
      [
        -3.8584246393293142,
        50.524544566869736,
        306.6
      ],
      [
        -3.8582943845540285,
        50.52459301427007,
        306.20000000000005
      ],
      [
        -3.8581856712698936,
        50.52462989464402,
        305.79999999999995
      ],
      [
        -3.858121382072568,
        50.52465730346739,
        304.79999999999995
      ],
      [
        -3.858103947713971,
        50.5246742349118,
        304.6
      ],
      [
        -3.8580234814435244,
        50.52472301758826,
        305
      ],
      [
        -3.857979057356715,
        50.52474942058325,
        305
      ],
      [
        -3.857930274680257,
        50.52479409612715,
        305
      ],
      [
        -3.8578724395483732,
        50.5248383525759,
        304.79999999999995
      ],
      [
        -3.857857519760728,
        50.52484589628875,
        304.79999999999995
      ],
      [
        -3.857753165066242,
        50.52492041140795,
        304.79999999999995
      ],
      [
        -3.8576497323811054,
        50.52497807890177,
        304.20000000000005
      ],
      [
        -3.857572954148054,
        50.52502593956888,
        303.79999999999995
      ],
      [
        -3.857527608051896,
        50.5250611435622,
        303.79999999999995
      ],
      [
        -3.8574224151670933,
        50.52508905529976,
        302.6
      ],
      [
        -3.8574073277413845,
        50.52509265951812,
        302.4
      ],
      [
        -3.857317641377449,
        50.52512786351144,
        301.6
      ],
      [
        -3.857302637770772,
        50.525133814662695,
        301.6
      ],
      [
        -3.8572173099964857,
        50.5251594632864,
        301
      ],
      [
        -3.8571764901280403,
        50.525197852402925,
        300.6
      ],
      [
        -3.8571752328425646,
        50.52520883269608,
        300.4
      ],
      [
        -3.8571493327617645,
        50.525294998660684,
        300
      ],
      [
        -3.85712418705225,
        50.525302458554506,
        300.20000000000005
      ],
      [
        -3.857113877311349,
        50.52530664950609,
        300.4
      ],
      [
        -3.857068782672286,
        50.52532307803631,
        300.79999999999995
      ],
      [
        -3.8569758273661137,
        50.52537823095918,
        300.79999999999995
      ],
      [
        -3.8569557946175337,
        50.525395246222615,
        300.6
      ],
      [
        -3.856908017769456,
        50.525430953130126,
        300.20000000000005
      ],
      [
        -3.856876837089658,
        50.52544520236552,
        300
      ],
      [
        -3.8567547127604485,
        50.52552114240825,
        299.79999999999995
      ],
      [
        -3.8567303214222193,
        50.52554888650775,
        299.4
      ],
      [
        -3.8566770125180483,
        50.52560957148671,
        299.6
      ],
      [
        -3.856565533205867,
        50.52568718791008,
        299.79999999999995
      ],
      [
        -3.856510128825903,
        50.52576832473278,
        299.79999999999995
      ],
      [
        -3.856488671153784,
        50.52582951262593,
        300.4
      ],
      [
        -3.8564828038215637,
        50.52588198333979,
        299.79999999999995
      ],
      [
        -3.856434440240264,
        50.526025565341115,
        300.20000000000005
      ],
      [
        -3.85638733394444,
        50.52610997110605,
        299.79999999999995
      ],
      [
        -3.85636730119586,
        50.52613670937717,
        299.20000000000005
      ],
      [
        -3.856363445520401,
        50.526131177321076,
        298.79999999999995
      ],
      [
        -3.856356907635927,
        50.526133021339774,
        298.79999999999995
      ],
      [
        -3.856315165758133,
        50.52619772963226,
        299.20000000000005
      ],
      [
        -3.8562116492539644,
        50.526246847584844,
        298.4
      ],
      [
        -3.85619237087667,
        50.52625103853643,
        298.4
      ],
      [
        -3.8561726734042168,
        50.52625740878284,
        298.20000000000005
      ],
      [
        -3.8560628704726696,
        50.526275681331754,
        297.79999999999995
      ],
      [
        -3.8560516387224197,
        50.5262834765017,
        297.6
      ],
      [
        -3.8560492917895317,
        50.52629051730037,
        297.6
      ],
      [
        -3.8560347072780132,
        50.526292864233255,
        297.4
      ],
      [
        -3.856038562953472,
        50.526293283328414,
        297.20000000000005
      ],
      [
        -3.8560222182422876,
        50.52629697136581,
        297.20000000000005
      ],
      [
        -3.8560205418616533,
        50.52629705518484,
        297
      ],
      [
        -3.8560382276773453,
        50.526301162317395,
        296.4
      ],
      [
        -3.8560378924012184,
        50.52630174905062,
        296
      ],
      [
        -3.8560378924012184,
        50.52630174905062,
        296
      ]
    ]
  }
}
