{
  "type": "Feature",
  "properties": {},
  "geometry": {
    "type": "LineString",
    "coordinates": [
      [
        0.9323677886277437,
        45.55431361310184,
        300
      ],
      [
        0.9323275554925203,
        45.55422971025109,
        299.6
      ],
      [
        0.9322905912995338,
        45.554183945059776,
        299.6
      ],
      [
        0.9322512801736593,
        45.55411906912923,
        299.6
      ],
      [
        0.9322246257215738,
        45.55406182073057,
        299.4
      ],
      [
        0.932106776162982,
        45.55397791787982,
        299.6
      ],
      [
        0.9319522138684988,
        45.553951263427734,
        299.79999999999995
      ],
      [
        0.9319308400154114,
        45.553951263427734,
        299.79999999999995
      ],
      [
        0.9317555744200945,
        45.553928297013044,
        300
      ],
      [
        0.9315738547593355,
        45.55392452515662,
        300.20000000000005
      ],
      [
        0.9313999302685261,
        45.55393978022039,
        300.6
      ],
      [
        0.9312278497964144,
        45.55396266281605,
        301
      ],
      [
        0.9312069788575172,
        45.55396651849151,
        301
      ],
      [
        0.9310126025229692,
        45.553989401087165,
        301.4
      ],
      [
        0.9308618120849133,
        45.554008428007364,
        301.4
      ],
      [
        0.9307354129850864,
        45.55403893813491,
        301.4
      ],
      [
        0.930628627538681,
        45.55409233085811,
        301
      ],
      [
        0.9306390210986137,
        45.55412292480469,
        301.20000000000005
      ],
      [
        0.9306479059159756,
        45.5541877169162,
        301.6
      ],
      [
        0.9306208323687315,
        45.554225854575634,
        302
      ],
      [
        0.9305564593523741,
        45.55427924729884,
        302.20000000000005
      ],
      [
        0.9304659347981215,
        45.55436700582504,
        302
      ],
      [
        0.930442214012146,
        45.55441662669182,
        301.6
      ],
      [
        0.9304485842585564,
        45.55451578460634,
        301
      ],
      [
        0.9304223489016294,
        45.5545920599252,
        299.79999999999995
      ],
      [
        0.930398628115654,
        45.55463019758463,
        299.20000000000005
      ],
      [
        0.9303850494325161,
        45.55464553646743,
        298.79999999999995
      ],
      [
        0.9303355123847723,
        45.55475232191384,
        297.79999999999995
      ],
      [
        0.9303314052522182,
        45.55476757697761,
        297.6
      ],
      [
        0.9302936028689146,
        45.55488584563136,
        296.6
      ],
      [
        0.9302412159740925,
        45.554992631077766,
        295.79999999999995
      ],
      [
        0.9301430638879538,
        45.55516052059829,
        296.20000000000005
      ],
      [
        0.9300283156335354,
        45.55529396049678,
        296
      ],
      [
        0.9299403894692659,
        45.55538171902299,
        296.4
      ],
      [
        0.9298370406031609,
        45.555492360144854,
        297.6
      ],
      [
        0.929819019511342,
        45.55551909841597,
        297.6
      ],
      [
        0.9298093803226948,
        45.555530497804284,
        297.6
      ],
      [
        0.9297348652034998,
        45.555610628798604,
        298
      ],
      [
        0.9297119826078415,
        45.55563351139426,
        298
      ],
      [
        0.9295918699353933,
        45.555767035111785,
        297.6
      ],
      [
        0.9295279160141945,
        45.55585093796253,
        297.20000000000005
      ],
      [
        0.9295010939240456,
        45.555885303765535,
        297.20000000000005
      ],
      [
        0.9294492937624454,
        45.55599971674383,
        297
      ],
      [
        0.9293824899941683,
        45.55610650219023,
        296.6
      ],
      [
        0.9293903689831495,
        45.556182861328125,
        297.20000000000005
      ],
      [
        0.9293855912983418,
        45.556278163567185,
        298
      ],
      [
        0.9293964877724648,
        45.55631252937019,
        299.20000000000005
      ],
      [
        0.9293820708990097,
        45.556339183822274,
        300.6
      ],
      [
        0.9293312765657902,
        45.55636977776885,
        301.4
      ],
      [
        0.9292543306946754,
        45.556396432220936,
        301
      ],
      [
        0.9292225632816553,
        45.55641168728471,
        300.79999999999995
      ],
      [
        0.9291565138846636,
        45.556457452476025,
        300.79999999999995
      ],
      [
        0.9291402529925108,
        45.55646893568337,
        300.79999999999995
      ],
      [
        0.9291141014546156,
        45.55649181827903,
        300.79999999999995
      ],
      [
        0.9290127642452717,
        45.55662148632109,
        300.6
      ],
      [
        0.9289044700562954,
        45.55675123818219,
        300.4
      ],
      [
        0.928789721801877,
        45.55688476189971,
        300.79999999999995
      ],
      [
        0.9287129435688257,
        45.556964809075,
        300.79999999999995
      ],
      [
        0.9286461398005486,
        45.557052567601204,
        300.6
      ],
      [
        0.9285639971494675,
        45.55716320872307,
        300.4
      ],
      [
        0.9285237640142441,
        45.55723948404193,
        300.4
      ],
      [
        0.9284918289631605,
        45.557285249233246,
        300.6
      ],
      [
        0.9284263662993908,
        45.55741114541888,
        300.6
      ],
      [
        0.9284018073230982,
        45.55754844099283,
        301.4
      ],
      [
        0.9284090995788574,
        45.55761717259884,
        302
      ],
      [
        0.9284154698252678,
        45.55767056532204,
        302.6
      ],
      [
        0.9284220077097416,
        45.55775832384825,
        303.20000000000005
      ],
      [
        0.9284407831728458,
        45.55782697163522,
        303.20000000000005
      ],
      [
        0.9284447226673365,
        45.557842226698995,
        303.4
      ],
      [
        0.9284620732069016,
        45.55791473016143,
        304.20000000000005
      ],
      [
        0.928461654111743,
        45.5579490121454,
        304.20000000000005
      ],
      [
        0.9284630790352821,
        45.5579833779484,
        304.4
      ],
      [
        0.9284876380115747,
        45.55808639153838,
        304.20000000000005
      ],
      [
        0.9285370074212551,
        45.55817029438913,
        304.4
      ],
      [
        0.9285795036703348,
        45.558296190574765,
        304.20000000000005
      ],
      [
        0.928605068475008,
        45.55836861021817,
        304
      ],
      [
        0.928614791482687,
        45.55840297602117,
        304
      ],
      [
        0.9286964312195778,
        45.55854027159512,
        303.6
      ],
      [
        0.9287453815340996,
        45.55860514752567,
        303.4
      ],
      [
        0.9287717845290899,
        45.55864714086056,
        303.4
      ],
      [
        0.9287918172776699,
        45.55866616778076,
        303.20000000000005
      ],
      [
        0.9288690984249115,
        45.55873867124319,
        303
      ],
      [
        0.9289217367768288,
        45.558811174705625,
        302.79999999999995
      ],
      [
        0.9289343934506178,
        45.55883782915771,
        302.79999999999995
      ],
      [
        0.9289087448269129,
        45.55892173200846,
        303.79999999999995
      ],
      [
        0.9287812560796738,
        45.5589332152158,
        304
      ],
      [
        0.9287597984075546,
        45.558929443359375,
        304
      ],
      [
        0.92871461994946,
        45.558925587683916,
        303.79999999999995
      ],
      [
        0.9286283701658249,
        45.558925587683916,
        303.6
      ],
      [
        0.92858562245965,
        45.558929443359375,
        303.79999999999995
      ],
      [
        0.9283852949738503,
        45.558925587683916,
        303.6
      ],
      [
        0.92832176014781,
        45.558929443359375,
        303.6
      ],
      [
        0.928191589191556,
        45.558929443359375,
        303.4
      ],
      [
        0.9279339294880629,
        45.558925587683916,
        303.20000000000005
      ],
      [
        0.9276771917939186,
        45.55891796015203,
        303.20000000000005
      ],
      [
        0.9275691490620375,
        45.55891796015203,
        303
      ],
      [
        0.9274203702807426,
        45.558910332620144,
        303
      ],
      [
        0.9273803047835827,
        45.558910332620144,
        302.79999999999995
      ],
      [
        0.9272319450974464,
        45.558910332620144,
        302.6
      ],
      [
        0.9270543325692415,
        45.558906476944685,
        302.20000000000005
      ],
      [
        0.9270328748971224,
        45.558910332620144,
        302
      ],
      [
        0.9268593695014715,
        45.558906476944685,
        301.79999999999995
      ],
      [
        0.9267374128103256,
        45.55890270508826,
        301.20000000000005
      ],
      [
        0.9266912285238504,
        45.5588988494128,
        301
      ],
      [
        0.9266668371856213,
        45.55889507755637,
        301
      ],
      [
        0.9264033939689398,
        45.55890270508826,
        300.6
      ],
      [
        0.9263823553919792,
        45.55890270508826,
        300.6
      ],
      [
        0.9261288028210402,
        45.55890270508826,
        302
      ],
      [
        0.9261029865592718,
        45.55890270508826,
        302
      ],
      [
        0.9260119590908289,
        45.558849312365055,
        302.79999999999995
      ],
      [
        0.9260027389973402,
        45.55883405730128,
        302.79999999999995
      ],
      [
        0.9259218536317348,
        45.55875392630696,
        302
      ],
      [
        0.92588203959167,
        45.5586966779083,
        301.4
      ],
      [
        0.9258702211081982,
        45.55866616778076,
        300.79999999999995
      ],
      [
        0.9258425608277321,
        45.5586242582649,
        300
      ],
      [
        0.9258200973272324,
        45.558593748137355,
        299.79999999999995
      ],
      [
        0.9257809538394213,
        45.55854412727058,
        298.79999999999995
      ],
      [
        0.925749521702528,
        45.558471623808146,
        298
      ],
      [
        0.9257037565112114,
        45.5583877209574,
        298
      ],
      [
        0.9257335122674704,
        45.558315217494965,
        297.79999999999995
      ],
      [
        0.925739211961627,
        45.55829996243119,
        297.6
      ],
      [
        0.9258003160357475,
        45.55820080451667,
        298
      ],
      [
        0.9258454944938421,
        45.55811304599047,
        297.79999999999995
      ],
      [
        0.925868209451437,
        45.5580024048686,
        297
      ],
      [
        0.92588203959167,
        45.55786510929465,
        296.6
      ],
      [
        0.925912968814373,
        45.55775832384825,
        296.6
      ],
      [
        0.9259517770260572,
        45.55765145458281,
        296.79999999999995
      ],
      [
        0.9260212630033493,
        45.557502675801516,
        297.20000000000005
      ],
      [
        0.9260777570307255,
        45.55733487010002,
        297.20000000000005
      ],
      [
        0.9260887373238802,
        45.55717460811138,
        297
      ],
      [
        0.9261065069586039,
        45.55700294673443,
        297.6
      ],
      [
        0.9261131286621094,
        45.55696866475046,
        297.79999999999995
      ],
      [
        0.9261168166995049,
        45.55686179548502,
        298
      ],
      [
        0.9261178225278854,
        45.55670547299087,
        298
      ],
      [
        0.9261536970734596,
        45.556556694209576,
        297.6
      ],
      [
        0.9260904137045145,
        45.55641554296017,
        297
      ],
      [
        0.9260392840951681,
        45.55639266036451,
        296.6
      ],
      [
        0.9259269665926695,
        45.55637354962528,
        296.6
      ],
      [
        0.925697972998023,
        45.55637354962528,
        296.79999999999995
      ],
      [
        0.9255867451429367,
        45.556400287896395,
        296.4
      ],
      [
        0.925455316901207,
        45.55639266036451,
        297.4
      ],
      [
        0.9254361223429441,
        45.55639266036451,
        297.4
      ],
      [
        0.9253034368157387,
        45.55638880468905,
        297.4
      ],
      [
        0.9251885209232569,
        45.55640405975282,
        297.6
      ],
      [
        0.9250870160758495,
        45.55641168728471,
        297.4
      ],
      [
        0.9250148478895426,
        45.556419314816594,
        297.4
      ],
      [
        0.9248574357479811,
        45.556438425555825,
        297.20000000000005
      ],
      [
        0.9247144404798746,
        45.556457452476025,
        297.20000000000005
      ],
      [
        0.9245183877646923,
        45.556476563215256,
        297.4
      ],
      [
        0.9244294557720423,
        45.55648419074714,
        297.79999999999995
      ],
      [
        0.9243553597480059,
        45.556495590135455,
        298
      ],
      [
        0.924248993396759,
        45.55644982494414,
        298.6
      ],
      [
        0.924250166863203,
        45.556434569880366,
        298.6
      ],
      [
        0.9242953453212976,
        45.55629341863096,
        298.4
      ],
      [
        0.9243799187242985,
        45.55618663318455,
        298
      ],
      [
        0.92443423345685,
        45.556083619594574,
        297.4
      ],
      [
        0.9243863727897406,
        45.555980606004596,
        297.4
      ],
      [
        0.9243059065192938,
        45.555843310430646,
        297
      ],
      [
        0.9244038909673691,
        45.55577466264367,
        297.20000000000005
      ],
      [
        0.9245716128498316,
        45.55574029684067,
        296.79999999999995
      ],
      [
        0.92473522759974,
        45.55567927658558,
        296.79999999999995
      ],
      [
        0.9248735290020704,
        45.5555762629956,
        297
      ],
      [
        0.9249674063175917,
        45.55549621582031,
        297.20000000000005
      ],
      [
        0.9250820707529783,
        45.55540460161865,
        296.79999999999995
      ],
      [
        0.9252446796745062,
        45.555274933576584,
        296.6
      ],
      [
        0.9254204481840134,
        45.55514518171549,
        297.4
      ],
      [
        0.925435284152627,
        45.555133782327175,
        297.4
      ],
      [
        0.925502423197031,
        45.555072762072086,
        297.4
      ],
      [
        0.9255258925259113,
        45.555053651332855,
        297.4
      ],
      [
        0.9255382977426052,
        45.55504602380097,
        297.6
      ],
      [
        0.9255579113960266,
        45.55503839626908,
        297.79999999999995
      ],
      [
        0.9256517887115479,
        45.554977376013994,
        298.4
      ],
      [
        0.9257241245359182,
        45.55492012761533,
        298.6
      ],
      [
        0.9257559757679701,
        45.55490110069513,
        298.6
      ],
      [
        0.9258844703435898,
        45.554798087105155,
        298.4
      ],
      [
        0.9259700495749712,
        45.554737066850066,
        298.20000000000005
      ],
      [
        0.9260926768183708,
        45.55464930832386,
        297.79999999999995
      ],
      [
        0.926152691245079,
        45.55451201274991,
        298
      ],
      [
        0.9261021483689547,
        45.5543898884207,
        298.4
      ],
      [
        0.9260568022727966,
        45.55431361310184,
        298.79999999999995
      ],
      [
        0.9260257892310619,
        45.55426022037864,
        299.20000000000005
      ],
      [
        0.9259307384490967,
        45.55413817986846,
        299.20000000000005
      ],
      [
        0.9258656948804855,
        45.55403516627848,
        299.20000000000005
      ],
      [
        0.9257955383509398,
        45.55391304194927,
        299.20000000000005
      ],
      [
        0.9257239568978548,
        45.55381388403475,
        299
      ],
      [
        0.9256993979215622,
        45.55378722958267,
        299
      ],
      [
        0.9256232902407646,
        45.553687987849116,
        299
      ],
      [
        0.9255569893866777,
        45.553630823269486,
        299
      ],
      [
        0.9255083743482828,
        45.55360022932291,
        299
      ],
      [
        0.9254169277846813,
        45.55355831980705,
        298.6
      ],
      [
        0.9252678137272596,
        45.553493443876505,
        299.79999999999995
      ],
      [
        0.9252459369599819,
        45.55348204448819,
        300
      ],
      [
        0.9250922128558159,
        45.55342856794596,
        300.79999999999995
      ],
      [
        0.9249974973499775,
        45.553394285961986,
        300.79999999999995
      ],
      [
        0.9248767979443073,
        45.55334852077067,
        300.79999999999995
      ],
      [
        0.9246787335723639,
        45.553318010643125,
        300.79999999999995
      ],
      [
        0.9245271049439907,
        45.55334089323878,
        300.79999999999995
      ],
      [
        0.9244800824671984,
        45.553352292627096,
        300.79999999999995
      ],
      [
        0.9243608079850674,
        45.5533866584301,
        301
      ],
      [
        0.9242968540638685,
        45.553417168557644,
        301.4
      ],
      [
        0.9241148829460144,
        45.55350107140839,
        302
      ],
      [
        0.9240748174488544,
        45.55352018214762,
        302.20000000000005
      ],
      [
        0.9238630905747414,
        45.55362696759403,
        302.79999999999995
      ],
      [
        0.9236737433820963,
        45.553630823269486,
        302.79999999999995
      ],
      [
        0.9235389623790979,
        45.55355069227517,
        301.79999999999995
      ],
      [
        0.9234663750976324,
        45.55347056128085,
        301
      ],
      [
        0.9234631061553955,
        45.55345153436065,
        300.79999999999995
      ],
      [
        0.9234721586108208,
        45.55332563817501,
        300.20000000000005
      ],
      [
        0.9234762657433748,
        45.55330652743578,
        300
      ],
      [
        0.9234824683517218,
        45.55329127237201,
        300
      ],
      [
        0.9234916884452105,
        45.5531844869256,
        299.6
      ],
      [
        0.9234814625233412,
        45.55311583913863,
        299.6
      ],
      [
        0.9234618488699198,
        45.55306236259639,
        299.79999999999995
      ],
      [
        0.9234062768518925,
        45.5529479496181,
        300.20000000000005
      ],
      [
        0.9233821369707584,
        45.55290981195867,
        300.4
      ],
      [
        0.9233159199357033,
        45.55278014391661,
        300.6
      ],
      [
        0.9232533909380436,
        45.552665647119284,
        300.79999999999995
      ],
      [
        0.9231777023524046,
        45.55253975093365,
        300.79999999999995
      ],
      [
        0.9230997506529093,
        45.55241008289158,
        300.79999999999995
      ],
      [
        0.9230165183544159,
        45.55228418670595,
        300.79999999999995
      ],
      [
        0.9229189530014992,
        45.55220405571163,
        301
      ],
      [
        0.9228166937828064,
        45.552127780392766,
        301.20000000000005
      ],
      [
        0.9227147698402405,
        45.552047649398446,
        302
      ],
      [
        0.9226183779537678,
        45.55198285728693,
        302
      ],
      [
        0.922571774572134,
        45.5519447196275,
        302
      ],
      [
        0.9224452916532755,
        45.551853105425835,
        302
      ],
      [
        0.9222492389380932,
        45.55178831331432,
        301.6
      ],
      [
        0.9220982808619738,
        45.55183785036206,
        301.6
      ],
      [
        0.9220076724886894,
        45.55192183703184,
        301.20000000000005
      ],
      [
        0.9219934232532978,
        45.55193709209561,
        301.20000000000005
      ],
      [
        0.921865263953805,
        45.552051505073905,
        301.4
      ],
      [
        0.9217014815658331,
        45.55216214619577,
        301.79999999999995
      ],
      [
        0.9215576481074095,
        45.552268931642175,
        301.79999999999995
      ],
      [
        0.921409372240305,
        45.55233757942915,
        301.79999999999995
      ],
      [
        0.9212175942957401,
        45.55237957276404,
        301.6
      ],
      [
        0.921065965667367,
        45.552383344620466,
        302
      ],
      [
        0.9210412390530109,
        45.552383344620466,
        302
      ],
      [
        0.9208865091204643,
        45.55239859968424,
        302.20000000000005
      ],
      [
        0.9206387400627136,
        45.55245207622647,
        302.4
      ],
      [
        0.9204647317528725,
        45.552505468949676,
        302.4
      ],
      [
        0.9202860295772552,
        45.55251309648156,
        302.4
      ],
      [
        0.9202245902270079,
        45.552448220551014,
        302.20000000000005
      ],
      [
        0.9202951658517122,
        45.55236431770027,
        302
      ],
      [
        0.9203537553548813,
        45.55231469683349,
        302
      ],
      [
        0.9203801583498716,
        45.5522536765784,
        301.79999999999995
      ],
      [
        0.9203312918543816,
        45.552150662988424,
        301.79999999999995
      ],
      [
        0.9202468860894442,
        45.55207824334502,
        301.6
      ],
      [
        0.9201292879879475,
        45.55202476680279,
        300.79999999999995
      ],
      [
        0.9201084170490503,
        45.55199425667524,
        300.6
      ],
      [
        0.9201216604560614,
        45.55191798135638,
        300.79999999999995
      ],
      [
        0.9201940800994635,
        45.55184170603752,
        300.6
      ],
      [
        0.920310253277421,
        45.551776830106974,
        300.20000000000005
      ],
      [
        0.9203362371772528,
        45.551757803186774,
        300.20000000000005
      ],
      [
        0.9204524103552103,
        45.55166618898511,
        300.79999999999995
      ],
      [
        0.9204959124326706,
        45.55154414847493,
        301.4
      ],
      [
        0.9205050487071276,
        45.551460245624185,
        301.6
      ],
      [
        0.9205097425729036,
        45.55142973549664,
        301.6
      ],
      [
        0.9205322898924351,
        45.55133434943855,
        301.6
      ],
      [
        0.9205314517021179,
        45.55130761116743,
        301.6
      ],
      [
        0.9204953256994486,
        45.55123519152403,
        301.20000000000005
      ],
      [
        0.920436903834343,
        45.55117794312537,
        301
      ],
      [
        0.9202371630817652,
        45.5510482750833,
        301.79999999999995
      ],
      [
        0.920205395668745,
        45.55102916434407,
        301.79999999999995
      ],
      [
        0.9201562777161598,
        45.551002426072955,
        302
      ],
      [
        0.9200370032340288,
        45.5509795434773,
        302
      ],
      [
        0.9199567884206772,
        45.550964288413525,
        302.20000000000005
      ],
      [
        0.9197900723665953,
        45.55093763396144,
        302.79999999999995
      ],
      [
        0.9197042416781187,
        45.55093000642955,
        303
      ],
      [
        0.9196632541716099,
        45.550926150754094,
        303.20000000000005
      ],
      [
        0.919545404613018,
        45.550907123833895,
        303.79999999999995
      ],
      [
        0.9195009805262089,
        45.550907123833895,
        304.20000000000005
      ],
      [
        0.919412299990654,
        45.550903268158436,
        304.4
      ],
      [
        0.91937106102705,
        45.550903268158436,
        304.4
      ],
      [
        0.9193258825689554,
        45.550903268158436,
        304.4
      ],
      [
        0.91924206353724,
        45.55091089569032,
        304.4
      ],
      [
        0.9192152414470911,
        45.55091089569032,
        304.4
      ],
      [
        0.9191255550831556,
        45.550903268158436,
        304.20000000000005
      ],
      [
        0.9190331026911736,
        45.55088038556278,
        303.79999999999995
      ],
      [
        0.9188938792794943,
        45.550823137164116,
        303.20000000000005
      ],
      [
        0.9188796300441027,
        45.5508117377758,
        303.20000000000005
      ],
      [
        0.9188059531152248,
        45.55073923431337,
        303
      ],
      [
        0.9187846630811691,
        45.55071635171771,
        303
      ],
      [
        0.9186581801623106,
        45.55059808306396,
        304
      ],
      [
        0.9186248201876879,
        45.5505752004683,
        304.20000000000005
      ],
      [
        0.9185424260795116,
        45.55051803588867,
        304.79999999999995
      ],
      [
        0.9184954036027193,
        45.55047604255378,
        305.20000000000005
      ],
      [
        0.9184593614190817,
        45.55043790489435,
        305.20000000000005
      ],
      [
        0.918372692540288,
        45.5503386631608,
        304.4
      ],
      [
        0.9183470439165831,
        45.55030052550137,
        304.20000000000005
      ],
      [
        0.9183367341756821,
        45.55025861598551,
        303.6
      ],
      [
        0.9183152765035629,
        45.550155602395535,
        303
      ],
      [
        0.9182983450591564,
        45.550113609060645,
        302.6
      ],
      [
        0.9182384982705116,
        45.550018306821585,
        302
      ],
      [
        0.9182174596935511,
        45.54998008534312,
        301.6
      ],
      [
        0.9181400947272778,
        45.54987329989672,
        301
      ],
      [
        0.9181097522377968,
        45.54985041730106,
        300.79999999999995
      ],
      [
        0.9180128574371338,
        45.549758886918426,
        300
      ],
      [
        0.9179969318211079,
        45.54967498406768,
        299.6
      ],
      [
        0.9179915674030781,
        45.54961387999356,
        298.79999999999995
      ],
      [
        0.9179841075092554,
        45.54954908788204,
        298.20000000000005
      ],
      [
        0.917998356744647,
        45.54944984614849,
        297.79999999999995
      ],
      [
        0.9180006198585033,
        45.549423191696405,
        297.4
      ],
      [
        0.9179447125643492,
        45.54932780563831,
        296.79999999999995
      ],
      [
        0.9179321397095919,
        45.54932017810643,
        296.79999999999995
      ],
      [
        0.917847566306591,
        45.54922102019191,
        296.79999999999995
      ],
      [
        0.9178419504314661,
        45.54917525500059,
        296.6
      ],
      [
        0.9178438782691956,
        45.54914088919759,
        296.4
      ],
      [
        0.9178097639232874,
        45.549068385735154,
        295.79999999999995
      ],
      [
        0.917810183018446,
        45.549068385735154,
        295.6
      ],
      [
        0.9178122784942389,
        45.54906075820327,
        295.4
      ],
      [
        0.9178178105503321,
        45.54907224141061,
        295.20000000000005
      ]
    ]
  }
}
