{
  "type": "Feature",
  "properties": {},
  "geometry": {
    "type": "LineString",
    "coordinates": [
      [
        -3.167076,
        54.934115,
        7.2
      ],
      [
        -3.167111,
        54.934108,
        7.8
      ],
      [
        -3.167274,
        54.93417,
        2.6
      ],
      [
        -3.167387,
        54.934244,
        2.6
      ],
      [
        -3.167449,
        54.934277,
        2.6
      ],
      [
        -3.167511,
        54.934309,
        2.4
      ],
      [
        -3.168089,
        54.934616,
        -2
      ],
      [
        -3.168826,
        54.934738,
        -4.8
      ],
      [
        -3.169426,
        54.935041,
        -5.8
      ],
      [
        -3.169708,
        54.935196,
        -4.8
      ],
      [
        -3.170256,
        54.935523,
        3
      ],
      [
        -3.170792,
        54.935852,
        3.2
      ],
      [
        -3.170925,
        54.93592,
        1.6
      ],
      [
        -3.171512,
        54.936216,
        -0.2
      ],
      [
        -3.172099,
        54.936521,
        -0.6
      ],
      [
        -3.172473,
        54.936712,
        0.2
      ],
      [
        -3.173016,
        54.937035,
        -0.8
      ],
      [
        -3.173594,
        54.937336,
        0.6
      ],
      [
        -3.174192,
        54.937639,
        1.4
      ],
      [
        -3.174778,
        54.937952,
        0.2
      ],
      [
        -3.175346,
        54.93826,
        1.6
      ],
      [
        -3.175396,
        54.938287,
        1.4
      ],
      [
        -3.175999,
        54.938577,
        -1.4
      ],
      [
        -3.176567,
        54.938891,
        0.4
      ],
      [
        -3.176648,
        54.938937,
        0.4
      ],
      [
        -3.177242,
        54.939233,
        2.2
      ],
      [
        -3.177438,
        54.939343,
        2.6
      ],
      [
        -3.17758,
        54.939431,
        4.8
      ],
      [
        -3.177895,
        54.939584,
        5.6
      ],
      [
        -3.177934,
        54.939613,
        4
      ],
      [
        -3.178498,
        54.939937,
        2.8
      ],
      [
        -3.178526,
        54.940018,
        2.8
      ],
      [
        -3.178048,
        54.94038,
        2.2
      ],
      [
        -3.177822,
        54.94052,
        2
      ],
      [
        -3.17759,
        54.94066,
        4
      ],
      [
        -3.177336,
        54.940943,
        1.2
      ],
      [
        -3.177183,
        54.94113,
        -1
      ],
      [
        -3.177189,
        54.941149,
        -1.2
      ],
      [
        -3.177228,
        54.941175,
        -2.4
      ],
      [
        -3.177277,
        54.94119,
        -3.2
      ],
      [
        -3.177313,
        54.9412,
        -1.4
      ],
      [
        -3.177314,
        54.941197,
        0.4
      ],
      [
        -3.177384,
        54.941219,
        1.6
      ],
      [
        -3.177402,
        54.941224,
        1.2
      ],
      [
        -3.177579,
        54.941268,
        -1.2
      ],
      [
        -3.177663,
        54.941315,
        -0.4
      ],
      [
        -3.177736,
        54.941333,
        -2.6
      ],
      [
        -3.177934,
        54.941398,
        -3
      ],
      [
        -3.178536,
        54.941696,
        -1
      ],
      [
        -3.179061,
        54.942037,
        -0.4
      ],
      [
        -3.179177,
        54.942112,
        -0.4
      ],
      [
        -3.179449,
        54.942308,
        -0.4
      ],
      [
        -3.179613,
        54.942438,
        -2.6
      ],
      [
        -3.180048,
        54.942762,
        -0.4
      ],
      [
        -3.180133,
        54.942775,
        -0.6
      ],
      [
        -3.180333,
        54.942957,
        1.4
      ],
      [
        -3.180331,
        54.942983,
        1.6
      ],
      [
        -3.180348,
        54.943006,
        1.2
      ],
      [
        -3.18079,
        54.943376,
        1
      ],
      [
        -3.180837,
        54.943395,
        2.4
      ],
      [
        -3.180929,
        54.943452,
        4.6
      ],
      [
        -3.181069,
        54.943609,
        3.4
      ],
      [
        -3.181534,
        54.943969,
        7
      ],
      [
        -3.181758,
        54.944216,
        5
      ],
      [
        -3.181938,
        54.944312,
        3
      ],
      [
        -3.182333,
        54.944603,
        -0.6
      ],
      [
        -3.182386,
        54.944638,
        -2.2
      ],
      [
        -3.182506,
        54.944715,
        -2.6
      ],
      [
        -3.182706,
        54.944872,
        -1.6
      ],
      [
        -3.183121,
        54.945262,
        -4
      ],
      [
        -3.183548,
        54.94564,
        -0.8
      ],
      [
        -3.184017,
        54.946001,
        -0.4
      ],
      [
        -3.18441,
        54.946316,
        1.6
      ],
      [
        -3.184591,
        54.946662,
        1.8
      ],
      [
        -3.184694,
        54.946947,
        -2.8
      ],
      [
        -3.184826,
        54.947348,
        -2.4
      ],
      [
        -3.184846,
        54.947379,
        -2.2
      ],
      [
        -3.184875,
        54.9475,
        -2.8
      ],
      [
        -3.184846,
        54.947634,
        0.6
      ],
      [
        -3.184832,
        54.947632,
        0.8
      ],
      [
        -3.184827,
        54.947629,
        -1
      ],
      [
        -3.184846,
        54.947663,
        -1
      ],
      [
        -3.184922,
        54.947866,
        -0.8
      ],
      [
        -3.184954,
        54.948006,
        -2
      ],
      [
        -3.184987,
        54.948041,
        -2.2
      ],
      [
        -3.185004,
        54.948074,
        -1
      ],
      [
        -3.185022,
        54.948121,
        -1.4
      ],
      [
        -3.185019,
        54.948175,
        -1.2
      ],
      [
        -3.185062,
        54.948261,
        -1.8
      ],
      [
        -3.185135,
        54.948424,
        -0.4
      ],
      [
        -3.185128,
        54.948556,
        -1.2
      ],
      [
        -3.185332,
        54.948705,
        0
      ],
      [
        -3.185616,
        54.948785,
        -1.4
      ],
      [
        -3.185637,
        54.948788,
        -1.4
      ],
      [
        -3.185654,
        54.948789,
        -1.2
      ],
      [
        -3.1857,
        54.948789,
        -1
      ],
      [
        -3.185714,
        54.948795,
        -1
      ],
      [
        -3.1857,
        54.948799,
        -0.4
      ],
      [
        -3.185676,
        54.948789,
        -0.8
      ],
      [
        -3.185777,
        54.948829,
        -0.4
      ],
      [
        -3.186202,
        54.949199,
        3.6
      ],
      [
        -3.186664,
        54.949422,
        2
      ],
      [
        -3.187132,
        54.94954,
        6.2
      ],
      [
        -3.187172,
        54.949554,
        7
      ],
      [
        -3.187239,
        54.949563,
        7.6
      ],
      [
        -3.187326,
        54.94957,
        6.4
      ],
      [
        -3.187553,
        54.949585,
        4.8
      ],
      [
        -3.187713,
        54.949601,
        4.6
      ],
      [
        -3.188499,
        54.949669,
        4.4
      ],
      [
        -3.188757,
        54.949693,
        5
      ],
      [
        -3.188792,
        54.949721,
        5.4
      ],
      [
        -3.188985,
        54.949771,
        4.6
      ],
      [
        -3.189013,
        54.949754,
        4.6
      ],
      [
        -3.189517,
        54.94976,
        3.4
      ],
      [
        -3.189637,
        54.949762,
        3
      ],
      [
        -3.189662,
        54.949762,
        2.8
      ],
      [
        -3.190201,
        54.949776,
        2.6
      ],
      [
        -3.190322,
        54.949788,
        3
      ],
      [
        -3.190991,
        54.949833,
        4.2
      ],
      [
        -3.191502,
        54.949898,
        4.2
      ],
      [
        -3.191749,
        54.949943,
        5.2
      ],
      [
        -3.19249,
        54.950101,
        5.2
      ],
      [
        -3.193224,
        54.950287,
        5
      ],
      [
        -3.193719,
        54.950381,
        5.4
      ],
      [
        -3.193871,
        54.950399,
        5.2
      ],
      [
        -3.194077,
        54.950419,
        5
      ],
      [
        -3.194317,
        54.950444,
        5.8
      ],
      [
        -3.194963,
        54.95051,
        6.2
      ],
      [
        -3.195082,
        54.950523,
        6.2
      ],
      [
        -3.195152,
        54.95053,
        6
      ],
      [
        -3.195289,
        54.950544,
        6.8
      ],
      [
        -3.195621,
        54.950586,
        5.2
      ],
      [
        -3.195968,
        54.950622,
        4.2
      ],
      [
        -3.196755,
        54.95069,
        4.4
      ],
      [
        -3.197509,
        54.950812,
        4
      ],
      [
        -3.198182,
        54.951055,
        4.2
      ],
      [
        -3.198823,
        54.951317,
        4.4
      ],
      [
        -3.198947,
        54.951379,
        4.8
      ],
      [
        -3.199107,
        54.951471,
        5.8
      ],
      [
        -3.199367,
        54.951663,
        4.2
      ],
      [
        -3.199818,
        54.95204,
        4.6
      ],
      [
        -3.200041,
        54.952237,
        4.2
      ],
      [
        -3.200439,
        54.952633,
        4.6
      ],
      [
        -3.200475,
        54.952664,
        4.6
      ],
      [
        -3.200572,
        54.95274,
        4.6
      ],
      [
        -3.201153,
        54.953043,
        4.2
      ],
      [
        -3.201827,
        54.953276,
        3.6
      ],
      [
        -3.202546,
        54.953453,
        3.4
      ],
      [
        -3.202734,
        54.953484,
        3.8
      ],
      [
        -3.20288,
        54.953511,
        4.6
      ],
      [
        -3.203011,
        54.953523,
        4.6
      ],
      [
        -3.203361,
        54.953562,
        3.2
      ],
      [
        -3.204026,
        54.953638,
        3.6
      ],
      [
        -3.20456,
        54.953699,
        5.4
      ],
      [
        -3.205342,
        54.953732,
        4.4
      ],
      [
        -3.206122,
        54.953733,
        2.2
      ],
      [
        -3.206911,
        54.953761,
        1.8
      ],
      [
        -3.207699,
        54.953802,
        2.2
      ],
      [
        -3.20849,
        54.953838,
        0.4
      ],
      [
        -3.208774,
        54.953858,
        0.2
      ],
      [
        -3.20957,
        54.953896,
        0.8
      ],
      [
        -3.210083,
        54.953922,
        2.4
      ],
      [
        -3.210865,
        54.953976,
        1.8
      ],
      [
        -3.21123,
        54.954009,
        1.4
      ],
      [
        -3.211243,
        54.954011,
        -0.6
      ],
      [
        -3.21147,
        54.954004,
        -2.8
      ],
      [
        -3.211726,
        54.953913,
        -3.6
      ],
      [
        -3.212081,
        54.953653,
        -0.6
      ],
      [
        -3.212282,
        54.953662,
        1.4
      ],
      [
        -3.212408,
        54.953953,
        5
      ],
      [
        -3.212576,
        54.953962,
        8.2
      ],
      [
        -3.212662,
        54.953967,
        7.4
      ],
      [
        -3.212689,
        54.953972,
        7.6
      ],
      [
        -3.212725,
        54.953974,
        10.4
      ],
      [
        -3.212737,
        54.953932,
        8.6
      ],
      [
        -3.212743,
        54.953932,
        8.6
      ],
      [
        -3.212744,
        54.953932,
        8.6
      ],
      [
        -3.212747,
        54.953936,
        9
      ],
      [
        -3.212753,
        54.953936,
        9.8
      ],
      [
        -3.21275,
        54.953932,
        10.2
      ],
      [
        -3.212744,
        54.953938,
        11.4
      ],
      [
        -3.212758,
        54.953939,
        11.8
      ],
      [
        -3.212776,
        54.953953,
        6.8
      ],
      [
        -3.212755,
        54.953961,
        6.6
      ],
      [
        -3.212742,
        54.95395,
        7.8
      ],
      [
        -3.212743,
        54.953943,
        7.4
      ],
      [
        -3.212743,
        54.953942,
        7.2
      ],
      [
        -3.212749,
        54.953936,
        6.2
      ],
      [
        -3.212761,
        54.953929,
        6
      ],
      [
        -3.212761,
        54.953903,
        1.8
      ],
      [
        -3.212782,
        54.953897,
        1.4
      ],
      [
        -3.212764,
        54.953919,
        4.6
      ],
      [
        -3.212739,
        54.953944,
        6.4
      ],
      [
        -3.212804,
        54.953949,
        8.6
      ],
      [
        -3.212864,
        54.953926,
        13
      ],
      [
        -3.212898,
        54.953921,
        13.2
      ],
      [
        -3.212957,
        54.953904,
        11.2
      ],
      [
        -3.213024,
        54.9539,
        7.4
      ],
      [
        -3.213009,
        54.953904,
        6.4
      ],
      [
        -3.212993,
        54.95391,
        6
      ],
      [
        -3.212929,
        54.953933,
        4
      ],
      [
        -3.212877,
        54.953946,
        2.6
      ],
      [
        -3.212665,
        54.954008,
        1
      ],
      [
        -3.212639,
        54.954009,
        -0.2
      ],
      [
        -3.212578,
        54.95403,
        -0.4
      ],
      [
        -3.212576,
        54.954085,
        -1.6
      ],
      [
        -3.212614,
        54.954106,
        -1.8
      ],
      [
        -3.212622,
        54.954106,
        -1.6
      ],
      [
        -3.212613,
        54.954103,
        -1
      ],
      [
        -3.212609,
        54.954106,
        -1
      ],
      [
        -3.212625,
        54.954115,
        0.4
      ],
      [
        -3.212707,
        54.954041,
        4.4
      ],
      [
        -3.212952,
        54.953962,
        4.8
      ],
      [
        -3.212973,
        54.953907,
        5.6
      ],
      [
        -3.212808,
        54.953922,
        4.4
      ],
      [
        -3.212781,
        54.953918,
        4.2
      ],
      [
        -3.21272,
        54.953899,
        1.4
      ],
      [
        -3.212543,
        54.953927,
        1.6
      ],
      [
        -3.212451,
        54.953922,
        0.8
      ],
      [
        -3.212365,
        54.953903,
        0.6
      ],
      [
        -3.212326,
        54.953847,
        2.2
      ],
      [
        -3.212257,
        54.953629,
        -1
      ],
      [
        -3.212192,
        54.953605,
        8.8
      ],
      [
        -3.212192,
        54.953616,
        8.8
      ],
      [
        -3.2122,
        54.953615,
        8.8
      ],
      [
        -3.212213,
        54.953612,
        9
      ],
      [
        -3.212275,
        54.953593,
        9.4
      ],
      [
        -3.212632,
        54.953484,
        11.4
      ],
      [
        -3.21271,
        54.953466,
        12.2
      ],
      [
        -3.212731,
        54.953462,
        12.2
      ],
      [
        -3.212793,
        54.953448,
        12.2
      ],
      [
        -3.212866,
        54.953428,
        12.8
      ],
      [
        -3.213345,
        54.953281,
        13.2
      ],
      [
        -3.213849,
        54.953196,
        11
      ],
      [
        -3.214285,
        54.953131,
        12.2
      ],
      [
        -3.214503,
        54.953089,
        14.4
      ],
      [
        -3.21454,
        54.953083,
        14.8
      ]
    ]
  }
}
