{
  "type": "Feature",
  "properties": {},
  "geometry": {
    "type": "LineString",
    "coordinates": [
      [
        100.04826449789107,
        9.471580423414707
      ],
      [
        100.04829131998122,
        9.47156198322773
      ],
      [
        100.04829978570342,
        9.471485707908869
      ],
      [
        100.04835192114115,
        9.471370875835419
      ],
      [
        100.04843649454415,
        9.471288565546274
      ],
      [
        100.04835963249207,
        9.471240201964974
      ],
      [
        100.04836072213948,
        9.471225533634424
      ],
      [
        100.04835619591177,
        9.471212206408381
      ],
      [
        100.04834496416152,
        9.471188820898533
      ],
      [
        100.04833448678255,
        9.471177589148283
      ],
      [
        100.0483266916126,
        9.471167782321572
      ],
      [
        100.04827908240259,
        9.471127046272159
      ],
      [
        100.04820632748306,
        9.471082286909223
      ],
      [
        100.0481800083071,
        9.471055632457137
      ],
      [
        100.04813399165869,
        9.471012130379677
      ],
      [
        100.0481070857495,
        9.470983631908894
      ],
      [
        100.04807657562196,
        9.470943817868829
      ],
      [
        100.04806358367205,
        9.470914313569665
      ],
      [
        100.04802946932614,
        9.470845498144627
      ],
      [
        100.04798588342965,
        9.470799397677183
      ],
      [
        100.04793869331479,
        9.470774587243795
      ],
      [
        100.04792360588908,
        9.470751537010074
      ],
      [
        100.04795419983566,
        9.470696467906237
      ],
      [
        100.04797188565135,
        9.47068389505148
      ],
      [
        100.048116305843,
        9.470551209524274
      ],
      [
        100.0482389330864,
        9.470408130437136
      ],
      [
        100.0483610574156,
        9.470260608941317
      ],
      [
        100.04839106462896,
        9.470229428261518
      ],
      [
        100.0484559405595,
        9.470111159607768
      ],
      [
        100.04848770797253,
        9.47008484043181
      ],
      [
        100.04853422753513,
        9.470044439658523
      ],
      [
        100.0485790707171,
        9.469991298392415
      ],
      [
        100.04858292639256,
        9.469976043328643
      ],
      [
        100.04870563745499,
        9.469832964241505
      ],
      [
        100.04878828302026,
        9.469753252342343
      ],
      [
        100.04885198548436,
        9.469697177410126
      ],
      [
        100.04885877482593,
        9.469673708081245
      ],
      [
        100.04888559691608,
        9.469612101092935
      ],
      [
        100.04888878203928,
        9.469590140506625
      ],
      [
        100.0488983374089,
        9.469567844644189
      ],
      [
        100.04901174455881,
        9.469418311491609
      ],
      [
        100.04903781227767,
        9.469349915161729
      ],
      [
        100.0490484572947,
        9.469340024515986
      ],
      [
        100.04905650392175,
        9.469329211860895
      ],
      [
        100.04913764074445,
        9.469206752255559
      ],
      [
        100.04919371567667,
        9.469158137217164
      ],
      [
        100.04933620803058,
        9.46904506534338
      ],
      [
        100.04935431294143,
        9.469001311808825
      ],
      [
        100.0493785366416,
        9.46897373534739
      ],
      [
        100.0494287442416,
        9.468900226056576
      ],
      [
        100.04943729378283,
        9.468888910487294
      ],
      [
        100.04952136427164,
        9.468794697895646
      ],
      [
        100.04959294572473,
        9.468642733991146
      ],
      [
        100.04956025630236,
        9.46854617446661
      ],
      [
        100.04955145530403,
        9.468498062342405
      ],
      [
        100.04954810254276,
        9.468456069007516
      ],
      [
        100.04953284747899,
        9.468419691547751
      ],
      [
        100.04952605813742,
        9.468359593302011
      ],
      [
        100.0495252199471,
        9.46834878064692
      ],
      [
        100.04954508505762,
        9.468317348510027
      ],
      [
        100.04955338314176,
        9.46830972097814
      ],
      [
        100.0495307520032,
        9.468308547511697
      ],
      [
        100.04944173619151,
        9.468142418190837
      ],
      [
        100.04934827797115,
        9.467979473993182
      ],
      [
        100.04927242174745,
        9.467901354655623
      ],
      [
        100.04926102235913,
        9.467882243916392
      ],
      [
        100.0491644628346,
        9.467718712985516
      ],
      [
        100.04915926605463,
        9.46770815178752
      ],
      [
        100.0491385627538,
        9.46767051704228
      ],
      [
        100.0491298455745,
        9.467658195644617
      ],
      [
        100.04912364296615,
        9.467646460980177
      ],
      [
        100.04911626689136,
        9.467636737972498
      ],
      [
        100.04909371957183,
        9.46760706603527
      ],
      [
        100.04906128160655,
        9.467565910890698
      ],
      [
        100.04898810759187,
        9.46744680404663
      ],
      [
        100.04887696355581,
        9.467292660847306
      ],
      [
        100.04877747036517,
        9.467153521254659
      ],
      [
        100.04876825027168,
        9.467145223170519
      ],
      [
        100.04872617311776,
        9.467097949236631
      ],
      [
        100.04866557195783,
        9.467046651989222
      ],
      [
        100.04865241236985,
        9.46702754124999
      ],
      [
        100.04854797385633,
        9.466872308403254
      ],
      [
        100.04839324392378,
        9.466752698644996
      ],
      [
        100.04836055450141,
        9.466728894039989
      ],
      [
        100.04832794889808,
        9.466693690046668
      ],
      [
        100.0483079161495,
        9.466669131070375
      ],
      [
        100.04822376184165,
        9.466609787195921
      ],
      [
        100.04820263944566,
        9.466590760275722
      ],
      [
        100.04809493198991,
        9.466499648988247
      ],
      [
        100.04796367138624,
        9.466362353414297
      ],
      [
        100.04785453900695,
        9.466219525784254
      ],
      [
        100.0478189997375,
        9.46617971174419
      ],
      [
        100.04779485985637,
        9.466147609055042
      ],
      [
        100.04772906191647,
        9.466030513867736
      ],
      [
        100.04770542494953,
        9.46601651608944
      ],
      [
        100.04769360646605,
        9.466012744233012
      ],
      [
        100.04768388345838,
        9.466007547453046
      ],
      [
        100.04767558537424,
        9.465999249368906
      ],
      [
        100.04766745492816,
        9.465989442542195
      ],
      [
        100.04764230921865,
        9.46597209200263
      ],
      [
        100.047598304227,
        9.465913251042366
      ],
      [
        100.04755714908242,
        9.465853488072753
      ],
      [
        100.04749520681798,
        9.465784002095461
      ],
      [
        100.04739495925605,
        9.46562910452485
      ],
      [
        100.04737274721265,
        9.465583087876439
      ],
      [
        100.04732471890748,
        9.465508740395308
      ],
      [
        100.04726353101432,
        9.465424753725529
      ],
      [
        100.0472581665963,
        9.465413270518184
      ],
      [
        100.04717233590782,
        9.465308412909508
      ],
      [
        100.04714618436992,
        9.465266838669777
      ],
      [
        100.04713696427643,
        9.46525921113789
      ],
      [
        100.04707468673587,
        9.465189138427377
      ],
      [
        100.04704660736024,
        9.46516047231853
      ],
      [
        100.04702406004071,
        9.465131973847747
      ],
      [
        100.04701475612819,
        9.465124430134892
      ],
      [
        100.04697452299297,
        9.465062320232391
      ],
      [
        100.04691559821367,
        9.464954948052764
      ],
      [
        100.04680445417762,
        9.464801223948598
      ],
      [
        100.04672767594457,
        9.464662168174982
      ],
      [
        100.04660605452955,
        9.464512383565307
      ],
      [
        100.04658384248614,
        9.464484136551619
      ],
      [
        100.04656221717596,
        9.46446217596531
      ],
      [
        100.04653916694224,
        9.464441137388349
      ],
      [
        100.0464288610965,
        9.464284060522914
      ],
      [
        100.04634311422706,
        9.464116506278515
      ],
      [
        100.04631184972823,
        9.464062945917249
      ],
      [
        100.04618813283741,
        9.46391198784113
      ],
      [
        100.04609677009284,
        9.46374837309122
      ],
      [
        100.04599266685545,
        9.46359347552061
      ],
      [
        100.04593089222908,
        9.463506303727627
      ],
      [
        100.0458056665957,
        9.463361129164696
      ],
      [
        100.04575680010021,
        9.463283848017454
      ],
      [
        100.04564624279737,
        9.46312383748591
      ],
      [
        100.0455464143306,
        9.462962904945016
      ],
      [
        100.0454724021256,
        9.46283952333033
      ],
      [
        100.04542646929622,
        9.462746065109968
      ],
      [
        100.04539218731225,
        9.462702311575413
      ],
      [
        100.0452823843807,
        9.462541127577424
      ],
      [
        100.04526478238404,
        9.46251698769629
      ],
      [
        100.04521264694631,
        9.462457224726677
      ],
      [
        100.04514123313129,
        9.46237918920815
      ],
      [
        100.04502556286752,
        9.462219597771764
      ],
      [
        100.0449129100889,
        9.4620709028095
      ],
      [
        100.04486287012696,
        9.46199948899448
      ],
      [
        100.0448558293283,
        9.4619897659868
      ],
      [
        100.04479380324483,
        9.461908964440227
      ],
      [
        100.04477335140109,
        9.46184752508998
      ],
      [
        100.04476522095501,
        9.461822714656591
      ],
      [
        100.04472875967622,
        9.461770076304674
      ],
      [
        100.04465793259442,
        9.461665637791157
      ],
      [
        100.04463085904717,
        9.461617860943079
      ],
      [
        100.04452616907656,
        9.46145474910736
      ],
      [
        100.0444861035794,
        9.461372019723058
      ],
      [
        100.04441175609827,
        9.461240256205201
      ],
      [
        100.04432332701981,
        9.461069852113724
      ],
      [
        100.04424462094903,
        9.460951667279005
      ],
      [
        100.04415485076606,
        9.460787633433938
      ],
      [
        100.04411897622049,
        9.46072711609304
      ],
      [
        100.04408159293234,
        9.460653439164162
      ],
      [
        100.04398545250297,
        9.460489489138126
      ],
      [
        100.04388939589262,
        9.46032352745533
      ],
      [
        100.0438124500215,
        9.460158571600914
      ],
      [
        100.04372117109597,
        9.459990598261356
      ],
      [
        100.0436295568943,
        9.459827486425638
      ],
      [
        100.04353894852102,
        9.459657166153193
      ],
      [
        100.04344641231,
        9.459496987983584
      ],
      [
        100.04337122663856,
        9.459373438730836
      ],
      [
        100.04328288137913,
        9.459202950820327
      ],
      [
        100.04317659884691,
        9.459039671346545
      ],
      [
        100.04312597215176,
        9.458948224782944
      ],
      [
        100.04312094300985,
        9.458934310823679
      ],
      [
        100.0430840626359,
        9.4588693510741
      ],
      [
        100.04299202933908,
        9.458710011094809
      ],
      [
        100.0428784545511,
        9.458567099645734
      ],
      [
        100.04283084534109,
        9.458499290049076
      ],
      [
        100.04280176013708,
        9.458455620333552
      ],
      [
        100.04273093305528,
        9.458322683349252
      ],
      [
        100.04271509125829,
        9.458297621458769
      ],
      [
        100.04270729608834,
        9.458285383880138
      ],
      [
        100.04267879761755,
        9.458251688629389
      ],
      [
        100.04264418035746,
        9.458218915387988
      ],
      [
        100.04254116676748,
        9.45806896314025
      ],
      [
        100.04248961806297,
        9.457994783297181
      ],
      [
        100.04241862334311,
        9.457874670624733
      ],
      [
        100.04240336827934,
        9.457804849371314
      ],
      [
        100.04233907908201,
        9.457634696736932
      ],
      [
        100.0423348043114,
        9.457609131932259
      ],
      [
        100.04233404994011,
        9.457591949030757
      ],
      [
        100.04232072271407,
        9.457566384226084
      ],
      [
        100.04228845238686,
        9.457515757530928
      ],
      [
        100.04225919954479,
        9.457479882985353
      ],
      [
        100.0421617180109,
        9.457326577976346
      ],
      [
        100.04206608049572,
        9.457160364836454
      ],
      [
        100.04194873385131,
        9.457026170566678
      ],
      [
        100.04192559979856,
        9.456977471709251
      ],
      [
        100.04189525730908,
        9.456937238574028
      ],
      [
        100.04186986014247,
        9.456924833357334
      ],
      [
        100.04184647463262,
        9.456888372078538
      ],
      [
        100.04185611382127,
        9.456854676827788
      ],
      [
        100.0418593827635,
        9.456836823374033
      ],
      [
        100.04185820929706,
        9.456827938556671
      ],
      [
        100.04182166419923,
        9.456761050969362
      ],
      [
        100.04179953597486,
        9.456723164767027
      ],
      [
        100.0417230091989,
        9.456613948568702
      ],
      [
        100.04172041080892,
        9.4566002022475
      ],
      [
        100.04170641303062,
        9.456558208912611
      ],
      [
        100.04168688319623,
        9.456510096788406
      ],
      [
        100.04166819155216,
        9.456422002986073
      ],
      [
        100.04162192344666,
        9.456316726282239
      ],
      [
        100.04162041470408,
        9.456264339387417
      ],
      [
        100.04162024706602,
        9.45614816620946
      ],
      [
        100.04162033088505,
        9.456087984144688
      ],
      [
        100.04161421209574,
        9.456067448481917
      ],
      [
        100.0416111946106,
        9.456026209518313
      ],
      [
        100.04155612550676,
        9.45584968663752
      ],
      [
        100.04154598340392,
        9.455815572291613
      ],
      [
        100.04153198562562,
        9.45578120648861
      ],
      [
        100.04144540056586,
        9.455647682771087
      ],
      [
        100.04137105308473,
        9.455519272014499
      ],
      [
        100.04135445691645,
        9.455496473237872
      ],
      [
        100.04131782799959,
        9.455432938411832
      ],
      [
        100.04122914746404,
        9.45526865310967
      ],
      [
        100.04119947552681,
        9.455190114676952
      ],
      [
        100.04112244583666,
        9.455024069175124
      ],
      [
        100.04107844084501,
        9.454926755279303
      ],
      [
        100.04107282496989,
        9.454916110262275
      ],
      [
        100.04100007005036,
        9.454788789153099
      ],
      [
        100.04099428653717,
        9.454777054488659
      ],
      [
        100.04095614887774,
        9.454701533541083
      ],
      [
        100.04090753383934,
        9.45464126765728
      ],
      [
        100.0408064480871,
        9.454485783353448
      ],
      [
        100.04077224992216,
        9.454431300982833
      ],
      [
        100.04073964431882,
        9.454368017613888
      ],
      [
        100.04070175811648,
        9.4542845338583
      ],
      [
        100.04059279337525,
        9.454130893573165
      ],
      [
        100.04053520970047,
        9.454051852226257
      ],
      [
        100.04046815447509,
        9.453953113406897
      ],
      [
        100.04043504595757,
        9.453891925513744
      ],
      [
        100.04032004624605,
        9.453743565827608
      ],
      [
        100.04019750282168,
        9.453591937199235
      ],
      [
        100.04008241929114,
        9.4534348603338
      ],
      [
        100.04007638432086,
        9.453424047678709
      ],
      [
        100.04002148285508,
        9.453326314687729
      ],
      [
        100.04000522196293,
        9.453294044360518
      ],
      [
        100.03997311927378,
        9.453285578638315
      ],
      [
        100.03991587087512,
        9.453185247257352
      ],
      [
        100.03989248536527,
        9.453158089891076
      ],
      [
        100.03988837823272,
        9.453152306377888
      ],
      [
        100.03981403075159,
        9.452995313331485
      ],
      [
        100.03979592584074,
        9.452975196763873
      ],
      [
        100.03978989087045,
        9.452959187328815
      ],
      [
        100.03978997468948,
        9.452954158186913
      ],
      [
        100.03979098051786,
        9.45292180404067
      ],
      [
        100.03973951563239,
        9.45287637412548
      ],
      [
        100.03971897996962,
        9.452874949201941
      ],
      [
        100.03970523364842,
        9.452869920060039
      ],
      [
        100.03968662582338,
        9.452865226194263
      ],
      [
        100.03960649482906,
        9.452863298356533
      ],
      [
        100.03944640047848,
        9.452860280871391
      ],
      [
        100.03943701274693,
        9.452862543985248
      ],
      [
        100.03935000859201,
        9.452891796827316
      ],
      [
        100.03933198750019,
        9.452900514006615
      ],
      [
        100.03922671079636,
        9.45291979238391
      ],
      [
        100.03922863863409,
        9.45292959921062
      ],
      [
        100.03922218456864,
        9.452931862324476
      ],
      [
        100.0391187518835,
        9.453014424070716
      ],
      [
        100.03900450654328,
        9.453094387426972
      ],
      [
        100.03905018791556,
        9.452956756576896
      ],
      [
        100.03911263309419,
        9.452871596440673
      ],
      [
        100.0391364376992,
        9.452808145433664
      ],
      [
        100.03915764391422,
        9.452767241746187
      ],
      [
        100.03920248709619,
        9.45267646573484
      ],
      [
        100.03922721371055,
        9.452628856524825
      ],
      [
        100.03929217346013,
        9.452575044706464
      ],
      [
        100.0394337438047,
        9.452447639778256
      ],
      [
        100.03950976766646,
        9.452270697802305
      ],
      [
        100.03952711820602,
        9.452225100249052
      ],
      [
        100.03953977487981,
        9.452191656455398
      ],
      [
        100.03957657143474,
        9.45207254961133
      ],
      [
        100.03958436660469,
        9.452066766098142
      ],
      [
        100.03960875794291,
        9.452054696157575
      ],
      [
        100.03959191031754,
        9.452055869624019
      ],
      [
        100.03958218730986,
        9.452053690329194
      ],
      [
        100.0395867973566,
        9.452056372538209
      ],
      [
        100.03958269022405,
        9.452055199071765
      ],
      [
        100.03955679014325,
        9.452063748613
      ],
      [
        100.03955628722906,
        9.452067017555237
      ],
      [
        100.03956751897931,
        9.452057462185621
      ],
      [
        100.03956601023674,
        9.452056623995304
      ],
      [
        100.03957472741604,
        9.452061150223017
      ],
      [
        100.03957908600569,
        9.452060898765922
      ],
      [
        100.03958478569984,
        9.452058300375938
      ],
      [
        100.03958897665143,
        9.452027706429362
      ],
      [
        100.03958436660469,
        9.452036926522851
      ],
      [
        100.03958151675761,
        9.452046062797308
      ],
      [
        100.03958294168115,
        9.452048912644386
      ],
      [
        100.03958931192756,
        9.452052768319845
      ],
      [
        100.03958956338465,
        9.452050002291799
      ],
      [
        100.0395867973566,
        9.45205008611083
      ],
      [
        100.0395817682147,
        9.452050505205989
      ],
      [
        100.0395785830915,
        9.452048325911164
      ],
      [
        100.03956517204642,
        9.452056623995304
      ],
      [
        100.03956944681704,
        9.452058048918843
      ],
      [
        100.03956709988415,
        9.45206861011684
      ],
      [
        100.03957112319767,
        9.452071711421013
      ],
      [
        100.0395677704364,
        9.452069783583283
      ],
      [
        100.0395643338561,
        9.45206567645073
      ],
      [
        100.03956148400903,
        9.45206961594522
      ],
      [
        100.03954002633691,
        9.45211454294622
      ],
      [
        100.03951680846512,
        9.452236834913492
      ],
      [
        100.0395080074668,
        9.452261812984943
      ],
      [
        100.03946668468416,
        9.452346134930849
      ],
      [
        100.03932511433959,
        9.452466331422329
      ],
      [
        100.03918874077499,
        9.4525973405689
      ],
      [
        100.03909184597433,
        9.45276003330946
      ],
      [
        100.03900341689587,
        9.452929431572556
      ],
      [
        100.03899034112692,
        9.452976621687412
      ],
      [
        100.03897994756699,
        9.45306546986103
      ],
      [
        100.03900526091456,
        9.453054489567876
      ],
      [
        100.03902697004378,
        9.45305029861629
      ],
      [
        100.0390740763396,
        9.453046191483736
      ],
      [
        100.03911489620805,
        9.453036803752184
      ],
      [
        100.03925948403776,
        9.452951811254025
      ],
      [
        100.03929384984076,
        9.45292130112648
      ],
      [
        100.03938973881304,
        9.452876457944512
      ],
      [
        100.03946425393224,
        9.45284653455019
      ],
      [
        100.03949576988816,
        9.452839326113462
      ],
      [
        100.03950708545744,
        9.452832285314798
      ],
      [
        100.03952661529183,
        9.45282407104969
      ],
      [
        100.03955125808716,
        9.452815689146519
      ],
      [
        100.03973406739533,
        9.452869333326817
      ],
      [
        100.03974496386945,
        9.452883917838335
      ],
      [
        100.03976801410317,
        9.452911745756865
      ],
      [
        100.03978444263339,
        9.452925911173224
      ],
      [
        100.03981403075159,
        9.45293395780027
      ],
      [
        100.03981864079833,
        9.452941250056028
      ],
      [
        100.03985912539065,
        9.453070247545838
      ],
      [
        100.03986549563706,
        9.453254733234644
      ],
      [
        100.03995132632554,
        9.453400829806924
      ],
      [
        100.04001947119832,
        9.453476937487721
      ],
      [
        100.04003841429949,
        9.453526139259338
      ],
      [
        100.04006255418062,
        9.453577939420938
      ],
      [
        100.04015450365841,
        9.4537060149014
      ],
      [
        100.04021544009447,
        9.453777261078358
      ],
      [
        100.04024578258395,
        9.453828390687704
      ],
      [
        100.04025785252452,
        9.453845992684364
      ],
      [
        100.04030663520098,
        9.453923860564828
      ],
      [
        100.04032909870148,
        9.453956382349133
      ],
      [
        100.0403574295342,
        9.453984629362822
      ],
      [
        100.04037553444505,
        9.454017151147127
      ],
      [
        100.0404364708811,
        9.454078087583184
      ],
      [
        100.04048022441566,
        9.454139024019241
      ],
      [
        100.04049371927977,
        9.454160649329424
      ],
      [
        100.04054082557559,
        9.454225106164813
      ],
      [
        100.04056035540998,
        9.454258969053626
      ],
      [
        100.04063260741532,
        9.45437790825963
      ],
      [
        100.0407092180103,
        9.45450296625495
      ],
      [
        100.040716342628,
        9.45451377891004
      ],
      [
        100.04072966985404,
        9.45453423075378
      ],
      [
        100.04074626602232,
        9.454566920176148
      ],
      [
        100.04079412668943,
        9.454621402546763
      ],
      [
        100.04080854356289,
        9.454641519114375
      ],
      [
        100.0408683065325,
        9.454725002869964
      ],
      [
        100.04088741727173,
        9.454758111387491
      ],
      [
        100.04090309143066,
        9.4547800719738
      ],
      [
        100.04091147333384,
        9.45479029789567
      ],
      [
        100.04096017219126,
        9.454894652590156
      ],
      [
        100.04098372533917,
        9.454972185194492
      ],
      [
        100.04107383079827,
        9.455131525173783
      ],
      [
        100.04111875779927,
        9.455219199880958
      ],
      [
        100.04117642529309,
        9.45529161952436
      ],
      [
        100.04125655628741,
        9.4554225448519
      ],
      [
        100.0412863958627,
        9.455467304214835
      ],
      [
        100.04136426374316,
        9.455632343888283
      ],
      [
        100.04145939834416,
        9.455792605876923
      ],
      [
        100.04148018546402,
        9.455827726051211
      ],
      [
        100.0415559578687,
        9.455939289182425
      ],
      [
        100.04163223318756,
        9.45610323920846
      ],
      [
        100.04170289263129,
        9.456210443750024
      ],
      [
        100.04172284156084,
        9.456229051575065
      ],
      [
        100.04174614325166,
        9.456258891150355
      ],
      [
        100.04176114685833,
        9.45627967827022
      ],
      [
        100.04183490760624,
        9.456399288028479
      ],
      [
        100.04190581850708,
        9.456513449549675
      ],
      [
        100.04193867556751,
        9.456571536138654
      ],
      [
        100.04191872663796,
        9.456751830875874
      ],
      [
        100.04187162034214,
        9.456835566088557
      ],
      [
        100.04185661673546,
        9.456845121458173
      ],
      [
        100.04185175523162,
        9.456851743161678
      ],
      [
        100.04183130338788,
        9.456877810880542
      ],
      [
        100.04182669334114,
        9.456926006823778
      ],
      [
        100.04187304526567,
        9.456985518336296
      ],
      [
        100.04193481989205,
        9.457046370953321
      ],
      [
        100.04194060340524,
        9.457065230235457
      ],
      [
        100.0419698562473,
        9.457104625180364
      ],
      [
        100.04200531169772,
        9.457152569666505
      ],
      [
        100.04202685318887,
        9.457180816680193
      ],
      [
        100.04207110963762,
        9.45722809061408
      ],
      [
        100.04210765473545,
        9.457264384254813
      ],
      [
        100.04216875880957,
        9.457381060346961
      ],
      [
        100.0422029569745,
        9.457421796396375
      ],
      [
        100.0422151107341,
        9.457440907135606
      ],
      [
        100.0422312039882,
        9.457470076158643
      ],
      [
        100.04225308075547,
        9.457512237131596
      ],
      [
        100.04233555868268,
        9.457621118053794
      ],
      [
        100.04237277433276,
        9.457715665921569
      ],
      [
        100.04239305853844,
        9.457823457196355
      ],
      [
        100.0423982553184,
        9.457902666181326
      ],
      [
        100.04240764304996,
        9.457942564040422
      ],
      [
        100.0424275919795,
        9.457961926236749
      ],
      [
        100.04244703799486,
        9.457987071946263
      ],
      [
        100.04246438853443,
        9.458008948713541
      ],
      [
        100.04246975295246,
        9.45801766589284
      ],
      [
        100.04252197220922,
        9.458088912069798
      ],
      [
        100.04262783564627,
        9.458238445222378
      ],
      [
        100.04265298135579,
        9.45827323012054
      ],
      [
        100.04267024807632,
        9.45829326286912
      ],
      [
        100.04269447177649,
        9.458327209576964
      ],
      [
        100.04270176403224,
        9.458339363336563
      ],
      [
        100.04270997829735,
        9.45834992453456
      ],
      [
        100.04276714287698,
        9.458414381369948
      ],
      [
        100.0427901931107,
        9.45844522677362
      ],
      [
        100.04281667992473,
        9.458500882610679
      ],
      [
        100.04293117672205,
        9.458658713847399
      ],
      [
        100.04305120557547,
        9.458810007199645
      ],
      [
        100.04310158081353,
        9.458870775997639
      ],
      [
        100.04312379285693,
        9.458902291953564
      ],
      [
        100.04315773956478,
        9.458949817344546
      ],
      [
        100.04321917891502,
        9.459089878946543
      ],
      [
        100.0433050096035,
        9.45921971462667
      ],
      [
        100.04335613921285,
        9.459307137876749
      ],
      [
        100.04345487803221,
        9.459469243884087
      ],
      [
        100.0434794370085,
        9.459505872800946
      ],
      [
        100.04349896684289,
        9.459547363221645
      ],
      [
        100.04352193325758,
        9.459583070129156
      ],
      [
        100.04352696239948,
        9.459593128412962
      ],
      [
        100.04363173618913,
        9.459742745384574
      ],
      [
        100.04365470260382,
        9.459773506969213
      ],
      [
        100.04366501234472,
        9.459781888872385
      ],
      [
        100.0437249429524,
        9.45985833182931
      ],
      [
        100.04379937425256,
        9.460026221349835
      ],
      [
        100.04384606145322,
        9.460109286010265
      ],
      [
        100.04394010640681,
        9.460273487493396
      ],
      [
        100.04398385994136,
        9.460346829146147
      ],
      [
        100.04406533204019,
        9.460524106398225
      ],
      [
        100.04407002590597,
        9.460537349805236
      ],
      [
        100.04409743472934,
        9.460604740306735
      ],
      [
        100.0442027952522,
        9.460757542401552
      ],
      [
        100.04427429288626,
        9.460906572639942
      ],
      [
        100.04436967894435,
        9.461064571514726
      ],
      [
        100.04447386600077,
        9.461216116324067
      ],
      [
        100.04448484629393,
        9.461237154901028
      ],
      [
        100.04453212022781,
        9.46132524870336
      ],
      [
        100.04454025067389,
        9.461337067186832
      ],
      [
        100.04454955458641,
        9.46134863421321
      ],
      [
        100.04457520321012,
        9.461387358605862
      ],
      [
        100.04458685405552,
        9.461415354162455
      ],
      [
        100.0446190405637,
        9.461451396346092
      ],
      [
        100.04463848657906,
        9.461474949494004
      ],
      [
        100.04466002807021,
        9.461493641138077
      ],
      [
        100.04467385821044,
        9.461513422429562
      ],
      [
        100.0447490438819,
        9.461686760187149
      ],
      [
        100.04479589872062,
        9.461792958900332
      ],
      [
        100.04480595700443,
        9.461844842880964
      ],
      [
        100.04483889788389,
        9.461906617507339
      ],
      [
        100.04489949904382,
        9.461990436539054
      ],
      [
        100.04495590925217,
        9.462052714079618
      ],
      [
        100.04499614238739,
        9.462103424593806
      ],
      [
        100.04502120427787,
        9.462142651900649
      ],
      [
        100.0450336933136,
        9.462163858115673
      ],
      [
        100.04505070857704,
        9.462221106514335
      ],
      [
        100.04509865306318,
        9.462318168953061
      ],
      [
        100.04511374048889,
        9.462351612746716
      ],
      [
        100.04513285122812,
        9.46237231604755
      ],
      [
        100.04517300054431,
        9.462416237220168
      ],
      [
        100.04522270523012,
        9.462497206404805
      ],
      [
        100.04526721313596,
        9.462567111477256
      ],
      [
        100.04531188867986,
        9.462647996842861
      ],
      [
        100.04535446874797,
        9.462727960199118
      ],
      [
        100.04545044153929,
        9.462880762293935
      ],
      [
        100.04550894722342,
        9.462956367060542
      ],
      [
        100.04551640711725,
        9.46296994574368
      ],
      [
        100.04554565995932,
        9.463001796975732
      ],
      [
        100.04555303603411,
        9.463010262697935
      ],
      [
        100.04560391418636,
        9.463076898828149
      ],
      [
        100.0456325802952,
        9.4631243404001
      ],
      [
        100.04566116258502,
        9.463176308199763
      ],
      [
        100.04572260193527,
        9.463250823318958
      ],
      [
        100.04581178538501,
        9.4633799046278
      ],
      [
        100.04586107097566,
        9.463464561849833
      ],
      [
        100.04593483172357,
        9.463634295389056
      ],
      [
        100.04598210565746,
        9.463713420554996
      ],
      [
        100.04603382200003,
        9.463821463286877
      ],
      [
        100.04604136571288,
        9.463830599561334
      ],
      [
        100.04605335183442,
        9.463845686987042
      ],
      [
        100.04615619778633,
        9.463956663385034
      ],
      [
        100.04626591689885,
        9.464112650603056
      ],
      [
        100.04639432765543,
        9.464245000854135
      ],
      [
        100.04645626991987,
        9.464332172647119
      ],
      [
        100.04648158326745,
        9.464353546500206
      ],
      [
        100.04656984470785,
        9.464514395222068
      ],
      [
        100.04666229709983,
        9.464675495401025
      ],
      [
        100.04669942893088,
        9.464717656373978
      ],
      [
        100.0467158574611,
        9.464736264199018
      ],
      [
        100.04682742059231,
        9.464884204789996
      ],
      [
        100.04692330956459,
        9.465043125674129
      ],
      [
        100.04694133065641,
        9.465065589174628
      ],
      [
        100.04705993458629,
        9.46520397439599
      ],
      [
        100.04717585630715,
        9.465344874188304
      ],
      [
        100.04718516021967,
        9.465369852259755
      ],
      [
        100.04722036421299,
        9.465413857251406
      ],
      [
        100.04724928177893,
        9.465442355722189
      ],
      [
        100.04727778024971,
        9.465483762323856
      ],
      [
        100.04736118018627,
        9.46557143703103
      ],
      [
        100.04737576469779,
        9.465593062341213
      ],
      [
        100.04741666838527,
        9.465652238577604
      ],
      [
        100.0474249664694,
        9.465663889423013
      ],
      [
        100.04748808220029,
        9.465727340430021
      ],
      [
        100.04755899310112,
        9.465827085077763
      ],
      [
        100.04756670445204,
        9.4658337906003
      ],
      [
        100.04761992953718,
        9.465910820290446
      ],
      [
        100.04774088039994,
        9.466059263795614
      ],
      [
        100.04787063226104,
        9.466185830533504
      ],
      [
        100.04792511463165,
        9.466243581846356
      ],
      [
        100.04792737774551,
        9.46625498123467
      ],
      [
        100.04796124063432,
        9.466311475262046
      ],
      [
        100.04807548597455,
        9.46645874530077
      ],
      [
        100.04808546043932,
        9.466464780271053
      ],
      [
        100.04817003384233,
        9.466559495776892
      ],
      [
        100.04819367080927,
        9.466577768325806
      ],
      [
        100.04821638576686,
        9.466591347008944
      ],
      [
        100.04822384566069,
        9.466601992025971
      ],
      [
        100.04826064221561,
        9.466672400012612
      ],
      [
        100.04832057282329,
        9.466735515743494
      ],
      [
        100.04836994223297,
        9.46681103669107
      ],
      [
        100.04849944263697,
        9.466928215697408
      ],
      [
        100.04853816702962,
        9.466956462711096
      ],
      [
        100.04857965745032,
        9.466992421075702
      ],
      [
        100.04871477372944,
        9.467123094946146
      ],
      [
        100.04883874207735,
        9.46727480739355
      ],
      [
        100.04884804598987,
        9.46728453040123
      ],
      [
        100.04886447452009,
        9.467303305864334
      ],
      [
        100.04887319169939,
        9.467312190681696
      ],
      [
        100.04888869822025,
        9.467330044135451
      ],
      [
        100.04901476204395,
        9.467471614480019
      ],
      [
        100.04906295798719,
        9.46752835996449
      ],
      [
        100.04909472540021,
        9.467565910890698
      ],
      [
        100.04911853000522,
        9.4675986841321
      ],
      [
        100.04914367571473,
        9.467628356069326
      ],
      [
        100.04916588775814,
        9.467649478465319
      ],
      [
        100.04928759299219,
        9.467783002182841
      ],
      [
        100.04933050833642,
        9.467827007174492
      ],
      [
        100.04939345642924,
        9.467933289706707
      ],
      [
        100.04945087246597,
        9.467993387952447
      ],
      [
        100.04956444725394,
        9.468097994104028
      ],
      [
        100.04960778169334,
        9.468151470646262
      ],
      [
        100.04962974227965,
        9.468206372112036
      ],
      [
        100.0496304128319,
        9.468250293284655
      ],
      [
        100.04963980056345,
        9.468322545289993
      ],
      [
        100.04965296015143,
        9.468469899147749
      ],
      [
        100.04965195432305,
        9.468507030978799
      ],
      [
        100.04963477142155,
        9.468549191951752
      ],
      [
        100.04962814971805,
        9.468570062890649
      ],
      [
        100.0496132299304,
        9.468589425086975
      ],
      [
        100.04961926490068,
        9.468585317954421
      ],
      [
        100.04961783997715,
        9.46858674287796
      ],
      [
        100.04961649887264,
        9.468585653230548
      ],
      [
        100.04961431957781,
        9.468584563583136
      ],
      [
        100.04960233345628,
        9.468575678765774
      ],
      [
        100.04960166290402,
        9.468574924394488
      ],
      [
        100.04959185607731,
        9.468620773404837
      ],
      [
        100.04958808422089,
        9.468630077317357
      ],
      [
        100.04955229349434,
        9.468696881085634
      ],
      [
        100.04954391159117,
        9.468707023188472
      ],
      [
        100.04954164847732,
        9.468708029016852
      ],
      [
        100.04952379502356,
        9.46875287219882
      ],
      [
        100.04949856549501,
        9.468787740916014
      ],
      [
        100.04939379170537,
        9.468942051753402
      ],
      [
        100.04925850778818,
        9.469051016494632
      ],
      [
        100.04919924773276,
        9.469117820262909
      ],
      [
        100.04907226189971,
        9.469270538538694
      ],
      [
        100.04901987500489,
        9.46936508640647
      ],
      [
        100.04889749921858,
        9.46949944831431
      ],
      [
        100.04882013425231,
        9.469611765816808
      ],
      [
        100.04881896078587,
        9.469628781080246
      ],
      [
        100.0487754587084,
        9.469726514071226
      ],
      [
        100.04875542595983,
        9.46975794620812
      ],
      [
        100.04873128607869,
        9.469798430800438
      ],
      [
        100.04860245622694,
        9.469935894012451
      ],
      [
        100.04856985062361,
        9.469975624233484
      ],
      [
        100.04854671657085,
        9.470026670023799
      ],
      [
        100.04854084923863,
        9.470036560669541
      ],
      [
        100.0485320482403,
        9.47005407884717
      ],
      [
        100.048539172858,
        9.470071764662862
      ],
      [
        100.04853883758187,
        9.470086768269539
      ],
      [
        100.04851503297687,
        9.470109567046165
      ],
      [
        100.04849826917052,
        9.470127588137984
      ],
      [
        100.04848678596318,
        9.470137562602758
      ],
      [
        100.04843087866902,
        9.470223225653172
      ],
      [
        100.04841227084398,
        9.470239905640483
      ],
      [
        100.04840615205467,
        9.470247700810432
      ],
      [
        100.04839818924665,
        9.470254490152001
      ],
      [
        100.0483285356313,
        9.470316180959344
      ],
      [
        100.04825628362596,
        9.470420116558671
      ],
      [
        100.04814296029508,
        9.470538469031453
      ],
      [
        100.04812468774617,
        9.470552047714591
      ],
      [
        100.04811110906303,
        9.470561603084207
      ],
      [
        100.04808194003999,
        9.470590520650148
      ],
      [
        100.04802519455552,
        9.47066637687385
      ],
      [
        100.04798043519258,
        9.470729660242796
      ],
      [
        100.04790390841663,
        9.470815574750304
      ],
      [
        100.04785445518792,
        9.470877349376678
      ],
      [
        100.04784749820828,
        9.470886485651135
      ],
      [
        100.0477811973542,
        9.471009783446789
      ],
      [
        100.04765069112182,
        9.4711456540972
      ],
      [
        100.04758464172482,
        9.471238944679499
      ],
      [
        100.04757290706038,
        9.471246236935258
      ],
      [
        100.04742991179228,
        9.47136358357966
      ],
      [
        100.04737107083201,
        9.471409935504198
      ],
      [
        100.0472801271826,
        9.471526443958282
      ],
      [
        100.0472616031766,
        9.471548656001687
      ],
      [
        100.04724517464638,
        9.471582435071468
      ],
      [
        100.04724802449346,
        9.47160062380135
      ],
      [
        100.04724567756057,
        9.471626775339246
      ],
      [
        100.04724626429379,
        9.471652256324887
      ],
      [
        100.04726026207209,
        9.471754347905517
      ],
      [
        100.04726747050881,
        9.471800616011024
      ],
      [
        100.04727073945105,
        9.471812937408686
      ],
      [
        100.04724718630314,
        9.47186934761703
      ],
      [
        100.04722807556391,
        9.471900695934892
      ],
      [
        100.04723855294287,
        9.472078727558255
      ],
      [
        100.04726210609078,
        9.472133377566934
      ],
      [
        100.04727769643068,
        9.472155421972275
      ],
      [
        100.0473028421402,
        9.472219040617347
      ],
      [
        100.04730476997793,
        9.472227338701487
      ],
      [
        100.0473149958998,
        9.472279557958245
      ],
      [
        100.04737383686006,
        9.472458092495799
      ],
      [
        100.04739127121866,
        9.472530763596296
      ],
      [
        100.04744541831315,
        9.472539396956563
      ],
      [
        100.04747416824102,
        9.472536966204643
      ],
      [
        100.04757198505104,
        9.472542582079768
      ],
      [
        100.04759553819895,
        9.472540821880102
      ],
      [
        100.04758832976222,
        9.472552053630352
      ],
      [
        100.04758522845805,
        9.472547024488449
      ],
      [
        100.04758170805871,
        9.472543420270085
      ],
      [
        100.0475753378123,
        9.472548365592957
      ],
      [
        100.04757257178426,
        9.472550796344876
      ],
      [
        100.04756092093885,
        9.472542079165578
      ],
      [
        100.04757198505104,
        9.47252950631082
      ],
      [
        100.0475739967078,
        9.47252070531249
      ],
      [
        100.04757843911648,
        9.472518777474761
      ],
      [
        100.04758304916322,
        9.472518358379602
      ],
      [
        100.04758237861097,
        9.47252313606441
      ],
      [
        100.04758732393384,
        9.47252699173987
      ],
      [
        100.04760635085404,
        9.47253386490047
      ],
      [
        100.04760744050145,
        9.472536379471421
      ],
      [
        100.04757382906973,
        9.472582479938865
      ],
      [
        100.04756729118526,
        9.472590694203973
      ],
      [
        100.04756821319461,
        9.472586838528514
      ],
      [
        100.0475787743926,
        9.472591197118163
      ],
      [
        100.04758296534419,
        9.472590610384941
      ],
      [
        100.04758346825838,
        9.472590191289783
      ],
      [
        100.04758757539093,
        9.472589185461402
      ],
      [
        100.0475893355906,
        9.472590023651719
      ],
      [
        100.0476051773876,
        9.472553478553891
      ]
    ]
  }
}
