{
  "type": "Feature",
  "properties": {},
  "geometry": {
    "type": "LineString",
    "coordinates": [
      [
        -1.530802,
        54.988049,
        32.8
      ],
      [
        -1.530802,
        54.988049,
        32.8
      ],
      [
        -1.530802,
        54.988049,
        32.8
      ],
      [
        -1.530802,
        54.988049,
        32.8
      ],
      [
        -1.530802,
        54.988049,
        32.8
      ],
      [
        -1.530802,
        54.988049,
        32.8
      ],
      [
        -1.530799,
        54.987932,
        42.6
      ],
      [
        -1.530778,
        54.987947,
        39.8
      ],
      [
        -1.530765,
        54.987947,
        39
      ],
      [
        -1.530719,
        54.987943,
        35.8
      ],
      [
        -1.530709,
        54.987939,
        35.4
      ],
      [
        -1.530694,
        54.987934,
        34.4
      ],
      [
        -1.530607,
        54.987849,
        31.2
      ],
      [
        -1.530567,
        54.987781,
        31
      ],
      [
        -1.531078,
        54.987439,
        29
      ],
      [
        -1.531503,
        54.987049,
        24.4
      ],
      [
        -1.532032,
        54.986714,
        21
      ],
      [
        -1.532109,
        54.986661,
        21.2
      ],
      [
        -1.532308,
        54.986534,
        21.4
      ],
      [
        -1.532526,
        54.986402,
        21.8
      ],
      [
        -1.532542,
        54.98639,
        21.8
      ],
      [
        -1.532575,
        54.986367,
        22
      ],
      [
        -1.532711,
        54.986268,
        22.6
      ],
      [
        -1.53289,
        54.986164,
        23
      ],
      [
        -1.533033,
        54.986063,
        23.2
      ],
      [
        -1.533593,
        54.985748,
        21.6
      ],
      [
        -1.533609,
        54.985739,
        21.6
      ],
      [
        -1.534161,
        54.985411,
        23.4
      ],
      [
        -1.534718,
        54.98509,
        29.6
      ],
      [
        -1.535045,
        54.984919,
        37.2
      ],
      [
        -1.535434,
        54.984622,
        39.2
      ],
      [
        -1.535654,
        54.984394,
        32.2
      ],
      [
        -1.535851,
        54.984268,
        27.8
      ],
      [
        -1.536364,
        54.983975,
        23.8
      ],
      [
        -1.536727,
        54.983797,
        19.4
      ],
      [
        -1.536987,
        54.983688,
        21.2
      ],
      [
        -1.537569,
        54.98338,
        22.4
      ],
      [
        -1.537633,
        54.983352,
        21.6
      ],
      [
        -1.538175,
        54.983032,
        22.6
      ],
      [
        -1.538284,
        54.982834,
        25.2
      ],
      [
        -1.53838,
        54.982693,
        24.2
      ],
      [
        -1.538461,
        54.982518,
        24.8
      ],
      [
        -1.538484,
        54.982475,
        24
      ],
      [
        -1.538554,
        54.982408,
        24
      ],
      [
        -1.53862,
        54.982331,
        21.4
      ],
      [
        -1.538721,
        54.982015,
        20.2
      ],
      [
        -1.538949,
        54.981617,
        26.4
      ],
      [
        -1.539162,
        54.981194,
        26.4
      ],
      [
        -1.539325,
        54.980749,
        26
      ],
      [
        -1.539361,
        54.980613,
        25.8
      ],
      [
        -1.539359,
        54.980487,
        25.6
      ],
      [
        -1.539323,
        54.980124,
        26.6
      ],
      [
        -1.539319,
        54.980098,
        26.2
      ],
      [
        -1.539321,
        54.980046,
        26.2
      ],
      [
        -1.539306,
        54.979881,
        21.6
      ],
      [
        -1.53927,
        54.979586,
        16
      ],
      [
        -1.539258,
        54.97954,
        12.4
      ],
      [
        -1.539109,
        54.97908,
        21.8
      ],
      [
        -1.538879,
        54.978647,
        28.2
      ],
      [
        -1.538863,
        54.978454,
        36
      ],
      [
        -1.538945,
        54.978,
        24.6
      ],
      [
        -1.538908,
        54.977681,
        17.4
      ],
      [
        -1.538908,
        54.977441,
        29.4
      ],
      [
        -1.538681,
        54.977119,
        29.2
      ],
      [
        -1.538661,
        54.977019,
        29.2
      ],
      [
        -1.538651,
        54.976853,
        27.6
      ],
      [
        -1.538794,
        54.976403,
        27
      ],
      [
        -1.538971,
        54.975968,
        25
      ],
      [
        -1.53898,
        54.975801,
        28.6
      ],
      [
        -1.539154,
        54.975359,
        24.8
      ],
      [
        -1.539332,
        54.974911,
        25.8
      ],
      [
        -1.539338,
        54.974848,
        27.2
      ],
      [
        -1.539355,
        54.974748,
        31
      ],
      [
        -1.539484,
        54.974294,
        32.6
      ],
      [
        -1.539541,
        54.973836,
        31.4
      ],
      [
        -1.539559,
        54.973487,
        25.6
      ],
      [
        -1.539579,
        54.973394,
        27
      ],
      [
        -1.539629,
        54.972933,
        24.8
      ],
      [
        -1.539594,
        54.97267,
        24.8
      ],
      [
        -1.5393,
        54.972248,
        27.4
      ],
      [
        -1.539283,
        54.972115,
        29
      ],
      [
        -1.53928,
        54.972075,
        30.4
      ],
      [
        -1.539248,
        54.971712,
        28.4
      ],
      [
        -1.539236,
        54.971689,
        29
      ],
      [
        -1.539121,
        54.971239,
        27
      ],
      [
        -1.539137,
        54.971186,
        27.4
      ],
      [
        -1.539237,
        54.97073,
        22.8
      ],
      [
        -1.539651,
        54.970351,
        25
      ],
      [
        -1.539835,
        54.970221,
        23.4
      ],
      [
        -1.539839,
        54.970204,
        24
      ],
      [
        -1.539842,
        54.970142,
        25.2
      ],
      [
        -1.53969,
        54.96996,
        27
      ],
      [
        -1.539624,
        54.969819,
        27.4
      ],
      [
        -1.539637,
        54.969766,
        26.2
      ],
      [
        -1.539645,
        54.969736,
        25.6
      ],
      [
        -1.539645,
        54.969736,
        25.6
      ],
      [
        -1.539726,
        54.969337,
        20.2
      ],
      [
        -1.539779,
        54.968879,
        23.2
      ],
      [
        -1.539799,
        54.968761,
        26.2
      ],
      [
        -1.539905,
        54.968309,
        23.8
      ],
      [
        -1.540126,
        54.967871,
        25.8
      ],
      [
        -1.540197,
        54.967743,
        28
      ],
      [
        -1.54032,
        54.967311,
        26.6
      ],
      [
        -1.540549,
        54.967069,
        28.2
      ],
      [
        -1.540814,
        54.96679,
        29.4
      ],
      [
        -1.540848,
        54.96675,
        30
      ],
      [
        -1.540989,
        54.966654,
        30.4
      ],
      [
        -1.541146,
        54.966558,
        33.2
      ],
      [
        -1.541265,
        54.966375,
        31.2
      ],
      [
        -1.541371,
        54.966313,
        30.8
      ],
      [
        -1.541397,
        54.966287,
        31
      ],
      [
        -1.54193,
        54.965938,
        23
      ],
      [
        -1.542447,
        54.965594,
        31.8
      ],
      [
        -1.54278,
        54.965408,
        35.6
      ],
      [
        -1.542915,
        54.965339,
        38.4
      ],
      [
        -1.542981,
        54.965295,
        39
      ],
      [
        -1.543009,
        54.965278,
        39
      ],
      [
        -1.543032,
        54.965238,
        42.2
      ],
      [
        -1.543041,
        54.965247,
        42
      ],
      [
        -1.543067,
        54.965215,
        40.8
      ],
      [
        -1.54308,
        54.965204,
        39.2
      ],
      [
        -1.543076,
        54.965205,
        39.4
      ],
      [
        -1.543105,
        54.965202,
        38.4
      ],
      [
        -1.543146,
        54.965181,
        37.4
      ],
      [
        -1.543226,
        54.965143,
        37
      ],
      [
        -1.543295,
        54.965076,
        36.2
      ],
      [
        -1.543359,
        54.965019,
        35
      ],
      [
        -1.543423,
        54.964942,
        35.4
      ],
      [
        -1.543426,
        54.964926,
        35
      ],
      [
        -1.543426,
        54.964926,
        35
      ],
      [
        -1.543485,
        54.964807,
        31.8
      ],
      [
        -1.54355,
        54.964712,
        30.8
      ],
      [
        -1.543558,
        54.964701,
        30.6
      ],
      [
        -1.543625,
        54.964615,
        32.4
      ],
      [
        -1.543672,
        54.964538,
        32.4
      ],
      [
        -1.543695,
        54.964516,
        32.4
      ],
      [
        -1.543695,
        54.964516,
        32.4
      ],
      [
        -1.543742,
        54.964465,
        32.2
      ],
      [
        -1.543953,
        54.964245,
        37.6
      ],
      [
        -1.544071,
        54.964133,
        37.4
      ],
      [
        -1.544449,
        54.963734,
        29.8
      ],
      [
        -1.544516,
        54.963509,
        26.6
      ],
      [
        -1.544588,
        54.963036,
        21.2
      ],
      [
        -1.545007,
        54.962653,
        28.6
      ],
      [
        -1.545072,
        54.962598,
        27.2
      ],
      [
        -1.545159,
        54.962545,
        24.4
      ],
      [
        -1.545374,
        54.962415,
        20.6
      ],
      [
        -1.545319,
        54.962411,
        18.6
      ],
      [
        -1.544717,
        54.962508,
        18.2
      ],
      [
        -1.544059,
        54.96262,
        13.2
      ],
      [
        -1.543854,
        54.962626,
        12.6
      ],
      [
        -1.543839,
        54.962607,
        11.4
      ],
      [
        -1.543891,
        54.962534,
        7.8
      ],
      [
        -1.543902,
        54.962526,
        7.2
      ],
      [
        -1.544332,
        54.962439,
        0.8
      ],
      [
        -1.544536,
        54.962358,
        6.2
      ],
      [
        -1.545033,
        54.962229,
        6.8
      ],
      [
        -1.545755,
        54.962047,
        9.2
      ],
      [
        -1.546392,
        54.961876,
        7.2
      ],
      [
        -1.546456,
        54.961857,
        6.6
      ],
      [
        -1.546798,
        54.961744,
        7.8
      ],
      [
        -1.547169,
        54.961646,
        5.4
      ],
      [
        -1.547789,
        54.961368,
        2.2
      ],
      [
        -1.548441,
        54.961093,
        3.4
      ],
      [
        -1.549106,
        54.960852,
        8.8
      ],
      [
        -1.549186,
        54.960805,
        11
      ],
      [
        -1.549163,
        54.96074,
        11.6
      ],
      [
        -1.549611,
        54.960687,
        13.2
      ],
      [
        -1.549676,
        54.960682,
        15.2
      ],
      [
        -1.549971,
        54.960674,
        16.8
      ],
      [
        -1.550079,
        54.960575,
        13.2
      ],
      [
        -1.550708,
        54.960329,
        9
      ],
      [
        -1.551461,
        54.960197,
        10.6
      ],
      [
        -1.551852,
        54.96014,
        10.8
      ],
      [
        -1.552285,
        54.960096,
        14.2
      ],
      [
        -1.552389,
        54.960105,
        14.6
      ],
      [
        -1.553168,
        54.960112,
        17.2
      ],
      [
        -1.553293,
        54.960115,
        16
      ],
      [
        -1.553574,
        54.960153,
        11.6
      ],
      [
        -1.553675,
        54.960142,
        12.8
      ],
      [
        -1.553839,
        54.960131,
        14
      ],
      [
        -1.554561,
        54.960148,
        11.6
      ],
      [
        -1.554907,
        54.960235,
        13
      ],
      [
        -1.555503,
        54.960485,
        12.8
      ],
      [
        -1.555633,
        54.960545,
        12.6
      ],
      [
        -1.555669,
        54.960555,
        12.4
      ],
      [
        -1.555747,
        54.960586,
        11
      ],
      [
        -1.555962,
        54.960722,
        8.2
      ],
      [
        -1.556016,
        54.960746,
        8
      ],
      [
        -1.556092,
        54.960795,
        7.4
      ],
      [
        -1.556343,
        54.960931,
        4.8
      ],
      [
        -1.556558,
        54.961085,
        3.2
      ],
      [
        -1.557045,
        54.961439,
        2.4
      ],
      [
        -1.557115,
        54.961452,
        2.2
      ],
      [
        -1.557136,
        54.961456,
        2
      ],
      [
        -1.557186,
        54.961466,
        1.8
      ],
      [
        -1.557459,
        54.961605,
        1.4
      ],
      [
        -1.55752,
        54.961671,
        1.4
      ],
      [
        -1.557553,
        54.961693,
        1.4
      ],
      [
        -1.557623,
        54.961723,
        1
      ],
      [
        -1.557681,
        54.961743,
        1.2
      ],
      [
        -1.558034,
        54.961885,
        2.2
      ],
      [
        -1.558155,
        54.96193,
        2.2
      ],
      [
        -1.55834,
        54.962004,
        6.2
      ],
      [
        -1.558369,
        54.962026,
        6
      ],
      [
        -1.558753,
        54.962202,
        6
      ],
      [
        -1.559351,
        54.96249,
        2
      ],
      [
        -1.559408,
        54.962512,
        1.4
      ],
      [
        -1.559467,
        54.962536,
        1.6
      ],
      [
        -1.559743,
        54.962655,
        1.6
      ],
      [
        -1.560123,
        54.962824,
        1.8
      ],
      [
        -1.56023,
        54.962869,
        1
      ],
      [
        -1.560843,
        54.963139,
        2.8
      ],
      [
        -1.561536,
        54.963378,
        1.8
      ],
      [
        -1.561906,
        54.963536,
        -2.6
      ],
      [
        -1.562431,
        54.963695,
        -3.2
      ],
      [
        -1.563156,
        54.963898,
        0.4
      ],
      [
        -1.56378,
        54.964157,
        -1.2
      ],
      [
        -1.564494,
        54.964335,
        1.2
      ],
      [
        -1.564725,
        54.964409,
        1.8
      ],
      [
        -1.565431,
        54.964621,
        3.4
      ],
      [
        -1.566123,
        54.964831,
        1
      ],
      [
        -1.566222,
        54.96486,
        1.4
      ],
      [
        -1.566312,
        54.96489,
        1.2
      ],
      [
        -1.567009,
        54.965099,
        0.8
      ],
      [
        -1.567202,
        54.965157,
        3
      ],
      [
        -1.567255,
        54.96517,
        2
      ],
      [
        -1.56737,
        54.96518,
        3.2
      ],
      [
        -1.567465,
        54.965183,
        4.2
      ],
      [
        -1.568232,
        54.965242,
        12
      ],
      [
        -1.568643,
        54.965299,
        11.6
      ],
      [
        -1.568987,
        54.965342,
        12.8
      ],
      [
        -1.569727,
        54.965442,
        9
      ],
      [
        -1.570341,
        54.96551,
        7
      ],
      [
        -1.570357,
        54.96551,
        7
      ],
      [
        -1.570868,
        54.965529,
        7
      ],
      [
        -1.571319,
        54.96557,
        5
      ],
      [
        -1.571446,
        54.96557,
        5.4
      ],
      [
        -1.57151,
        54.965584,
        5.4
      ],
      [
        -1.571566,
        54.965603,
        5.6
      ],
      [
        -1.571585,
        54.96561,
        5.8
      ],
      [
        -1.571684,
        54.965638,
        6.2
      ],
      [
        -1.57214,
        54.965622,
        3.8
      ],
      [
        -1.572392,
        54.965609,
        1
      ],
      [
        -1.572516,
        54.965568,
        3.2
      ],
      [
        -1.572625,
        54.965531,
        6
      ],
      [
        -1.57283,
        54.965481,
        5.6
      ],
      [
        -1.573407,
        54.965419,
        1
      ],
      [
        -1.574165,
        54.965472,
        -5.6
      ],
      [
        -1.574339,
        54.965526,
        -4
      ],
      [
        -1.574537,
        54.965879,
        0.6
      ],
      [
        -1.575328,
        54.965841,
        5.6
      ],
      [
        -1.575663,
        54.965833,
        4.8
      ],
      [
        -1.575935,
        54.965864,
        3.2
      ],
      [
        -1.576137,
        54.965867,
        4.2
      ],
      [
        -1.57662,
        54.965909,
        4.2
      ],
      [
        -1.576644,
        54.965912,
        4.4
      ],
      [
        -1.576694,
        54.965917,
        5
      ],
      [
        -1.57674,
        54.965919,
        5.2
      ],
      [
        -1.576816,
        54.965929,
        5
      ],
      [
        -1.576904,
        54.965932,
        5.6
      ],
      [
        -1.576989,
        54.965945,
        5.6
      ],
      [
        -1.577112,
        54.965977,
        6.8
      ],
      [
        -1.5772,
        54.966025,
        6.4
      ],
      [
        -1.577397,
        54.966137,
        5.8
      ],
      [
        -1.577474,
        54.96619,
        7.4
      ],
      [
        -1.577526,
        54.966241,
        7
      ],
      [
        -1.577558,
        54.966268,
        7
      ],
      [
        -1.577558,
        54.966268,
        7
      ],
      [
        -1.577602,
        54.966302,
        6.6
      ],
      [
        -1.577625,
        54.966343,
        6
      ],
      [
        -1.577642,
        54.966477,
        6.4
      ],
      [
        -1.577638,
        54.966523,
        8
      ],
      [
        -1.577519,
        54.966816,
        18.2
      ],
      [
        -1.577517,
        54.966827,
        18
      ],
      [
        -1.577858,
        54.96699,
        20.4
      ],
      [
        -1.578455,
        54.967066,
        19.6
      ],
      [
        -1.578726,
        54.967106,
        16.6
      ],
      [
        -1.578806,
        54.967115,
        15.4
      ],
      [
        -1.579263,
        54.967196,
        16
      ],
      [
        -1.579451,
        54.967228,
        15.4
      ],
      [
        -1.579618,
        54.967266,
        16.8
      ],
      [
        -1.579675,
        54.967259,
        17.4
      ],
      [
        -1.579729,
        54.967255,
        17.6
      ],
      [
        -1.579729,
        54.967255,
        17.6
      ],
      [
        -1.579984,
        54.967239,
        14.4
      ],
      [
        -1.580127,
        54.967238,
        9.4
      ],
      [
        -1.58028,
        54.967284,
        7
      ],
      [
        -1.58042,
        54.967311,
        7
      ],
      [
        -1.581062,
        54.967581,
        6.4
      ],
      [
        -1.581633,
        54.967828,
        5
      ],
      [
        -1.581743,
        54.967895,
        4.6
      ],
      [
        -1.58203,
        54.96801,
        3.2
      ],
      [
        -1.582313,
        54.968087,
        4.8
      ],
      [
        -1.58298,
        54.968294,
        4
      ],
      [
        -1.583026,
        54.968301,
        3.4
      ],
      [
        -1.583085,
        54.968341,
        3.8
      ],
      [
        -1.583229,
        54.968458,
        1.6
      ],
      [
        -1.583248,
        54.968489,
        0.6
      ],
      [
        -1.583289,
        54.968543,
        0.4
      ],
      [
        -1.583354,
        54.968637,
        2.2
      ],
      [
        -1.583584,
        54.968781,
        1.6
      ],
      [
        -1.583691,
        54.968877,
        -1.6
      ],
      [
        -1.584049,
        54.969065,
        -3.6
      ],
      [
        -1.584695,
        54.969338,
        2.8
      ],
      [
        -1.585233,
        54.969623,
        5.8
      ],
      [
        -1.585721,
        54.969974,
        2.2
      ],
      [
        -1.586008,
        54.970141,
        3.8
      ],
      [
        -1.586576,
        54.970456,
        6
      ],
      [
        -1.587022,
        54.970671,
        4.6
      ],
      [
        -1.587575,
        54.971,
        3.8
      ],
      [
        -1.587688,
        54.971067,
        3
      ],
      [
        -1.58836,
        54.971301,
        6
      ],
      [
        -1.589127,
        54.971394,
        2.4
      ],
      [
        -1.589465,
        54.971378,
        -2.4
      ],
      [
        -1.589506,
        54.971371,
        -2.4
      ],
      [
        -1.589506,
        54.971371,
        -2.4
      ],
      [
        -1.589636,
        54.971295,
        -1.2
      ],
      [
        -1.589722,
        54.971242,
        -1
      ],
      [
        -1.589771,
        54.971207,
        -0.6
      ],
      [
        -1.589862,
        54.971159,
        -0.6
      ],
      [
        -1.590141,
        54.970999,
        -1.4
      ],
      [
        -1.590352,
        54.971001,
        -2.4
      ],
      [
        -1.590442,
        54.971017,
        -2.4
      ],
      [
        -1.590509,
        54.971028,
        -2.4
      ],
      [
        -1.590622,
        54.971052,
        -1.8
      ],
      [
        -1.591403,
        54.971163,
        1.4
      ],
      [
        -1.592182,
        54.971207,
        2.4
      ],
      [
        -1.592443,
        54.971256,
        1.4
      ],
      [
        -1.593132,
        54.971248,
        -0.4
      ],
      [
        -1.593188,
        54.971252,
        -1
      ],
      [
        -1.593287,
        54.971258,
        -1.6
      ],
      [
        -1.593311,
        54.97126,
        -1.6
      ],
      [
        -1.593633,
        54.971281,
        -4.8
      ],
      [
        -1.594024,
        54.971288,
        -8
      ],
      [
        -1.594673,
        54.971205,
        -2.8
      ],
      [
        -1.595046,
        54.971162,
        -0.2
      ],
      [
        -1.595203,
        54.971149,
        -0.4
      ],
      [
        -1.595498,
        54.971141,
        0.4
      ],
      [
        -1.595596,
        54.97114,
        0
      ],
      [
        -1.596205,
        54.971066,
        1.4
      ],
      [
        -1.596375,
        54.971052,
        -0.2
      ],
      [
        -1.597149,
        54.970955,
        -2.4
      ],
      [
        -1.597455,
        54.970894,
        -1.4
      ],
      [
        -1.597545,
        54.970878,
        -0.4
      ],
      [
        -1.597999,
        54.970763,
        0.4
      ],
      [
        -1.598736,
        54.970597,
        1.8
      ],
      [
        -1.599443,
        54.970409,
        -0.6
      ],
      [
        -1.599589,
        54.97038,
        -1
      ],
      [
        -1.599664,
        54.97037,
        -1.6
      ],
      [
        -1.599703,
        54.970342,
        -3.2
      ],
      [
        -1.599703,
        54.970342,
        -3.2
      ],
      [
        -1.599776,
        54.970325,
        -5.2
      ],
      [
        -1.599851,
        54.970298,
        -6
      ],
      [
        -1.60045,
        54.970166,
        -1.2
      ],
      [
        -1.601016,
        54.970011,
        -0.6
      ],
      [
        -1.601443,
        54.969903,
        -3.8
      ],
      [
        -1.601509,
        54.969872,
        -2.8
      ],
      [
        -1.601619,
        54.969852,
        -1.8
      ],
      [
        -1.602319,
        54.969653,
        -1.8
      ],
      [
        -1.602584,
        54.969579,
        -4.2
      ],
      [
        -1.602751,
        54.969534,
        -4
      ],
      [
        -1.603442,
        54.969325,
        -2.6
      ],
      [
        -1.604136,
        54.969118,
        5
      ],
      [
        -1.604197,
        54.969097,
        4.8
      ],
      [
        -1.6049,
        54.968941,
        -6.8
      ],
      [
        -1.605264,
        54.96884,
        -9.8
      ],
      [
        -1.60592,
        54.968561,
        2.8
      ],
      [
        -1.606729,
        54.96848,
        -13
      ],
      [
        -1.607439,
        54.968252,
        5.2
      ],
      [
        -1.608093,
        54.967999,
        23.2
      ],
      [
        -1.608307,
        54.96798,
        20.2
      ],
      [
        -1.608323,
        54.96798,
        20.2
      ],
      [
        -1.608459,
        54.967955,
        11.2
      ],
      [
        -1.608554,
        54.967929,
        6.8
      ],
      [
        -1.608608,
        54.967887,
        8.2
      ],
      [
        -1.608639,
        54.967866,
        9.2
      ],
      [
        -1.608732,
        54.967804,
        9.4
      ],
      [
        -1.608745,
        54.967796,
        9.4
      ],
      [
        -1.608783,
        54.967769,
        11
      ],
      [
        -1.6088,
        54.967765,
        10.6
      ],
      [
        -1.608816,
        54.967761,
        10.4
      ],
      [
        -1.60887,
        54.967749,
        9.4
      ],
      [
        -1.608888,
        54.967753,
        9.2
      ],
      [
        -1.608907,
        54.967743,
        9
      ],
      [
        -1.608914,
        54.967732,
        9.8
      ],
      [
        -1.608977,
        54.967687,
        8
      ],
      [
        -1.609063,
        54.967642,
        8.2
      ],
      [
        -1.60915,
        54.967606,
        7.2
      ],
      [
        -1.609364,
        54.967478,
        6.2
      ],
      [
        -1.60997,
        54.96723,
        5.2
      ],
      [
        -1.610391,
        54.967063,
        8.6
      ],
      [
        -1.610406,
        54.967058,
        8.8
      ],
      [
        -1.610456,
        54.967033,
        9.6
      ],
      [
        -1.611102,
        54.966778,
        8.2
      ],
      [
        -1.611667,
        54.96646,
        3.8
      ],
      [
        -1.611896,
        54.966342,
        0.8
      ],
      [
        -1.6122,
        54.966222,
        0.2
      ],
      [
        -1.612818,
        54.965946,
        2.2
      ],
      [
        -1.612989,
        54.965824,
        7.4
      ],
      [
        -1.61314,
        54.96575,
        8.2
      ],
      [
        -1.613819,
        54.965513,
        1.2
      ],
      [
        -1.614505,
        54.965295,
        2.4
      ],
      [
        -1.614607,
        54.965245,
        1.6
      ],
      [
        -1.61488,
        54.965124,
        1.4
      ],
      [
        -1.615042,
        54.965045,
        2.8
      ],
      [
        -1.615235,
        54.964995,
        1.6
      ],
      [
        -1.615881,
        54.964723,
        3
      ],
      [
        -1.616202,
        54.964547,
        3
      ],
      [
        -1.616855,
        54.964287,
        -6.4
      ],
      [
        -1.616993,
        54.964248,
        -10
      ],
      [
        -1.617521,
        54.963901,
        7.2
      ],
      [
        -1.617868,
        54.963627,
        22.8
      ],
      [
        -1.618533,
        54.963392,
        2
      ],
      [
        -1.618685,
        54.96331,
        0.2
      ],
      [
        -1.619313,
        54.963025,
        0.6
      ],
      [
        -1.619537,
        54.962903,
        1.6
      ],
      [
        -1.619674,
        54.962831,
        3.8
      ],
      [
        -1.619722,
        54.9628,
        3.4
      ],
      [
        -1.620189,
        54.962624,
        3.4
      ],
      [
        -1.620343,
        54.962552,
        2.6
      ],
      [
        -1.620728,
        54.962332,
        -1.6
      ],
      [
        -1.620825,
        54.962289,
        -1.4
      ],
      [
        -1.620859,
        54.962273,
        -1.4
      ],
      [
        -1.621473,
        54.96198,
        6.2
      ],
      [
        -1.622136,
        54.961729,
        1
      ],
      [
        -1.622801,
        54.961483,
        0.4
      ],
      [
        -1.623506,
        54.961271,
        0
      ],
      [
        -1.62387,
        54.961171,
        0.4
      ],
      [
        -1.62442,
        54.961022,
        -7.2
      ],
      [
        -1.624552,
        54.960995,
        -7.8
      ],
      [
        -1.625292,
        54.960854,
        -7.4
      ],
      [
        -1.625878,
        54.960763,
        -2.2
      ],
      [
        -1.626295,
        54.960701,
        -0.6
      ],
      [
        -1.626485,
        54.960677,
        -0.8
      ],
      [
        -1.627102,
        54.960581,
        6.8
      ],
      [
        -1.627287,
        54.960552,
        6.2
      ],
      [
        -1.627385,
        54.96054,
        4.4
      ],
      [
        -1.627412,
        54.960537,
        4.2
      ],
      [
        -1.627494,
        54.960529,
        2.4
      ],
      [
        -1.627809,
        54.960497,
        1.6
      ],
      [
        -1.627856,
        54.960492,
        1.2
      ],
      [
        -1.627907,
        54.960488,
        0.4
      ],
      [
        -1.627932,
        54.960488,
        0.6
      ],
      [
        -1.627953,
        54.960485,
        0.6
      ],
      [
        -1.627993,
        54.960481,
        1
      ],
      [
        -1.628768,
        54.960418,
        -2.4
      ],
      [
        -1.62945,
        54.96041,
        4.4
      ],
      [
        -1.629537,
        54.960401,
        7.6
      ],
      [
        -1.630331,
        54.960376,
        -1.6
      ],
      [
        -1.6304,
        54.960376,
        -0.8
      ],
      [
        -1.630481,
        54.960384,
        1.4
      ],
      [
        -1.631261,
        54.960378,
        -5.2
      ],
      [
        -1.631858,
        54.960355,
        -3
      ],
      [
        -1.632646,
        54.960343,
        0
      ],
      [
        -1.633437,
        54.960314,
        1.8
      ],
      [
        -1.634072,
        54.960291,
        0.6
      ],
      [
        -1.634183,
        54.960294,
        3.4
      ],
      [
        -1.634909,
        54.960277,
        1.8
      ],
      [
        -1.63564,
        54.960266,
        0.8
      ],
      [
        -1.636363,
        54.960294,
        -0.6
      ],
      [
        -1.636406,
        54.960342,
        0.4
      ],
      [
        -1.636476,
        54.960352,
        0
      ],
      [
        -1.636798,
        54.960373,
        0
      ],
      [
        -1.637099,
        54.960375,
        0.4
      ],
      [
        -1.637146,
        54.960377,
        0.8
      ],
      [
        -1.637146,
        54.960377,
        0.8
      ],
      [
        -1.63788,
        54.960413,
        -1.6
      ],
      [
        -1.638608,
        54.96042,
        1
      ],
      [
        -1.639352,
        54.960546,
        -2.4
      ],
      [
        -1.639938,
        54.960592,
        0.4
      ],
      [
        -1.640157,
        54.96062,
        -2
      ],
      [
        -1.640212,
        54.960624,
        -2.2
      ],
      [
        -1.640665,
        54.960647,
        0.2
      ],
      [
        -1.641117,
        54.960694,
        -2.2
      ],
      [
        -1.641399,
        54.960724,
        -2.4
      ],
      [
        -1.642167,
        54.960829,
        -0.6
      ],
      [
        -1.64285,
        54.960922,
        3.8
      ],
      [
        -1.643611,
        54.961055,
        1.4
      ],
      [
        -1.644387,
        54.961162,
        -4.4
      ],
      [
        -1.644503,
        54.961179,
        -7.2
      ],
      [
        -1.644636,
        54.961193,
        -8.2
      ],
      [
        -1.644698,
        54.96119,
        -9
      ],
      [
        -1.644813,
        54.961062,
        -9.6
      ],
      [
        -1.645004,
        54.961089,
        -8
      ],
      [
        -1.644955,
        54.961122,
        -8
      ],
      [
        -1.644885,
        54.961193,
        -9.6
      ],
      [
        -1.645242,
        54.961267,
        -8.4
      ],
      [
        -1.645624,
        54.961314,
        0.8
      ],
      [
        -1.645852,
        54.961349,
        2.6
      ],
      [
        -1.646044,
        54.961379,
        2.8
      ],
      [
        -1.646072,
        54.961387,
        2.8
      ],
      [
        -1.64684,
        54.961518,
        3.8
      ],
      [
        -1.647582,
        54.961681,
        1.2
      ],
      [
        -1.648335,
        54.961809,
        9.4
      ],
      [
        -1.648513,
        54.961825,
        13.2
      ],
      [
        -1.648608,
        54.961752,
        12.4
      ],
      [
        -1.648836,
        54.961812,
        9.8
      ],
      [
        -1.649591,
        54.961955,
        15
      ],
      [
        -1.650283,
        54.962164,
        12.2
      ],
      [
        -1.650835,
        54.962446,
        9.6
      ],
      [
        -1.651189,
        54.962543,
        13
      ],
      [
        -1.651801,
        54.962749,
        16.4
      ],
      [
        -1.651956,
        54.962787,
        16.8
      ],
      [
        -1.652052,
        54.962832,
        15.8
      ],
      [
        -1.65212,
        54.962865,
        15
      ],
      [
        -1.652179,
        54.962891,
        14.2
      ],
      [
        -1.652214,
        54.962901,
        13.8
      ],
      [
        -1.652611,
        54.963006,
        12.2
      ],
      [
        -1.653216,
        54.963102,
        18.2
      ],
      [
        -1.653513,
        54.963183,
        18.4
      ],
      [
        -1.653559,
        54.963198,
        18.8
      ],
      [
        -1.654045,
        54.963299,
        16.2
      ],
      [
        -1.65455,
        54.963418,
        20.2
      ],
      [
        -1.654622,
        54.963435,
        19.6
      ],
      [
        -1.654669,
        54.963447,
        19.6
      ],
      [
        -1.65478,
        54.963473,
        20.2
      ],
      [
        -1.654839,
        54.963487,
        19.6
      ],
      [
        -1.655584,
        54.963627,
        23
      ],
      [
        -1.655915,
        54.963682,
        20.2
      ],
      [
        -1.656321,
        54.963824,
        20
      ],
      [
        -1.656515,
        54.963959,
        23
      ],
      [
        -1.656533,
        54.963969,
        23.2
      ],
      [
        -1.656696,
        54.964401,
        28.4
      ],
      [
        -1.657136,
        54.96463,
        28.2
      ],
      [
        -1.657157,
        54.964632,
        28.4
      ],
      [
        -1.657199,
        54.964637,
        29
      ],
      [
        -1.657199,
        54.964637,
        29
      ],
      [
        -1.657473,
        54.964666,
        26.8
      ],
      [
        -1.657556,
        54.964672,
        25.6
      ],
      [
        -1.657631,
        54.964671,
        25.4
      ],
      [
        -1.657863,
        54.964672,
        25.8
      ],
      [
        -1.657988,
        54.964677,
        26.4
      ],
      [
        -1.65814,
        54.964693,
        28.2
      ],
      [
        -1.658276,
        54.964694,
        30.6
      ],
      [
        -1.659086,
        54.964723,
        27.8
      ],
      [
        -1.659205,
        54.964745,
        26.6
      ],
      [
        -1.659939,
        54.9649,
        18.8
      ],
      [
        -1.660728,
        54.964916,
        21.4
      ],
      [
        -1.661214,
        54.96495,
        25.6
      ],
      [
        -1.661878,
        54.965012,
        25.4
      ],
      [
        -1.662693,
        54.965105,
        25.6
      ],
      [
        -1.663462,
        54.96525,
        21.2
      ],
      [
        -1.663776,
        54.965281,
        20.2
      ],
      [
        -1.664229,
        54.965356,
        21
      ],
      [
        -1.664342,
        54.965371,
        22.8
      ],
      [
        -1.664372,
        54.9654,
        25
      ],
      [
        -1.664118,
        54.965557,
        21
      ],
      [
        -1.664407,
        54.965693,
        18.8
      ],
      [
        -1.665071,
        54.96579,
        22.6
      ],
      [
        -1.665175,
        54.965794,
        24
      ],
      [
        -1.665962,
        54.965845,
        33.8
      ],
      [
        -1.666251,
        54.965908,
        29.6
      ],
      [
        -1.666662,
        54.965958,
        20.6
      ],
      [
        -1.667062,
        54.966103,
        13.8
      ],
      [
        -1.667154,
        54.966109,
        12
      ],
      [
        -1.667172,
        54.966108,
        11
      ],
      [
        -1.667192,
        54.966109,
        11.2
      ],
      [
        -1.667252,
        54.966122,
        10.8
      ],
      [
        -1.667566,
        54.966144,
        8.6
      ],
      [
        -1.667676,
        54.966156,
        9.4
      ],
      [
        -1.667793,
        54.966166,
        11.2
      ],
      [
        -1.667914,
        54.966173,
        12.4
      ],
      [
        -1.668239,
        54.966174,
        15.2
      ],
      [
        -1.668597,
        54.966243,
        19.4
      ],
      [
        -1.669392,
        54.966339,
        21.4
      ],
      [
        -1.670188,
        54.966316,
        19.2
      ],
      [
        -1.670362,
        54.966323,
        21.2
      ],
      [
        -1.670442,
        54.966315,
        22
      ],
      [
        -1.670558,
        54.966325,
        21.6
      ],
      [
        -1.671012,
        54.966375,
        19.8
      ],
      [
        -1.671355,
        54.966426,
        19.8
      ],
      [
        -1.67194,
        54.966487,
        25
      ],
      [
        -1.671984,
        54.966487,
        24.2
      ],
      [
        -1.672121,
        54.966492,
        24.2
      ],
      [
        -1.672228,
        54.966502,
        21.8
      ],
      [
        -1.672295,
        54.966501,
        20.6
      ],
      [
        -1.672601,
        54.966523,
        22
      ],
      [
        -1.672846,
        54.966563,
        24.8
      ],
      [
        -1.673203,
        54.966594,
        23.4
      ],
      [
        -1.673249,
        54.966606,
        23
      ],
      [
        -1.674029,
        54.966747,
        23.8
      ],
      [
        -1.674784,
        54.966905,
        22.4
      ],
      [
        -1.675554,
        54.967014,
        23.2
      ],
      [
        -1.676338,
        54.967123,
        23.6
      ],
      [
        -1.6767,
        54.967171,
        27.6
      ],
      [
        -1.677056,
        54.96723,
        30.2
      ],
      [
        -1.677205,
        54.967258,
        27.8
      ],
      [
        -1.677857,
        54.967348,
        27
      ],
      [
        -1.677979,
        54.967381,
        25.8
      ],
      [
        -1.678221,
        54.967431,
        19.4
      ],
      [
        -1.678481,
        54.967453,
        18.4
      ],
      [
        -1.679257,
        54.967543,
        17.4
      ],
      [
        -1.680026,
        54.967655,
        17
      ],
      [
        -1.680245,
        54.967679,
        18.2
      ],
      [
        -1.680432,
        54.967695,
        23.2
      ],
      [
        -1.680478,
        54.9677,
        24.8
      ],
      [
        -1.680502,
        54.967702,
        25.6
      ],
      [
        -1.680708,
        54.967709,
        31
      ],
      [
        -1.680888,
        54.967726,
        34.8
      ],
      [
        -1.681048,
        54.967765,
        31.8
      ],
      [
        -1.681524,
        54.967865,
        29
      ],
      [
        -1.681829,
        54.967927,
        25.8
      ],
      [
        -1.682015,
        54.967955,
        22.8
      ],
      [
        -1.682443,
        54.968033,
        18.8
      ],
      [
        -1.683171,
        54.968228,
        17.6
      ],
      [
        -1.683928,
        54.968336,
        20.8
      ],
      [
        -1.684307,
        54.968397,
        19.6
      ],
      [
        -1.685034,
        54.968571,
        14.2
      ],
      [
        -1.685297,
        54.968536,
        20
      ],
      [
        -1.685348,
        54.96854,
        20.2
      ],
      [
        -1.685899,
        54.968674,
        19.2
      ],
      [
        -1.686451,
        54.968741,
        16
      ],
      [
        -1.687086,
        54.968731,
        14.8
      ],
      [
        -1.687382,
        54.968779,
        13.2
      ],
      [
        -1.687596,
        54.9688,
        13
      ],
      [
        -1.687642,
        54.96881,
        12.8
      ],
      [
        -1.687882,
        54.968776,
        12.8
      ],
      [
        -1.688023,
        54.968793,
        11.8
      ],
      [
        -1.688808,
        54.968874,
        8.8
      ],
      [
        -1.68951,
        54.96889,
        13.4
      ],
      [
        -1.689781,
        54.969192,
        16
      ],
      [
        -1.690042,
        54.969427,
        21.8
      ],
      [
        -1.690371,
        54.969603,
        22.2
      ],
      [
        -1.690411,
        54.96961,
        23.4
      ],
      [
        -1.691052,
        54.969871,
        23.4
      ],
      [
        -1.691383,
        54.970127,
        25.2
      ],
      [
        -1.691745,
        54.970554,
        28
      ],
      [
        -1.691947,
        54.970783,
        30
      ],
      [
        -1.692019,
        54.970782,
        30.4
      ],
      [
        -1.692079,
        54.970815,
        31.6
      ],
      [
        -1.692273,
        54.971195,
        34.4
      ],
      [
        -1.692344,
        54.971409,
        33
      ],
      [
        -1.692374,
        54.971559,
        30.8
      ],
      [
        -1.692428,
        54.97198,
        35.2
      ],
      [
        -1.692433,
        54.972024,
        36
      ],
      [
        -1.69246,
        54.972111,
        38
      ],
      [
        -1.69248,
        54.972181,
        39.4
      ],
      [
        -1.692552,
        54.972289,
        41
      ],
      [
        -1.692567,
        54.972327,
        41.6
      ],
      [
        -1.692595,
        54.972353,
        42.6
      ],
      [
        -1.692633,
        54.972423,
        40.8
      ],
      [
        -1.692852,
        54.972728,
        42.8
      ],
      [
        -1.692959,
        54.972728,
        41.4
      ],
      [
        -1.693045,
        54.972722,
        41
      ],
      [
        -1.693702,
        54.972742,
        44.6
      ],
      [
        -1.693786,
        54.972966,
        42.6
      ],
      [
        -1.693788,
        54.973011,
        43.2
      ],
      [
        -1.693856,
        54.973258,
        42.4
      ],
      [
        -1.693992,
        54.973458,
        42.6
      ],
      [
        -1.694062,
        54.973657,
        42.6
      ],
      [
        -1.694139,
        54.973995,
        44.6
      ],
      [
        -1.694137,
        54.974216,
        45.4
      ],
      [
        -1.694261,
        54.974446,
        45.4
      ],
      [
        -1.694785,
        54.974735,
        44.6
      ],
      [
        -1.695448,
        54.974978,
        45.2
      ],
      [
        -1.696091,
        54.975234,
        45.6
      ],
      [
        -1.696639,
        54.975553,
        43.2
      ],
      [
        -1.696655,
        54.975583,
        42.8
      ],
      [
        -1.696758,
        54.97567,
        43
      ],
      [
        -1.69691,
        54.975852,
        44.2
      ],
      [
        -1.697006,
        54.976097,
        46.4
      ],
      [
        -1.697096,
        54.976552,
        46.6
      ],
      [
        -1.697129,
        54.976646,
        45.2
      ],
      [
        -1.697202,
        54.976869,
        48.4
      ],
      [
        -1.697228,
        54.976905,
        47.8
      ],
      [
        -1.697417,
        54.976923,
        46
      ],
      [
        -1.697528,
        54.976939,
        46.6
      ],
      [
        -1.698306,
        54.97687,
        47.8
      ],
      [
        -1.698665,
        54.976849,
        44.6
      ],
      [
        -1.698689,
        54.976847,
        44.4
      ],
      [
        -1.698746,
        54.976841,
        43.8
      ],
      [
        -1.698804,
        54.976847,
        43
      ],
      [
        -1.698875,
        54.97683,
        43
      ],
      [
        -1.699008,
        54.976716,
        42
      ],
      [
        -1.699305,
        54.976476,
        35.8
      ],
      [
        -1.699408,
        54.976281,
        34.8
      ],
      [
        -1.699483,
        54.976158,
        33.4
      ],
      [
        -1.699386,
        54.975955,
        32.4
      ],
      [
        -1.699343,
        54.975686,
        30
      ],
      [
        -1.699369,
        54.975559,
        30.2
      ],
      [
        -1.699453,
        54.975286,
        30.4
      ],
      [
        -1.699457,
        54.975268,
        30.2
      ],
      [
        -1.699713,
        54.974893,
        31.4
      ],
      [
        -1.699728,
        54.974883,
        31.8
      ],
      [
        -1.699764,
        54.974852,
        30.8
      ],
      [
        -1.699828,
        54.974811,
        31
      ],
      [
        -1.699891,
        54.974774,
        31.2
      ],
      [
        -1.699998,
        54.974693,
        31.2
      ],
      [
        -1.700048,
        54.974654,
        31.8
      ],
      [
        -1.70069,
        54.97446,
        30.8
      ],
      [
        -1.701174,
        54.974413,
        28.4
      ],
      [
        -1.701268,
        54.97441,
        27.8
      ],
      [
        -1.702016,
        54.974387,
        22.6
      ],
      [
        -1.702228,
        54.974326,
        22
      ],
      [
        -1.702354,
        54.974326,
        21.6
      ],
      [
        -1.702485,
        54.974322,
        21.4
      ],
      [
        -1.702592,
        54.974309,
        21.8
      ],
      [
        -1.702636,
        54.97431,
        22.2
      ],
      [
        -1.702713,
        54.97432,
        22
      ],
      [
        -1.702765,
        54.974333,
        22.6
      ],
      [
        -1.703138,
        54.974456,
        22.8
      ],
      [
        -1.703229,
        54.974486,
        21.8
      ],
      [
        -1.70345,
        54.974567,
        21.4
      ],
      [
        -1.703552,
        54.974608,
        23
      ],
      [
        -1.703939,
        54.974782,
        29.4
      ],
      [
        -1.70396,
        54.974786,
        30
      ],
      [
        -1.704146,
        54.974841,
        32.2
      ],
      [
        -1.704909,
        54.97494,
        35
      ],
      [
        -1.705284,
        54.974995,
        32.4
      ],
      [
        -1.705348,
        54.975008,
        31.6
      ],
      [
        -1.70539,
        54.975015,
        30.6
      ],
      [
        -1.70541,
        54.975019,
        30.6
      ],
      [
        -1.705431,
        54.975023,
        30.4
      ],
      [
        -1.705834,
        54.97508,
        26.8
      ],
      [
        -1.705878,
        54.975083,
        26.6
      ],
      [
        -1.706123,
        54.975105,
        28
      ],
      [
        -1.706162,
        54.975116,
        27.4
      ],
      [
        -1.70675,
        54.975226,
        25.4
      ],
      [
        -1.706847,
        54.975242,
        25.4
      ],
      [
        -1.707611,
        54.975344,
        32.6
      ],
      [
        -1.708374,
        54.975454,
        28.8
      ],
      [
        -1.708699,
        54.975502,
        32.6
      ],
      [
        -1.70945,
        54.975657,
        35.2
      ],
      [
        -1.710154,
        54.97585,
        32
      ],
      [
        -1.710382,
        54.975916,
        30.4
      ],
      [
        -1.711115,
        54.976095,
        28.6
      ],
      [
        -1.711143,
        54.976101,
        28.4
      ],
      [
        -1.711496,
        54.976182,
        24.6
      ],
      [
        -1.711762,
        54.976236,
        25.8
      ],
      [
        -1.712508,
        54.976394,
        30.4
      ],
      [
        -1.712856,
        54.97645,
        32.8
      ],
      [
        -1.713027,
        54.976489,
        34.4
      ],
      [
        -1.71346,
        54.976575,
        34.2
      ],
      [
        -1.713662,
        54.976601,
        31.4
      ],
      [
        -1.71443,
        54.976725,
        29.8
      ],
      [
        -1.714649,
        54.97674,
        30.6
      ],
      [
        -1.714739,
        54.976756,
        30.8
      ],
      [
        -1.714844,
        54.976774,
        31
      ],
      [
        -1.714866,
        54.97678,
        31
      ],
      [
        -1.714887,
        54.976786,
        31
      ],
      [
        -1.715063,
        54.976827,
        32.6
      ],
      [
        -1.715423,
        54.976922,
        35.8
      ],
      [
        -1.71567,
        54.976988,
        36
      ],
      [
        -1.716143,
        54.97711,
        35
      ],
      [
        -1.716191,
        54.977126,
        34.8
      ],
      [
        -1.716402,
        54.977179,
        32.8
      ],
      [
        -1.716631,
        54.97723,
        36
      ],
      [
        -1.71738,
        54.977368,
        35
      ],
      [
        -1.717544,
        54.977427,
        37
      ],
      [
        -1.718137,
        54.977731,
        34
      ],
      [
        -1.718887,
        54.977884,
        26.2
      ],
      [
        -1.719652,
        54.978022,
        21.2
      ],
      [
        -1.720157,
        54.978109,
        20
      ],
      [
        -1.720235,
        54.978122,
        19.2
      ],
      [
        -1.720524,
        54.978149,
        19
      ],
      [
        -1.721057,
        54.978209,
        25.2
      ],
      [
        -1.721851,
        54.978227,
        25.6
      ],
      [
        -1.722633,
        54.978277,
        27.4
      ],
      [
        -1.723202,
        54.978374,
        23.6
      ],
      [
        -1.723323,
        54.978392,
        24.2
      ],
      [
        -1.723396,
        54.978411,
        24.4
      ],
      [
        -1.723545,
        54.978427,
        25
      ],
      [
        -1.723805,
        54.978469,
        25.4
      ],
      [
        -1.72388,
        54.97848,
        26.4
      ],
      [
        -1.724118,
        54.978516,
        26.8
      ],
      [
        -1.72448,
        54.97858,
        24.6
      ],
      [
        -1.725236,
        54.978697,
        22.2
      ],
      [
        -1.725985,
        54.978828,
        18
      ],
      [
        -1.726753,
        54.978947,
        20.2
      ],
      [
        -1.727231,
        54.979022,
        24.4
      ],
      [
        -1.727455,
        54.979072,
        24
      ],
      [
        -1.727495,
        54.979085,
        23.8
      ],
      [
        -1.728051,
        54.979207,
        24.8
      ],
      [
        -1.728133,
        54.979226,
        25
      ],
      [
        -1.728449,
        54.979306,
        24.6
      ],
      [
        -1.729215,
        54.97944,
        20.8
      ],
      [
        -1.729968,
        54.979568,
        17.6
      ],
      [
        -1.73038,
        54.97964,
        20.2
      ],
      [
        -1.730431,
        54.979648,
        20.4
      ],
      [
        -1.730553,
        54.97967,
        21
      ],
      [
        -1.730627,
        54.979673,
        21
      ],
      [
        -1.730744,
        54.979698,
        20.4
      ],
      [
        -1.731488,
        54.979857,
        20.2
      ],
      [
        -1.732221,
        54.980015,
        13.4
      ],
      [
        -1.732479,
        54.980066,
        8.2
      ],
      [
        -1.733216,
        54.980216,
        14.4
      ],
      [
        -1.733354,
        54.98025,
        16.4
      ],
      [
        -1.733649,
        54.980283,
        18.6
      ],
      [
        -1.73373,
        54.980292,
        19
      ],
      [
        -1.733866,
        54.980301,
        19.8
      ],
      [
        -1.734623,
        54.980417,
        27.2
      ],
      [
        -1.734672,
        54.980412,
        27
      ],
      [
        -1.734767,
        54.980413,
        26.8
      ],
      [
        -1.735371,
        54.980476,
        14.8
      ],
      [
        -1.735968,
        54.980525,
        5.4
      ],
      [
        -1.736038,
        54.980529,
        4.6
      ],
      [
        -1.736144,
        54.980526,
        4.2
      ],
      [
        -1.736702,
        54.98055,
        -1
      ],
      [
        -1.736796,
        54.980546,
        -0.8
      ],
      [
        -1.737048,
        54.980526,
        2
      ],
      [
        -1.737141,
        54.980507,
        3.2
      ],
      [
        -1.737182,
        54.980499,
        4.4
      ],
      [
        -1.737984,
        54.980569,
        11.6
      ],
      [
        -1.738359,
        54.980611,
        13.2
      ],
      [
        -1.738652,
        54.980684,
        13
      ],
      [
        -1.739058,
        54.980764,
        9
      ],
      [
        -1.739267,
        54.980782,
        7.4
      ],
      [
        -1.73934,
        54.98078,
        8.8
      ],
      [
        -1.740131,
        54.980855,
        20.8
      ],
      [
        -1.740568,
        54.980895,
        18
      ],
      [
        -1.740646,
        54.9809,
        17.8
      ],
      [
        -1.740955,
        54.980937,
        12.2
      ],
      [
        -1.741143,
        54.980977,
        12
      ],
      [
        -1.741876,
        54.981137,
        9.6
      ],
      [
        -1.741936,
        54.981155,
        11.2
      ],
      [
        -1.742091,
        54.981209,
        11.2
      ],
      [
        -1.742661,
        54.98132,
        14.2
      ],
      [
        -1.742941,
        54.981299,
        14
      ],
      [
        -1.743118,
        54.981362,
        13
      ],
      [
        -1.74314,
        54.981365,
        12.8
      ],
      [
        -1.743851,
        54.981546,
        14.2
      ],
      [
        -1.744236,
        54.981659,
        10.4
      ]
    ]
  }
}
