{
  "type": "Feature",
  "properties": {},
  "geometry": {
    "type": "LineString",
    "coordinates": [
      [
        0.9572216402739286,
        51.85617048293352,
        -16.600000000000023
      ],
      [
        0.9573070518672466,
        51.85615237802267,
        -12
      ],
      [
        0.9573544096201658,
        51.85613821260631,
        -8.800000000000011
      ],
      [
        0.9573728498071432,
        51.85613678768277,
        -8.199999999999989
      ],
      [
        0.9574440959841013,
        51.856124717742205,
        -8.800000000000011
      ],
      [
        0.9575241431593895,
        51.85611356981099,
        -7.399999999999977
      ],
      [
        0.9580900054425001,
        51.85593570582569,
        -4.399999999999977
      ],
      [
        0.9586040675640106,
        51.85586026869714,
        1.8000000000000114
      ],
      [
        0.959066329523921,
        51.85578441247344,
        4
      ],
      [
        0.9590877871960402,
        51.85577351599932,
        4
      ],
      [
        0.9591033775359392,
        51.85536774806678,
        5.199999999999989
      ],
      [
        0.9590650722384453,
        51.855161637067795,
        5.199999999999989
      ],
      [
        0.9590488951653242,
        51.85511402785778,
        5
      ],
      [
        0.9590363223105669,
        51.85507622547448,
        5
      ],
      [
        0.9590297006070614,
        51.85505426488817,
        5
      ],
      [
        0.9589928202331066,
        51.854961728677154,
        5.199999999999989
      ],
      [
        0.9587525948882103,
        51.85484882444143,
        5.800000000000011
      ],
      [
        0.9585480764508247,
        51.85472049750388,
        5.800000000000011
      ],
      [
        0.9585066698491573,
        51.854575322940946,
        6.199999999999989
      ],
      [
        0.9588863700628281,
        51.854441883042455,
        6.199999999999989
      ],
      [
        0.95899298787117,
        51.85441422276199,
        6.399999999999977
      ],
      [
        0.9591317921876907,
        51.8543791025877,
        6.199999999999989
      ],
      [
        0.9594710078090429,
        51.85431900434196,
        4.800000000000011
      ],
      [
        0.9596740175038576,
        51.85423107817769,
        2.8000000000000114
      ],
      [
        0.9598224610090256,
        51.85423141345382,
        2.1999999999999886
      ],
      [
        0.9599450044333935,
        51.854406679049134,
        2.6000000000000227
      ],
      [
        0.959960175678134,
        51.85451799072325,
        2.8000000000000114
      ],
      [
        0.9599580802023411,
        51.8547089304775,
        8.800000000000011
      ],
      [
        0.9600092098116875,
        51.85473005287349,
        7.600000000000023
      ],
      [
        0.9604564681649208,
        51.85502015054226,
        5
      ],
      [
        0.9604868944734335,
        51.85508267953992,
        4.800000000000011
      ],
      [
        0.9611654095351696,
        51.85511251911521,
        -3.8000000000000114
      ],
      [
        0.9612110909074545,
        51.855106987059116,
        -2
      ],
      [
        0.9614125918596983,
        51.855091731995344,
        -0.6000000000000227
      ],
      [
        0.9615026973187923,
        51.85509868897498,
        -1.6000000000000227
      ],
      [
        0.9614493045955896,
        51.85507262125611,
        -2.3999999999999773
      ],
      [
        0.9613245818763971,
        51.85502937063575,
        -3
      ],
      [
        0.9612372424453497,
        51.85492040589452,
        -2.1999999999999886
      ],
      [
        0.9612343925982714,
        51.85478629544377,
        -5.399999999999977
      ],
      [
        0.961198266595602,
        51.85434825718403,
        8.600000000000023
      ],
      [
        0.9618307650089264,
        51.85434188693762,
        1.1999999999999886
      ],
      [
        0.9621709026396275,
        51.854290002956986,
        2.8000000000000114
      ],
      [
        0.9624967072159052,
        51.85388373211026,
        -3.6000000000000227
      ],
      [
        0.962827792391181,
        51.85347595252097,
        1
      ],
      [
        0.9629634115844965,
        51.85335458256304,
        3.6000000000000227
      ],
      [
        0.963025102391839,
        51.85331837274134,
        3.3999999999999773
      ],
      [
        0.963108753785491,
        51.853284845128655,
        1.6000000000000227
      ],
      [
        0.9632752183824778,
        51.85323815792799,
        0.8000000000000114
      ],
      [
        0.9634364861994982,
        51.85321510769427,
        1.8000000000000114
      ],
      [
        0.9634348936378956,
        51.85320940800011,
        2.3999999999999773
      ],
      [
        0.9634346421808004,
        51.853207563981414,
        2.1999999999999886
      ],
      [
        0.9634347259998322,
        51.853207647800446,
        2.1999999999999886
      ],
      [
        0.9634348098188639,
        51.85320748016238,
        2.1999999999999886
      ],
      [
        0.9634431079030037,
        51.85320639051497,
        2.3999999999999773
      ],
      [
        0.963456267490983,
        51.85320102609694,
        2.6000000000000227
      ],
      [
        0.9635045472532511,
        51.8531808257103,
        3.1999999999999886
      ],
      [
        0.9635741170495749,
        51.853145621716976,
        4.399999999999977
      ],
      [
        0.9636374842375517,
        51.85309750959277,
        4.399999999999977
      ],
      [
        0.9637208841741085,
        51.85303187929094,
        2.6000000000000227
      ],
      [
        0.9637553337961435,
        51.85301679186523,
        2.3999999999999773
      ],
      [
        0.9637876879423857,
        51.852999441325665,
        2
      ],
      [
        0.963802020996809,
        51.852992568165064,
        1.8000000000000114
      ],
      [
        0.9638382308185101,
        51.85297228395939,
        1.1999999999999886
      ],
      [
        0.963912745937705,
        51.85294210910797,
        0.39999999999997726
      ],
      [
        0.9639664739370346,
        51.85292257927358,
        -0.8000000000000114
      ],
      [
        0.9640602674335241,
        51.85288251377642,
        -1.6000000000000227
      ],
      [
        0.9641646221280098,
        51.85283490456641,
        -2.1999999999999886
      ],
      [
        0.9648046642541885,
        51.85260683298111,
        -2
      ],
      [
        0.9648837056010962,
        51.852579759433866,
        0
      ],
      [
        0.964983282610774,
        51.85251873917878,
        2
      ],
      [
        0.9651594702154398,
        51.85241036117077,
        1.3999999999999773
      ],
      [
        0.965218311175704,
        51.85237850993872,
        0.6000000000000227
      ],
      [
        0.9655623883008957,
        51.8522204272449,
        1.3999999999999773
      ],
      [
        0.9661312680691481,
        51.851941142231226,
        2.6000000000000227
      ],
      [
        0.9664550609886646,
        51.851789681240916,
        -1
      ],
      [
        0.9670526906847954,
        51.851537050679326,
        3
      ],
      [
        0.9676929004490376,
        51.851326832547784,
        2.1999999999999886
      ],
      [
        0.9684248920530081,
        51.851300513371825,
        3
      ],
      [
        0.969088152050972,
        51.85111083090305,
        2.6000000000000227
      ],
      [
        0.9697727020829916,
        51.85095467604697,
        4.399999999999977
      ],
      [
        0.9705036878585815,
        51.85089223086834,
        4.800000000000011
      ],
      [
        0.9712197538465261,
        51.85083079151809,
        2.3999999999999773
      ],
      [
        0.9713802672922611,
        51.85082433745265,
        0
      ],
      [
        0.971946632489562,
        51.85069927945733,
        -2
      ],
      [
        0.9725502133369446,
        51.850592913106084,
        -0.39999999999997726
      ],
      [
        0.9731668699532747,
        51.85033458285034,
        -0.19999999999998863
      ],
      [
        0.9734938479959965,
        51.8502018135041,
        -0.8000000000000114
      ],
      [
        0.9738447144627571,
        51.850059404969215,
        -0.39999999999997726
      ],
      [
        0.9740449581295252,
        51.85000257566571,
        -2.1999999999999886
      ],
      [
        0.9740979317575693,
        51.849987488240004,
        -2.1999999999999886
      ],
      [
        0.9747408237308264,
        51.849777437746525,
        -2.6000000000000227
      ],
      [
        0.9753811173141003,
        51.84954886324704,
        -0.19999999999998863
      ],
      [
        0.9754644334316254,
        51.849514497444034,
        -1.1999999999999886
      ],
      [
        0.9755530301481485,
        51.84949857182801,
        -0.8000000000000114
      ],
      [
        0.9756337478756905,
        51.84948541224003,
        -0.6000000000000227
      ],
      [
        0.97626943141222,
        51.8493037763983,
        -0.8000000000000114
      ],
      [
        0.9768589306622744,
        51.84903798624873,
        -0.8000000000000114
      ],
      [
        0.9772311709821224,
        51.848906641826034,
        0.39999999999997726
      ],
      [
        0.9778672736138105,
        51.84868963435292,
        0.39999999999997726
      ],
      [
        0.9779721312224865,
        51.84864898212254,
        0.19999999999998863
      ],
      [
        0.9781466424465179,
        51.848588548600674,
        -0.6000000000000227
      ],
      [
        0.9786827489733696,
        51.84828428551555,
        3.1999999999999886
      ],
      [
        0.9792371280491352,
        51.84799284674227,
        1.3999999999999773
      ],
      [
        0.9794349409639835,
        51.84790592640638,
        1.1999999999999886
      ],
      [
        0.9797153156250715,
        51.84790902771056,
        1
      ],
      [
        0.979784969240427,
        51.847870303317904,
        1.6000000000000227
      ],
      [
        0.9802687726914883,
        51.84752454981208,
        4.399999999999977
      ],
      [
        0.9803803358227015,
        51.84742790646851,
        6.600000000000023
      ],
      [
        0.980447307229042,
        51.84737811796367,
        6
      ],
      [
        0.9804773982614279,
        51.84736881405115,
        5.800000000000011
      ],
      [
        0.980551578104496,
        51.84727870859206,
        5.199999999999989
      ],
      [
        0.9806493110954762,
        51.84722456149757,
        3.3999999999999773
      ],
      [
        0.9807954914867878,
        51.84711174108088,
        3
      ],
      [
        0.9810451045632362,
        51.84692591428757,
        7.199999999999989
      ],
      [
        0.9810850024223328,
        51.84685232117772,
        7.199999999999989
      ],
      [
        0.9814132377505302,
        51.846439177170396,
        2.6000000000000227
      ],
      [
        0.9815522097051144,
        51.84623264707625,
        5.199999999999989
      ],
      [
        0.9818074386566877,
        51.845878679305315,
        2.3999999999999773
      ],
      [
        0.9820494242012501,
        51.84561892412603,
        1.1999999999999886
      ],
      [
        0.9820724744349718,
        51.84558195993304,
        1.3999999999999773
      ],
      [
        0.9821027331054211,
        51.84553233906627,
        1.6000000000000227
      ],
      [
        0.9821503423154354,
        51.84544684365392,
        1.1999999999999886
      ],
      [
        0.982127208262682,
        51.8454148247838,
        1.3999999999999773
      ],
      [
        0.9821873065084219,
        51.8454322591424,
        0
      ],
      [
        0.9823299665004015,
        51.84551255777478,
        0.39999999999997726
      ],
      [
        0.98238755017519,
        51.845544995740056,
        0
      ],
      [
        0.9825223311781883,
        51.845603585243225,
        0.8000000000000114
      ],
      [
        0.9824790805578232,
        51.84557877480984,
        0
      ],
      [
        0.9822175651788712,
        51.84543091803789,
        -0.39999999999997726
      ],
      [
        0.9822188224643469,
        51.84536864049733,
        0.6000000000000227
      ],
      [
        0.9822364244610071,
        51.84530426748097,
        2.6000000000000227
      ],
      [
        0.9823602251708508,
        51.84500981122255,
        3.8000000000000114
      ],
      [
        0.9824058227241039,
        51.844904869794846,
        4.800000000000011
      ],
      [
        0.9825051482766867,
        51.844455348327756,
        1.1999999999999886
      ],
      [
        0.9826189745217562,
        51.84400322847068,
        -1.1999999999999886
      ],
      [
        0.9826302900910378,
        51.84393273666501,
        -1.3999999999999773
      ],
      [
        0.9826349839568138,
        51.84384514577687,
        0
      ],
      [
        0.9827416855841875,
        51.84339285828173,
        1
      ],
      [
        0.9827953297644854,
        51.843298226594925,
        0.6000000000000227
      ],
      [
        0.9828691743314266,
        51.84301215223968,
        2.6000000000000227
      ],
      [
        0.9830279275774956,
        51.84265927411616,
        0.19999999999998863
      ],
      [
        0.9830441046506166,
        51.84263437986374,
        0
      ],
      [
        0.983068160712719,
        51.84256439097226,
        -1.6000000000000227
      ],
      [
        0.9833150077611208,
        51.84216725639999,
        -5.800000000000011
      ],
      [
        0.9837053529918194,
        51.84178135357797,
        -4
      ],
      [
        0.9837708156555891,
        51.84169242158532,
        -2.3999999999999773
      ],
      [
        0.9837927762418985,
        51.841663755476475,
        -2
      ],
      [
        0.9838187601417303,
        51.841636933386326,
        -2.1999999999999886
      ],
      [
        0.9838817920535803,
        51.84158580377698,
        -1.6000000000000227
      ],
      [
        0.9839164093136787,
        51.841500056907535,
        -2
      ],
      [
        0.9839606657624245,
        51.84150726534426,
        -2.6000000000000227
      ],
      [
        0.9840861428529024,
        51.841440461575985,
        -0.8000000000000114
      ],
      [
        0.9841830376535654,
        51.84134842827916,
        0.6000000000000227
      ],
      [
        0.9844772424548864,
        51.841098899021745,
        5.800000000000011
      ],
      [
        0.9847346507012844,
        51.840964118018746,
        5.600000000000023
      ],
      [
        0.9852638840675354,
        51.840648455545306,
        -0.19999999999998863
      ],
      [
        0.9856716636568308,
        51.8404726870358,
        4
      ],
      [
        0.9860630985349417,
        51.84024930931628,
        -0.8000000000000114
      ],
      [
        0.9862393699586391,
        51.84012450277805,
        -1.8000000000000114
      ],
      [
        0.9863357618451118,
        51.840071864426136,
        0.19999999999998863
      ],
      [
        0.9868631511926651,
        51.83977405540645,
        2.3999999999999773
      ],
      [
        0.9875074680894613,
        51.83956869877875,
        1.8000000000000114
      ],
      [
        0.988063020631671,
        51.839351523667574,
        -2.1999999999999886
      ],
      [
        0.9881462529301643,
        51.83932243846357,
        -2.1999999999999886
      ],
      [
        0.9887898154556751,
        51.8391343485564,
        -5.399999999999977
      ],
      [
        0.9894498065114021,
        51.83895405381918,
        -0.8000000000000114
      ],
      [
        0.9901709854602814,
        51.83888322673738,
        0.6000000000000227
      ],
      [
        0.9907179046422243,
        51.8387873377651,
        1.8000000000000114
      ],
      [
        0.991190979257226,
        51.83866345323622,
        1.8000000000000114
      ],
      [
        0.9918402414768934,
        51.83846404775977,
        1
      ],
      [
        0.9924357756972313,
        51.838192055001855,
        -1.3999999999999773
      ],
      [
        0.9930647537112236,
        51.837952081114054,
        -1.3999999999999773
      ],
      [
        0.9937032870948315,
        51.83785401284695,
        -2
      ],
      [
        0.9939454402774572,
        51.838050903752446,
        -3.1999999999999886
      ],
      [
        0.9939941391348839,
        51.838102200999856,
        -2.6000000000000227
      ],
      [
        0.9941141679883003,
        51.83823857456446,
        -2.6000000000000227
      ],
      [
        0.9941760264337063,
        51.83840353041887,
        -1
      ],
      [
        0.994240315631032,
        51.83854593895376,
        3.3999999999999773
      ],
      [
        0.994457071647048,
        51.838987581431866,
        11.399999999999977
      ],
      [
        0.9944999031722546,
        51.83911683037877,
        13.399999999999977
      ],
      [
        0.9945754241198301,
        51.83941137045622,
        11.399999999999977
      ],
      [
        0.9946977160871029,
        51.839855778962374,
        9.399999999999977
      ],
      [
        0.9947675373405218,
        51.840142859146,
        16.399999999999977
      ],
      [
        0.994796035811305,
        51.84025098569691,
        13.799999999999955
      ],
      [
        0.995117649435997,
        51.84066580608487,
        27.600000000000023
      ],
      [
        0.9951421245932579,
        51.84070344083011,
        27.799999999999955
      ],
      [
        0.9951722156256437,
        51.84074107557535,
        28.399999999999977
      ],
      [
        0.9954449627548456,
        51.8411566503346,
        22.399999999999977
      ],
      [
        0.9955737926065922,
        51.841298304498196,
        22
      ],
      [
        0.9958445280790329,
        51.841713627800345,
        24.200000000000045
      ],
      [
        0.9958744514733553,
        51.84185846708715,
        25.399999999999977
      ],
      [
        0.9953546058386564,
        51.84204479679465,
        28.200000000000045
      ],
      [
        0.9952963516116142,
        51.842070277780294,
        29.399999999999977
      ],
      [
        0.9951660130172968,
        51.84208570048213,
        28
      ],
      [
        0.995051097124815,
        51.84213993139565,
        26.200000000000045
      ],
      [
        0.9948485065251589,
        51.842187540605664,
        25
      ],
      [
        0.9942322690039873,
        51.84244344010949,
        22.600000000000023
      ],
      [
        0.993600357323885,
        51.84268869459629,
        22.399999999999977
      ],
      [
        0.9929723013192415,
        51.84293051250279,
        21.200000000000045
      ],
      [
        0.9923750907182693,
        51.84320711530745,
        22
      ],
      [
        0.9918810613453388,
        51.84352562762797,
        20.399999999999977
      ],
      [
        0.9916001837700605,
        51.843822095543146,
        20
      ],
      [
        0.991528769955039,
        51.84381731785834,
        21.799999999999955
      ],
      [
        0.9915121737867594,
        51.84384581632912,
        22.600000000000023
      ],
      [
        0.9912474732846022,
        51.843968611210585,
        17.600000000000023
      ],
      [
        0.990673815831542,
        51.844244208186865,
        18.600000000000023
      ],
      [
        0.9900842327624559,
        51.84452969580889,
        19.399999999999977
      ],
      [
        0.9894926380366087,
        51.84479615651071,
        20.799999999999955
      ],
      [
        0.9892332181334496,
        51.844921885058284,
        20.799999999999955
      ],
      [
        0.9890689328312874,
        51.84501802548766,
        18.799999999999955
      ],
      [
        0.9888888895511627,
        51.84507024474442,
        17.200000000000045
      ],
      [
        0.9883235301822424,
        51.84536252170801,
        16.600000000000023
      ],
      [
        0.9878261480480433,
        51.84568388387561,
        17.399999999999977
      ],
      [
        0.9876320231705904,
        51.8458638433367,
        16.600000000000023
      ],
      [
        0.9875584300607443,
        51.84592922218144,
        17
      ],
      [
        0.987338237464428,
        51.8460607342422,
        18
      ],
      [
        0.9866681881248951,
        51.84625754132867,
        16.799999999999955
      ],
      [
        0.9859610069543123,
        51.846399530768394,
        19.399999999999977
      ],
      [
        0.9852521494030952,
        51.84650011360645,
        20.200000000000045
      ],
      [
        0.9850370697677135,
        51.846511512994766,
        19.399999999999977
      ],
      [
        0.9844318125396967,
        51.846450911834836,
        15.399999999999977
      ],
      [
        0.9842260368168354,
        51.846333146095276,
        15.799999999999955
      ],
      [
        0.9839275572448969,
        51.846121586859226,
        15.799999999999955
      ],
      [
        0.9838910959661007,
        51.846108762547374,
        16
      ],
      [
        0.9836028423160315,
        51.84589753858745,
        11
      ],
      [
        0.9833758603781462,
        51.84582034125924,
        10.399999999999977
      ],
      [
        0.9834502916783094,
        51.84583308175206,
        13
      ],
      [
        0.9835377987474203,
        51.845857640728354,
        14.399999999999977
      ],
      [
        0.9836735017597675,
        51.84592427685857,
        16.799999999999955
      ],
      [
        0.9837097115814686,
        51.84596157632768,
        16.799999999999955
      ],
      [
        0.9837202727794647,
        51.84597515501082,
        16.799999999999955
      ],
      [
        0.9837481006979942,
        51.84600541368127,
        16.600000000000023
      ],
      [
        0.983774671331048,
        51.8460226804018,
        16.399999999999977
      ],
      [
        0.9837843105196953,
        51.846036929637194,
        16
      ],
      [
        0.983829153701663,
        51.8460847903043,
        14.799999999999955
      ],
      [
        0.9838601667433977,
        51.84611010365188,
        13.600000000000023
      ],
      [
        0.9839699696749449,
        51.84618931263685,
        12.799999999999955
      ],
      [
        0.9842215944081545,
        51.84633423574269,
        15.200000000000045
      ],
      [
        0.9842593967914581,
        51.846353681758046,
        15.799999999999955
      ],
      [
        0.9842777531594038,
        51.84636524878442,
        16
      ],
      [
        0.9842974506318569,
        51.846373714506626,
        16.399999999999977
      ],
      [
        0.9843141306191683,
        51.84638083912432,
        16.399999999999977
      ],
      [
        0.9846213273704052,
        51.846496257930994,
        19
      ],
      [
        0.9846758935600519,
        51.84651461429894,
        19
      ],
      [
        0.9848613850772381,
        51.846523247659206,
        17.799999999999955
      ],
      [
        0.98487907089293,
        51.84652090072632,
        17.799999999999955
      ],
      [
        0.9849819168448448,
        51.846521236002445,
        17
      ],
      [
        0.9852594416588545,
        51.846534898504615,
        16.799999999999955
      ],
      [
        0.9856580849736929,
        51.846485696733,
        17.600000000000023
      ],
      [
        0.9857002459466457,
        51.84647706337273,
        18
      ],
      [
        0.9857229609042406,
        51.846473375335336,
        18
      ],
      [
        0.9859578218311071,
        51.8464201502502,
        18.200000000000045
      ],
      [
        0.9864389430731535,
        51.846271622926,
        19.799999999999955
      ],
      [
        0.9869835153222084,
        51.84632903896272,
        19.399999999999977
      ],
      [
        0.9869525022804737,
        51.84636751189828,
        17.799999999999955
      ],
      [
        0.986938588321209,
        51.84644185937941,
        18
      ],
      [
        0.9869331400841475,
        51.84660639613867,
        21.600000000000023
      ],
      [
        0.9869280271232128,
        51.84664595872164,
        22.399999999999977
      ],
      [
        0.9869311284273863,
        51.84664855711162,
        22.600000000000023
      ],
      [
        0.9868265222758055,
        51.846801275387406,
        21.399999999999977
      ],
      [
        0.9868048969656229,
        51.846826085820794,
        21
      ],
      [
        0.9866183158010244,
        51.847031777724624,
        18.600000000000023
      ],
      [
        0.9866029769182205,
        51.847043093293905,
        18.600000000000023
      ],
      [
        0.9865701198577881,
        51.84706346131861,
        18.600000000000023
      ],
      [
        0.9865113627165556,
        51.84710478410125,
        19.200000000000045
      ],
      [
        0.9864024817943573,
        51.84720662422478,
        18.799999999999955
      ],
      [
        0.9863780904561281,
        51.847225315868855,
        18.399999999999977
      ],
      [
        0.9863438922911882,
        51.84725875966251,
        18
      ],
      [
        0.9862736519426107,
        51.84737074188888,
        17
      ],
      [
        0.9861853905022144,
        51.847455063834786,
        16.799999999999955
      ],
      [
        0.9861142281442881,
        51.8475301656872,
        17.200000000000045
      ],
      [
        0.9860448259860277,
        51.84764390811324,
        18.399999999999977
      ],
      [
        0.9860257152467966,
        51.847795117646456,
        18
      ],
      [
        0.9859503619372845,
        51.84788078069687,
        16.600000000000023
      ],
      [
        0.9858154971152544,
        51.84794775210321,
        16.399999999999977
      ],
      [
        0.9857533872127533,
        51.84802402742207,
        16
      ],
      [
        0.9857573267072439,
        51.84803525917232,
        16.799999999999955
      ],
      [
        0.985761433839798,
        51.848036013543606,
        16.799999999999955
      ],
      [
        0.9857625234872103,
        51.84803735464811,
        17
      ],
      [
        0.9857625234872103,
        51.84804213233292,
        17.600000000000023
      ],
      [
        0.9857600089162588,
        51.84804020449519,
        18
      ],
      [
        0.9857551474124193,
        51.84803861193359,
        18.799999999999955
      ],
      [
        0.9857575781643391,
        51.84803618118167,
        19.399999999999977
      ],
      [
        0.9857574943453074,
        51.848036432638764,
        19.399999999999977
      ],
      [
        0.9857581648975611,
        51.84803718701005,
        19.399999999999977
      ],
      [
        0.9857597574591637,
        51.84803718701005,
        19.600000000000023
      ],
      [
        0.9857579972594976,
        51.84804095886648,
        20
      ],
      [
        0.9857569914311171,
        51.84804121032357,
        20
      ],
      [
        0.9857697319239378,
        51.848041880875826,
        21.200000000000045
      ],
      [
        0.9857652895152569,
        51.84803735464811,
        22
      ],
      [
        0.9857625234872103,
        51.84803735464811,
        22
      ],
      [
        0.9857551474124193,
        51.848036516457796,
        21.399999999999977
      ],
      [
        0.9857535548508167,
        51.848036516457796,
        21.399999999999977
      ],
      [
        0.9857571590691805,
        51.84803266078234,
        23.600000000000023
      ],
      [
        0.9857895132154226,
        51.848037438467145,
        22.399999999999977
      ],
      [
        0.9857905190438032,
        51.84803727082908,
        22.399999999999977
      ],
      [
        0.9857838973402977,
        51.84805478900671,
        22.399999999999977
      ],
      [
        0.9857927821576595,
        51.84805881232023,
        23.600000000000023
      ],
      [
        0.9857974760234356,
        51.848057052120566,
        24.200000000000045
      ],
      [
        0.9857984818518162,
        51.84805789031088,
        24
      ],
      [
        0.985807366669178,
        51.84806006960571,
        24.399999999999977
      ],
      [
        0.985826225951314,
        51.8480658531189,
        25
      ],
      [
        0.9858224540948868,
        51.84810860082507,
        23.200000000000045
      ],
      [
        0.9858045168220997,
        51.848123436793685,
        23
      ],
      [
        0.9857932012528181,
        51.84813181869686,
        23
      ],
      [
        0.9857719950377941,
        51.84814631938934,
        23
      ],
      [
        0.9856969770044088,
        51.8482054118067,
        22.200000000000045
      ],
      [
        0.9856155049055815,
        51.848270539194345,
        22
      ],
      [
        0.9853316098451614,
        51.848557703197,
        20
      ],
      [
        0.9852768760174513,
        51.84864294715226,
        21.600000000000023
      ],
      [
        0.9852038696408272,
        51.84872534126043,
        22
      ],
      [
        0.985070513561368,
        51.84889876283705,
        22
      ],
      [
        0.984869934618473,
        51.849140748381615,
        23
      ],
      [
        0.9848089143633842,
        51.84921819716692,
        20.399999999999977
      ],
      [
        0.9847219102084637,
        51.8493143375963,
        21.200000000000045
      ],
      [
        0.9847131092101336,
        51.84932657517493,
        21.600000000000023
      ],
      [
        0.9843917470425367,
        51.84973259456456,
        20
      ],
      [
        0.984258558601141,
        51.84985010884702,
        17.399999999999977
      ],
      [
        0.9841786790639162,
        51.849927976727486,
        19.399999999999977
      ],
      [
        0.9837183449417353,
        51.85026886872947,
        22.399999999999977
      ],
      [
        0.9832621179521084,
        51.85046819038689,
        25.200000000000045
      ],
      [
        0.983242504298687,
        51.850471291691065,
        25.200000000000045
      ],
      [
        0.9830420929938555,
        51.850546561181545,
        23.600000000000023
      ],
      [
        0.9826986864209175,
        51.85065879486501,
        18.799999999999955
      ],
      [
        0.9826718643307686,
        51.85068670660257,
        21.600000000000023
      ],
      [
        0.9825815074145794,
        51.85074093751609,
        20.799999999999955
      ],
      [
        0.9823317267000675,
        51.850849986076355,
        21.200000000000045
      ],
      [
        0.9822471532970667,
        51.850889045745134,
        21.399999999999977
      ],
      [
        0.9822214208543301,
        51.85090170241892,
        21.799999999999955
      ],
      [
        0.9821672737598419,
        51.85091662220657,
        22.600000000000023
      ],
      [
        0.981916906312108,
        51.85100790113211,
        23.600000000000023
      ],
      [
        0.9813546482473612,
        51.85129431076348,
        22
      ],
      [
        0.9812509641051292,
        51.85137301683426,
        20
      ],
      [
        0.9807579405605793,
        51.85170636512339,
        17.600000000000023
      ],
      [
        0.9806549269706011,
        51.85177710838616,
        16.799999999999955
      ],
      [
        0.9802442137151957,
        51.8521480076015,
        18.600000000000023
      ],
      [
        0.9798827022314072,
        51.85245210304856,
        17.399999999999977
      ],
      [
        0.9798438102006912,
        51.85248529538512,
        17.200000000000045
      ],
      [
        0.9797291457653046,
        51.85255855321884,
        16.799999999999955
      ],
      [
        0.9797145612537861,
        51.852566013112664,
        16.799999999999955
      ],
      [
        0.9794858191162348,
        51.852706829085946,
        14.799999999999955
      ],
      [
        0.979427145794034,
        51.85272895731032,
        15
      ],
      [
        0.9794057719409466,
        51.85273331589997,
        15
      ],
      [
        0.979251628741622,
        51.85284127481282,
        16.600000000000023
      ],
      [
        0.9792475216090679,
        51.852970607578754,
        17.600000000000023
      ],
      [
        0.9794288221746683,
        51.853221813216805,
        15.399999999999977
      ],
      [
        0.9794296603649855,
        51.853234553709626,
        16
      ],
      [
        0.9794404730200768,
        51.85320395976305,
        16.799999999999955
      ],
      [
        0.9791804663836956,
        51.852846974506974,
        20.200000000000045
      ],
      [
        0.9790623653680086,
        51.852873377501965,
        19.399999999999977
      ],
      [
        0.9790501277893782,
        51.85287958011031,
        19.399999999999977
      ],
      [
        0.9789895266294479,
        51.85290774330497,
        19.600000000000023
      ],
      [
        0.9787545818835497,
        51.853052666410804,
        17.200000000000045
      ],
      [
        0.978689705953002,
        51.85310463421047,
        16.200000000000045
      ],
      [
        0.978379575535655,
        51.85351526364684,
        15.600000000000023
      ],
      [
        0.9783467184752226,
        51.85356161557138,
        16.600000000000023
      ],
      [
        0.9782618936151266,
        51.853658594191074,
        17
      ],
      [
        0.9781354106962681,
        51.85378826223314,
        16.600000000000023
      ],
      [
        0.9779932536184788,
        51.85383905656636,
        16.799999999999955
      ],
      [
        0.9772635251283646,
        51.85383218340576,
        14.399999999999977
      ],
      [
        0.9765653125941753,
        51.85371743515134,
        10.600000000000023
      ],
      [
        0.9762208163738251,
        51.85366630554199,
        12.600000000000023
      ],
      [
        0.9762006998062134,
        51.85366462916136,
        12.799999999999955
      ],
      [
        0.9761817567050457,
        51.85366169549525,
        13
      ],
      [
        0.9761115163564682,
        51.85364627279341,
        12.399999999999977
      ],
      [
        0.9760506637394428,
        51.85364241711795,
        12.399999999999977
      ],
      [
        0.9760305471718311,
        51.8536417465657,
        12.200000000000045
      ],
      [
        0.9755759965628386,
        51.85359941795468,
        7.600000000000023
      ],
      [
        0.9751905128359795,
        51.85353755950928,
        5.800000000000011
      ],
      [
        0.9750587493181229,
        51.85352775268257,
        4.199999999999989
      ],
      [
        0.9749475214630365,
        51.85351484455168,
        2.3999999999999773
      ],
      [
        0.9745708387345076,
        51.853421637788415,
        -1
      ],
      [
        0.9743464551866055,
        51.85340219177306,
        -2.6000000000000227
      ],
      [
        0.9743199683725834,
        51.85340168885887,
        -0.39999999999997726
      ],
      [
        0.9742471296340227,
        51.8533534090966,
        -1.3999999999999773
      ],
      [
        0.9742540866136551,
        51.85334603302181,
        0.39999999999997726
      ],
      [
        0.9742537513375282,
        51.853345949202776,
        0.39999999999997726
      ],
      [
        0.9742548409849405,
        51.85334511101246,
        0.6000000000000227
      ],
      [
        0.9742591995745897,
        51.85334620065987,
        0.39999999999997726
      ],
      [
        0.9742928948253393,
        51.85336749069393,
        2
      ],
      [
        0.9742990974336863,
        51.85337436385453,
        2.1999999999999886
      ],
      [
        0.9743032045662403,
        51.853381572291255,
        2.3999999999999773
      ],
      [
        0.9743052162230015,
        51.85339012183249,
        2.8000000000000114
      ],
      [
        0.9743079822510481,
        51.853397162631154,
        3
      ],
      [
        0.9743705950677395,
        51.85344787314534,
        0.8000000000000114
      ],
      [
        0.9743953216820955,
        51.853447118774056,
        0.8000000000000114
      ],
      [
        0.9743996802717447,
        51.853449465706944,
        0.39999999999997726
      ],
      [
        0.97438869997859,
        51.85345843434334,
        1
      ],
      [
        0.9743902087211609,
        51.8534588534385,
        1.8000000000000114
      ],
      [
        0.9743897058069706,
        51.853454411029816,
        1.3999999999999773
      ],
      [
        0.9743881970643997,
        51.85345742851496,
        2.3999999999999773
      ],
      [
        0.974373696371913,
        51.85346765443683,
        1.1999999999999886
      ],
      [
        0.9742202237248421,
        51.8534327019006,
        -5.600000000000023
      ],
      [
        0.9742088243365288,
        51.853429935872555,
        -5.399999999999977
      ],
      [
        0.974150151014328,
        51.853426583111286,
        -5.800000000000011
      ],
      [
        0.9740531723946333,
        51.85342289507389,
        -7.800000000000011
      ],
      [
        0.9739978518337011,
        51.85341493226588,
        -9.600000000000023
      ],
      [
        0.9738511685281992,
        51.85336723923683,
        -10.800000000000011
      ],
      [
        0.9735577180981636,
        51.8533740285784,
        -13.399999999999977
      ],
      [
        0.9732871502637863,
        51.85332172550261,
        -13.199999999999989
      ],
      [
        0.9731239546090364,
        51.85328274965286,
        -12.199999999999989
      ],
      [
        0.9728756826370955,
        51.853237403556705,
        -9.399999999999977
      ],
      [
        0.972514171153307,
        51.85314394533634,
        -7.399999999999977
      ],
      [
        0.9719818364828825,
        51.85285250656307,
        -11.800000000000011
      ],
      [
        0.9713341668248177,
        51.852652095258236,
        -8.800000000000011
      ],
      [
        0.9709903411567211,
        51.85253508388996,
        -9
      ],
      [
        0.9709750860929489,
        51.852529468014836,
        -9
      ],
      [
        0.9708529617637396,
        51.85250625014305,
        -8.399999999999977
      ],
      [
        0.9707759320735931,
        51.85250365175307,
        -8.199999999999989
      ],
      [
        0.9707346092909575,
        51.85249283909798,
        -8.800000000000011
      ],
      [
        0.9706945437937975,
        51.85248529538512,
        -8.600000000000023
      ],
      [
        0.9706133231520653,
        51.852482529357076,
        -7.800000000000011
      ],
      [
        0.9705110639333725,
        51.85246660374105,
        -8.399999999999977
      ],
      [
        0.9704939648509026,
        51.852457551285625,
        -8.399999999999977
      ],
      [
        0.9703840781003237,
        51.85244472697377,
        -7.600000000000023
      ],
      [
        0.9699726104736328,
        51.852420000359416,
        -7.600000000000023
      ],
      [
        0.969238355755806,
        51.85235411860049,
        -5.800000000000011
      ],
      [
        0.9686807077378035,
        51.852263091132045,
        -7.600000000000023
      ],
      [
        0.9681785479187965,
        51.85217985883355,
        -10.199999999999989
      ],
      [
        0.9680419228971004,
        51.852155048400164,
        -8.399999999999977
      ],
      [
        0.9673178941011429,
        51.852125376462936,
        -8
      ],
      [
        0.9669021517038345,
        51.85207952745259,
        -6.399999999999977
      ],
      [
        0.9662625286728144,
        51.851921025663614,
        -6
      ],
      [
        0.9661722555756569,
        51.851921025663614,
        -4.800000000000011
      ],
      [
        0.9661437571048737,
        51.85192957520485,
        -4.600000000000023
      ],
      [
        0.9657742828130722,
        51.85209101065993,
        -4.399999999999977
      ],
      [
        0.9656964149326086,
        51.85213526710868,
        -5
      ],
      [
        0.9651819337159395,
        51.85239619575441,
        -5.800000000000011
      ],
      [
        0.9651433769613504,
        51.85241287574172,
        -5.800000000000011
      ],
      [
        0.9645944461226463,
        51.8527022190392,
        -6.399999999999977
      ],
      [
        0.9645294025540352,
        51.852730214595795,
        -5
      ],
      [
        0.9642474353313446,
        51.85281353071332,
        -4.600000000000023
      ],
      [
        0.964210806414485,
        51.85281973332167,
        -5
      ],
      [
        0.9639853332191706,
        51.85291369445622,
        -4.199999999999989
      ],
      [
        0.9634715225547552,
        51.85321569442749,
        -1.8000000000000114
      ],
      [
        0.9628238528966904,
        51.85340378433466,
        -5.600000000000023
      ],
      [
        0.9627181570976973,
        51.85352104716003,
        -8
      ],
      [
        0.9625848010182381,
        51.853769402951,
        -5
      ],
      [
        0.9625699650496244,
        51.85383344069123,
        -4.600000000000023
      ],
      [
        0.962511207908392,
        51.853920025750995,
        -3.6000000000000227
      ],
      [
        0.9622519556432962,
        51.85415379703045,
        4
      ],
      [
        0.9617098979651928,
        51.85423107817769,
        -11.399999999999977
      ],
      [
        0.9611595422029495,
        51.854353956878185,
        -9.399999999999977
      ],
      [
        0.9612058941274881,
        51.85479300096631,
        5.600000000000023
      ],
      [
        0.9611872024834156,
        51.8550733756274,
        5.600000000000023
      ],
      [
        0.9610326401889324,
        51.85510028153658,
        3.8000000000000114
      ],
      [
        0.9606294706463814,
        51.8550680950284,
        -10.199999999999989
      ],
      [
        0.9605375211685896,
        51.85488092713058,
        -13.399999999999977
      ],
      [
        0.9602447412908077,
        51.854766765609384,
        -2.8000000000000114
      ],
      [
        0.9600698109716177,
        51.85477389022708,
        -8.399999999999977
      ],
      [
        0.9599627740681171,
        51.854716055095196,
        -11
      ],
      [
        0.9599502850323915,
        51.854680851101875,
        -12
      ],
      [
        0.9599523805081844,
        51.854629972949624,
        -13
      ],
      [
        0.9599574934691191,
        51.8545466568321,
        -13
      ],
      [
        0.9600017499178648,
        51.85446308925748,
        -10.800000000000011
      ],
      [
        0.9600269794464111,
        51.85442067682743,
        -9.199999999999989
      ],
      [
        0.9600209444761276,
        51.85440978035331,
        -8.800000000000011
      ],
      [
        0.9598434995859861,
        51.85423342511058,
        -6.800000000000011
      ],
      [
        0.9597922023385763,
        51.85417969711125,
        -6.399999999999977
      ],
      [
        0.9597232192754745,
        51.85417684726417,
        -6.600000000000023
      ],
      [
        0.9597094729542732,
        51.85417592525482,
        -6.600000000000023
      ],
      [
        0.9596926253288984,
        51.85417575761676,
        -6.600000000000023
      ],
      [
        0.9593126736581326,
        51.85427265241742,
        -5.600000000000023
      ],
      [
        0.958782434463501,
        51.85438890941441,
        -6.199999999999989
      ],
      [
        0.9587672632187605,
        51.85439318418503,
        -6
      ],
      [
        0.9587598871439695,
        51.85439821332693,
        -6.199999999999989
      ],
      [
        0.958764161914587,
        51.854401314631104,
        -5.600000000000023
      ],
      [
        0.9587675146758556,
        51.8543912563473,
        -4
      ],
      [
        0.9587675146758556,
        51.85439083725214,
        -4
      ],
      [
        0.9587679337710142,
        51.854395028203726,
        -3
      ],
      [
        0.9587686881422997,
        51.854396453127265,
        -2.3999999999999773
      ],
      [
        0.9587723761796951,
        51.854395531117916,
        -2.3999999999999773
      ],
      [
        0.9587722923606634,
        51.85439863242209,
        -3.3999999999999773
      ],
      [
        0.9587773215025663,
        51.85439871624112,
        -3.3999999999999773
      ],
      [
        0.9587791655212641,
        51.8543981295079,
        -3.1999999999999886
      ],
      [
        0.958781260997057,
        51.85439821332693,
        -3.1999999999999886
      ],
      [
        0.958780087530613,
        51.854398464784026,
        -3.3999999999999773
      ],
      [
        0.9587784111499786,
        51.85440206900239,
        -2.1999999999999886
      ],
      [
        0.9587784111499786,
        51.85440106317401,
        -3
      ],
      [
        0.9587779082357883,
        51.854400895535946,
        -2.6000000000000227
      ],
      [
        0.9587788302451372,
        51.8543997220695,
        -2.1999999999999886
      ],
      [
        0.9587811771780252,
        51.85440056025982,
        -2.1999999999999886
      ],
      [
        0.9587723761796951,
        51.85439829714596,
        -2
      ],
      [
        0.9587711188942194,
        51.85439829714596,
        -2
      ],
      [
        0.9587753936648369,
        51.854398883879185,
        -2
      ],
      [
        0.9587682690471411,
        51.854395447298884,
        -1.8000000000000114
      ],
      [
        0.9587670117616653,
        51.854394944384694,
        -1.1999999999999886
      ],
      [
        0.9587605576962233,
        51.85439175926149,
        -1.3999999999999773
      ],
      [
        0.9587607253342867,
        51.854391507804394,
        -1.3999999999999773
      ],
      [
        0.9587607253342867,
        51.85439192689955,
        -1.3999999999999773
      ],
      [
        0.9587601386010647,
        51.854392010718584,
        -1.3999999999999773
      ],
      [
        0.9587602224200964,
        51.85439242981374,
        -1.3999999999999773
      ],
      [
        0.9586052410304546,
        51.854468705132604,
        1
      ],
      [
        0.9579729940742254,
        51.854685209691525,
        0.8000000000000114
      ],
      [
        0.957703934982419,
        51.85472594574094,
        1.3999999999999773
      ],
      [
        0.9571541659533978,
        51.854597702622414,
        1.8000000000000114
      ],
      [
        0.9564417880028486,
        51.854696022346616,
        1.1999999999999886
      ],
      [
        0.9557138197124004,
        51.85474522411823,
        4.600000000000023
      ],
      [
        0.9555111452937126,
        51.85477439314127,
        4.199999999999989
      ],
      [
        0.9554164297878742,
        51.8547694478184,
        5.399999999999977
      ],
      [
        0.9546859469264746,
        51.85472695156932,
        6.399999999999977
      ],
      [
        0.9539645165205002,
        51.854652436450124,
        9.399999999999977
      ],
      [
        0.9538273885846138,
        51.85464723967016,
        10.600000000000023
      ],
      [
        0.9534024260938168,
        51.854634918272495,
        9
      ],
      [
        0.9528485499322414,
        51.85472024604678,
        6.800000000000011
      ],
      [
        0.9529508929699659,
        51.855016043409705,
        4.399999999999977
      ],
      [
        0.9525063168257475,
        51.85516155324876,
        2.1999999999999886
      ],
      [
        0.9524671733379364,
        51.85514789074659,
        2.8000000000000114
      ],
      [
        0.9517770074307919,
        51.855304883792996,
        1
      ],
      [
        0.9511634521186352,
        51.855562375858426,
        1
      ],
      [
        0.9506489709019661,
        51.855883402749896,
        1.1999999999999886
      ],
      [
        0.9502976015210152,
        51.856161346659064,
        1.6000000000000227
      ],
      [
        0.9499080944806337,
        51.85654129832983,
        2.8000000000000114
      ],
      [
        0.9498475771397352,
        51.85698092915118,
        4
      ],
      [
        0.9498685318976641,
        51.857003727927804,
        4
      ],
      [
        0.9502725396305323,
        51.857388289645314,
        6.800000000000011
      ],
      [
        0.9506288543343544,
        51.85778249055147,
        9.199999999999989
      ],
      [
        0.9509979095309973,
        51.85817141085863,
        6.399999999999977
      ],
      [
        0.951321367174387,
        51.85857851989567,
        7
      ],
      [
        0.9516175836324692,
        51.858989065513015,
        1.3999999999999773
      ],
      [
        0.9518796857446432,
        51.85935133136809,
        3.8000000000000114
      ],
      [
        0.9521964378654957,
        51.85970664024353,
        5.600000000000023
      ],
      [
        0.9522289596498013,
        51.85972927138209,
        5
      ],
      [
        0.9522034786641598,
        51.86004619114101,
        4.199999999999989
      ],
      [
        0.9521387703716755,
        51.86050518415868,
        2.3999999999999773
      ],
      [
        0.9521148819476366,
        51.86095470562577,
        -4.199999999999989
      ],
      [
        0.9519955236464739,
        51.86129283159971,
        2.6000000000000227
      ],
      [
        0.9518784284591675,
        51.861742017790675,
        -1.1999999999999886
      ],
      [
        0.9518453199416399,
        51.86219229362905,
        -2.1999999999999886
      ],
      [
        0.951823191717267,
        51.86232288368046,
        0.6000000000000227
      ],
      [
        0.951762842014432,
        51.86245850287378,
        1.6000000000000227
      ],
      [
        0.9516520332545042,
        51.862905928865075,
        -3
      ],
      [
        0.9515354409813881,
        51.86327397823334,
        0.6000000000000227
      ],
      [
        0.9514874964952469,
        51.86341445893049,
        1.8000000000000114
      ],
      [
        0.9514525439590216,
        51.86348268762231,
        2.6000000000000227
      ],
      [
        0.9514129813760519,
        51.86358595266938,
        3
      ],
      [
        0.9510889369994402,
        51.86398518271744,
        2.8000000000000114
      ],
      [
        0.9509151801466942,
        51.864419197663665,
        4.600000000000023
      ],
      [
        0.950439004227519,
        51.86475715599954,
        2
      ],
      [
        0.9501572884619236,
        51.86517650261521,
        -3.3999999999999773
      ],
      [
        0.9499270375818014,
        51.86531228944659,
        0
      ],
      [
        0.9493641927838326,
        51.86559408903122,
        0.8000000000000114
      ],
      [
        0.9493377897888422,
        51.86561646871269,
        1
      ],
      [
        0.9493202716112137,
        51.86564119532704,
        1.1999999999999886
      ],
      [
        0.9492999035865068,
        51.86567899771035,
        1.1999999999999886
      ],
      [
        0.9491395577788353,
        51.86583842150867,
        1
      ],
      [
        0.9487000945955515,
        51.86620085500181,
        0.19999999999998863
      ],
      [
        0.9481570310890675,
        51.86650251969695,
        1
      ],
      [
        0.9478090982884169,
        51.86669832095504,
        0.39999999999997726
      ],
      [
        0.947690661996603,
        51.86676143668592,
        -0.8000000000000114
      ],
      [
        0.9471179265528917,
        51.86704088933766,
        0.39999999999997726
      ],
      [
        0.9465252421796322,
        51.867300225421786,
        0.39999999999997726
      ],
      [
        0.9463538322597742,
        51.86738597229123,
        1.3999999999999773
      ],
      [
        0.9458977729082108,
        51.86774220317602,
        1.1999999999999886
      ],
      [
        0.9454697091132402,
        51.86800698749721,
        1.1999999999999886
      ],
      [
        0.9454450663179159,
        51.86802660115063,
        1
      ],
      [
        0.9449434094130993,
        51.868364894762635,
        1
      ],
      [
        0.9443096537142992,
        51.86859682202339,
        3.6000000000000227
      ],
      [
        0.9436840284615755,
        51.868849620223045,
        2.1999999999999886
      ],
      [
        0.9431460779160261,
        51.86909068375826,
        5.399999999999977
      ],
      [
        0.9431247040629387,
        51.869115913286805,
        3.1999999999999886
      ],
      [
        0.9430491831153631,
        51.86917592771351,
        2.6000000000000227
      ],
      [
        0.943005932494998,
        51.869205348193645,
        2.8000000000000114
      ],
      [
        0.9424933791160583,
        51.86952654272318,
        3.1999999999999886
      ],
      [
        0.9423495456576347,
        51.86961706727743,
        2.8000000000000114
      ],
      [
        0.9420813247561455,
        51.86983063817024,
        2.1999999999999886
      ],
      [
        0.9420757088810205,
        51.869855700060725,
        2.1999999999999886
      ],
      [
        0.9420431032776833,
        51.869937255978584,
        1.3999999999999773
      ],
      [
        0.9420862700790167,
        51.86999668367207,
        1.3999999999999773
      ],
      [
        0.9423572570085526,
        51.87017169781029,
        0.39999999999997726
      ],
      [
        0.9420653153210878,
        51.870569586753845,
        -0.39999999999997726
      ],
      [
        0.94155577942729,
        51.87090125866234,
        -0.19999999999998863
      ],
      [
        0.9408949501812458,
        51.87103503383696,
        4.199999999999989
      ],
      [
        0.9402813948690891,
        51.87125522643328,
        5.199999999999989
      ],
      [
        0.9399695042520761,
        51.87139989808202,
        5.399999999999977
      ],
      [
        0.9395171329379082,
        51.87176174484193,
        4
      ],
      [
        0.9391237702220678,
        51.872133146971464,
        4
      ],
      [
        0.9390140511095524,
        51.87229466624558,
        3.3999999999999773
      ],
      [
        0.9387293178588152,
        51.8727130908519,
        3.3999999999999773
      ],
      [
        0.9386544674634933,
        51.87282138504088,
        3.3999999999999773
      ],
      [
        0.9386090375483036,
        51.872890032827854,
        5.600000000000023
      ],
      [
        0.9384053573012352,
        51.873208209872246,
        5
      ],
      [
        0.9380226396024227,
        51.87359595671296,
        5
      ],
      [
        0.9377240762114525,
        51.87401220202446,
        4.800000000000011
      ],
      [
        0.9376687556505203,
        51.87410733662546,
        5
      ],
      [
        0.9376055561006069,
        51.87417338602245,
        4.800000000000011
      ],
      [
        0.9376014489680529,
        51.87419056892395,
        4.800000000000011
      ],
      [
        0.9373290371149778,
        51.87461854889989,
        4.600000000000023
      ],
      [
        0.9371679369360209,
        51.87506379559636,
        4.800000000000011
      ],
      [
        0.9370263665914536,
        51.87551138922572,
        6
      ],
      [
        0.936772059649229,
        51.87593693844974,
        6.800000000000011
      ],
      [
        0.9363942034542561,
        51.876315549016,
        6.199999999999989
      ],
      [
        0.9359399881213903,
        51.87668024562299,
        5
      ],
      [
        0.9353377483785152,
        51.87692550010979,
        4.199999999999989
      ],
      [
        0.934748500585556,
        51.877202270552516,
        4.399999999999977
      ],
      [
        0.9341936185956001,
        51.87748675234616,
        2.6000000000000227
      ],
      [
        0.9340068697929382,
        51.877705520018935,
        2.1999999999999886
      ],
      [
        0.9339554887264967,
        51.87777458690107,
        2.1999999999999886
      ],
      [
        0.9336529858410358,
        51.87813148833811,
        3.1999999999999886
      ],
      [
        0.9331656619906425,
        51.87834405340254,
        0.39999999999997726
      ],
      [
        0.9328762348741293,
        51.878365678712726,
        0.39999999999997726
      ],
      [
        0.9321763459593058,
        51.878275321796536,
        3.6000000000000227
      ],
      [
        0.9321280661970377,
        51.87828278169036,
        4.199999999999989
      ],
      [
        0.9315484575927258,
        51.87854924239218,
        2.6000000000000227
      ],
      [
        0.930964658036828,
        51.87881587073207,
        2.8000000000000114
      ],
      [
        0.9308531787246466,
        51.878867000341415,
        2.3999999999999773
      ],
      [
        0.9307447168976068,
        51.878921231254935,
        2.3999999999999773
      ],
      [
        0.9305538609623909,
        51.87902105972171,
        6.600000000000023
      ],
      [
        0.9300175867974758,
        51.87933345325291,
        2.8000000000000114
      ],
      [
        0.929481228813529,
        51.87963587231934,
        0.6000000000000227
      ],
      [
        0.9294638782739639,
        51.88007173128426,
        0.6000000000000227
      ],
      [
        0.9294978249818087,
        51.880354788154364,
        5
      ],
      [
        0.9294259920716286,
        51.88038202933967,
        5.800000000000011
      ],
      [
        0.9290458727627993,
        51.880361745133996,
        12.399999999999977
      ],
      [
        0.9286924917250872,
        51.880352441221476,
        23
      ],
      [
        0.9286427870392799,
        51.880379347130656,
        23.200000000000045
      ],
      [
        0.9279625117778778,
        51.88052284531295,
        14.399999999999977
      ],
      [
        0.9279066044837236,
        51.88053525052965,
        14
      ],
      [
        0.9278087038546801,
        51.880642203614116,
        9.800000000000011
      ],
      [
        0.9277575742453337,
        51.88078519888222,
        6.600000000000023
      ],
      [
        0.9276786167174578,
        51.880868850275874,
        3.6000000000000227
      ],
      [
        0.9275534749031067,
        51.88101025298238,
        1.1999999999999886
      ],
      [
        0.9275398124009371,
        51.88103238120675,
        1.1999999999999886
      ],
      [
        0.9273954760283232,
        51.88112676143646,
        2
      ],
      [
        0.9271420910954475,
        51.88141543418169,
        1.1999999999999886
      ],
      [
        0.9271079767495394,
        51.88145449385047,
        1.3999999999999773
      ],
      [
        0.9270931407809258,
        51.88190418295562,
        -1.1999999999999886
      ],
      [
        0.9270823281258345,
        51.88196905888617,
        -0.39999999999997726
      ],
      [
        0.9269515704363585,
        51.8824147246778,
        2.1999999999999886
      ],
      [
        0.9269500616937876,
        51.88242486678064,
        2.1999999999999886
      ],
      [
        0.9271330386400223,
        51.882161842659116,
        1.6000000000000227
      ],
      [
        0.9278142359107733,
        51.88233241438866,
        -0.8000000000000114
      ],
      [
        0.9277347754687071,
        51.882773051038384,
        3.1999999999999886
      ],
      [
        0.9276832267642021,
        51.88315484672785,
        -1.6000000000000227
      ],
      [
        0.9276154171675444,
        51.8836079724133,
        1.1999999999999886
      ],
      [
        0.9275569953024387,
        51.88405933789909,
        4.800000000000011
      ],
      [
        0.9276603441685438,
        51.8844922631979,
        -1.8000000000000114
      ],
      [
        0.9276058617979288,
        51.884632743895054,
        0.8000000000000114
      ],
      [
        0.9275930374860764,
        51.884730057790875,
        1.8000000000000114
      ],
      [
        0.9274737630039454,
        51.88517287373543,
        4.199999999999989
      ],
      [
        0.9276496153324842,
        51.8855869397521,
        5.399999999999977
      ],
      [
        0.92751894146204,
        51.88587661832571,
        11.399999999999977
      ],
      [
        0.9273860044777393,
        51.88592749647796,
        8.800000000000011
      ],
      [
        0.9270490519702435,
        51.88647667877376,
        17.399999999999977
      ],
      [
        0.9267394244670868,
        51.88691287301481,
        26
      ],
      [
        0.9264857042580843,
        51.88740413635969,
        40.39999999999998
      ],
      [
        0.9260845463722944,
        51.88788768835366,
        64.20000000000005
      ],
      [
        0.9243921563029289,
        51.88812917098403,
        56.200000000000045
      ]
    ]
  }
}
