{
  "type": "Feature",
  "properties": {
    "id": "intervals-178055317",
    "activity": "walking",
    "name": "Ko Samui Walking",
    "date": "2024-06-20T23:31:09Z",
    "distanceKm": 4.93,
    "movingTimeSeconds": 4161,
    "elapsedTimeSeconds": 4185,
    "ascentM": null,
    "descentM": null
  },
  "geometry": {
    "type": "LineString",
    "coordinates": [
      [
        100.02595564350486,
        9.484811592847109
      ],
      [
        100.02595564350486,
        9.484811592847109
      ],
      [
        100.02594416029751,
        9.484804468229413
      ],
      [
        100.02588355913758,
        9.484812263399363
      ],
      [
        100.0258270651102,
        9.484840845689178
      ],
      [
        100.02579336985946,
        9.48486490175128
      ],
      [
        100.02576244063675,
        9.4848776422441
      ],
      [
        100.025723464787,
        9.484904548153281
      ],
      [
        100.02564651891589,
        9.484987696632743
      ],
      [
        100.0255561619997,
        9.485153993591666
      ],
      [
        100.02554023638368,
        9.485195567831397
      ],
      [
        100.02549514174461,
        9.485253235325217
      ],
      [
        100.02547301352024,
        9.48526656255126
      ],
      [
        100.02532079815865,
        9.485362619161606
      ],
      [
        100.0253061298281,
        9.48536479845643
      ],
      [
        100.02513044513762,
        9.4854268245399
      ],
      [
        100.02511912956834,
        9.485430177301168
      ],
      [
        100.02505727112293,
        9.48546102270484
      ],
      [
        100.02489482983947,
        9.485516929998994
      ],
      [
        100.02478645183146,
        9.485570406541228
      ],
      [
        100.02475661225617,
        9.485577028244734
      ],
      [
        100.02466298639774,
        9.485592618584633
      ],
      [
        100.02455075271428,
        9.485605107620358
      ],
      [
        100.02450901083648,
        9.485614160075784
      ],
      [
        100.02440063282847,
        9.48564039543271
      ],
      [
        100.02432469278574,
        9.485667888075113
      ],
      [
        100.02419854514301,
        9.485702840611339
      ],
      [
        100.02417365089059,
        9.485710635781288
      ],
      [
        100.02398882992566,
        9.485762771219015
      ],
      [
        100.02391297370195,
        9.485793113708496
      ],
      [
        100.02385656349361,
        9.485818427056074
      ],
      [
        100.02379504032433,
        9.485856145620346
      ],
      [
        100.02378900535405,
        9.485865784808993
      ],
      [
        100.0237883348018,
        9.485877519473433
      ],
      [
        100.02375992015004,
        9.485919596627355
      ],
      [
        100.02371801063418,
        9.485934516415
      ],
      [
        100.02371113747358,
        9.485944071784616
      ],
      [
        100.023651458323,
        9.485969971865416
      ],
      [
        100.02348239533603,
        9.486065777018666
      ],
      [
        100.02334426157176,
        9.486111961305141
      ],
      [
        100.02330637536943,
        9.48612704873085
      ],
      [
        100.02312432043254,
        9.486167868599296
      ],
      [
        100.02306874841452,
        9.486183794215322
      ],
      [
        100.02299188636243,
        9.486187985166907
      ],
      [
        100.02294050529599,
        9.486185722053051
      ],
      [
        100.02291820943356,
        9.48619058355689
      ],
      [
        100.02287797629833,
        9.486192595213652
      ],
      [
        100.02285559661686,
        9.48619443923235
      ],
      [
        100.02266624942422,
        9.486147165298462
      ],
      [
        100.0226138625294,
        9.48613434098661
      ],
      [
        100.02254454419017,
        9.486135430634022
      ],
      [
        100.02253239043057,
        9.486136436462402
      ],
      [
        100.02250565215945,
        9.486133251339197
      ],
      [
        100.022464832291,
        9.486137609928846
      ],
      [
        100.02233650535345,
        9.486185135319829
      ],
      [
        100.02230507321656,
        9.486204162240028
      ],
      [
        100.02227037213743,
        9.48622277006507
      ],
      [
        100.0222340784967,
        9.486242048442364
      ],
      [
        100.02219334244728,
        9.486263422295451
      ],
      [
        100.02215629443526,
        9.486285550519824
      ],
      [
        100.02212192863226,
        9.486304242163897
      ],
      [
        100.02202486619353,
        9.486375153064728
      ],
      [
        100.02196091227233,
        9.486412703990936
      ],
      [
        100.02179847098887,
        9.486490404233336
      ],
      [
        100.02177047543228,
        9.4865008816123
      ],
      [
        100.02174633555114,
        9.48651060461998
      ],
      [
        100.02170970663428,
        9.48652133345604
      ],
      [
        100.02162362448871,
        9.486570870503783
      ],
      [
        100.02149898558855,
        9.486654605716467
      ],
      [
        100.02136060036719,
        9.486774131655693
      ],
      [
        100.02132036723197,
        9.48680623434484
      ],
      [
        100.02124291844666,
        9.486917546018958
      ],
      [
        100.02122540026903,
        9.486998096108437
      ],
      [
        100.02118659205735,
        9.487080909311771
      ],
      [
        100.02113697119057,
        9.487186772748828
      ],
      [
        100.021040327847,
        9.487345609813929
      ],
      [
        100.02102406695485,
        9.487376371398568
      ],
      [
        100.02101392485201,
        9.487392632290721
      ],
      [
        100.02092532813549,
        9.487489275634289
      ],
      [
        100.02079959958792,
        9.48762472718954
      ],
      [
        100.0207916367799,
        9.48763495311141
      ],
      [
        100.02073715440929,
        9.487678874284029
      ],
      [
        100.02072013914585,
        9.487697314471006
      ],
      [
        100.02069868147373,
        9.487726986408234
      ],
      [
        100.02067822963,
        9.487756658345461
      ],
      [
        100.02057303674519,
        9.48791298083961
      ],
      [
        100.02050799317658,
        9.48798674158752
      ],
      [
        100.02048594877124,
        9.488009037449956
      ],
      [
        100.02046608366072,
        9.488028902560472
      ],
      [
        100.02041403204203,
        9.488096879795194
      ],
      [
        100.02039953134954,
        9.488119259476662
      ],
      [
        100.02037849277258,
        9.488201485946774
      ],
      [
        100.02034597098827,
        9.488283544778824
      ],
      [
        100.0203357450664,
        9.488305505365133
      ],
      [
        100.02029484137893,
        9.4883987121284
      ],
      [
        100.02020037733018,
        9.488552352413535
      ],
      [
        100.02016366459429,
        9.488672548905015
      ],
      [
        100.02008479088545,
        9.488841192796826
      ],
      [
        100.02006920054555,
        9.488899279385805
      ],
      [
        100.02005201764405,
        9.488912606611848
      ],
      [
        100.02000357024372,
        9.48908812366426
      ],
      [
        100.01999049447477,
        9.489127602428198
      ],
      [
        100.0199649296701,
        9.489261293783784
      ],
      [
        100.01995604485273,
        9.489290043711662
      ],
      [
        100.01992419362068,
        9.489409569650888
      ],
      [
        100.01992276869714,
        9.489434296265244
      ],
      [
        100.01990332268178,
        9.489501770585775
      ],
      [
        100.01989033073187,
        9.489534124732018
      ],
      [
        100.01988044008613,
        9.489588774740696
      ],
      [
        100.01988119445741,
        9.489596402272582
      ],
      [
        100.01987096853554,
        9.489691536873579
      ],
      [
        100.01984691247344,
        9.489803602918983
      ],
      [
        100.01985009759665,
        9.489841489121318
      ],
      [
        100.01988647505641,
        9.48990167118609
      ],
      [
        100.01993408426642,
        9.489941066130996
      ],
      [
        100.01999150030315,
        9.489981466904283
      ],
      [
        100.02001379616559,
        9.489988340064883
      ],
      [
        100.02001874148846,
        9.489992782473564
      ],
      [
        100.02002963796258,
        9.489999823272228
      ],
      [
        100.02011379227042,
        9.490047683939338
      ],
      [
        100.020139105618,
        9.490061849355698
      ],
      [
        100.0201909057796,
        9.490072662010789
      ],
      [
        100.0202445499599,
        9.490072997286916
      ],
      [
        100.02042668871582,
        9.490020861849189
      ],
      [
        100.02061251550913,
        9.48999060317874
      ],
      [
        100.02072759903967,
        9.489978281781077
      ],
      [
        100.02079465426505,
        9.489988507702947
      ],
      [
        100.02091937698424,
        9.490005942061543
      ],
      [
        100.02110889181495,
        9.490008875727654
      ],
      [
        100.0211732648313,
        9.490034775808454
      ],
      [
        100.02120897173882,
        9.49005858041346
      ],
      [
        100.02123730257154,
        9.49007861316204
      ],
      [
        100.02124551683664,
        9.490118343383074
      ],
      [
        100.02125540748239,
        9.49016067199409
      ],
      [
        100.02123101614416,
        9.490303751081228
      ],
      [
        100.02121618017554,
        9.490382708609104
      ],
      [
        100.02121576108038,
        9.490392347797751
      ],
      [
        100.02117477357388,
        9.490533163771033
      ],
      [
        100.02117158845067,
        9.49062678962946
      ],
      [
        100.02116672694683,
        9.490644978359342
      ],
      [
        100.02116538584232,
        9.490696862339973
      ],
      [
        100.02117116935551,
        9.490797277539968
      ],
      [
        100.02117435447872,
        9.49081839993596
      ],
      [
        100.02110352739692,
        9.49098008684814
      ],
      [
        100.02109296619892,
        9.490980338305235
      ],
      [
        100.0210783816874,
        9.490981344133615
      ],
      [
        100.02106790430844,
        9.49097958393395
      ],
      [
        100.0210025254637,
        9.49095368385315
      ],
      [
        100.02097486518323,
        9.490928873419762
      ],
      [
        100.0208436883986,
        9.490788727998734
      ],
      [
        100.02074159681797,
        9.490790739655495
      ],
      [
        100.02073086798191,
        9.490796439349651
      ],
      [
        100.02061503008008,
        9.4909165520221
      ],
      [
        100.02059332095087,
        9.490936752408743
      ],
      [
        100.02058577723801,
        9.490945972502232
      ],
      [
        100.02054956741631,
        9.490989139303565
      ],
      [
        100.02053464762866,
        9.490999365225434
      ],
      [
        100.02036499790847,
        9.491078238934278
      ],
      [
        100.02032794989645,
        9.49108955450356
      ],
      [
        100.02016860991716,
        9.491083854809403
      ],
      [
        100.02007096074522,
        9.491088967770338
      ],
      [
        100.01998621970415,
        9.491122076287866
      ],
      [
        100.01995554193854,
        9.491136074066162
      ],
      [
        100.0199477467686,
        9.491146551445127
      ],
      [
        100.01992561854422,
        9.491169098764658
      ],
      [
        100.0199163146317,
        9.49117504991591
      ],
      [
        100.01988505013287,
        9.49122341349721
      ],
      [
        100.01979075372219,
        9.491340592503548
      ],
      [
        100.01977767795324,
        9.491369426250458
      ],
      [
        100.01977222971618,
        9.491380909457803
      ],
      [
        100.01975228078663,
        9.49141007848084
      ],
      [
        100.0197226088494,
        9.49144042097032
      ],
      [
        100.01970073208213,
        9.49145793914795
      ],
      [
        100.01957349479198,
        9.491573693230748
      ],
      [
        100.01954734325409,
        9.491651058197021
      ],
      [
        100.01949244178832,
        9.491749797016382
      ],
      [
        100.0194538012147,
        9.491769829764962
      ],
      [
        100.01942094415426,
        9.491795981302857
      ],
      [
        100.01939579844475,
        9.491826742887497
      ],
      [
        100.01936017535627,
        9.491857588291168
      ],
      [
        100.01935246400535,
        9.491863790899515
      ],
      [
        100.01922807656229,
        9.49193243868649
      ],
      [
        100.0191734265536,
        9.491947861388326
      ],
      [
        100.01904359087348,
        9.491993794217706
      ],
      [
        100.01903219148517,
        9.491998152807355
      ],
      [
        100.01902246847749,
        9.492002176120877
      ],
      [
        100.01893806271255,
        9.492058921605349
      ],
      [
        100.01888073049486,
        9.492093035951257
      ],
      [
        100.01884804107249,
        9.492113906890154
      ],
      [
        100.0187090691179,
        9.492190182209015
      ],
      [
        100.01864897087216,
        9.492236953228712
      ],
      [
        100.0185747910291,
        9.492296548560262
      ],
      [
        100.0185259245336,
        9.492378691211343
      ],
      [
        100.01845794729888,
        9.492479022592306
      ],
      [
        100.01837722957134,
        9.492559069767594
      ],
      [
        100.0183549337089,
        9.49258086271584
      ],
      [
        100.01829952932894,
        9.492599973455071
      ],
      [
        100.01825996674597,
        9.492604583501816
      ],
      [
        100.01811185851693,
        9.492651270702481
      ],
      [
        100.01801513135433,
        9.492748668417335
      ],
      [
        100.01796266064048,
        9.492820585146546
      ],
      [
        100.01789845526218,
        9.492875151336193
      ],
      [
        100.01788420602679,
        9.49288722127676
      ],
      [
        100.01787071116269,
        9.492897531017661
      ],
      [
        100.01783768646419,
        9.49291312135756
      ],
      [
        100.01766971312463,
        9.49292921461165
      ],
      [
        100.0176595710218,
        9.492929298430681
      ],
      [
        100.01760357990861,
        9.492916474118829
      ],
      [
        100.01745488494635,
        9.492805749177933
      ],
      [
        100.01740727573633,
        9.492782447487116
      ],
      [
        100.01734214834869,
        9.492767443880439
      ],
      [
        100.01720837317407,
        9.492767108604312
      ],
      [
        100.01714031212032,
        9.492773562669754
      ],
      [
        100.01712304539979,
        9.492789320647717
      ],
      [
        100.01705892384052,
        9.492805330082774
      ],
      [
        100.01698843203485,
        9.492782698944211
      ],
      [
        100.01691182143986,
        9.492670046165586
      ],
      [
        100.016909558326,
        9.492662334814668
      ],
      [
        100.01690947450697,
        9.492586394771934
      ],
      [
        100.0168680679053,
        9.492457481101155
      ],
      [
        100.01682448200881,
        9.492420684546232
      ],
      [
        100.01682054251432,
        9.492413979023695
      ],
      [
        100.01681584864855,
        9.49240492656827
      ],
      [
        100.01680310815573,
        9.492378775030375
      ],
      [
        100.01672565937042,
        9.492267714813352
      ],
      [
        100.01668064855039,
        9.492210214957595
      ],
      [
        100.01665248535573,
        9.492174508050084
      ],
      [
        100.01661535352468,
        9.49214793741703
      ],
      [
        100.01659548841417,
        9.49213519692421
      ],
      [
        100.01654293388128,
        9.49212689884007
      ],
      [
        100.01651669852436,
        9.492138298228383
      ],
      [
        100.01648065634072,
        9.492153972387314
      ],
      [
        100.01642902381718,
        9.492261931300163
      ],
      [
        100.01640748232603,
        9.49232722632587
      ],
      [
        100.016373032704,
        9.49239268898964
      ],
      [
        100.016362471506,
        9.492408446967602
      ],
      [
        100.01634629443288,
        9.492431916296482
      ],
      [
        100.01633883453906,
        9.492462258785963
      ],
      [
        100.01633590087295,
        9.49252906255424
      ],
      [
        100.01622492447495,
        9.492677757516503
      ],
      [
        100.0161946658045,
        9.492722349241376
      ],
      [
        100.01614965498447,
        9.492771048098803
      ],
      [
        100.01609358005226,
        9.492825530469418
      ],
      [
        100.01608452759683,
        9.492832235991955
      ],
      [
        100.01606089062989,
        9.492858638986945
      ],
      [
        100.01605343073606,
        9.492865344509482
      ],
      [
        100.01600347459316,
        9.492911444976926
      ],
      [
        100.01594798639417,
        9.492988474667072
      ],
      [
        100.01594169996679,
        9.492996102198958
      ],
      [
        100.01593650318682,
        9.493004148826003
      ],
      [
        100.01589350402355,
        9.493069192394614
      ],
      [
        100.01586995087564,
        9.493089392781258
      ],
      [
        100.01584027893841,
        9.493109425529838
      ],
      [
        100.01574707217515,
        9.493178827688098
      ],
      [
        100.01565998420119,
        9.493220737203956
      ],
      [
        100.01561497338116,
        9.493255689740181
      ],
      [
        100.01547080464661,
        9.493376556783915
      ],
      [
        100.01543593592942,
        9.493414694443345
      ],
      [
        100.01534624956548,
        9.493515025824308
      ],
      [
        100.01532730646431,
        9.49353656731546
      ],
      [
        100.01519252546132,
        9.49366120621562
      ],
      [
        100.01517022959888,
        9.493695739656687
      ],
      [
        100.01514449715614,
        9.493726417422295
      ],
      [
        100.01502547413111,
        9.493863293901086
      ],
      [
        100.0149308424443,
        9.493995141237974
      ],
      [
        100.01481735147536,
        9.494137465953827
      ],
      [
        100.01466077752411,
        9.494241066277027
      ],
      [
        100.0146290101111,
        9.494270402938128
      ],
      [
        100.01462515443563,
        9.494277946650982
      ],
      [
        100.01453831791878,
        9.494366208091378
      ],
      [
        100.01445525325835,
        9.494455642998219
      ],
      [
        100.01437042839825,
        9.494576510041952
      ],
      [
        100.01422290690243,
        9.494685223326087
      ],
      [
        100.0140832643956,
        9.494719002395868
      ],
      [
        100.01400405541062,
        9.494744231924415
      ],
      [
        100.01399600878358,
        9.494749763980508
      ],
      [
        100.01392886973917,
        9.494804246351123
      ],
      [
        100.01387044787407,
        9.494880437850952
      ],
      [
        100.01384228467941,
        9.49495805427432
      ],
      [
        100.01383884809911,
        9.494968447834253
      ],
      [
        100.01383381895721,
        9.494978422299027
      ],
      [
        100.01383013091981,
        9.494988899677992
      ],
      [
        100.01383641734719,
        9.495102977380157
      ],
      [
        100.01383792608976,
        9.495126279070973
      ],
      [
        100.01381864771247,
        9.495272543281317
      ],
      [
        100.0137983635068,
        9.495325684547424
      ],
      [
        100.01374497078359,
        9.495491394773126
      ],
      [
        100.01373709179461,
        9.49549893848598
      ],
      [
        100.01372845843434,
        9.495504973456264
      ],
      [
        100.01370842568576,
        9.495546631515026
      ],
      [
        100.01369191333652,
        9.495600694790483
      ],
      [
        100.01368881203234,
        9.495609495788813
      ],
      [
        100.0136046577245,
        9.495753832161427
      ],
      [
        100.01358781009912,
        9.49580286629498
      ],
      [
        100.01358604989946,
        9.495822982862592
      ],
      [
        100.0135526061058,
        9.495935970917344
      ],
      [
        100.01355847343802,
        9.495985927060246
      ],
      [
        100.01354631967843,
        9.49601392261684
      ],
      [
        100.01353517174721,
        9.496031776070595
      ],
      [
        100.01352989114821,
        9.496052395552397
      ],
      [
        100.01353290863335,
        9.496162701398134
      ],
      [
        100.01353131607175,
        9.496182315051556
      ],
      [
        100.01351245678961,
        9.496213244274259
      ],
      [
        100.01347825862467,
        9.496283400803804
      ],
      [
        100.01347582787275,
        9.496311899274588
      ],
      [
        100.01346241682768,
        9.496389599516988
      ],
      [
        100.0134304817766,
        9.49640485458076
      ],
      [
        100.01342092640698,
        9.496412230655551
      ],
      [
        100.01340466551483,
        9.496430335566401
      ],
      [
        100.01339460723102,
        9.496436286717653
      ],
      [
        100.01336233690381,
        9.496445087715983
      ],
      [
        100.01332151703537,
        9.496454475447536
      ],
      [
        100.01329100690782,
        9.49646252207458
      ],
      [
        100.0132761709392,
        9.496478782966733
      ],
      [
        100.01310073770583,
        9.496541898697615
      ],
      [
        100.01303561031818,
        9.496583808213472
      ],
      [
        100.01298070885241,
        9.496627561748028
      ],
      [
        100.01298037357628,
        9.496637117117643
      ],
      [
        100.01296654343605,
        9.496701993048191
      ],
      [
        100.01289521344006,
        9.496827134862542
      ],
      [
        100.01289353705943,
        9.496848173439503
      ],
      [
        100.01288004219532,
        9.49687390588224
      ],
      [
        100.01282514072955,
        9.496946409344673
      ],
      [
        100.01281248405576,
        9.496984127908945
      ],
      [
        100.01279354095459,
        9.49700927361846
      ],
      [
        100.01278675161302,
        9.497017236426473
      ],
      [
        100.01277476549149,
        9.49703567661345
      ],
      [
        100.01276562921703,
        9.497068952769041
      ],
      [
        100.01275062561035,
        9.497131146490574
      ],
      [
        100.01272631809115,
        9.497153107076883
      ],
      [
        100.01268424093723,
        9.497201973572373
      ],
      [
        100.01268139109015,
        9.497209349647164
      ],
      [
        100.01266596838832,
        9.497222509235144
      ],
      [
        100.01254711300135,
        9.497368857264519
      ],
      [
        100.01249405555427,
        9.497533310204744
      ],
      [
        100.0125060416758,
        9.497632887214422
      ],
      [
        100.01251325011253,
        9.49769047088921
      ],
      [
        100.0125321932137,
        9.497786276042461
      ],
      [
        100.01252288930118,
        9.497845200821757
      ],
      [
        100.0125200394541,
        9.497938994318247
      ],
      [
        100.0125319417566,
        9.49798702262342
      ],
      [
        100.01251936890185,
        9.498032033443451
      ],
      [
        100.01248902641237,
        9.498125156387687
      ],
      [
        100.01247117295861,
        9.49815851636231
      ],
      [
        100.01242691650987,
        9.498241413384676
      ],
      [
        100.01241216436028,
        9.498287346214056
      ],
      [
        100.01239439472556,
        9.498366555199027
      ],
      [
        100.01238886266947,
        9.498451882973313
      ],
      [
        100.01238609664142,
        9.498459761962295
      ],
      [
        100.01235030591488,
        9.498517513275146
      ],
      [
        100.01232834532857,
        9.498556908220053
      ],
      [
        100.01230923458934,
        9.498587837442756
      ],
      [
        100.012287190184,
        9.498631339520216
      ],
      [
        100.01227168366313,
        9.498649863526225
      ],
      [
        100.01223237253726,
        9.498700322583318
      ],
      [
        100.01216045580804,
        9.49880400672555
      ],
      [
        100.0121542531997,
        9.498814484104514
      ],
      [
        100.0120382476598,
        9.49893501587212
      ],
      [
        100.01196113415062,
        9.499103743582964
      ],
      [
        100.01192215830088,
        9.499197956174612
      ],
      [
        100.01189600676298,
        9.499269034713507
      ],
      [
        100.0118915643543,
        9.499308010563254
      ],
      [
        100.01189768314362,
        9.49934497475624
      ],
      [
        100.01189860515296,
        9.49937422759831
      ],
      [
        100.01187488436699,
        9.499463411048055
      ],
      [
        100.01177824102342,
        9.4996234215796
      ],
      [
        100.01176080666482,
        9.499644208699465
      ],
      [
        100.01172283664346,
        9.499695422127843
      ],
      [
        100.01164572313428,
        9.499799190089107
      ],
      [
        100.0116101000458,
        9.49982425197959
      ],
      [
        100.01155201345682,
        9.499885188415647
      ],
      [
        100.01148898154497,
        9.499984430149198
      ],
      [
        100.01148177310824,
        9.499993482604623
      ],
      [
        100.01145805232227,
        9.500028351321816
      ],
      [
        100.01144615001976,
        9.500075541436672
      ],
      [
        100.01143860630691,
        9.500085515901446
      ],
      [
        100.0113925896585,
        9.500269079580903
      ],
      [
        100.01144246198237,
        9.50045415200293
      ],
      [
        100.01144388690591,
        9.500496396794915
      ],
      [
        100.01144531182945,
        9.500496732071042
      ],
      [
        100.01148018054664,
        9.500579629093409
      ],
      [
        100.01148738898337,
        9.500598656013608
      ],
      [
        100.0115009676665,
        9.500636290758848
      ],
      [
        100.01153918914497,
        9.500766545534134
      ],
      [
        100.01155913807452,
        9.500915575772524
      ],
      [
        100.01156743615866,
        9.500942816957831
      ],
      [
        100.0115878880024,
        9.500984642654657
      ],
      [
        100.01161496154964,
        9.501038119196892
      ],
      [
        100.01164186745882,
        9.501073071733117
      ],
      [
        100.01165745779872,
        9.501108275726438
      ],
      [
        100.01168704591691,
        9.501158064231277
      ],
      [
        100.01169593073428,
        9.501174660399556
      ],
      [
        100.0116999540478,
        9.501196034252644
      ],
      [
        100.01174890436232,
        9.50137423351407
      ],
      [
        100.01178033649921,
        9.501469703391194
      ],
      [
        100.0118500739336,
        9.501642370596528
      ],
      [
        100.01188091933727,
        9.501772290095687
      ],
      [
        100.01192391850054,
        9.50189164839685
      ],
      [
        100.01193716190755,
        9.501944538205862
      ],
      [
        100.01198477111757,
        9.502071104943752
      ],
      [
        100.01198443584144,
        9.502093903720379
      ],
      [
        100.01204394735396,
        9.502233546227217
      ],
      [
        100.01206632703543,
        9.502323316410184
      ],
      [
        100.01208510249853,
        9.502413421869278
      ],
      [
        100.01208862289786,
        9.50245114043355
      ],
      [
        100.01208409667015,
        9.502565804868937
      ],
      [
        100.01204973086715,
        9.502741321921349
      ],
      [
        100.0120472162962,
        9.502780046314001
      ],
      [
        100.01200119964778,
        9.502895632758737
      ],
      [
        100.0119555182755,
        9.502966459840536
      ],
      [
        100.01195291988552,
        9.503000909462571
      ],
      [
        100.01194219104946,
        9.50313325971365
      ],
      [
        100.01190966926515,
        9.503197129815817
      ],
      [
        100.01185870729387,
        9.503274075686932
      ],
      [
        100.01183968037367,
        9.503293773159385
      ],
      [
        100.01182802952826,
        9.503311878070235
      ],
      [
        100.0118136126548,
        9.503333251923323
      ],
      [
        100.01177857629955,
        9.503383543342352
      ],
      [
        100.01174094155431,
        9.503427799791098
      ],
      [
        100.0116235949099,
        9.503577584400773
      ],
      [
        100.0115601439029,
        9.503652015700936
      ],
      [
        100.01150071620941,
        9.503709683194757
      ],
      [
        100.01148311421275,
        9.503733152523637
      ],
      [
        100.01145218499005,
        9.503777911886573
      ],
      [
        100.01137523911893,
        9.503890229389071
      ],
      [
        100.01135545782745,
        9.503920823335648
      ],
      [
        100.01134707592428,
        9.503933480009437
      ],
      [
        100.01127767376602,
        9.504081420600414
      ],
      [
        100.01124397851527,
        9.504144536331296
      ],
      [
        100.01122411340475,
        9.50416767038405
      ],
      [
        100.01121782697737,
        9.504181165248156
      ],
      [
        100.01117315143347,
        9.504238162189722
      ],
      [
        100.01107432879508,
        9.504397921264172
      ],
      [
        100.0109433196485,
        9.504526499658823
      ],
      [
        100.01085815951228,
        9.504634710028768
      ],
      [
        100.01082957722247,
        9.504668908193707
      ],
      [
        100.01080786809325,
        9.504690617322922
      ],
      [
        100.01076947897673,
        9.504737807437778
      ],
      [
        100.01076721586287,
        9.504749961197376
      ],
      [
        100.01075581647456,
        9.504785668104887
      ],
      [
        100.01074894331396,
        9.504798324778676
      ],
      [
        100.01072991639376,
        9.504853310063481
      ],
      [
        100.01072698272765,
        9.504897315055132
      ],
      [
        100.01070921309292,
        9.504982475191355
      ],
      [
        100.01070778816938,
        9.505060678347945
      ],
      [
        100.01071130856872,
        9.505246421322227
      ],
      [
        100.01070745289326,
        9.505323870107532
      ],
      [
        100.0106964726001,
        9.505414059385657
      ],
      [
        100.01070393249393,
        9.505456471815705
      ],
      [
        100.01071725971997,
        9.505502739921212
      ],
      [
        100.01073033548892,
        9.505569376051426
      ],
      [
        100.01073569990695,
        9.505581865087152
      ],
      [
        100.01074391417205,
        9.50560131110251
      ],
      [
        100.01077224500477,
        9.505714047700167
      ],
      [
        100.0108016654849,
        9.505772134289145
      ],
      [
        100.01082899048924,
        9.505822090432048
      ],
      [
        100.01083133742213,
        9.505840195342898
      ],
      [
        100.01084826886654,
        9.505935832858086
      ],
      [
        100.01085103489459,
        9.505960308015347
      ],
      [
        100.01083737239242,
        9.506013114005327
      ],
      [
        100.01074533909559,
        9.506168430671096
      ],
      [
        100.01070183701813,
        9.506216961890459
      ],
      [
        100.01069043762982,
        9.50622777454555
      ],
      [
        100.0106657948345,
        9.506262307986617
      ],
      [
        100.01064827665687,
        9.50628636404872
      ],
      [
        100.01056571491063,
        9.506330285221338
      ],
      [
        100.01053252257407,
        9.506346378475428
      ],
      [
        100.01042950898409,
        9.506389126181602
      ],
      [
        100.01040235161781,
        9.506406225264072
      ],
      [
        100.01023974269629,
        9.50650529935956
      ],
      [
        100.01006162725389,
        9.506591130048037
      ],
      [
        100.00991896726191,
        9.506667321547866
      ],
      [
        100.00984830781817,
        9.506748374551535
      ],
      [
        100.00982500612736,
        9.506776873022318
      ],
      [
        100.00974378548563,
        9.506836384534836
      ],
      [
        100.00967438332736,
        9.506885670125484
      ],
      [
        100.00962308607996,
        9.506929172202945
      ],
      [
        100.00960129313171,
        9.506924813613296
      ],
      [
        100.00959316268563,
        9.50692405924201
      ],
      [
        100.00956357456744,
        9.506935039535165
      ],
      [
        100.00954806804657,
        9.5069367159158
      ],
      [
        100.00951998867095,
        9.506962951272726
      ],
      [
        100.00949090346694,
        9.50698072090745
      ],
      [
        100.00943776220083,
        9.507015505805612
      ],
      [
        100.00939928926528,
        9.507061187177896
      ],
      [
        100.00933483242989,
        9.507123716175556
      ],
      [
        100.00931555405259,
        9.507139809429646
      ],
      [
        100.00925755128264,
        9.507211139425635
      ],
      [
        100.00925218686461,
        9.507251707836986
      ],
      [
        100.00912603922188,
        9.507400821894407
      ],
      [
        100.00909687019885,
        9.50742932036519
      ],
      [
        100.00909628346562,
        9.507439881563187
      ],
      [
        100.00910022296011,
        9.507465111091733
      ],
      [
        100.0090769212693,
        9.507524371147156
      ],
      [
        100.00906895846128,
        9.507534513249993
      ],
      [
        100.00906736589968,
        9.50755295343697
      ],
      [
        100.00904557295144,
        9.507614811882377
      ],
      [
        100.00899704173207,
        9.507693350315094
      ],
      [
        100.00894633121789,
        9.507649932056665
      ],
      [
        100.0089249573648,
        9.507630988955498
      ],
      [
        100.00890308059752,
        9.507610956206918
      ],
      [
        100.00884943641722,
        9.507433930411935
      ],
      [
        100.00882253050804,
        9.50738682411611
      ],
      [
        100.00876343809068,
        9.50722941197455
      ],
      [
        100.00876016914845,
        9.507202422246337
      ],
      [
        100.00873401761055,
        9.50716788880527
      ],
      [
        100.00873108394444,
        9.507158501073718
      ],
      [
        100.00870811752975,
        9.507124805822968
      ],
      [
        100.00870468094945,
        9.507114496082067
      ],
      [
        100.0086916051805,
        9.507075771689415
      ],
      [
        100.00858448445797,
        9.506938140839338
      ],
      [
        100.00851566903293,
        9.506817860528827
      ],
      [
        100.00849806703627,
        9.5067691616714
      ],
      [
        100.00846412032843,
        9.50671493075788
      ],
      [
        100.00844727270305,
        9.506669417023659
      ],
      [
        100.00844039954245,
        9.5065722707659
      ],
      [
        100.0084500387311,
        9.506542179733515
      ],
      [
        100.00843570567667,
        9.50649406760931
      ],
      [
        100.00842070207,
        9.506454421207309
      ],
      [
        100.0083207897842,
        9.50629466213286
      ],
      [
        100.00828927382827,
        9.506224757060409
      ],
      [
        100.00825893133879,
        9.50616616755724
      ],
      [
        100.00815038569272,
        9.506014790385962
      ],
      [
        100.00809674151242,
        9.505943963304162
      ],
      [
        100.00808844342828,
        9.505934240296483
      ],
      [
        100.0080544129014,
        9.505911692976952
      ],
      [
        100.00795701518655,
        9.505856791511178
      ],
      [
        100.00782064162195,
        9.505808427929878
      ],
      [
        100.0076989363879,
        9.505773475393653
      ],
      [
        100.00758695416152,
        9.505788730457425
      ],
      [
        100.00756105408072,
        9.505787389352918
      ],
      [
        100.00752216205001,
        9.50578898191452
      ],
      [
        100.00737313181162,
        9.505745060741901
      ],
      [
        100.0073308032006,
        9.505731649696827
      ],
      [
        100.007239356637,
        9.50567021034658
      ],
      [
        100.00713843852282,
        9.505528220906854
      ],
      [
        100.00710600055754,
        9.505475750193
      ],
      [
        100.00709393061697,
        9.505439791828394
      ],
      [
        100.00708336941898,
        9.505413640290499
      ],
      [
        100.00707096420228,
        9.505386650562286
      ],
      [
        100.00704464502633,
        9.50535454787314
      ],
      [
        100.00700424425304,
        9.505257066339254
      ],
      [
        100.00697968527675,
        9.50518992729485
      ],
      [
        100.00697708688676,
        9.505178863182664
      ],
      [
        100.0069702975452,
        9.50513863004744
      ],
      [
        100.00695110298693,
        9.50508045963943
      ],
      [
        100.00695386901498,
        9.505066042765975
      ],
      [
        100.00695923343301,
        9.50502622872591
      ],
      [
        100.00696267001331,
        9.50501399114728
      ],
      [
        100.00697071664035,
        9.504973758012056
      ],
      [
        100.00699074938893,
        9.504915922880173
      ],
      [
        100.00701279379427,
        9.504791619256139
      ],
      [
        100.00704556703568,
        9.504683827981353
      ],
      [
        100.00705285929143,
        9.50464803725481
      ],
      [
        100.00711639411747,
        9.504472939297557
      ],
      [
        100.0071064196527,
        9.504414685070515
      ],
      [
        100.00710600055754,
        9.504402447491884
      ],
      [
        100.00709418207407,
        9.504363974556327
      ],
      [
        100.00706777907908,
        9.504299350082874
      ],
      [
        100.00703802332282,
        9.504239419475198
      ],
      [
        100.00703693367541,
        9.504218883812428
      ],
      [
        100.00701908022165,
        9.504191307350993
      ],
      [
        100.00699535943568,
        9.504142943769693
      ],
      [
        100.00692897476256,
        9.504088126122952
      ],
      [
        100.00688103027642,
        9.504031967371702
      ],
      [
        100.00686510466039,
        9.504012688994408
      ],
      [
        100.0067438185215,
        9.503922248259187
      ],
      [
        100.006731916219,
        9.503920320421457
      ],
      [
        100.00662177801132,
        9.503811439499259
      ],
      [
        100.00656310468912,
        9.503701971843839
      ],
      [
        100.0065263081342,
        9.503651093691587
      ],
      [
        100.00647878274322,
        9.503518911078572
      ],
      [
        100.00647895038128,
        9.503493346273899
      ],
      [
        100.0064758490771,
        9.503475073724985
      ],
      [
        100.00645824708045,
        9.503384297713637
      ],
      [
        100.00645330175757,
        9.50334389694035
      ],
      [
        100.0063640344888,
        9.503198303282261
      ],
      [
        100.00633427873254,
        9.503178773447871
      ],
      [
        100.0062223803252,
        9.503111131489277
      ],
      [
        100.00615457072854,
        9.503128901124
      ],
      [
        100.00599464401603,
        9.503205930814147
      ],
      [
        100.0058962404728,
        9.503229651600122
      ],
      [
        100.005865059793,
        9.503233004361391
      ],
      [
        100.00585483387113,
        9.50323099270463
      ],
      [
        100.00580387189984,
        9.50322118587792
      ],
      [
        100.00579565763474,
        9.503218922764063
      ],
      [
        100.00575106590986,
        9.503194950520992
      ],
      [
        100.00570680946112,
        9.503191513940692
      ],
      [
        100.00565794296563,
        9.503176929429173
      ],
      [
        100.00546742230654,
        9.503128901124
      ],
      [
        100.00543171539903,
        9.503118759021163
      ],
      [
        100.00535770319402,
        9.503085063770413
      ],
      [
        100.00535544008017,
        9.50309126637876
      ],
      [
        100.0053380895406,
        9.50306000187993
      ],
      [
        100.0053314678371,
        9.50303167104721
      ],
      [
        100.00532928854227,
        9.50302328914404
      ],
      [
        100.00531135126948,
        9.50300183147192
      ],
      [
        100.00526575371623,
        9.50292312540114
      ],
      [
        100.00526650808752,
        9.5028733368963
      ],
      [
        100.00527824275196,
        9.502823045477271
      ],
      [
        100.00523624941707,
        9.502646271139383
      ],
      [
        100.0052397698164,
        9.502583658322692
      ],
      [
        100.00523557886481,
        9.502572258934379
      ],
      [
        100.00519727356732,
        9.502476286143064
      ],
      [
        100.00524756498635,
        9.502451894804835
      ],
      [
        100.00533021055162,
        9.502453235909343
      ],
      [
        100.0053431186825,
        9.50245650485158
      ],
      [
        100.0053589604795,
        9.5024623721838
      ],
      [
        100.00536625273526,
        9.502470921725035
      ],
      [
        100.0053896382451,
        9.502469580620527
      ],
      [
        100.00541805289686,
        9.502467904239893
      ],
      [
        100.0054641533643,
        9.502467904239893
      ],
      [
        100.00558585859835,
        9.50247016735375
      ],
      [
        100.00561309978366,
        9.50246823951602
      ],
      [
        100.0057146884501,
        9.502317868173122
      ],
      [
        100.00576866790652,
        9.502262715250254
      ]
    ]
  }
}
