{
  "type": "Feature",
  "properties": {},
  "geometry": {
    "type": "LineString",
    "coordinates": [
      [
        114.2242675,
        -8.0731404
      ],
      [
        114.2243579,
        -8.0730845
      ],
      [
        114.2244923,
        -8.0730187
      ],
      [
        114.224612,
        -8.0729339
      ],
      [
        114.2246602,
        -8.0728633
      ],
      [
        114.2248049,
        -8.0727625
      ],
      [
        114.2249071,
        -8.0727166
      ],
      [
        114.2250256,
        -8.0727107
      ],
      [
        114.2250833,
        -8.0726793
      ],
      [
        114.225116,
        -8.072597
      ],
      [
        114.22517,
        -8.0725
      ],
      [
        114.225249,
        -8.072406
      ],
      [
        114.225305,
        -8.072354
      ],
      [
        114.225421,
        -8.072244
      ],
      [
        114.225502,
        -8.0721752
      ],
      [
        114.225603,
        -8.072123
      ],
      [
        114.225738,
        -8.072062
      ],
      [
        114.225867,
        -8.071993
      ],
      [
        114.225985,
        -8.071927
      ],
      [
        114.226034,
        -8.071919
      ],
      [
        114.226157,
        -8.071923
      ],
      [
        114.22621,
        -8.071929
      ],
      [
        114.226245,
        -8.071931
      ],
      [
        114.226393,
        -8.071942
      ],
      [
        114.226524,
        -8.07193
      ],
      [
        114.22661,
        -8.071915
      ],
      [
        114.226731,
        -8.071907
      ],
      [
        114.22681,
        -8.071913
      ],
      [
        114.226867,
        -8.071912
      ],
      [
        114.226934,
        -8.071898
      ],
      [
        114.227066,
        -8.071877
      ],
      [
        114.227158,
        -8.071869
      ],
      [
        114.227178,
        -8.071859
      ],
      [
        114.227275,
        -8.071836
      ],
      [
        114.227353,
        -8.071813
      ],
      [
        114.227438,
        -8.071782
      ],
      [
        114.227459,
        -8.071775
      ],
      [
        114.227535,
        -8.071738
      ],
      [
        114.227601,
        -8.071716
      ],
      [
        114.227682,
        -8.071655
      ],
      [
        114.227777,
        -8.071583
      ],
      [
        114.227878,
        -8.071533
      ],
      [
        114.228002,
        -8.071515
      ],
      [
        114.228206,
        -8.071479
      ],
      [
        114.228297,
        -8.071479
      ],
      [
        114.2284305,
        -8.0714983
      ],
      [
        114.2286252,
        -8.0714506
      ],
      [
        114.2287043,
        -8.0714028
      ],
      [
        114.2287899,
        -8.0713921
      ],
      [
        114.228912,
        -8.071356
      ],
      [
        114.228994,
        -8.071318
      ],
      [
        114.229101,
        -8.071269
      ],
      [
        114.229174,
        -8.071216
      ],
      [
        114.2292312,
        -8.0711257
      ],
      [
        114.2293155,
        -8.0710683
      ],
      [
        114.22939,
        -8.071016
      ],
      [
        114.22946,
        -8.070927
      ],
      [
        114.229504,
        -8.070859
      ],
      [
        114.2295518,
        -8.0707372
      ],
      [
        114.2296696,
        -8.0706239
      ],
      [
        114.2297979,
        -8.0705323
      ],
      [
        114.229907,
        -8.070523
      ],
      [
        114.2300183,
        -8.0704979
      ],
      [
        114.2300981,
        -8.0704551
      ],
      [
        114.2302109,
        -8.0704132
      ],
      [
        114.230336,
        -8.07043
      ],
      [
        114.230503,
        -8.0705197
      ],
      [
        114.2306364,
        -8.0705543
      ],
      [
        114.2307755,
        -8.0705352
      ],
      [
        114.230902,
        -8.0704771
      ],
      [
        114.2310043,
        -8.0703974
      ],
      [
        114.2310968,
        -8.0703481
      ],
      [
        114.2311805,
        -8.0702886
      ],
      [
        114.2311913,
        -8.0701689
      ],
      [
        114.2311596,
        -8.0699909
      ],
      [
        114.2311993,
        -8.0698929
      ],
      [
        114.231266,
        -8.0697919
      ],
      [
        114.2313809,
        -8.0697491
      ],
      [
        114.231473,
        -8.069628
      ],
      [
        114.2315134,
        -8.0695546
      ],
      [
        114.231616,
        -8.069484
      ],
      [
        114.23167,
        -8.069425
      ],
      [
        114.2317139,
        -8.0693416
      ],
      [
        114.231697,
        -8.069148
      ],
      [
        114.2316987,
        -8.0689682
      ],
      [
        114.2316808,
        -8.0688518
      ],
      [
        114.2316565,
        -8.0687391
      ],
      [
        114.231734,
        -8.06869
      ],
      [
        114.2318363,
        -8.0686749
      ],
      [
        114.2319011,
        -8.0686285
      ],
      [
        114.231923,
        -8.068553
      ],
      [
        114.231926,
        -8.068509
      ],
      [
        114.231958,
        -8.068458
      ],
      [
        114.232003,
        -8.068403
      ],
      [
        114.232023,
        -8.068323
      ],
      [
        114.2320419,
        -8.0682093
      ],
      [
        114.2320691,
        -8.0681203
      ],
      [
        114.232095,
        -8.0679932
      ],
      [
        114.2321397,
        -8.0679181
      ],
      [
        114.2321959,
        -8.0678522
      ],
      [
        114.232244,
        -8.0677857
      ],
      [
        114.2323497,
        -8.0677112
      ],
      [
        114.2324485,
        -8.0676789
      ],
      [
        114.2325392,
        -8.067678
      ],
      [
        114.2326123,
        -8.0676367
      ],
      [
        114.2326791,
        -8.0675938
      ],
      [
        114.2328132,
        -8.0674978
      ],
      [
        114.2329144,
        -8.0674439
      ],
      [
        114.2330625,
        -8.0673605
      ],
      [
        114.2331812,
        -8.0672628
      ],
      [
        114.2332484,
        -8.0672083
      ],
      [
        114.2333858,
        -8.0671081
      ],
      [
        114.2334733,
        -8.0670364
      ],
      [
        114.2335543,
        -8.0669837
      ],
      [
        114.2336558,
        -8.0669254
      ],
      [
        114.2337541,
        -8.0668832
      ],
      [
        114.2338916,
        -8.0668117
      ],
      [
        114.2339767,
        -8.0667417
      ],
      [
        114.2340521,
        -8.0666574
      ],
      [
        114.234143,
        -8.0665862
      ],
      [
        114.2342451,
        -8.0665169
      ],
      [
        114.2343324,
        -8.066488
      ],
      [
        114.2344227,
        -8.0664989
      ],
      [
        114.2345568,
        -8.0665229
      ],
      [
        114.2346851,
        -8.0664827
      ],
      [
        114.2347609,
        -8.0664189
      ],
      [
        114.2348085,
        -8.0663778
      ],
      [
        114.234828,
        -8.066342
      ],
      [
        114.23479,
        -8.066282
      ],
      [
        114.2348506,
        -8.0662403
      ],
      [
        114.2349627,
        -8.0662032
      ],
      [
        114.2350853,
        -8.0661755
      ],
      [
        114.2352008,
        -8.0661809
      ],
      [
        114.2353064,
        -8.0661744
      ],
      [
        114.2354293,
        -8.0661122
      ],
      [
        114.2355253,
        -8.0660545
      ],
      [
        114.2355363,
        -8.0659874
      ],
      [
        114.235542,
        -8.065906
      ],
      [
        114.235562,
        -8.065888
      ],
      [
        114.235589,
        -8.065856
      ],
      [
        114.23566,
        -8.065768
      ],
      [
        114.235661,
        -8.065695
      ],
      [
        114.235675,
        -8.065647
      ],
      [
        114.2357215,
        -8.0655521
      ],
      [
        114.235787,
        -8.065563
      ],
      [
        114.2358846,
        -8.0655582
      ],
      [
        114.2359722,
        -8.0655566
      ],
      [
        114.2360159,
        -8.0654873
      ],
      [
        114.2360206,
        -8.0654256
      ],
      [
        114.236025,
        -8.065377
      ],
      [
        114.23605,
        -8.065342
      ],
      [
        114.236137,
        -8.065302
      ],
      [
        114.236203,
        -8.065297
      ],
      [
        114.2362947,
        -8.0652981
      ],
      [
        114.2364051,
        -8.0652767
      ],
      [
        114.2364858,
        -8.0652504
      ],
      [
        114.2366913,
        -8.0652548
      ],
      [
        114.2368188,
        -8.0652159
      ],
      [
        114.2368564,
        -8.0651432
      ],
      [
        114.2368269,
        -8.0650749
      ],
      [
        114.236862,
        -8.064958
      ],
      [
        114.2368612,
        -8.0648785
      ],
      [
        114.236869,
        -8.064807
      ],
      [
        114.23688,
        -8.064773
      ],
      [
        114.236885,
        -8.064757
      ],
      [
        114.236898,
        -8.064724
      ],
      [
        114.236918,
        -8.064668
      ],
      [
        114.236953,
        -8.064566
      ],
      [
        114.237009,
        -8.064498
      ],
      [
        114.237029,
        -8.064469
      ],
      [
        114.237036,
        -8.064464
      ],
      [
        114.237085,
        -8.064423
      ],
      [
        114.237134,
        -8.064355
      ],
      [
        114.237226,
        -8.064308
      ],
      [
        114.237311,
        -8.064256
      ],
      [
        114.237376,
        -8.064217
      ],
      [
        114.237439,
        -8.064185
      ],
      [
        114.237539,
        -8.064111
      ],
      [
        114.23759,
        -8.064076
      ],
      [
        114.237631,
        -8.06407
      ],
      [
        114.237764,
        -8.064034
      ],
      [
        114.237861,
        -8.063994
      ],
      [
        114.2379634,
        -8.0639648
      ],
      [
        114.2380479,
        -8.063885
      ],
      [
        114.2380937,
        -8.0638043
      ],
      [
        114.2381789,
        -8.0637916
      ],
      [
        114.2383033,
        -8.0638566
      ],
      [
        114.2382653,
        -8.0636766
      ],
      [
        114.2383561,
        -8.0637692
      ],
      [
        114.2383858,
        -8.0637454
      ],
      [
        114.238335,
        -8.063713
      ],
      [
        114.238338,
        -8.06369
      ],
      [
        114.238357,
        -8.063666
      ],
      [
        114.238402,
        -8.06366
      ],
      [
        114.238473,
        -8.063641
      ],
      [
        114.238501,
        -8.063627
      ],
      [
        114.238522,
        -8.063609
      ],
      [
        114.238538,
        -8.0636
      ],
      [
        114.238624,
        -8.06358
      ],
      [
        114.238709,
        -8.0635798
      ],
      [
        114.238807,
        -8.0635693
      ],
      [
        114.2389359,
        -8.0635657
      ],
      [
        114.2391006,
        -8.0635239
      ],
      [
        114.2391541,
        -8.0635728
      ],
      [
        114.2391824,
        -8.0636562
      ],
      [
        114.2390896,
        -8.0637006
      ],
      [
        114.2390842,
        -8.0637846
      ],
      [
        114.2391114,
        -8.0639474
      ],
      [
        114.239179,
        -8.064026
      ],
      [
        114.2392258,
        -8.064098
      ],
      [
        114.239228,
        -8.064221
      ],
      [
        114.239245,
        -8.064305
      ],
      [
        114.239287,
        -8.064424
      ],
      [
        114.2393892,
        -8.0645754
      ],
      [
        114.2395088,
        -8.064671
      ],
      [
        114.2395867,
        -8.0647512
      ],
      [
        114.2396523,
        -8.0647753
      ],
      [
        114.2397552,
        -8.0647509
      ],
      [
        114.2398724,
        -8.0646833
      ],
      [
        114.2399755,
        -8.0646394
      ],
      [
        114.2400806,
        -8.064641
      ],
      [
        114.2401873,
        -8.0646302
      ],
      [
        114.2402941,
        -8.0646189
      ],
      [
        114.2404609,
        -8.0646906
      ],
      [
        114.2405778,
        -8.0646263
      ],
      [
        114.2406476,
        -8.0645745
      ],
      [
        114.2407188,
        -8.0646228
      ],
      [
        114.240765,
        -8.0647175
      ],
      [
        114.240838,
        -8.0647625
      ],
      [
        114.2409546,
        -8.0647153
      ],
      [
        114.2410383,
        -8.0647115
      ],
      [
        114.2411897,
        -8.0648
      ],
      [
        114.2413322,
        -8.0648254
      ],
      [
        114.241559,
        -8.064724
      ],
      [
        114.2416657,
        -8.0648044
      ],
      [
        114.2418173,
        -8.0648324
      ],
      [
        114.241885,
        -8.0647201
      ],
      [
        114.2419255,
        -8.064684
      ],
      [
        114.242001,
        -8.064644
      ],
      [
        114.242043,
        -8.064645
      ],
      [
        114.2421209,
        -8.06472
      ],
      [
        114.2421821,
        -8.0647771
      ],
      [
        114.242266,
        -8.0648034
      ],
      [
        114.2423198,
        -8.0647004
      ],
      [
        114.2423383,
        -8.0646309
      ],
      [
        114.242321,
        -8.064595
      ],
      [
        114.242328,
        -8.064587
      ],
      [
        114.242419,
        -8.064545
      ],
      [
        114.2425331,
        -8.0644498
      ],
      [
        114.2426886,
        -8.0644212
      ],
      [
        114.2427915,
        -8.0644444
      ],
      [
        114.2429306,
        -8.0644798
      ],
      [
        114.2430277,
        -8.0645377
      ],
      [
        114.2431298,
        -8.0645705
      ],
      [
        114.2431933,
        -8.0646098
      ],
      [
        114.2432294,
        -8.0646597
      ],
      [
        114.243261,
        -8.064682
      ],
      [
        114.2432977,
        -8.0647054
      ],
      [
        114.243338,
        -8.064699
      ],
      [
        114.243399,
        -8.064713
      ],
      [
        114.2434624,
        -8.0647568
      ],
      [
        114.2435402,
        -8.0648139
      ],
      [
        114.243621,
        -8.0648556
      ],
      [
        114.2436792,
        -8.064899
      ],
      [
        114.2437495,
        -8.0649116
      ],
      [
        114.2438326,
        -8.0649207
      ],
      [
        114.2439028,
        -8.0649012
      ],
      [
        114.2440067,
        -8.0648669
      ],
      [
        114.244148,
        -8.064751
      ],
      [
        114.244275,
        -8.064627
      ],
      [
        114.244391,
        -8.064503
      ],
      [
        114.244421,
        -8.064465
      ],
      [
        114.244444,
        -8.064442
      ],
      [
        114.244451,
        -8.064429
      ],
      [
        114.244504,
        -8.064302
      ],
      [
        114.244539,
        -8.064236
      ],
      [
        114.244581,
        -8.064173
      ],
      [
        114.244601,
        -8.064151
      ],
      [
        114.244634,
        -8.064116
      ],
      [
        114.244767,
        -8.063991
      ],
      [
        114.244796,
        -8.063942
      ],
      [
        114.244838,
        -8.063876
      ],
      [
        114.244861,
        -8.063811
      ],
      [
        114.244866,
        -8.06379
      ],
      [
        114.24489,
        -8.063726
      ],
      [
        114.244907,
        -8.063681
      ],
      [
        114.244933,
        -8.063596
      ],
      [
        114.2449692,
        -8.0635524
      ],
      [
        114.2450126,
        -8.0635043
      ],
      [
        114.2450598,
        -8.0634405
      ],
      [
        114.2450838,
        -8.0634144
      ],
      [
        114.24511,
        -8.063396
      ],
      [
        114.245147,
        -8.063348
      ],
      [
        114.245197,
        -8.06332
      ],
      [
        114.2452772,
        -8.0632905
      ],
      [
        114.2453877,
        -8.0632601
      ],
      [
        114.245503,
        -8.063231
      ],
      [
        114.245712,
        -8.063192
      ],
      [
        114.245813,
        -8.063185
      ],
      [
        114.2459382,
        -8.0631515
      ],
      [
        114.2460367,
        -8.0631178
      ],
      [
        114.2461228,
        -8.0631008
      ],
      [
        114.246077,
        -8.0629884
      ],
      [
        114.2461469,
        -8.0628955
      ],
      [
        114.2462095,
        -8.0627106
      ],
      [
        114.2462134,
        -8.0626381
      ],
      [
        114.2461815,
        -8.0625233
      ],
      [
        114.24614,
        -8.0624114
      ],
      [
        114.2460891,
        -8.0623307
      ],
      [
        114.2461597,
        -8.062342
      ],
      [
        114.2461877,
        -8.062316
      ],
      [
        114.2462253,
        -8.0622871
      ],
      [
        114.2461716,
        -8.062247
      ],
      [
        114.2461338,
        -8.0622158
      ],
      [
        114.2460897,
        -8.0622026
      ],
      [
        114.2459926,
        -8.0621968
      ],
      [
        114.2459567,
        -8.0621712
      ],
      [
        114.245892,
        -8.0621886
      ],
      [
        114.2458473,
        -8.0621295
      ],
      [
        114.2457931,
        -8.0621471
      ],
      [
        114.2457556,
        -8.0621331
      ],
      [
        114.245721,
        -8.062151
      ],
      [
        114.245728,
        -8.062104
      ],
      [
        114.245751,
        -8.062071
      ],
      [
        114.245723,
        -8.062074
      ],
      [
        114.245753,
        -8.062006
      ],
      [
        114.24576,
        -8.061998
      ],
      [
        114.245761,
        -8.061957
      ],
      [
        114.245719,
        -8.062017
      ],
      [
        114.245622,
        -8.061978
      ],
      [
        114.245569,
        -8.061891
      ],
      [
        114.245488,
        -8.061789
      ],
      [
        114.245469,
        -8.061722
      ],
      [
        114.245447,
        -8.061762
      ],
      [
        114.245445,
        -8.061762
      ],
      [
        114.245438,
        -8.061786
      ],
      [
        114.245429,
        -8.061799
      ],
      [
        114.245395,
        -8.061806
      ],
      [
        114.245341,
        -8.061823
      ],
      [
        114.245294,
        -8.061839
      ],
      [
        114.245287,
        -8.061843
      ],
      [
        114.245286,
        -8.061834
      ],
      [
        114.245228,
        -8.061813
      ],
      [
        114.24516,
        -8.061798
      ],
      [
        114.245151,
        -8.061797
      ],
      [
        114.245058,
        -8.061784
      ],
      [
        114.244989,
        -8.061798
      ],
      [
        114.244902,
        -8.061798
      ],
      [
        114.244841,
        -8.06175
      ],
      [
        114.244816,
        -8.061739
      ],
      [
        114.244762,
        -8.061715
      ],
      [
        114.244728,
        -8.061673
      ],
      [
        114.244708,
        -8.061646
      ],
      [
        114.244711,
        -8.061613
      ],
      [
        114.244717,
        -8.061606
      ],
      [
        114.24474,
        -8.061601
      ],
      [
        114.244847,
        -8.061607
      ],
      [
        114.244896,
        -8.061527
      ],
      [
        114.244816,
        -8.061377
      ],
      [
        114.244776,
        -8.061362
      ],
      [
        114.244765,
        -8.061367
      ],
      [
        114.244737,
        -8.06136
      ],
      [
        114.244733,
        -8.061358
      ],
      [
        114.244705,
        -8.061355
      ],
      [
        114.244687,
        -8.06135
      ],
      [
        114.244615,
        -8.061388
      ],
      [
        114.244571,
        -8.061402
      ],
      [
        114.244521,
        -8.061375
      ],
      [
        114.244444,
        -8.061288
      ],
      [
        114.24441,
        -8.061283
      ],
      [
        114.244389,
        -8.061265
      ],
      [
        114.244398,
        -8.061238
      ],
      [
        114.244418,
        -8.061175
      ],
      [
        114.244414,
        -8.061111
      ],
      [
        114.244377,
        -8.061049
      ],
      [
        114.244336,
        -8.06101
      ],
      [
        114.244302,
        -8.061068
      ],
      [
        114.244292,
        -8.061071
      ],
      [
        114.244275,
        -8.06104
      ],
      [
        114.244243,
        -8.061031
      ],
      [
        114.244211,
        -8.061023
      ],
      [
        114.244189,
        -8.060977
      ],
      [
        114.2442,
        -8.060951
      ],
      [
        114.244211,
        -8.060875
      ],
      [
        114.2442,
        -8.060841
      ],
      [
        114.244224,
        -8.060802
      ],
      [
        114.244248,
        -8.060766
      ],
      [
        114.244242,
        -8.060739
      ],
      [
        114.24421,
        -8.060687
      ],
      [
        114.244231,
        -8.06063
      ],
      [
        114.244244,
        -8.060597
      ],
      [
        114.244215,
        -8.060585
      ],
      [
        114.244186,
        -8.060564
      ],
      [
        114.244185,
        -8.060563
      ],
      [
        114.244175,
        -8.060539
      ],
      [
        114.244163,
        -8.06053
      ],
      [
        114.244144,
        -8.060519
      ],
      [
        114.244136,
        -8.060515
      ],
      [
        114.244153,
        -8.060459
      ],
      [
        114.244204,
        -8.060388
      ],
      [
        114.244208,
        -8.060377
      ],
      [
        114.244184,
        -8.060331
      ],
      [
        114.244175,
        -8.06032
      ],
      [
        114.24417,
        -8.06032
      ],
      [
        114.244175,
        -8.06032
      ],
      [
        114.244184,
        -8.060331
      ],
      [
        114.244208,
        -8.060377
      ],
      [
        114.244204,
        -8.060388
      ],
      [
        114.244153,
        -8.060459
      ],
      [
        114.244136,
        -8.060515
      ],
      [
        114.244144,
        -8.060519
      ],
      [
        114.244163,
        -8.06053
      ],
      [
        114.244175,
        -8.060539
      ],
      [
        114.244185,
        -8.060563
      ],
      [
        114.244186,
        -8.060564
      ],
      [
        114.244215,
        -8.060585
      ],
      [
        114.244244,
        -8.060597
      ],
      [
        114.244231,
        -8.06063
      ],
      [
        114.24421,
        -8.060687
      ],
      [
        114.244242,
        -8.060739
      ],
      [
        114.244248,
        -8.060766
      ],
      [
        114.244224,
        -8.060802
      ],
      [
        114.2442,
        -8.060841
      ],
      [
        114.244211,
        -8.060875
      ],
      [
        114.2442,
        -8.060951
      ],
      [
        114.244189,
        -8.060977
      ],
      [
        114.244211,
        -8.061023
      ],
      [
        114.244243,
        -8.061031
      ],
      [
        114.244275,
        -8.06104
      ],
      [
        114.244292,
        -8.061071
      ],
      [
        114.244302,
        -8.061068
      ],
      [
        114.244336,
        -8.06101
      ],
      [
        114.244377,
        -8.061049
      ],
      [
        114.244414,
        -8.061111
      ],
      [
        114.244418,
        -8.061175
      ],
      [
        114.244398,
        -8.061238
      ],
      [
        114.244389,
        -8.061265
      ],
      [
        114.24441,
        -8.061283
      ],
      [
        114.244444,
        -8.061288
      ],
      [
        114.244521,
        -8.061375
      ],
      [
        114.244571,
        -8.061402
      ],
      [
        114.244615,
        -8.061388
      ],
      [
        114.244687,
        -8.06135
      ],
      [
        114.244705,
        -8.061355
      ],
      [
        114.244733,
        -8.061358
      ],
      [
        114.244737,
        -8.06136
      ],
      [
        114.244765,
        -8.061367
      ],
      [
        114.244776,
        -8.061362
      ],
      [
        114.244816,
        -8.061377
      ],
      [
        114.244896,
        -8.061527
      ],
      [
        114.244847,
        -8.061607
      ],
      [
        114.24474,
        -8.061601
      ],
      [
        114.244717,
        -8.061606
      ],
      [
        114.244711,
        -8.061613
      ],
      [
        114.244708,
        -8.061646
      ],
      [
        114.244728,
        -8.061673
      ],
      [
        114.244762,
        -8.061715
      ],
      [
        114.244816,
        -8.061739
      ],
      [
        114.244841,
        -8.06175
      ],
      [
        114.244902,
        -8.061798
      ],
      [
        114.244989,
        -8.061798
      ],
      [
        114.245058,
        -8.061784
      ],
      [
        114.245151,
        -8.061797
      ],
      [
        114.24516,
        -8.061798
      ],
      [
        114.245228,
        -8.061813
      ],
      [
        114.245286,
        -8.061834
      ],
      [
        114.245287,
        -8.061843
      ],
      [
        114.245294,
        -8.061839
      ],
      [
        114.245341,
        -8.061823
      ],
      [
        114.245395,
        -8.061806
      ],
      [
        114.245429,
        -8.061799
      ],
      [
        114.245438,
        -8.061786
      ],
      [
        114.245445,
        -8.061762
      ],
      [
        114.245447,
        -8.061762
      ],
      [
        114.245469,
        -8.061722
      ],
      [
        114.245488,
        -8.061789
      ],
      [
        114.245569,
        -8.061891
      ],
      [
        114.245622,
        -8.061978
      ],
      [
        114.245719,
        -8.062017
      ],
      [
        114.245761,
        -8.061957
      ],
      [
        114.24576,
        -8.061998
      ],
      [
        114.245753,
        -8.062006
      ],
      [
        114.245723,
        -8.062074
      ],
      [
        114.245751,
        -8.062071
      ],
      [
        114.245728,
        -8.062104
      ],
      [
        114.245721,
        -8.062151
      ],
      [
        114.2457556,
        -8.0621331
      ],
      [
        114.2457931,
        -8.0621471
      ],
      [
        114.2458473,
        -8.0621295
      ],
      [
        114.245892,
        -8.0621886
      ],
      [
        114.2459567,
        -8.0621712
      ],
      [
        114.2459926,
        -8.0621968
      ],
      [
        114.2460897,
        -8.0622026
      ],
      [
        114.2461338,
        -8.0622158
      ],
      [
        114.2461716,
        -8.062247
      ],
      [
        114.2462253,
        -8.0622871
      ],
      [
        114.2461877,
        -8.062316
      ],
      [
        114.2461597,
        -8.062342
      ],
      [
        114.2460891,
        -8.0623307
      ],
      [
        114.24614,
        -8.0624114
      ],
      [
        114.2461815,
        -8.0625233
      ],
      [
        114.2462134,
        -8.0626381
      ],
      [
        114.2462095,
        -8.0627106
      ],
      [
        114.2461469,
        -8.0628955
      ],
      [
        114.246077,
        -8.0629884
      ],
      [
        114.2461228,
        -8.0631008
      ],
      [
        114.24641,
        -8.063079
      ],
      [
        114.246475,
        -8.063043
      ],
      [
        114.246761,
        -8.062783
      ],
      [
        114.246965,
        -8.062476
      ],
      [
        114.246999,
        -8.062252
      ],
      [
        114.247066,
        -8.062109
      ],
      [
        114.24742,
        -8.061702
      ],
      [
        114.247647,
        -8.061407
      ],
      [
        114.247783,
        -8.061188
      ],
      [
        114.247835,
        -8.060987
      ],
      [
        114.247939,
        -8.060813
      ],
      [
        114.24798,
        -8.060672
      ],
      [
        114.24798,
        -8.060419
      ],
      [
        114.248032,
        -8.060152
      ],
      [
        114.248096,
        -8.059932
      ],
      [
        114.248108,
        -8.059818
      ],
      [
        114.248084,
        -8.059504
      ],
      [
        114.247997,
        -8.059188
      ],
      [
        114.247978,
        -8.059073
      ],
      [
        114.248006,
        -8.058763
      ],
      [
        114.24798,
        -8.058589
      ],
      [
        114.248037,
        -8.058145
      ],
      [
        114.248042,
        -8.057956
      ],
      [
        114.248086,
        -8.057832
      ],
      [
        114.248118,
        -8.057533
      ],
      [
        114.248103,
        -8.057419
      ],
      [
        114.248056,
        -8.057269
      ],
      [
        114.2480467,
        -8.0572154
      ],
      [
        114.247993,
        -8.056906
      ],
      [
        114.247803,
        -8.056124
      ],
      [
        114.247641,
        -8.055781
      ],
      [
        114.247567,
        -8.055663
      ],
      [
        114.247495,
        -8.055485
      ],
      [
        114.247252,
        -8.055177
      ],
      [
        114.247107,
        -8.055041
      ],
      [
        114.24696,
        -8.054945
      ],
      [
        114.246853,
        -8.054841
      ],
      [
        114.24677,
        -8.054718
      ],
      [
        114.24672,
        -8.054669
      ],
      [
        114.246483,
        -8.054513
      ],
      [
        114.24672,
        -8.054669
      ],
      [
        114.24677,
        -8.054718
      ],
      [
        114.246853,
        -8.054841
      ],
      [
        114.24696,
        -8.054945
      ],
      [
        114.247107,
        -8.055041
      ],
      [
        114.247252,
        -8.055177
      ],
      [
        114.247495,
        -8.055485
      ],
      [
        114.247567,
        -8.055663
      ],
      [
        114.247641,
        -8.055781
      ],
      [
        114.247803,
        -8.056124
      ],
      [
        114.247993,
        -8.056906
      ],
      [
        114.2480467,
        -8.0572154
      ],
      [
        114.248056,
        -8.057269
      ],
      [
        114.248103,
        -8.057419
      ],
      [
        114.248118,
        -8.057533
      ],
      [
        114.248086,
        -8.057832
      ],
      [
        114.248042,
        -8.057956
      ],
      [
        114.248037,
        -8.058145
      ],
      [
        114.24798,
        -8.058589
      ],
      [
        114.248006,
        -8.058763
      ],
      [
        114.247978,
        -8.059073
      ],
      [
        114.247997,
        -8.059188
      ],
      [
        114.248084,
        -8.059504
      ],
      [
        114.248108,
        -8.059818
      ],
      [
        114.248096,
        -8.059932
      ],
      [
        114.248032,
        -8.060152
      ],
      [
        114.24798,
        -8.060419
      ],
      [
        114.24798,
        -8.060672
      ],
      [
        114.247939,
        -8.060813
      ],
      [
        114.247835,
        -8.060987
      ],
      [
        114.247783,
        -8.061188
      ],
      [
        114.247647,
        -8.061407
      ],
      [
        114.24742,
        -8.061702
      ],
      [
        114.247066,
        -8.062109
      ],
      [
        114.246999,
        -8.062252
      ],
      [
        114.246965,
        -8.062476
      ],
      [
        114.246761,
        -8.062783
      ],
      [
        114.246475,
        -8.063043
      ],
      [
        114.24641,
        -8.063079
      ],
      [
        114.2461228,
        -8.0631008
      ],
      [
        114.2460367,
        -8.0631178
      ],
      [
        114.2459382,
        -8.0631515
      ],
      [
        114.245813,
        -8.063185
      ],
      [
        114.245712,
        -8.063192
      ],
      [
        114.245503,
        -8.063231
      ],
      [
        114.2453877,
        -8.0632601
      ],
      [
        114.2452772,
        -8.0632905
      ],
      [
        114.245197,
        -8.06332
      ],
      [
        114.245147,
        -8.063348
      ],
      [
        114.24511,
        -8.063396
      ],
      [
        114.2450838,
        -8.0634144
      ],
      [
        114.2450598,
        -8.0634405
      ],
      [
        114.2450126,
        -8.0635043
      ],
      [
        114.2449692,
        -8.0635524
      ],
      [
        114.244933,
        -8.063596
      ],
      [
        114.244907,
        -8.063681
      ],
      [
        114.24489,
        -8.063726
      ],
      [
        114.244866,
        -8.06379
      ],
      [
        114.244861,
        -8.063811
      ],
      [
        114.244838,
        -8.063876
      ],
      [
        114.244796,
        -8.063942
      ],
      [
        114.244767,
        -8.063991
      ],
      [
        114.244634,
        -8.064116
      ],
      [
        114.244601,
        -8.064151
      ],
      [
        114.244581,
        -8.064173
      ],
      [
        114.244539,
        -8.064236
      ],
      [
        114.244504,
        -8.064302
      ],
      [
        114.244451,
        -8.064429
      ],
      [
        114.244444,
        -8.064442
      ],
      [
        114.244421,
        -8.064465
      ],
      [
        114.244391,
        -8.064503
      ],
      [
        114.244275,
        -8.064627
      ],
      [
        114.244148,
        -8.064751
      ],
      [
        114.2440067,
        -8.0648669
      ],
      [
        114.2439028,
        -8.0649012
      ],
      [
        114.2438326,
        -8.0649207
      ],
      [
        114.2437495,
        -8.0649116
      ],
      [
        114.2436792,
        -8.064899
      ],
      [
        114.243621,
        -8.0648556
      ],
      [
        114.2435402,
        -8.0648139
      ],
      [
        114.2434624,
        -8.0647568
      ],
      [
        114.243399,
        -8.064713
      ],
      [
        114.243338,
        -8.064699
      ],
      [
        114.2432977,
        -8.0647054
      ],
      [
        114.243261,
        -8.064682
      ],
      [
        114.2432294,
        -8.0646597
      ],
      [
        114.2431933,
        -8.0646098
      ],
      [
        114.2431298,
        -8.0645705
      ],
      [
        114.2430277,
        -8.0645377
      ],
      [
        114.2429306,
        -8.0644798
      ],
      [
        114.2427915,
        -8.0644444
      ],
      [
        114.2426886,
        -8.0644212
      ],
      [
        114.2425331,
        -8.0644498
      ],
      [
        114.242419,
        -8.064545
      ],
      [
        114.242328,
        -8.064587
      ],
      [
        114.242321,
        -8.064595
      ],
      [
        114.2423383,
        -8.0646309
      ],
      [
        114.2423198,
        -8.0647004
      ],
      [
        114.242266,
        -8.0648034
      ],
      [
        114.2421821,
        -8.0647771
      ],
      [
        114.2421209,
        -8.06472
      ],
      [
        114.242043,
        -8.064645
      ],
      [
        114.242001,
        -8.064644
      ],
      [
        114.2419255,
        -8.064684
      ],
      [
        114.241885,
        -8.0647201
      ],
      [
        114.2418173,
        -8.0648324
      ],
      [
        114.2416657,
        -8.0648044
      ],
      [
        114.241559,
        -8.064724
      ],
      [
        114.2413322,
        -8.0648254
      ],
      [
        114.2411897,
        -8.0648
      ],
      [
        114.2410383,
        -8.0647115
      ],
      [
        114.2409546,
        -8.0647153
      ],
      [
        114.240838,
        -8.0647625
      ],
      [
        114.240765,
        -8.0647175
      ],
      [
        114.2407188,
        -8.0646228
      ],
      [
        114.2406476,
        -8.0645745
      ],
      [
        114.2405778,
        -8.0646263
      ],
      [
        114.2404609,
        -8.0646906
      ],
      [
        114.2402941,
        -8.0646189
      ],
      [
        114.2401873,
        -8.0646302
      ],
      [
        114.2400806,
        -8.064641
      ],
      [
        114.2399755,
        -8.0646394
      ],
      [
        114.2398724,
        -8.0646833
      ],
      [
        114.2397552,
        -8.0647509
      ],
      [
        114.2396523,
        -8.0647753
      ],
      [
        114.2395867,
        -8.0647512
      ],
      [
        114.2395088,
        -8.064671
      ],
      [
        114.2393892,
        -8.0645754
      ],
      [
        114.239287,
        -8.064424
      ],
      [
        114.239245,
        -8.064305
      ],
      [
        114.239228,
        -8.064221
      ],
      [
        114.2392258,
        -8.064098
      ],
      [
        114.239179,
        -8.064026
      ],
      [
        114.2391114,
        -8.0639474
      ],
      [
        114.2390842,
        -8.0637846
      ],
      [
        114.2390896,
        -8.0637006
      ],
      [
        114.2391824,
        -8.0636562
      ],
      [
        114.2391541,
        -8.0635728
      ],
      [
        114.2391006,
        -8.0635239
      ],
      [
        114.2389359,
        -8.0635657
      ],
      [
        114.238807,
        -8.0635693
      ],
      [
        114.238709,
        -8.0635798
      ],
      [
        114.238624,
        -8.06358
      ],
      [
        114.238538,
        -8.0636
      ],
      [
        114.238522,
        -8.063609
      ],
      [
        114.238501,
        -8.063627
      ],
      [
        114.238473,
        -8.063641
      ],
      [
        114.238402,
        -8.06366
      ],
      [
        114.238357,
        -8.063666
      ],
      [
        114.238338,
        -8.06369
      ],
      [
        114.238335,
        -8.063713
      ],
      [
        114.2383858,
        -8.0637454
      ],
      [
        114.2383561,
        -8.0637692
      ],
      [
        114.2382653,
        -8.0636766
      ],
      [
        114.2383033,
        -8.0638566
      ],
      [
        114.2381789,
        -8.0637916
      ],
      [
        114.2380937,
        -8.0638043
      ],
      [
        114.2380479,
        -8.063885
      ],
      [
        114.2379634,
        -8.0639648
      ],
      [
        114.237861,
        -8.063994
      ],
      [
        114.237764,
        -8.064034
      ],
      [
        114.237631,
        -8.06407
      ],
      [
        114.23759,
        -8.064076
      ],
      [
        114.237539,
        -8.064111
      ],
      [
        114.237439,
        -8.064185
      ],
      [
        114.237376,
        -8.064217
      ],
      [
        114.237311,
        -8.064256
      ],
      [
        114.237226,
        -8.064308
      ],
      [
        114.237134,
        -8.064355
      ],
      [
        114.237085,
        -8.064423
      ],
      [
        114.237036,
        -8.064464
      ],
      [
        114.237029,
        -8.064469
      ],
      [
        114.237009,
        -8.064498
      ],
      [
        114.236953,
        -8.064566
      ],
      [
        114.236918,
        -8.064668
      ],
      [
        114.236898,
        -8.064724
      ],
      [
        114.236885,
        -8.064757
      ],
      [
        114.23688,
        -8.064773
      ],
      [
        114.236869,
        -8.064807
      ],
      [
        114.2368612,
        -8.0648785
      ],
      [
        114.236862,
        -8.064958
      ],
      [
        114.2368269,
        -8.0650749
      ],
      [
        114.2368564,
        -8.0651432
      ],
      [
        114.2368188,
        -8.0652159
      ],
      [
        114.2366913,
        -8.0652548
      ],
      [
        114.2364858,
        -8.0652504
      ],
      [
        114.2364051,
        -8.0652767
      ],
      [
        114.2362947,
        -8.0652981
      ],
      [
        114.236203,
        -8.065297
      ],
      [
        114.236137,
        -8.065302
      ],
      [
        114.23605,
        -8.065342
      ],
      [
        114.236025,
        -8.065377
      ],
      [
        114.2360206,
        -8.0654256
      ],
      [
        114.2360159,
        -8.0654873
      ],
      [
        114.2359722,
        -8.0655566
      ],
      [
        114.2358846,
        -8.0655582
      ],
      [
        114.235787,
        -8.065563
      ],
      [
        114.2357215,
        -8.0655521
      ],
      [
        114.235675,
        -8.065647
      ],
      [
        114.235661,
        -8.065695
      ],
      [
        114.23566,
        -8.065768
      ],
      [
        114.235589,
        -8.065856
      ],
      [
        114.235562,
        -8.065888
      ],
      [
        114.235542,
        -8.065906
      ],
      [
        114.2355363,
        -8.0659874
      ],
      [
        114.2355253,
        -8.0660545
      ],
      [
        114.2354293,
        -8.0661122
      ],
      [
        114.2353064,
        -8.0661744
      ],
      [
        114.2352008,
        -8.0661809
      ],
      [
        114.2350853,
        -8.0661755
      ],
      [
        114.2349627,
        -8.0662032
      ],
      [
        114.2348506,
        -8.0662403
      ],
      [
        114.23479,
        -8.066282
      ],
      [
        114.234828,
        -8.066342
      ],
      [
        114.2348085,
        -8.0663778
      ],
      [
        114.2347609,
        -8.0664189
      ],
      [
        114.2346851,
        -8.0664827
      ],
      [
        114.2345568,
        -8.0665229
      ],
      [
        114.2344227,
        -8.0664989
      ],
      [
        114.2343324,
        -8.066488
      ],
      [
        114.2342451,
        -8.0665169
      ],
      [
        114.234143,
        -8.0665862
      ],
      [
        114.2340521,
        -8.0666574
      ],
      [
        114.2339767,
        -8.0667417
      ],
      [
        114.2338916,
        -8.0668117
      ],
      [
        114.2337541,
        -8.0668832
      ],
      [
        114.2336558,
        -8.0669254
      ],
      [
        114.2335543,
        -8.0669837
      ],
      [
        114.2334733,
        -8.0670364
      ],
      [
        114.2333858,
        -8.0671081
      ],
      [
        114.2332484,
        -8.0672083
      ],
      [
        114.2331812,
        -8.0672628
      ],
      [
        114.2330625,
        -8.0673605
      ],
      [
        114.2329144,
        -8.0674439
      ],
      [
        114.2328132,
        -8.0674978
      ],
      [
        114.2326791,
        -8.0675938
      ],
      [
        114.2326123,
        -8.0676367
      ],
      [
        114.2325392,
        -8.067678
      ],
      [
        114.2324485,
        -8.0676789
      ],
      [
        114.2323497,
        -8.0677112
      ],
      [
        114.232244,
        -8.0677857
      ],
      [
        114.2321959,
        -8.0678522
      ],
      [
        114.2321397,
        -8.0679181
      ],
      [
        114.232095,
        -8.0679932
      ],
      [
        114.2320691,
        -8.0681203
      ],
      [
        114.2320419,
        -8.0682093
      ],
      [
        114.232023,
        -8.068323
      ],
      [
        114.232003,
        -8.068403
      ],
      [
        114.231958,
        -8.068458
      ],
      [
        114.231926,
        -8.068509
      ],
      [
        114.231923,
        -8.068553
      ],
      [
        114.2319011,
        -8.0686285
      ],
      [
        114.2318363,
        -8.0686749
      ],
      [
        114.231734,
        -8.06869
      ],
      [
        114.2316565,
        -8.0687391
      ],
      [
        114.2316808,
        -8.0688518
      ],
      [
        114.2316987,
        -8.0689682
      ],
      [
        114.231697,
        -8.069148
      ],
      [
        114.2317139,
        -8.0693416
      ],
      [
        114.23167,
        -8.069425
      ],
      [
        114.231616,
        -8.069484
      ],
      [
        114.2315134,
        -8.0695546
      ],
      [
        114.231473,
        -8.069628
      ],
      [
        114.2313809,
        -8.0697491
      ],
      [
        114.231266,
        -8.0697919
      ],
      [
        114.2311993,
        -8.0698929
      ],
      [
        114.2311596,
        -8.0699909
      ],
      [
        114.2311913,
        -8.0701689
      ],
      [
        114.2311805,
        -8.0702886
      ],
      [
        114.2310968,
        -8.0703481
      ],
      [
        114.2310043,
        -8.0703974
      ],
      [
        114.230902,
        -8.0704771
      ],
      [
        114.2307755,
        -8.0705352
      ],
      [
        114.2306364,
        -8.0705543
      ],
      [
        114.230503,
        -8.0705197
      ],
      [
        114.230336,
        -8.07043
      ],
      [
        114.2302109,
        -8.0704132
      ],
      [
        114.2300981,
        -8.0704551
      ],
      [
        114.2300183,
        -8.0704979
      ],
      [
        114.229907,
        -8.070523
      ],
      [
        114.2297979,
        -8.0705323
      ],
      [
        114.2296696,
        -8.0706239
      ],
      [
        114.2295518,
        -8.0707372
      ],
      [
        114.229504,
        -8.070859
      ],
      [
        114.22946,
        -8.070927
      ],
      [
        114.22939,
        -8.071016
      ],
      [
        114.2293155,
        -8.0710683
      ],
      [
        114.2292312,
        -8.0711257
      ],
      [
        114.229174,
        -8.071216
      ],
      [
        114.229101,
        -8.071269
      ],
      [
        114.228994,
        -8.071318
      ],
      [
        114.228912,
        -8.071356
      ],
      [
        114.2287899,
        -8.0713921
      ],
      [
        114.2287043,
        -8.0714028
      ],
      [
        114.2286252,
        -8.0714506
      ],
      [
        114.2284305,
        -8.0714983
      ],
      [
        114.228297,
        -8.071479
      ],
      [
        114.228206,
        -8.071479
      ],
      [
        114.228002,
        -8.071515
      ],
      [
        114.227878,
        -8.071533
      ],
      [
        114.227777,
        -8.071583
      ],
      [
        114.227682,
        -8.071655
      ],
      [
        114.227601,
        -8.071716
      ],
      [
        114.227535,
        -8.071738
      ],
      [
        114.227459,
        -8.071775
      ],
      [
        114.227438,
        -8.071782
      ],
      [
        114.227353,
        -8.071813
      ],
      [
        114.227275,
        -8.071836
      ],
      [
        114.227178,
        -8.071859
      ],
      [
        114.227158,
        -8.071869
      ],
      [
        114.227066,
        -8.071877
      ],
      [
        114.226934,
        -8.071898
      ],
      [
        114.226867,
        -8.071912
      ],
      [
        114.22681,
        -8.071913
      ],
      [
        114.226731,
        -8.071907
      ],
      [
        114.22661,
        -8.071915
      ],
      [
        114.226524,
        -8.07193
      ],
      [
        114.226393,
        -8.071942
      ],
      [
        114.226245,
        -8.071931
      ],
      [
        114.22621,
        -8.071929
      ],
      [
        114.226157,
        -8.071923
      ],
      [
        114.226034,
        -8.071919
      ],
      [
        114.225985,
        -8.071927
      ],
      [
        114.225867,
        -8.071993
      ],
      [
        114.225738,
        -8.072062
      ],
      [
        114.225603,
        -8.072123
      ],
      [
        114.225502,
        -8.0721752
      ],
      [
        114.225421,
        -8.072244
      ],
      [
        114.225305,
        -8.072354
      ],
      [
        114.225249,
        -8.072406
      ],
      [
        114.22517,
        -8.0725
      ],
      [
        114.225116,
        -8.072597
      ],
      [
        114.2250833,
        -8.0726793
      ],
      [
        114.2250256,
        -8.0727107
      ],
      [
        114.2249071,
        -8.0727166
      ],
      [
        114.2248049,
        -8.0727625
      ],
      [
        114.2246602,
        -8.0728633
      ],
      [
        114.224612,
        -8.0729339
      ],
      [
        114.2244923,
        -8.0730187
      ],
      [
        114.2243579,
        -8.0730845
      ],
      [
        114.2242675,
        -8.0731404
      ]
    ]
  }
}
