{
  "type": "Feature",
  "properties": {
    "id": "24000347730",
    "activity": "hiking",
    "name": "Torbay Hiking",
    "date": "2026-08-16T14:27:14Z",
    "distanceKm": 4.2,
    "movingTimeSeconds": 2980,
    "elapsedTimeSeconds": 3174,
    "ascentM": 142,
    "descentM": 141,
    "providers": [
      "Garmin",
      "Strava"
    ]
  },
  "geometry": {
    "type": "LineString",
    "coordinates": [
      [
        -3.52318556047976,
        50.48103041946888,
        92.39999999999998
      ],
      [
        -3.523175837472081,
        50.481036538258195,
        96
      ],
      [
        -3.5231060162186623,
        50.481126392260194,
        96
      ],
      [
        -3.522994201630354,
        50.48125572502613,
        96.20000000000005
      ],
      [
        -3.5229083709418774,
        50.48140022903681,
        97
      ],
      [
        -3.5228202771395445,
        50.48152402974665,
        97.39999999999998
      ],
      [
        -3.5227988194674253,
        50.481546157971025,
        98
      ],
      [
        -3.5227742604911327,
        50.48157121986151,
        98
      ],
      [
        -3.522748611867428,
        50.48159091733396,
        98.20000000000005
      ],
      [
        -3.5226611886173487,
        50.48163525760174,
        98.20000000000005
      ],
      [
        -3.522598659619689,
        50.48166761174798,
        98.20000000000005
      ],
      [
        -3.522584494203329,
        50.481674652546644,
        98.20000000000005
      ],
      [
        -3.522440157830715,
        50.48176106996834,
        98.60000000000002
      ],
      [
        -3.522427501156926,
        50.48182460479438,
        99
      ],
      [
        -3.5224261600524187,
        50.48182452097535,
        99.20000000000005
      ],
      [
        -3.522481480613351,
        50.48187967389822,
        99.60000000000002
      ],
      [
        -3.5225326102226973,
        50.481963492929935,
        99.60000000000002
      ],
      [
        -3.5225072130560875,
        50.48203172162175,
        100.20000000000005
      ],
      [
        -3.522437894716859,
        50.48210305161774,
        100.39999999999998
      ],
      [
        -3.5223482083529234,
        50.48217924311757,
        100.39999999999998
      ],
      [
        -3.5222621262073517,
        50.482249818742275,
        100.20000000000005
      ],
      [
        -3.5221996810287237,
        50.48231544904411,
        99.39999999999998
      ],
      [
        -3.522164225578308,
        50.482351491227746,
        100.39999999999998
      ],
      [
        -3.522030534222722,
        50.48245475627482,
        99.79999999999995
      ],
      [
        -3.5219387523829937,
        50.482566235587,
        99.60000000000002
      ],
      [
        -3.5218929033726454,
        50.48261979594827,
        99.20000000000005
      ],
      [
        -3.5218562744557858,
        50.4826698359102,
        98.20000000000005
      ],
      [
        -3.521826099604368,
        50.48271677456796,
        97.79999999999995
      ],
      [
        -3.521772623062134,
        50.48281090334058,
        97.39999999999998
      ],
      [
        -3.5217494890093803,
        50.482832780107856,
        97.20000000000005
      ],
      [
        -3.521683355793357,
        50.482875779271126,
        96.60000000000002
      ],
      [
        -3.5216325614601374,
        50.48290385864675,
        96.20000000000005
      ],
      [
        -3.521501971408725,
        50.48302070237696,
        95.39999999999998
      ],
      [
        -3.521478334441781,
        50.48301458358765,
        95.20000000000005
      ],
      [
        -3.5214767418801785,
        50.483008716255426,
        95
      ],
      [
        -3.521480178460479,
        50.48300025053322,
        95
      ],
      [
        -3.521486548706889,
        50.482978876680136,
        95.20000000000005
      ],
      [
        -3.5214584693312645,
        50.482952892780304,
        95.20000000000005
      ],
      [
        -3.5214391071349382,
        50.482952892780304,
        95
      ],
      [
        -3.521380852907896,
        50.48293998464942,
        94.39999999999998
      ],
      [
        -3.5212929267436266,
        50.482934871688485,
        94.20000000000005
      ],
      [
        -3.5212585609406233,
        50.48294526524842,
        94
      ],
      [
        -3.5211962834000587,
        50.48298918642104,
        93
      ],
      [
        -3.5211744904518127,
        50.48301190137863,
        92.79999999999995
      ],
      [
        -3.521137023344636,
        50.48308507539332,
        92.39999999999998
      ],
      [
        -3.521116403862834,
        50.48315120860934,
        91.79999999999995
      ],
      [
        -3.5210974607616663,
        50.483176773414016,
        91.39999999999998
      ],
      [
        -3.521006852388382,
        50.483266124501824,
        90.60000000000002
      ],
      [
        -3.5209946148097515,
        50.48327844589949,
        90.60000000000002
      ],
      [
        -3.5209245420992374,
        50.483354050666094,
        89.39999999999998
      ],
      [
        -3.5208974685519934,
        50.48338808119297,
        89.20000000000005
      ],
      [
        -3.5208246298134327,
        50.483460584655404,
        88.39999999999998
      ],
      [
        -3.5208149068057537,
        50.48348204232752,
        88.39999999999998
      ],
      [
        -3.520744079723954,
        50.483561754226685,
        87.79999999999995
      ],
      [
        -3.5206677205860615,
        50.48360542394221,
        87.39999999999998
      ],
      [
        -3.520599491894245,
        50.483642891049385,
        87.20000000000005
      ],
      [
        -3.520491700619459,
        50.483679603785276,
        86.79999999999995
      ],
      [
        -3.5204482823610306,
        50.48368991352618,
        86.79999999999995
      ],
      [
        -3.5203390661627054,
        50.48373366706073,
        86.39999999999998
      ],
      [
        -3.5203175246715546,
        50.483741546049714,
        86.20000000000005
      ],
      [
        -3.5202394891530275,
        50.48378622159362,
        85.39999999999998
      ],
      [
        -3.5201370622962713,
        50.48381966538727,
        84.20000000000005
      ],
      [
        -3.5201390739530325,
        50.483824610710144,
        83.79999999999995
      ],
      [
        -3.5201311949640512,
        50.483833998441696,
        83.60000000000002
      ],
      [
        -3.5200431011617184,
        50.483872555196285,
        83.20000000000005
      ],
      [
        -3.5200203862041235,
        50.48387775197625,
        83
      ],
      [
        -3.5199208091944456,
        50.483916979283094,
        82
      ],
      [
        -3.519906895235181,
        50.48392393626273,
        81.79999999999995
      ],
      [
        -3.5198168735951185,
        50.48399141058326,
        80.79999999999995
      ],
      [
        -3.51972165517509,
        50.48403197899461,
        79.79999999999995
      ],
      [
        -3.519711345434189,
        50.484036169946194,
        79.60000000000002
      ],
      [
        -3.519610008224845,
        50.48409216105938,
        78.60000000000002
      ],
      [
        -3.519595256075263,
        50.48410247080028,
        78.39999999999998
      ],
      [
        -3.519513364881277,
        50.484159300103784,
        77.60000000000002
      ],
      [
        -3.5194923263043165,
        50.48417338170111,
        77.20000000000005
      ],
      [
        -3.519422085955739,
        50.484221912920475,
        76.20000000000005
      ],
      [
        -3.5193591378629208,
        50.48423524014652,
        75.20000000000005
      ],
      [
        -3.519318988546729,
        50.48426164314151,
        74.39999999999998
      ],
      [
        -3.519296608865261,
        50.48427203670144,
        73.79999999999995
      ],
      [
        -3.519236510619521,
        50.48429005779326,
        72.79999999999995
      ],
      [
        -3.519131150096655,
        50.484352838248014,
        71.79999999999995
      ],
      [
        -3.519121678546071,
        50.48435753211379,
        71.79999999999995
      ],
      [
        -3.519052527844906,
        50.48435753211379,
        70.79999999999995
      ],
      [
        -3.5190225206315517,
        50.48434630036354,
        70.39999999999998
      ],
      [
        -3.518985640257597,
        50.484308917075396,
        69.20000000000005
      ],
      [
        -3.5189704690128565,
        50.48429659567773,
        69
      ],
      [
        -3.5189465805888176,
        50.48426382243633,
        68.20000000000005
      ],
      [
        -3.5189163219183683,
        50.48421529121697,
        67
      ],
      [
        -3.5188918467611074,
        50.484172543510795,
        66.20000000000005
      ],
      [
        -3.5188302397727966,
        50.484126694500446,
        65.79999999999995
      ],
      [
        -3.5188023280352354,
        50.48408235423267,
        65.79999999999995
      ],
      [
        -3.5187054332345724,
        50.483984956517816,
        64.79999999999995
      ],
      [
        -3.518656315281987,
        50.48397288657725,
        64.39999999999998
      ],
      [
        -3.518621949478984,
        50.483945310115814,
        64
      ],
      [
        -3.5185885056853294,
        50.48391723074019,
        63.799999999999955
      ],
      [
        -3.5184974782168865,
        50.48386945389211,
        63.200000000000045
      ],
      [
        -3.51842631585896,
        50.483825700357556,
        62.799999999999955
      ],
      [
        -3.518406869843602,
        50.48381463624537,
        62.60000000000002
      ],
      [
        -3.5182683169841766,
        50.483785048127174,
        61.799999999999955
      ],
      [
        -3.518248787149787,
        50.4837769176811,
        61.60000000000002
      ],
      [
        -3.518176283687353,
        50.48376518301666,
        60.799999999999955
      ],
      [
        -3.518141582608223,
        50.483765015378594,
        60.39999999999998
      ],
      [
        -3.518057344481349,
        50.483767949044704,
        59.39999999999998
      ],
      [
        -3.518003113567829,
        50.48376719467342,
        58.39999999999998
      ],
      [
        -3.517965730279684,
        50.483772307634354,
        57.39999999999998
      ],
      [
        -3.517956677824259,
        50.48377490602434,
        57.200000000000045
      ],
      [
        -3.517847629263997,
        50.48380985856056,
        57.200000000000045
      ],
      [
        -3.5177322942763567,
        50.48379736952484,
        57.39999999999998
      ],
      [
        -3.5176136903464794,
        50.48371790908277,
        57
      ],
      [
        -3.5175520833581686,
        50.483692679554224,
        56.39999999999998
      ],
      [
        -3.5175041388720274,
        50.483667282387614,
        56
      ],
      [
        -3.517440939322114,
        50.483621936291456,
        55.39999999999998
      ],
      [
        -3.5174052324146032,
        50.48360760323703,
        55.39999999999998
      ],
      [
        -3.5173256881535053,
        50.48355655744672,
        54.200000000000045
      ],
      [
        -3.51727900095284,
        50.48353183083236,
        54
      ],
      [
        -3.5171880573034286,
        50.48348740674555,
        53.200000000000045
      ],
      [
        -3.5171727184206247,
        50.48347977921367,
        53
      ],
      [
        -3.5171186551451683,
        50.48344574868679,
        52.39999999999998
      ],
      [
        -3.517081690952182,
        50.48343644477427,
        52.200000000000045
      ],
      [
        -3.517062831670046,
        50.48342747613788,
        52
      ],
      [
        -3.5170143842697144,
        50.48339084722102,
        51
      ],
      [
        -3.5169683676213026,
        50.483340471982956,
        50.39999999999998
      ],
      [
        -3.516963003203273,
        50.4833278991282,
        50.200000000000045
      ],
      [
        -3.5169489216059446,
        50.48329713754356,
        49.799999999999955
      ],
      [
        -3.516917070373893,
        50.48325262963772,
        49.39999999999998
      ],
      [
        -3.5168785136193037,
        50.483232429251075,
        48.799999999999955
      ],
      [
        -3.516815733164549,
        50.48320275731385,
        47.799999999999955
      ],
      [
        -3.516780361533165,
        50.483184568583965,
        47.39999999999998
      ],
      [
        -3.5167259629815817,
        50.48316269181669,
        46.799999999999955
      ],
      [
        -3.5167095344513655,
        50.4831569083035,
        46.60000000000002
      ],
      [
        -3.5166176687926054,
        50.48311818391085,
        45.799999999999955
      ],
      [
        -3.516601324081421,
        50.48311114311218,
        45.799999999999955
      ],
      [
        -3.5165471769869328,
        50.48308809287846,
        45.39999999999998
      ],
      [
        -3.5164936166256666,
        50.48305640928447,
        44.799999999999955
      ],
      [
        -3.5164992325007915,
        50.4830480273813,
        44.60000000000002
      ],
      [
        -3.516492862254381,
        50.483054649084806,
        44.200000000000045
      ],
      [
        -3.5164115577936172,
        50.483022881671786,
        44
      ],
      [
        -3.5163802094757557,
        50.48300410620868,
        43.60000000000002
      ],
      [
        -3.5163274873048067,
        50.482968064025044,
        42.799999999999955
      ],
      [
        -3.516294714063406,
        50.48295649699867,
        42.39999999999998
      ],
      [
        -3.516243500635028,
        50.48295079730451,
        42.200000000000045
      ],
      [
        -3.516148868948221,
        50.48288189806044,
        41.60000000000002
      ],
      [
        -3.5161364637315273,
        50.482870833948255,
        41.39999999999998
      ],
      [
        -3.5161191131919622,
        50.482767317444086,
        40.39999999999998
      ],
      [
        -3.516139565035701,
        50.48271375708282,
        40
      ],
      [
        -3.5161369666457176,
        50.482680313289165,
        40.39999999999998
      ],
      [
        -3.516102097928524,
        50.48261401243508,
        40.799999999999955
      ],
      [
        -3.516084160655737,
        50.48259004019201,
        40.799999999999955
      ],
      [
        -3.516062619164586,
        50.482540000230074,
        41.200000000000045
      ],
      [
        -3.516055578365922,
        50.48252549953759,
        41.39999999999998
      ],
      [
        -3.516052644699812,
        50.48251678235829,
        41.39999999999998
      ],
      [
        -3.516014590859413,
        50.48246749676764,
        42.200000000000045
      ],
      [
        -3.5159935522824526,
        50.482449643313885,
        42.60000000000002
      ],
      [
        -3.5159682389348745,
        50.482403291389346,
        43.39999999999998
      ],
      [
        -3.515965975821018,
        50.48239725641906,
        43.60000000000002
      ],
      [
        -3.51595189422369,
        50.48237479291856,
        44.200000000000045
      ],
      [
        -3.5159440990537405,
        50.482360795140266,
        44.60000000000002
      ],
      [
        -3.515939824283123,
        50.48234964720905,
        45
      ],
      [
        -3.515940075740218,
        50.48232676461339,
        45.799999999999955
      ],
      [
        -3.515938315540552,
        50.48228753730655,
        46.799999999999955
      ],
      [
        -3.5159356333315372,
        50.48228049650788,
        47
      ],
      [
        -3.515942506492138,
        50.482245963066816,
        48.200000000000045
      ],
      [
        -3.5159456077963114,
        50.48223942518234,
        48.60000000000002
      ],
      [
        -3.515948038548231,
        50.482225343585014,
        49.200000000000045
      ],
      [
        -3.5159477032721043,
        50.48221402801573,
        49.39999999999998
      ],
      [
        -3.5159464459866285,
        50.482205394655466,
        49.60000000000002
      ],
      [
        -3.5159440990537405,
        50.48220229335129,
        49.799999999999955
      ],
      [
        -3.5159429255872965,
        50.48218980431557,
        50.200000000000045
      ],
      [
        -3.515941249206662,
        50.482184272259474,
        50.60000000000002
      ],
      [
        -3.5159320291131735,
        50.4821415245533,
        51.799999999999955
      ],
      [
        -3.5159264132380486,
        50.48211026005447,
        52.799999999999955
      ],
      [
        -3.515923898667097,
        50.48210430890322,
        53.200000000000045
      ],
      [
        -3.5159193724393845,
        50.482081761583686,
        54
      ],
      [
        -3.51590889506042,
        50.4820691049099,
        54.39999999999998
      ],
      [
        -3.5159055422991514,
        50.48206097446382,
        54.60000000000002
      ],
      [
        -3.5158949811011553,
        50.48204496502876,
        55.200000000000045
      ],
      [
        -3.5158817376941442,
        50.482020657509565,
        56.39999999999998
      ],
      [
        -3.515867907553911,
        50.48195779323578,
        57.39999999999998
      ],
      [
        -3.515809904783964,
        50.48195242881775,
        57.200000000000045
      ],
      [
        -3.515770426020026,
        50.48194572329521,
        56.60000000000002
      ],
      [
        -3.5157684981822968,
        50.48194513656199,
        56.39999999999998
      ],
      [
        -3.5157636366784573,
        50.48194748349488,
        56
      ],
      [
        -3.515781406313181,
        50.48194614239037,
        55.799999999999955
      ],
      [
        -3.515826500952244,
        50.481937592849135,
        56
      ],
      [
        -3.515836140140891,
        50.48193373717368,
        56.200000000000045
      ],
      [
        -3.5158899519592524,
        50.481926277279854,
        56.39999999999998
      ],
      [
        -3.5158863477408886,
        50.48192460089922,
        56.39999999999998
      ],
      [
        -3.5159725975245237,
        50.48191102221608,
        55.60000000000002
      ],
      [
        -3.515992881730199,
        50.48189937137067,
        55.200000000000045
      ],
      [
        -3.5160309355705976,
        50.48186316154897,
        54.200000000000045
      ],
      [
        -3.516087681055069,
        50.48182586207986,
        53.200000000000045
      ],
      [
        -3.516122382134199,
        50.481813959777355,
        52.200000000000045
      ],
      [
        -3.516120621934533,
        50.4818080086261,
        52
      ],
      [
        -3.516114167869091,
        50.48180147074163,
        51.60000000000002
      ],
      [
        -3.51611802354455,
        50.48180381767452,
        51.200000000000045
      ],
      [
        -3.516114754602313,
        50.48180784098804,
        51.200000000000045
      ],
      [
        -3.516113832592964,
        50.48181119374931,
        51
      ],
      [
        -3.516116598621011,
        50.48181337304413,
        51
      ],
      [
        -3.5161243937909603,
        50.48181454651058,
        50.799999999999955
      ],
      [
        -3.5161970648914576,
        50.48179158009589,
        50
      ],
      [
        -3.516212487593293,
        50.48178336583078,
        49.60000000000002
      ],
      [
        -3.5162633657455444,
        50.4817651771009,
        48.60000000000002
      ],
      [
        -3.5163089632987976,
        50.48173885792494,
        48
      ],
      [
        -3.516373001039028,
        50.48169787041843,
        47.39999999999998
      ],
      [
        -3.516458496451378,
        50.48167138360441,
        48.60000000000002
      ],
      [
        -3.5165216121822596,
        50.48166761174798,
        49.60000000000002
      ],
      [
        -3.516578273847699,
        50.481664426624775,
        50.799999999999955
      ],
      [
        -3.5166400484740734,
        50.481661492958665,
        52
      ],
      [
        -3.5167028289288282,
        50.4816562961787,
        53.200000000000045
      ],
      [
        -3.516752701252699,
        50.48164498060942,
        54.39999999999998
      ],
      [
        -3.516763849183917,
        50.48161053098738,
        54.60000000000002
      ],
      [
        -3.516692351549864,
        50.48159477300942,
        54.200000000000045
      ],
      [
        -3.516651950776577,
        50.48159368336201,
        54
      ],
      [
        -3.5166076943278313,
        50.48159519210458,
        53.200000000000045
      ],
      [
        -3.516547344624996,
        50.48159368336201,
        52.39999999999998
      ],
      [
        -3.5165343526750803,
        50.48159376718104,
        52
      ],
      [
        -3.5164748411625624,
        50.481578428298235,
        50.799999999999955
      ],
      [
        -3.5164517909288406,
        50.48154196701944,
        49.799999999999955
      ],
      [
        -3.516414323821664,
        50.481512462720275,
        48.799999999999955
      ],
      [
        -3.516384232789278,
        50.48149259760976,
        47.60000000000002
      ],
      [
        -3.5163661278784275,
        50.481472900137305,
        47
      ],
      [
        -3.5163614340126514,
        50.481460243463516,
        46.799999999999955
      ],
      [
        -3.516346849501133,
        50.48140802420676,
        46.200000000000045
      ],
      [
        -3.5163461789488792,
        50.481402073055506,
        46
      ],
      [
        -3.516289768740535,
        50.48141456209123,
        45.200000000000045
      ],
      [
        -3.5162108950316906,
        50.48143241554499,
        44
      ],
      [
        -3.5161755234003067,
        50.48144180327654,
        43.60000000000002
      ],
      [
        -3.516088016331196,
        50.481460159644485,
        43
      ],
      [
        -3.516070917248726,
        50.48146292567253,
        43
      ],
      [
        -3.515981901437044,
        50.48147608526051,
        42
      ],
      [
        -3.515943679958582,
        50.48148765228689,
        40.799999999999955
      ],
      [
        -3.5158613696694374,
        50.481527131050825,
        39.799999999999955
      ],
      [
        -3.5158533230423927,
        50.481536351144314,
        39.799999999999955
      ],
      [
        -3.5158280935138464,
        50.48158211633563,
        38.799999999999955
      ],
      [
        -3.5158171970397234,
        50.48158454708755,
        38.39999999999998
      ],
      [
        -3.515801690518856,
        50.48157759010792,
        38.200000000000045
      ],
      [
        -3.5157791431993246,
        50.4815664421767,
        37.60000000000002
      ],
      [
        -3.515749555081129,
        50.48155814409256,
        37.39999999999998
      ],
      [
        -3.515686271712184,
        50.48153475858271,
        36.39999999999998
      ],
      [
        -3.5156334657222033,
        50.4815059248358,
        35.799999999999955
      ],
      [
        -3.5155759658664465,
        50.48147256486118,
        35.39999999999998
      ],
      [
        -3.515522489324212,
        50.48146518878639,
        34.799999999999955
      ],
      [
        -3.515488626435399,
        50.48145538195968,
        34.200000000000045
      ],
      [
        -3.5154071543365717,
        50.48142101615667,
        33
      ],
      [
        -3.5153810027986765,
        50.481415651738644,
        32.799999999999955
      ],
      [
        -3.5153046436607838,
        50.481396708637476,
        32
      ],
      [
        -3.515257202088833,
        50.48137533478439,
        31.600000000000023
      ],
      [
        -3.515195930376649,
        50.48134499229491,
        31
      ],
      [
        -3.5151336528360844,
        50.481304256245494,
        30.399999999999977
      ],
      [
        -3.515073051676154,
        50.48127223737538,
        29.799999999999955
      ],
      [
        -3.5150182340294123,
        50.4812625143677,
        29.200000000000045
      ],
      [
        -3.5149880591779947,
        50.48126025125384,
        28.600000000000023
      ],
      [
        -3.514932654798031,
        50.48126150853932,
        27.399999999999977
      ],
      [
        -3.514915220439434,
        50.48126268200576,
        27.200000000000045
      ],
      [
        -3.514827713370323,
        50.48127374611795,
        26.399999999999977
      ],
      [
        -3.5147940181195736,
        50.48128975555301,
        26
      ],
      [
        -3.514802400022745,
        50.48130417242646,
        26
      ],
      [
        -3.514824779704213,
        50.48132521100342,
        25.399999999999977
      ],
      [
        -3.5148346703499556,
        50.48132814466953,
        25.399999999999977
      ],
      [
        -3.5148494224995375,
        50.48133526928723,
        25
      ],
      [
        -3.514858055859804,
        50.481356140226126,
        25
      ],
      [
        -3.5148755740374327,
        50.48138371668756,
        24.600000000000023
      ],
      [
        -3.5148830339312553,
        50.481398636475205,
        24.200000000000045
      ],
      [
        -3.5148818604648113,
        50.48140165396035,
        24.200000000000045
      ],
      [
        -3.514881609007716,
        50.481404000893235,
        24.200000000000045
      ],
      [
        -3.5148879792541265,
        50.48140710219741,
        24.200000000000045
      ],
      [
        -3.514895187690854,
        50.48140525817871,
        24.200000000000045
      ],
      [
        -3.514932570978999,
        50.481417663395405,
        24
      ],
      [
        -3.514974396675825,
        50.48143149353564,
        23.600000000000023
      ],
      [
        -3.5150479897856712,
        50.48146736808121,
        23.200000000000045
      ],
      [
        -3.515127282589674,
        50.48152386210859,
        22.399999999999977
      ],
      [
        -3.515146980062127,
        50.48154607415199,
        22
      ],
      [
        -3.515206156298518,
        50.48158127814531,
        21.799999999999955
      ],
      [
        -3.515260387212038,
        50.48164967447519,
        21
      ],
      [
        -3.515283018350601,
        50.48167917877436,
        20.399999999999977
      ],
      [
        -3.515297770500183,
        50.48170507885516,
        20
      ],
      [
        -3.5153159592300653,
        50.48174338415265,
        19
      ],
      [
        -3.515317803248763,
        50.481759728863835,
        18.799999999999955
      ],
      [
        -3.5153153724968433,
        50.481834998354316,
        18
      ],
      [
        -3.5153170488774776,
        50.481849666684866,
        17.799999999999955
      ],
      [
        -3.5153179708868265,
        50.481919068843126,
        16.799999999999955
      ],
      [
        -3.5153117682784796,
        50.481987884268165,
        15.399999999999977
      ],
      [
        -3.5153049789369106,
        50.48203708603978,
        14.799999999999955
      ],
      [
        -3.5152946691960096,
        50.48207203857601,
        14.399999999999977
      ],
      [
        -3.5152811743319035,
        50.48213532194495,
        13.200000000000045
      ],
      [
        -3.51526684127748,
        50.482140854001045,
        13
      ],
      [
        -3.515232391655445,
        50.482136411592364,
        12.799999999999955
      ],
      [
        -3.515162067487836,
        50.48211436718702,
        12.200000000000045
      ],
      [
        -3.515149913728237,
        50.48209517262876,
        12.200000000000045
      ],
      [
        -3.5151183139532804,
        50.48204379156232,
        11.600000000000023
      ],
      [
        -3.515091324225068,
        50.4819480702281,
        11.600000000000023
      ],
      [
        -3.5150432121008635,
        50.48186785541475,
        11.199999999999989
      ],
      [
        -3.515016892924905,
        50.48184195533395,
        11
      ],
      [
        -3.514952100813389,
        50.48178914934397,
        10.199999999999989
      ],
      [
        -3.5149336606264114,
        50.48177716322243,
        10
      ],
      [
        -3.51490817964077,
        50.481710862368345,
        9.199999999999989
      ],
      [
        -3.5148443933576345,
        50.48162017017603,
        10.399999999999977
      ],
      [
        -3.5148013941943645,
        50.481585301458836,
        11
      ],
      [
        -3.5147610772401094,
        50.481557473540306,
        11
      ],
      [
        -3.51471078582108,
        50.48153308220208,
        11
      ],
      [
        -3.514632247388363,
        50.48150483518839,
        10.800000000000011
      ],
      [
        -3.514528227970004,
        50.48145320266485,
        10.800000000000011
      ],
      [
        -3.514495538547635,
        50.481438199058175,
        10.399999999999977
      ],
      [
        -3.514394201338291,
        50.481377178803086,
        10.600000000000023
      ],
      [
        -3.514300659298897,
        50.48131188377738,
        10.800000000000011
      ],
      [
        -3.5142018366605043,
        50.48123175278306,
        10.800000000000011
      ],
      [
        -3.5140952188521624,
        50.48114768229425,
        10.800000000000011
      ],
      [
        -3.5140171833336353,
        50.48109772615135,
        10.600000000000023
      ],
      [
        -3.5139266587793827,
        50.48103368841112,
        11.199999999999989
      ],
      [
        -3.5138215497136116,
        50.48096898011863,
        11.199999999999989
      ],
      [
        -3.5137329529970884,
        50.480867056176066,
        11
      ],
      [
        -3.513640919700265,
        50.48076789826155,
        11.399999999999977
      ],
      [
        -3.513556430116296,
        50.48072565346956,
        11.399999999999977
      ],
      [
        -3.5134519077837467,
        50.48068366013467,
        11.800000000000011
      ],
      [
        -3.5132822580635548,
        50.480636302381754,
        11.800000000000011
      ],
      [
        -3.513207659125328,
        50.48057000152767,
        11.600000000000023
      ],
      [
        -3.5130720399320126,
        50.48047570511699,
        11.800000000000011
      ],
      [
        -3.5129380971193314,
        50.480379816144705,
        11.600000000000023
      ],
      [
        -3.5128488298505545,
        50.48028761520982,
        11.399999999999977
      ],
      [
        -3.5127707105129957,
        50.480218548327684,
        11.199999999999989
      ],
      [
        -3.5126706305891275,
        50.4801504034549,
        10.800000000000011
      ],
      [
        -3.512629894539714,
        50.480086198076606,
        10.800000000000011
      ],
      [
        -3.5125246178358793,
        50.48001352697611,
        10.399999999999977
      ],
      [
        -3.5124309081584215,
        50.47993046231568,
        10.399999999999977
      ],
      [
        -3.512338623404503,
        50.47987036406994,
        10.199999999999989
      ],
      [
        -3.5123510286211967,
        50.47982987947762,
        10.399999999999977
      ],
      [
        -3.5123885795474052,
        50.47981923446059,
        10.800000000000011
      ],
      [
        -3.5124162398278713,
        50.479801800101995,
        12.200000000000045
      ],
      [
        -3.5124333389103413,
        50.47979861497879,
        12.799999999999955
      ],
      [
        -3.51245085708797,
        50.47979434020817,
        13.399999999999977
      ],
      [
        -3.5124599933624268,
        50.47979232855141,
        14.200000000000045
      ],
      [
        -3.5124677885323763,
        50.47979325056076,
        14.399999999999977
      ],
      [
        -3.5124794393777847,
        50.479793921113014,
        14.799999999999955
      ],
      [
        -3.512481451034546,
        50.47979316674173,
        15.200000000000045
      ],
      [
        -3.5124897491186857,
        50.479790484532714,
        15.399999999999977
      ],
      [
        -3.512486480176449,
        50.4797790851444,
        16.200000000000045
      ],
      [
        -3.512346837669611,
        50.47977011650801,
        15.600000000000023
      ],
      [
        -3.5122180078178644,
        50.47975209541619,
        14.799999999999955
      ],
      [
        -3.512178361415863,
        50.47973985783756,
        14.399999999999977
      ],
      [
        -3.5121273156255484,
        50.47972007654607,
        14
      ],
      [
        -3.512082388624549,
        50.479698702692986,
        13.200000000000045
      ],
      [
        -3.5119885951280594,
        50.4796546138823,
        12.399999999999977
      ],
      [
        -3.511811150237918,
        50.47963290475309,
        12.399999999999977
      ],
      [
        -3.51168030872941,
        50.4796443041414,
        13
      ],
      [
        -3.5116728488355875,
        50.479654697701335,
        13
      ],
      [
        -3.511653319001198,
        50.479675736278296,
        13.200000000000045
      ],
      [
        -3.5116419196128845,
        50.47971018590033,
        13.600000000000023
      ],
      [
        -3.5116198752075434,
        50.479744048789144,
        14.200000000000045
      ],
      [
        -3.5115836653858423,
        50.47974673099816,
        14.799999999999955
      ],
      [
        -3.511568158864975,
        50.47974195331335,
        15
      ],
      [
        -3.511547204107046,
        50.479734409600496,
        15.200000000000045
      ],
      [
        -3.5114513151347637,
        50.479711443185806,
        14.200000000000045
      ],
      [
        -3.511352576315403,
        50.47970130108297,
        14.799999999999955
      ],
      [
        -3.5113341361284256,
        50.47970197163522,
        14.799999999999955
      ],
      [
        -3.511254843324423,
        50.47971270047128,
        15.200000000000045
      ],
      [
        -3.511227434501052,
        50.47970674932003,
        15.399999999999977
      ],
      [
        -3.511182004585862,
        50.479695266112685,
        15.200000000000045
      ],
      [
        -3.511114278808236,
        50.47967263497412,
        14.200000000000045
      ],
      [
        -3.511073039844632,
        50.47963893972337,
        13.799999999999955
      ],
      [
        -3.511066837236285,
        50.47960759140551,
        13.200000000000045
      ],
      [
        -3.5110646579414606,
        50.47959133051336,
        13
      ],
      [
        -3.5110564436763525,
        50.47954925335944,
        12.399999999999977
      ],
      [
        -3.511050995439291,
        50.47954120673239,
        12.200000000000045
      ],
      [
        -3.5110246762633324,
        50.47951748594642,
        11.800000000000011
      ],
      [
        -3.5109724570065737,
        50.479484125971794,
        11.399999999999977
      ],
      [
        -3.5108706168830395,
        50.47944196499884,
        12.200000000000045
      ],
      [
        -3.5108203254640102,
        50.47941656783223,
        12.200000000000045
      ],
      [
        -3.5106611531227827,
        50.479330234229565,
        12.200000000000045
      ],
      [
        -3.5105471592396498,
        50.47927248291671,
        12.600000000000023
      ],
      [
        -3.510456969961524,
        50.47921632416546,
        12.799999999999955
      ],
      [
        -3.510422771796584,
        50.47919956035912,
        13
      ],
      [
        -3.5102571453899145,
        50.479119597002864,
        13
      ],
      [
        -3.5100743360817432,
        50.47905446961522,
        12.799999999999955
      ],
      [
        -3.5099870804697275,
        50.479026306420565,
        12.799999999999955
      ],
      [
        -3.5099056083709,
        50.4790039267391,
        12.399999999999977
      ],
      [
        -3.50977317430079,
        50.47899034805596,
        12.799999999999955
      ],
      [
        -3.5097535606473684,
        50.47898976132274,
        12.799999999999955
      ],
      [
        -3.509606709703803,
        50.47897836193442,
        11.800000000000011
      ],
      [
        -3.5095221363008022,
        50.47897509299219,
        12
      ],
      [
        -3.509407052770257,
        50.478976434096694,
        11.399999999999977
      ],
      [
        -3.509313426911831,
        50.47898858785629,
        12.600000000000023
      ],
      [
        -3.509315522387624,
        50.47901038080454,
        12.399999999999977
      ],
      [
        -3.5093000158667564,
        50.478986240923405,
        12.200000000000045
      ],
      [
        -3.5092970822006464,
        50.47897517681122,
        12.200000000000045
      ],
      [
        -3.509263638406992,
        50.478940391913056,
        12.200000000000045
      ],
      [
        -3.509155008941889,
        50.47893913462758,
        12
      ],
      [
        -3.5091186314821243,
        50.47892924398184,
        12.799999999999955
      ],
      [
        -3.5090266820043325,
        50.47891608439386,
        13.799999999999955
      ],
      [
        -3.509006816893816,
        50.47891315072775,
        14
      ],
      [
        -3.508938169106841,
        50.478894459083676,
        15.399999999999977
      ],
      [
        -3.508893409743905,
        50.47884726896882,
        17.399999999999977
      ],
      [
        -3.5088955890387297,
        50.4788326844573,
        18.600000000000023
      ],
      [
        -3.50891076028347,
        50.47880225814879,
        20.399999999999977
      ],
      [
        -3.508938504382968,
        50.47877443023026,
        21.200000000000045
      ],
      [
        -3.5089587047696114,
        50.47875833697617,
        21.799999999999955
      ],
      [
        -3.5089845210313797,
        50.478732185438275,
        22.600000000000023
      ],
      [
        -3.508986532688141,
        50.47872506082058,
        23
      ],
      [
        -3.508986784145236,
        50.47871978022158,
        23.200000000000045
      ],
      [
        -3.5089754685759544,
        50.478712655603886,
        23.600000000000023
      ],
      [
        -3.5089226625859737,
        50.4787169303745,
        23.399999999999977
      ],
      [
        -3.5087160486727953,
        50.47876604832709,
        22.399999999999977
      ],
      [
        -3.5085183195769787,
        50.47880368307233,
        23.600000000000023
      ],
      [
        -3.5084804333746433,
        50.478809885680676,
        23.799999999999955
      ],
      [
        -3.5084629990160465,
        50.47881533391774,
        24
      ],
      [
        -3.5084400326013565,
        50.47881843522191,
        24
      ],
      [
        -3.5084224306046963,
        50.47882044687867,
        24.399999999999977
      ],
      [
        -3.5083994641900063,
        50.47883243300021,
        25.200000000000045
      ],
      [
        -3.5083637572824955,
        50.478839138522744,
        26.200000000000045
      ],
      [
        -3.508341461420059,
        50.478834360837936,
        27
      ],
      [
        -3.5083249490708113,
        50.47883058898151,
        27.200000000000045
      ],
      [
        -3.5082783456891775,
        50.47881583683193,
        28.399999999999977
      ],
      [
        -3.5082391183823347,
        50.47880049794912,
        29.600000000000023
      ],
      [
        -3.5082395374774933,
        50.478788428008556,
        30.399999999999977
      ],
      [
        -3.508241381496191,
        50.478781471028924,
        30.600000000000023
      ],
      [
        -3.508254624903202,
        50.47876068390906,
        31.799999999999955
      ],
      [
        -3.508256049826741,
        50.47872665338218,
        33
      ],
      [
        -3.5082462430000305,
        50.47870938666165,
        33.200000000000045
      ],
      [
        -3.508211374282837,
        50.478686755523086,
        34
      ],
      [
        -3.508191341534257,
        50.47866999171674,
        34.39999999999998
      ],
      [
        -3.5081507731229067,
        50.47865280881524,
        35.200000000000045
      ],
      [
        -3.508100565522909,
        50.47863462008536,
        36
      ],
      [
        -3.508083214983344,
        50.47862447798252,
        36.200000000000045
      ],
      [
        -3.5080584045499563,
        50.47859027981758,
        37
      ],
      [
        -3.50805077701807,
        50.47858516685665,
        37
      ],
      [
        -3.508035521954298,
        50.478578796610236,
        37.200000000000045
      ],
      [
        -3.507941560819745,
        50.4785824008286,
        38
      ],
      [
        -3.5079081170260906,
        50.47859254293144,
        38.39999999999998
      ],
      [
        -3.5078233759850264,
        50.478608049452305,
        38.799999999999955
      ],
      [
        -3.5077411495149136,
        50.47861500643194,
        39.39999999999998
      ],
      [
        -3.507725056260824,
        50.47861517407,
        39.39999999999998
      ],
      [
        -3.507661856710911,
        50.47861953265965,
        40.60000000000002
      ],
      [
        -3.507650624960661,
        50.478615341708064,
        40.799999999999955
      ],
      [
        -3.507645931094885,
        50.47860478051007,
        41.200000000000045
      ],
      [
        -3.507670909166336,
        50.47857108525932,
        41.60000000000002
      ],
      [
        -3.5077331867069006,
        50.47851383686066,
        42.799999999999955
      ],
      [
        -3.5077814664691687,
        50.47845985740423,
        43.799999999999955
      ],
      [
        -3.50778347812593,
        50.478444434702396,
        44.200000000000045
      ],
      [
        -3.507780795916915,
        50.478415517136455,
        45
      ],
      [
        -3.507741065695882,
        50.478382827714086,
        45.799999999999955
      ],
      [
        -3.5077240504324436,
        50.478380313143134,
        46.200000000000045
      ],
      [
        -3.5077128186821938,
        50.47839431092143,
        46.60000000000002
      ],
      [
        -3.507630927488208,
        50.478409649804235,
        47
      ],
      [
        -3.50761734880507,
        50.478407721966505,
        47.200000000000045
      ],
      [
        -3.507555741816759,
        50.47841249965131,
        48.39999999999998
      ],
      [
        -3.507521040737629,
        50.478413589298725,
        48.799999999999955
      ],
      [
        -3.5074720066040754,
        50.47842247411609,
        49.60000000000002
      ],
      [
        -3.5074248164892197,
        50.478419875726104,
        50.200000000000045
      ],
      [
        -3.5073686577379704,
        50.47842607833445,
        50.60000000000002
      ],
      [
        -3.507295148447156,
        50.47842247411609,
        51.60000000000002
      ],
      [
        -3.5072819888591766,
        50.47842255793512,
        51.799999999999955
      ],
      [
        -3.507185848429799,
        50.47841627150774,
        53
      ],
      [
        -3.507163720205426,
        50.4784148465842,
        53.200000000000045
      ],
      [
        -3.5070561803877354,
        50.478427251800895,
        54.200000000000045
      ],
      [
        -3.5069365706294775,
        50.478448206558824,
        55.200000000000045
      ],
      [
        -3.50691519677639,
        50.47845038585365,
        55.39999999999998
      ],
      [
        -3.506809249520302,
        50.478439489379525,
        56.200000000000045
      ],
      [
        -3.506802963092923,
        50.47843345440924,
        56.39999999999998
      ],
      [
        -3.5067236702889204,
        50.478394981473684,
        57
      ],
      [
        -3.506701374426484,
        50.47838685102761,
        57.200000000000045
      ],
      [
        -3.506612442433834,
        50.47835675999522,
        58.200000000000045
      ],
      [
        -3.5065711196511984,
        50.47833018936217,
        58.39999999999998
      ],
      [
        -3.506527114659548,
        50.47828869894147,
        58.60000000000002
      ],
      [
        -3.5064418707042933,
        50.47824025154114,
        59
      ],
      [
        -3.5064344108104706,
        50.478229857981205,
        59.200000000000045
      ],
      [
        -3.506390154361725,
        50.478190798312426,
        59.39999999999998
      ],
      [
        -3.506342461332679,
        50.47813229262829,
        60.200000000000045
      ],
      [
        -3.506336510181427,
        50.47812298871577,
        60.60000000000002
      ],
      [
        -3.5063042398542166,
        50.47805207781494,
        61.60000000000002
      ],
      [
        -3.506304072216153,
        50.47798418439925,
        62.60000000000002
      ],
      [
        -3.5063084308058023,
        50.47798678278923,
        63
      ],
      [
        -3.506300048902631,
        50.47800128348172,
        63.39999999999998
      ],
      [
        -3.506286134943366,
        50.47798820771277,
        63.200000000000045
      ],
      [
        -3.5063010547310114,
        50.4779642354697,
        63
      ],
      [
        -3.506279094144702,
        50.47794973477721,
        63.39999999999998
      ],
      [
        -3.506270796060562,
        50.477943951264024,
        64
      ],
      [
        -3.506254954263568,
        50.477945460006595,
        64.39999999999998
      ],
      [
        -3.506237855181098,
        50.47794386744499,
        65.20000000000005
      ],
      [
        -3.5062149725854397,
        50.47794244252145,
        65.79999999999995
      ],
      [
        -3.5061796847730875,
        50.47794244252145,
        66.39999999999998
      ],
      [
        -3.506141798570752,
        50.47793598845601,
        67.79999999999995
      ],
      [
        -3.5061037447303534,
        50.47792366705835,
        68.79999999999995
      ],
      [
        -3.5060824546962976,
        50.47792081721127,
        69.20000000000005
      ],
      [
        -3.5060581471771,
        50.47791721299291,
        69.79999999999995
      ],
      [
        -3.506029983982444,
        50.47791134566069,
        70.39999999999998
      ],
      [
        -3.5060008987784386,
        50.47790505923331,
        70.79999999999995
      ],
      [
        -3.505979860201478,
        50.4778968449682,
        71.60000000000002
      ],
      [
        -3.5059788543730974,
        50.47789290547371,
        72
      ],
      [
        -3.5059847217053175,
        50.47788888216019,
        72.20000000000005
      ],
      [
        -3.505987571552396,
        50.47788418829441,
        72.60000000000002
      ],
      [
        -3.5060138069093227,
        50.477872202172875,
        73.20000000000005
      ],
      [
        -3.5060259606689215,
        50.47785518690944,
        73.60000000000002
      ],
      [
        -3.506061499938369,
        50.47783272340894,
        74.20000000000005
      ],
      [
        -3.5060892440378666,
        50.47781445086002,
        74.60000000000002
      ],
      [
        -3.506097961217165,
        50.47780875116587,
        74.79999999999995
      ],
      [
        -3.506113886833191,
        50.47779718413949,
        75.20000000000005
      ],
      [
        -3.506125872954726,
        50.47776156105101,
        76.20000000000005
      ],
      [
        -3.5061064269393682,
        50.47775745391846,
        76.79999999999995
      ],
      [
        -3.506080862134695,
        50.477756448090076,
        77.39999999999998
      ],
      [
        -3.5060294810682535,
        50.47774890437722,
        78.39999999999998
      ],
      [
        -3.5059889126569033,
        50.47773515805602,
        79.60000000000002
      ],
      [
        -3.505967790260911,
        50.47773381695151,
        80
      ],
      [
        -3.50594038143754,
        50.477729039266706,
        80.79999999999995
      ],
      [
        -3.5059034172445536,
        50.477718813344836,
        81.79999999999995
      ],
      [
        -3.5058418940752745,
        50.47771328128874,
        82.79999999999995
      ],
      [
        -3.5058418940752745,
        50.47771328128874,
        83.20000000000005
      ],
      [
        -3.505801325663924,
        50.47769391909242,
        83.79999999999995
      ],
      [
        -3.5057532973587513,
        50.47765293158591,
        84.60000000000002
      ],
      [
        -3.5056468471884727,
        50.47758369706571,
        84.60000000000002
      ],
      [
        -3.505602590739727,
        50.47754463739693,
        85
      ],
      [
        -3.505563195794821,
        50.477515971288085,
        85.20000000000005
      ],
      [
        -3.50548742339015,
        50.47745260410011,
        85.60000000000002
      ],
      [
        -3.5053692385554314,
        50.477381106466055,
        85.60000000000002
      ],
      [
        -3.505300674587488,
        50.4773426335305,
        86
      ],
      [
        -3.5052354633808136,
        50.47732318751514,
        86.60000000000002
      ],
      [
        -3.5051253251731396,
        50.47730013728142,
        86.20000000000005
      ],
      [
        -3.5051106568425894,
        50.47728999517858,
        86.20000000000005
      ],
      [
        -3.505091294646263,
        50.477254120633006,
        86.39999999999998
      ],
      [
        -3.5050961561501026,
        50.47723978757858,
        86.39999999999998
      ],
      [
        -3.505113087594509,
        50.47723148949444,
        86.39999999999998
      ],
      [
        -3.50520889274776,
        50.477235512807965,
        86.39999999999998
      ],
      [
        -3.505231272429228,
        50.47723609954119,
        86.60000000000002
      ],
      [
        -3.5053052846342325,
        50.47723324969411,
        86.79999999999995
      ],
      [
        -3.5054015927016735,
        50.47723492607474,
        87.20000000000005
      ],
      [
        -3.505548443645239,
        50.477220341563225,
        87.60000000000002
      ],
      [
        -3.5056886728852987,
        50.47723333351314,
        88.20000000000005
      ],
      [
        -3.5057299118489027,
        50.47724003903568,
        88.20000000000005
      ],
      [
        -3.5058869048953056,
        50.47720952890813,
        89
      ],
      [
        -3.505908865481615,
        50.47720827162266,
        89.20000000000005
      ],
      [
        -3.5060376953333616,
        50.47720919363201,
        89.39999999999998
      ],
      [
        -3.5062103625386953,
        50.4772268794477,
        89.20000000000005
      ],
      [
        -3.5063151363283396,
        50.477220341563225,
        89.20000000000005
      ],
      [
        -3.506331816315651,
        50.47721925191581,
        89.20000000000005
      ],
      [
        -3.506365679204464,
        50.477218832820654,
        89
      ],
      [
        -3.506476152688265,
        50.47722210176289,
        88.39999999999998
      ],
      [
        -3.5065404418855906,
        50.477223275229335,
        88.20000000000005
      ],
      [
        -3.506569527089596,
        50.4772284720093,
        88.20000000000005
      ],
      [
        -3.5066144540905952,
        50.47723442316055,
        88
      ],
      [
        -3.506753593683243,
        50.477236518636346,
        87.60000000000002
      ],
      [
        -3.5067772306501865,
        50.477232579141855,
        87.39999999999998
      ],
      [
        -3.506852500140667,
        50.47722076065838,
        87.20000000000005
      ],
      [
        -3.5069418512284756,
        50.47721824608743,
        86.60000000000002
      ],
      [
        -3.5070249997079372,
        50.47723635099828,
        86.20000000000005
      ],
      [
        -3.5070528276264668,
        50.47724976204336,
        86.20000000000005
      ],
      [
        -3.5070690885186195,
        50.47725319862366,
        86
      ],
      [
        -3.5071792267262936,
        50.47728647477925,
        85
      ],
      [
        -3.507196493446827,
        50.47729200683534,
        85
      ],
      [
        -3.507333118468523,
        50.47732469625771,
        84
      ],
      [
        -3.5073532350361347,
        50.477328887209296,
        83.79999999999995
      ],
      [
        -3.507455913349986,
        50.477342465892434,
        82.79999999999995
      ],
      [
        -3.507476281374693,
        50.477340035140514,
        82.60000000000002
      ],
      [
        -3.5075444262474775,
        50.47734380699694,
        81.79999999999995
      ],
      [
        -3.5076274070888758,
        50.477340035140514,
        80.60000000000002
      ],
      [
        -3.507776940241456,
        50.477310698479414,
        79.60000000000002
      ],
      [
        -3.5078079532831907,
        50.47730525024235,
        79.20000000000005
      ],
      [
        -3.507958995178342,
        50.47730172984302,
        78.39999999999998
      ],
      [
        -3.507981291040778,
        50.47730022110045,
        78.20000000000005
      ],
      [
        -3.508167788386345,
        50.4772749915719,
        78.20000000000005
      ],
      [
        -3.5083704628050327,
        50.477267699316144,
        78.39999999999998
      ],
      [
        -3.5085098538547754,
        50.47728077508509,
        78.39999999999998
      ],
      [
        -3.5085498355329037,
        50.47728605568409,
        78.60000000000002
      ],
      [
        -3.508593337610364,
        50.47729007899761,
        79
      ],
      [
        -3.5086936689913273,
        50.47728890553117,
        79.60000000000002
      ],
      [
        -3.5087872110307217,
        50.47728647477925,
        80
      ],
      [
        -3.5088730417191982,
        50.477278428152204,
        80.39999999999998
      ],
      [
        -3.5088893864303827,
        50.47727792523801,
        80.60000000000002
      ],
      [
        -3.508957279846072,
        50.47727909870446,
        81
      ],
      [
        -3.5091821663081646,
        50.47728672623634,
        81.39999999999998
      ],
      [
        -3.5092632193118334,
        50.4772871453315,
        81.60000000000002
      ],
      [
        -3.509461199864745,
        50.47727574594319,
        82
      ],
      [
        -3.509692456573248,
        50.47727834433317,
        82.60000000000002
      ],
      [
        -3.50971357896924,
        50.477278931066394,
        82.60000000000002
      ],
      [
        -3.5098450910300016,
        50.4772905819118,
        83.20000000000005
      ],
      [
        -3.509929832071066,
        50.477301394566894,
        83.60000000000002
      ],
      [
        -3.509952211752534,
        50.477303909137845,
        83.79999999999995
      ],
      [
        -3.510051788762212,
        50.47731874510646,
        84
      ],
      [
        -3.5103084426373243,
        50.47735587693751,
        84
      ],
      [
        -3.510565599426627,
        50.477395271882415,
        83
      ],
      [
        -3.510613376274705,
        50.47739124856889,
        82.60000000000002
      ],
      [
        -3.510671127587557,
        50.47738135792315,
        82.39999999999998
      ],
      [
        -3.510744469240308,
        50.47737448476255,
        82
      ],
      [
        -3.5109000373631716,
        50.47738135792315,
        81.60000000000002
      ],
      [
        -3.510918729007244,
        50.477383118122816,
        81.60000000000002
      ],
      [
        -3.5111525002866983,
        50.47738194465637,
        81.20000000000005
      ],
      [
        -3.5113744530826807,
        50.47739661298692,
        80.79999999999995
      ],
      [
        -3.5115842521190643,
        50.47742050141096,
        80.79999999999995
      ],
      [
        -3.5116301849484444,
        50.47742226161063,
        80.60000000000002
      ],
      [
        -3.5118115693330765,
        50.47737943008542,
        81
      ],
      [
        -3.5119057819247246,
        50.4773701261729,
        81.79999999999995
      ],
      [
        -3.511981051415205,
        50.47737565822899,
        82.39999999999998
      ],
      [
        -3.512079454958439,
        50.47738420777023,
        82.39999999999998
      ],
      [
        -3.512114742770791,
        50.477391919121146,
        82.60000000000002
      ],
      [
        -3.512233765795827,
        50.47741999849677,
        82.79999999999995
      ],
      [
        -3.5122734121978283,
        50.47742745839059,
        82.79999999999995
      ],
      [
        -3.5124185867607594,
        50.47746484167874,
        82.60000000000002
      ],
      [
        -3.5125793516635895,
        50.47753633931279,
        82
      ],
      [
        -3.512599552050233,
        50.477539524436,
        82
      ],
      [
        -3.5126476641744375,
        50.47757883556187,
        81.79999999999995
      ],
      [
        -3.5126412101089954,
        50.47758989967406,
        81.79999999999995
      ],
      [
        -3.5125894099473953,
        50.47772149555385,
        81.20000000000005
      ],
      [
        -3.5125587321817875,
        50.47785175032914,
        81.20000000000005
      ],
      [
        -3.512538867071271,
        50.47789391130209,
        81.20000000000005
      ],
      [
        -3.512480529025197,
        50.47800840809941,
        80.79999999999995
      ],
      [
        -3.5124770924448967,
        50.478019723668694,
        80.79999999999995
      ],
      [
        -3.512412216514349,
        50.47814511694014,
        80.79999999999995
      ],
      [
        -3.5123533755540848,
        50.47827352769673,
        80.79999999999995
      ],
      [
        -3.5122636891901493,
        50.47841132618487,
        81.39999999999998
      ],
      [
        -3.512211972847581,
        50.478500090539455,
        81.79999999999995
      ],
      [
        -3.5121823009103537,
        50.47854518517852,
        82
      ],
      [
        -3.5120531357824802,
        50.47864216379821,
        82.60000000000002
      ],
      [
        -3.5120279900729656,
        50.47869002446532,
        82.60000000000002
      ],
      [
        -3.512115580961108,
        50.47873587347567,
        82.79999999999995
      ],
      [
        -3.5121211130172014,
        50.478759510442615,
        83
      ],
      [
        -3.5121351946145296,
        50.4788139089942,
        83
      ],
      [
        -3.5122386272996664,
        50.478920778259635,
        83
      ],
      [
        -3.512376844882965,
        50.479020019993186,
        83.39999999999998
      ],
      [
        -3.512387741357088,
        50.47904499806464,
        83.20000000000005
      ],
      [
        -3.5123806167393923,
        50.47908095642924,
        82.60000000000002
      ],
      [
        -3.51241079159081,
        50.479109454900026,
        82.20000000000005
      ],
      [
        -3.512466950342059,
        50.47913149930537,
        82
      ],
      [
        -3.512509698048234,
        50.47914977185428,
        82
      ],
      [
        -3.5126164834946394,
        50.47919595614076,
        82
      ],
      [
        -3.5127622447907925,
        50.47926736995578,
        82.20000000000005
      ],
      [
        -3.512791832908988,
        50.47928497195244,
        82.20000000000005
      ],
      [
        -3.513011187314987,
        50.479388404637575,
        82
      ],
      [
        -3.513084026053548,
        50.479421680793166,
        81.79999999999995
      ],
      [
        -3.513186536729336,
        50.47947130165994,
        81.20000000000005
      ],
      [
        -3.5133398417383432,
        50.47952595166862,
        80.79999999999995
      ],
      [
        -3.5133642330765724,
        50.47952846623957,
        80.60000000000002
      ],
      [
        -3.513523740693927,
        50.47954221256077,
        79.79999999999995
      ],
      [
        -3.513574032112956,
        50.47956392168999,
        79.60000000000002
      ],
      [
        -3.5136467032134533,
        50.47960314899683,
        79.20000000000005
      ],
      [
        -3.513751979917288,
        50.47970389947295,
        78.79999999999995
      ],
      [
        -3.513880055397749,
        50.479789981618524,
        78.79999999999995
      ],
      [
        -3.5138999205082655,
        50.47979526221752,
        78.79999999999995
      ],
      [
        -3.514119191095233,
        50.47988855279982,
        79
      ],
      [
        -3.5142804589122534,
        50.47997396439314,
        79
      ],
      [
        -3.514489084482193,
        50.480016712099314,
        79
      ],
      [
        -3.514511464163661,
        50.48001654446125,
        79
      ],
      [
        -3.514666948467493,
        50.48005359247327,
        79
      ],
      [
        -3.514918237924576,
        50.48013875260949,
        79.20000000000005
      ],
      [
        -3.5149404499679804,
        50.48014495521784,
        79.20000000000005
      ],
      [
        -3.515077158808708,
        50.48021670430899,
        79.20000000000005
      ],
      [
        -3.51520037278533,
        50.48027160577476,
        79.39999999999998
      ],
      [
        -3.5152991954237223,
        50.480290381237864,
        79.79999999999995
      ],
      [
        -3.5153877083212137,
        50.48031711950898,
        80.20000000000005
      ],
      [
        -3.515429450199008,
        50.48033396713436,
        80.60000000000002
      ],
      [
        -3.5155957471579313,
        50.48035508953035,
        81.39999999999998
      ],
      [
        -3.515646792948246,
        50.48035693354905,
        81.60000000000002
      ],
      [
        -3.515871847048402,
        50.48036498017609,
        82.60000000000002
      ],
      [
        -3.5158893652260303,
        50.48036783002317,
        82.60000000000002
      ],
      [
        -3.5161015950143337,
        50.48043781891465,
        83.20000000000005
      ],
      [
        -3.51632715202868,
        50.48051945865154,
        83.60000000000002
      ],
      [
        -3.5163429100066423,
        50.48052775673568,
        83.79999999999995
      ],
      [
        -3.516491772606969,
        50.48059707507491,
        84.20000000000005
      ],
      [
        -3.5165187623351812,
        50.4806081391871,
        84.20000000000005
      ],
      [
        -3.516696961596608,
        50.48069128766656,
        84.39999999999998
      ],
      [
        -3.5167445708066225,
        50.48070830293,
        84.79999999999995
      ],
      [
        -3.5169080179184675,
        50.480760438367724,
        85.79999999999995
      ],
      [
        -3.5169998835772276,
        50.480782901868224,
        86.20000000000005
      ],
      [
        -3.517068112269044,
        50.48081651329994,
        86.60000000000002
      ],
      [
        -3.5170950181782246,
        50.480825984850526,
        86.79999999999995
      ],
      [
        -3.5171015560626984,
        50.48082875087857,
        86.79999999999995
      ],
      [
        -3.5171569604426622,
        50.48085791990161,
        87
      ],
      [
        -3.517318144440651,
        50.480922628194094,
        87.20000000000005
      ],
      [
        -3.5174691025167704,
        50.48098155297339,
        87.60000000000002
      ],
      [
        -3.5175551008433104,
        50.481010219082236,
        87.79999999999995
      ],
      [
        -3.5176290292292833,
        50.48102002590895,
        87.79999999999995
      ],
      [
        -3.5176710225641727,
        50.48102212138474,
        87.79999999999995
      ],
      [
        -3.5178802348673344,
        50.48106914386153,
        88
      ],
      [
        -3.5180486273020506,
        50.481128403916955,
        88.20000000000005
      ],
      [
        -3.518195729702711,
        50.48117274418473,
        88.20000000000005
      ],
      [
        -3.518434949219227,
        50.48124382272363,
        88.20000000000005
      ],
      [
        -3.518541567027569,
        50.48125974833965,
        88
      ],
      [
        -3.518732590600848,
        50.48127081245184,
        88.20000000000005
      ],
      [
        -3.5189226921647787,
        50.481334598734975,
        88.60000000000002
      ],
      [
        -3.5189754143357277,
        50.481361001729965,
        88.79999999999995
      ],
      [
        -3.5191080160439014,
        50.4814282245934,
        89.60000000000002
      ],
      [
        -3.5191486682742834,
        50.48144976608455,
        89.79999999999995
      ],
      [
        -3.519231230020523,
        50.48150475136936,
        90.20000000000005
      ],
      [
        -3.519380260258913,
        50.48161866143346,
        90.60000000000002
      ],
      [
        -3.519452176988125,
        50.48166325315833,
        91
      ],
      [
        -3.519533146172762,
        50.48172418959439,
        91.20000000000005
      ],
      [
        -3.5196583718061447,
        50.481818821281195,
        91.60000000000002
      ],
      [
        -3.5197229962795973,
        50.48188545741141,
        91.39999999999998
      ],
      [
        -3.51983355358243,
        50.48199257813394,
        91.60000000000002
      ],
      [
        -3.5199138522148132,
        50.482079833745956,
        91.60000000000002
      ],
      [
        -3.519979314878583,
        50.48213867470622,
        92
      ],
      [
        -3.519999263808131,
        50.48214412294328,
        92
      ],
      [
        -3.520111246034503,
        50.48222316429019,
        92.20000000000005
      ],
      [
        -3.5202223900705576,
        50.482297260314226,
        92.60000000000002
      ],
      [
        -3.520333869382739,
        50.482335314154625,
        92.79999999999995
      ],
      [
        -3.520476780831814,
        50.482379738241434,
        92.60000000000002
      ],
      [
        -3.520710300654173,
        50.482441345229745,
        92.60000000000002
      ],
      [
        -3.5208718199282885,
        50.48247571103275,
        92.39999999999998
      ],
      [
        -3.520888751372695,
        50.482478979974985,
        92.39999999999998
      ],
      [
        -3.5209203511476517,
        50.48248560167849,
        92.39999999999998
      ],
      [
        -3.5209952015429735,
        50.48251552507281,
        92.20000000000005
      ],
      [
        -3.521207347512245,
        50.48255994915962,
        92.20000000000005
      ],
      [
        -3.5213233530521393,
        50.482582999393344,
        92
      ],
      [
        -3.52153642103076,
        50.482586519792676,
        92.79999999999995
      ],
      [
        -3.5216033086180687,
        50.48258618451655,
        93
      ],
      [
        -3.521736329421401,
        50.48255634494126,
        93.60000000000002
      ],
      [
        -3.521814364939928,
        50.48249255865812,
        94.20000000000005
      ],
      [
        -3.521923664957285,
        50.482416367158294,
        95.20000000000005
      ],
      [
        -3.521948978304863,
        50.48240496776998,
        95.39999999999998
      ],
      [
        -3.5220203921198845,
        50.482383677735925,
        95.79999999999995
      ],
      [
        -3.5220624692738056,
        50.48237328417599,
        96
      ],
      [
        -3.5221565142273903,
        50.4823347274214,
        95.79999999999995
      ],
      [
        -3.5222332924604416,
        50.48224378377199,
        96.20000000000005
      ],
      [
        -3.5222460329532623,
        50.48223154619336,
        96.20000000000005
      ],
      [
        -3.5223941411823034,
        50.482119899243116,
        96.60000000000002
      ],
      [
        -3.5224673990160227,
        50.48204722814262,
        96.39999999999998
      ],
      [
        -3.5225090570747852,
        50.48202082514763,
        96.39999999999998
      ],
      [
        -3.5225103981792927,
        50.48201998695731,
        96.20000000000005
      ],
      [
        -3.5225053690373898,
        50.48202023841441,
        96.20000000000005
      ],
      [
        -3.5225507989525795,
        50.48203960061073,
        96.20000000000005
      ],
      [
        -3.5226794611662626,
        50.481998696923256,
        96
      ],
      [
        -3.5226680617779493,
        50.48190020956099,
        96.20000000000005
      ],
      [
        -3.522678790614009,
        50.48178059980273,
        96.39999999999998
      ],
      [
        -3.5227952152490616,
        50.48167297616601,
        96.39999999999998
      ],
      [
        -3.522959752008319,
        50.481536434963346,
        96.20000000000005
      ],
      [
        -3.5229242965579033,
        50.481459153816104,
        96
      ],
      [
        -3.5228806268423796,
        50.481387907639146,
        95.60000000000002
      ],
      [
        -3.522893199697137,
        50.481364941224456,
        95.39999999999998
      ],
      [
        -3.5229884181171656,
        50.481238374486566,
        95.39999999999998
      ],
      [
        -3.523036278784275,
        50.48117274418473,
        95.20000000000005
      ],
      [
        -3.523093694821,
        50.481121614575386,
        95
      ],
      [
        -3.5231774300336838,
        50.48104374669492,
        95
      ],
      [
        -3.523255717009306,
        50.480964705348015,
        94.60000000000002
      ],
      [
        -3.5232307389378548,
        50.48094886355102,
        94.20000000000005
      ],
      [
        -3.5232043359428644,
        50.4808652959764,
        94
      ],
      [
        -3.5232030786573887,
        50.48085096292198,
        94
      ],
      [
        -3.5232002288103104,
        50.48080695793033,
        93.39999999999998
      ]
    ]
  }
}
