{
  "type": "Feature",
  "properties": {
    "id": "24098515780",
    "activity": "hiking",
    "name": "Mialet Hiking",
    "date": "2026-08-24T14:38:50Z",
    "distanceKm": 5.15,
    "movingTimeSeconds": 3352,
    "elapsedTimeSeconds": 3353,
    "ascentM": 32,
    "descentM": 40,
    "providers": [
      "Garmin",
      "Strava"
    ]
  },
  "geometry": {
    "type": "LineString",
    "coordinates": [
      [
        0.9182112570852041,
        45.5500640720129,
        305.6
      ],
      [
        0.9182393364608288,
        45.55022425018251,
        306.79999999999995
      ],
      [
        0.9182891249656677,
        45.5503196362406,
        307.79999999999995
      ],
      [
        0.9183008596301079,
        45.550334891304374,
        307.79999999999995
      ],
      [
        0.918366489931941,
        45.550411166623235,
        308.6
      ],
      [
        0.918376799672842,
        45.550449304282665,
        308.79999999999995
      ],
      [
        0.9184228163212538,
        45.55051418021321,
        308.6
      ],
      [
        0.9185531549155712,
        45.55058668367565,
        308
      ],
      [
        0.9185772947967052,
        45.55059431120753,
        307.79999999999995
      ],
      [
        0.918687516823411,
        45.55065533146262,
        307
      ],
      [
        0.9187163505703211,
        45.55067435838282,
        306.79999999999995
      ],
      [
        0.9187959786504507,
        45.55074308998883,
        306.6
      ],
      [
        0.9189385548233986,
        45.550846019759774,
        306.6
      ],
      [
        0.919056236743927,
        45.550888013094664,
        306.79999999999995
      ],
      [
        0.9191608428955078,
        45.550907123833895,
        307.4
      ],
      [
        0.9192899242043495,
        45.55092237889767,
        307.6
      ],
      [
        0.9193460829555988,
        45.550926150754094,
        307.4
      ],
      [
        0.9194434806704521,
        45.55093377828598,
        307
      ],
      [
        0.9196055866777897,
        45.55094903334975,
        306.79999999999995
      ],
      [
        0.9196857176721096,
        45.5509605165571,
        306.6
      ],
      [
        0.9197531081736088,
        45.550964288413525,
        306.4
      ],
      [
        0.9198825247585773,
        45.55096814408898,
        305.79999999999995
      ],
      [
        0.9199576266109943,
        45.5509795434773,
        305.79999999999995
      ],
      [
        0.9200126957148314,
        45.55098717100918,
        305.6
      ],
      [
        0.9201439563184977,
        45.551006281748414,
        305.4
      ],
      [
        0.9202982671558857,
        45.55109018459916,
        305
      ],
      [
        0.9204241633415222,
        45.55116645991802,
        305.20000000000005
      ],
      [
        0.9204525779932737,
        45.551181714981794,
        305.20000000000005
      ],
      [
        0.9204779751598835,
        45.55119697004557,
        305
      ],
      [
        0.9205107484012842,
        45.55123519152403,
        304.79999999999995
      ],
      [
        0.9205386601388454,
        45.551280956715345,
        304.79999999999995
      ],
      [
        0.9205456171184778,
        45.551299983635545,
        304.6
      ],
      [
        0.9205436054617167,
        45.551341976970434,
        304.6
      ],
      [
        0.9205084852874279,
        45.551498383283615,
        304.4
      ],
      [
        0.920490799471736,
        45.551616651937366,
        303.6
      ],
      [
        0.9204841777682304,
        45.55162805132568,
        303.4
      ],
      [
        0.9204343892633915,
        45.55169292725623,
        302.79999999999995
      ],
      [
        0.9204229060560465,
        45.55170432664454,
        302.6
      ],
      [
        0.9203828405588865,
        45.55173869244754,
        302
      ],
      [
        0.920335566624999,
        45.551776830106974,
        301.6
      ],
      [
        0.920256357640028,
        45.551834078505635,
        301.4
      ],
      [
        0.9201177209615707,
        45.55192560888827,
        301.20000000000005
      ],
      [
        0.9201084170490503,
        45.55193709209561,
        301.20000000000005
      ],
      [
        0.9201218280941248,
        45.55203625001013,
        301
      ],
      [
        0.9202442038804293,
        45.55207824334502,
        301.20000000000005
      ],
      [
        0.9203222393989563,
        45.55213540792465,
        301
      ],
      [
        0.9203698486089706,
        45.5522536765784,
        300.6
      ],
      [
        0.9203688427805901,
        45.55227655917406,
        300.6
      ],
      [
        0.9202918130904436,
        45.55237957276404,
        300.20000000000005
      ],
      [
        0.9202628117054701,
        45.55251686833799,
        299.79999999999995
      ],
      [
        0.9203733690083027,
        45.55253212340176,
        299.6
      ],
      [
        0.920485183596611,
        45.55252072401345,
        299.6
      ],
      [
        0.920580318197608,
        45.552486358210444,
        299.20000000000005
      ],
      [
        0.9207724314182997,
        45.55243296548724,
        299.20000000000005
      ],
      [
        0.9209595154970884,
        45.55241393856704,
        299
      ],
      [
        0.9211274888366461,
        45.55241008289158,
        299
      ],
      [
        0.9213020000606775,
        45.55237571708858,
        298.6
      ],
      [
        0.9213154949247837,
        45.55237194523215,
        298.4
      ],
      [
        0.9214476775377989,
        45.55231855250895,
        298
      ],
      [
        0.9215423930436373,
        45.552310924977064,
        298.6
      ],
      [
        0.9216280560940504,
        45.55226515978575,
        299
      ],
      [
        0.9216812811791897,
        45.552230793982744,
        299
      ],
      [
        0.9217860549688339,
        45.55213926360011,
        299
      ],
      [
        0.9219024796038866,
        45.55204387754202,
        299.20000000000005
      ],
      [
        0.9219979494810104,
        45.551952347159386,
        299.20000000000005
      ],
      [
        0.922069950029254,
        45.551895098760724,
        299.4
      ],
      [
        0.9221066627651453,
        45.55186836048961,
        299.4
      ],
      [
        0.922204228118062,
        45.55180734023452,
        299.20000000000005
      ],
      [
        0.9222230035811663,
        45.55180734023452,
        299.20000000000005
      ],
      [
        0.922339428216219,
        45.55183785036206,
        299.20000000000005
      ],
      [
        0.9224653244018555,
        45.551910353824496,
        299.4
      ],
      [
        0.9225352294743061,
        45.55195611901581,
        299.4
      ],
      [
        0.922610079869628,
        45.55200573988259,
        299.20000000000005
      ],
      [
        0.9226555097848177,
        45.55204002186656,
        299.20000000000005
      ],
      [
        0.92282859608531,
        45.55216214619577,
        298.4
      ],
      [
        0.9228430967777967,
        45.552169773727655,
        298.4
      ],
      [
        0.922924317419529,
        45.5522346496582,
        298.4
      ],
      [
        0.9229361359030008,
        45.552246049046516,
        298.4
      ],
      [
        0.9230171889066696,
        45.552349062636495,
        298.20000000000005
      ],
      [
        0.923088351264596,
        45.55244059301913,
        298.20000000000005
      ],
      [
        0.9231678117066622,
        45.55257797241211,
        298.4
      ],
      [
        0.9232600126415491,
        45.55273429490626,
        298.6
      ],
      [
        0.9233315940946341,
        45.552860191091895,
        298.4
      ],
      [
        0.9233978111296892,
        45.55297468788922,
        298.4
      ],
      [
        0.9234517067670822,
        45.55312346667051,
        297.79999999999995
      ],
      [
        0.923452964052558,
        45.55325313471258,
        297.79999999999995
      ],
      [
        0.9234403911978006,
        45.5533866584301,
        297.79999999999995
      ],
      [
        0.9235043451189995,
        45.553531581535935,
        297.79999999999995
      ],
      [
        0.923687070608139,
        45.553634595125914,
        298.4
      ],
      [
        0.9238115418702364,
        45.5536422226578,
        298.6
      ],
      [
        0.9238321613520384,
        45.5536422226578,
        298.6
      ],
      [
        0.9238829556852579,
        45.55362696759403,
        298.79999999999995
      ],
      [
        0.9240656811743975,
        45.55352780967951,
        298.4
      ],
      [
        0.9242137055844069,
        45.55346293374896,
        297.79999999999995
      ],
      [
        0.9244079980999231,
        45.553375175222754,
        298
      ],
      [
        0.9244670066982508,
        45.553352292627096,
        297.79999999999995
      ],
      [
        0.9244882967323065,
        45.55334466509521,
        297.79999999999995
      ],
      [
        0.9245970100164413,
        45.553314154967666,
        297.6
      ],
      [
        0.9247944876551628,
        45.55332941003144,
        297.6
      ],
      [
        0.9249659813940525,
        45.55337903089821,
        297.79999999999995
      ],
      [
        0.9251084737479687,
        45.553432423621416,
        297.79999999999995
      ],
      [
        0.9253160934895277,
        45.55350492708385,
        297.4
      ],
      [
        0.9254844021052122,
        45.5535888299346,
        297.20000000000005
      ],
      [
        0.9256182610988617,
        45.55369947105646,
        297.4
      ],
      [
        0.9257369488477707,
        45.55385964922607,
        297.4
      ],
      [
        0.9258128888905048,
        45.55397791787982,
        297.4
      ],
      [
        0.9258388727903366,
        45.55401991121471,
        297.4
      ],
      [
        0.9259713906794786,
        45.554183945059776,
        297.4
      ],
      [
        0.926059652119875,
        45.554325096309185,
        297.20000000000005
      ],
      [
        0.9261438064277172,
        45.55448527447879,
        296.79999999999995
      ],
      [
        0.9261574689298868,
        45.55460731498897,
        296.6
      ],
      [
        0.9261473268270493,
        45.5546264257282,
        296.6
      ],
      [
        0.9261171519756317,
        45.55466841906309,
        296.79999999999995
      ],
      [
        0.9260500129312277,
        45.55472943931818,
        296.6
      ],
      [
        0.9259348455816507,
        45.5548285972327,
        297
      ],
      [
        0.9257941134274006,
        45.554935382679105,
        296.79999999999995
      ],
      [
        0.9256577398627996,
        45.55504225194454,
        296.4
      ],
      [
        0.9254798758774996,
        45.555152893066406,
        295.6
      ],
      [
        0.9254417382180691,
        45.555175775662065,
        295.6
      ],
      [
        0.9253007546067238,
        45.55528256110847,
        295.20000000000005
      ],
      [
        0.9251765348017216,
        45.55537794716656,
        295
      ],
      [
        0.9250715933740139,
        45.55548087693751,
        295
      ],
      [
        0.9249327052384615,
        45.55559537373483,
        295.6
      ],
      [
        0.9247674141079187,
        45.55571364238858,
        294.79999999999995
      ],
      [
        0.9247185476124287,
        45.55574029684067,
        294.6
      ],
      [
        0.924605056643486,
        45.555767035111785,
        294.79999999999995
      ],
      [
        0.9244484826922417,
        45.5557784345001,
        295.4
      ],
      [
        0.9244305454194546,
        45.555786062031984,
        295.6
      ],
      [
        0.9243100136518478,
        45.55585856549442,
        296
      ],
      [
        0.9243602212518454,
        45.555923441424966,
        296
      ],
      [
        0.924461055546999,
        45.55604548193514,
        295.6
      ],
      [
        0.924427192658186,
        45.55619426071644,
        295.6
      ],
      [
        0.9243166353553534,
        45.55632778443396,
        296.20000000000005
      ],
      [
        0.9242689423263073,
        45.556419314816594,
        296
      ],
      [
        0.9242636617273092,
        45.55644982494414,
        296
      ],
      [
        0.9243029728531837,
        45.55652232840657,
        295.79999999999995
      ],
      [
        0.9244589600712061,
        45.556499445810914,
        295.6
      ],
      [
        0.9246269334107637,
        45.55646508000791,
        295.4
      ],
      [
        0.9247026219964027,
        45.55644982494414,
        295.4
      ],
      [
        0.9247401729226112,
        45.55644219741225,
        295.6
      ],
      [
        0.9248984232544899,
        45.55642694234848,
        296.20000000000005
      ],
      [
        0.9249801468104124,
        45.55642694234848,
        296.6
      ],
      [
        0.9250872675329447,
        45.55641554296017,
        297
      ],
      [
        0.9252463560551405,
        45.556400287896395,
        297.4
      ],
      [
        0.9252630360424519,
        45.556400287896395,
        297.4
      ],
      [
        0.9254365414381027,
        45.55639266036451,
        297.6
      ],
      [
        0.9255797043442726,
        45.55638880468905,
        297.6
      ],
      [
        0.9255960490554571,
        45.55638880468905,
        297.6
      ],
      [
        0.9257870726287365,
        45.556381177157164,
        297.4
      ],
      [
        0.925974240526557,
        45.55638503283262,
        298
      ],
      [
        0.9261299762874842,
        45.55642694234848,
        298.6
      ],
      [
        0.9261514339596033,
        45.5564536806196,
        298.79999999999995
      ],
      [
        0.9261556249111891,
        45.556537583470345,
        299.4
      ],
      [
        0.9261483326554298,
        45.556575721129775,
        299.79999999999995
      ],
      [
        0.9261473268270493,
        45.55659097619355,
        299.79999999999995
      ],
      [
        0.9261426329612732,
        45.55662911385298,
        300.20000000000005
      ],
      [
        0.926138861104846,
        45.556655852124095,
        300.20000000000005
      ],
      [
        0.926121175289154,
        45.55672449991107,
        300.4
      ],
      [
        0.9261137153953314,
        45.5568160302937,
        300
      ],
      [
        0.9261184930801392,
        45.55698391981423,
        299.6
      ],
      [
        0.9261015616357327,
        45.557128842920065,
        299.4
      ],
      [
        0.926092928275466,
        45.5572357121855,
        299.4
      ],
      [
        0.9260702133178711,
        45.55737300775945,
        299.4
      ],
      [
        0.9260455705225468,
        45.5574912764132,
        299.4
      ],
      [
        0.925994860008359,
        45.55759429000318,
        299.20000000000005
      ],
      [
        0.9259376954287291,
        45.55770870298147,
        298.79999999999995
      ],
      [
        0.9259267989546061,
        45.55773158557713,
        298.6
      ],
      [
        0.9259086102247238,
        45.55783459916711,
        298.4
      ],
      [
        0.9259039163589478,
        45.55794524028897,
        298.79999999999995
      ],
      [
        0.9258871525526047,
        45.55801003240049,
        299
      ],
      [
        0.925844069570303,
        45.55814355611801,
        299.20000000000005
      ],
      [
        0.9257693029940128,
        45.55828470736742,
        299.4
      ],
      [
        0.9257475100457668,
        45.55838386528194,
        299
      ],
      [
        0.9258256293833256,
        45.558475479483604,
        299.4
      ],
      [
        0.9258560556918383,
        45.558513617143035,
        299.79999999999995
      ],
      [
        0.925988657400012,
        45.55860900320113,
        300
      ],
      [
        0.9260697942227125,
        45.55868142284453,
        301
      ],
      [
        0.9261268749833107,
        45.55875392630696,
        301.79999999999995
      ],
      [
        0.9261289704591036,
        45.55878066457808,
        302
      ],
      [
        0.9261289704591036,
        45.55880354717374,
        302.20000000000005
      ],
      [
        0.9260614961385727,
        45.55888359434903,
        303
      ],
      [
        0.9260490909218788,
        45.55889122188091,
        303
      ],
      [
        0.9260479174554348,
        45.55891410447657,
        303.4
      ],
      [
        0.926059065386653,
        45.558925587683916,
        303.4
      ],
      [
        0.9261858835816383,
        45.55901334621012,
        303
      ],
      [
        0.9263037331402302,
        45.55909339338541,
        302.6
      ],
      [
        0.9264050703495741,
        45.5591697525233,
        302
      ],
      [
        0.9264248516410589,
        45.5591887794435,
        302
      ],
      [
        0.926452511921525,
        45.559223145246506,
        301.79999999999995
      ],
      [
        0.9264882188290358,
        45.55926505476236,
        301.4
      ],
      [
        0.9265150409191847,
        45.55929179303348,
        301.20000000000005
      ],
      [
        0.9265903104096651,
        45.55935666896403,
        300.79999999999995
      ],
      [
        0.9266212396323681,
        45.55937569588423,
        300.6
      ],
      [
        0.9267114289104939,
        45.55947108194232,
        300
      ],
      [
        0.9267320483922958,
        45.55950921960175,
        299.79999999999995
      ],
      [
        0.926787368953228,
        45.559600749984384,
        299.4
      ],
      [
        0.9268069826066494,
        45.5596274882555,
        299.6
      ],
      [
        0.9268143586814404,
        45.55964274331927,
        299.6
      ],
      [
        0.9268283564597368,
        45.55966562591493,
        299.6
      ],
      [
        0.9268517419695854,
        45.55970376357436,
        299.79999999999995
      ],
      [
        0.9268457069993019,
        45.55974952876568,
        299.79999999999995
      ],
      [
        0.9268380794674158,
        45.55984491482377,
        300.20000000000005
      ],
      [
        0.9268496464937925,
        45.55994792841375,
        300.20000000000005
      ],
      [
        0.9268156159669161,
        45.56004708632827,
        300.4
      ],
      [
        0.9267591219395399,
        45.56011573411524,
        300.4
      ],
      [
        0.9267085790634155,
        45.56016535498202,
        300.6
      ],
      [
        0.9266794100403786,
        45.56028362363577,
        300.4
      ],
      [
        0.9267656598240137,
        45.56035989895463,
        300.6
      ],
      [
        0.9268681704998016,
        45.56046291254461,
        300.4
      ],
      [
        0.9269666578620672,
        45.56054304353893,
        299.79999999999995
      ],
      [
        0.9270400833338499,
        45.56067271158099,
        299.20000000000005
      ],
      [
        0.9270694199949503,
        45.5607604701072,
        298.79999999999995
      ],
      [
        0.9270797297358513,
        45.56079475209117,
        298.79999999999995
      ],
      [
        0.9270976670086384,
        45.56087488308549,
        299
      ],
      [
        0.9271445218473673,
        45.56096641346812,
        299
      ],
      [
        0.9271734394133091,
        45.56103128939867,
        299.20000000000005
      ],
      [
        0.9272078052163124,
        45.56109230965376,
        299.4
      ],
      [
        0.9272296819835901,
        45.561183923855424,
        299.79999999999995
      ],
      [
        0.9272243175655603,
        45.56128308176994,
        299.79999999999995
      ],
      [
        0.9272228926420212,
        45.56129448115826,
        299.79999999999995
      ],
      [
        0.9271760378032923,
        45.56136321276426,
        300
      ],
      [
        0.9271651413291693,
        45.561374612152576,
        300
      ],
      [
        0.9270916320383549,
        45.56146999821067,
        300.4
      ],
      [
        0.9270190447568893,
        45.561592038720846,
        300.6
      ],
      [
        0.9269509837031364,
        45.5616912804544,
        300.4
      ],
      [
        0.9269286878407001,
        45.56179043836892,
        300.20000000000005
      ],
      [
        0.9269415121525526,
        45.561874341219664,
        300.4
      ],
      [
        0.9269988443702459,
        45.56198498234153,
        300.6
      ],
      [
        0.9270021133124828,
        45.56199638172984,
        300.6
      ],
      [
        0.9270359762012959,
        45.56208414025605,
        300.6
      ],
      [
        0.927081573754549,
        45.5622024089098,
        300.6
      ],
      [
        0.9270849265158176,
        45.56221389211714,
        300.79999999999995
      ],
      [
        0.9271086473017931,
        45.56230156682432,
        300.79999999999995
      ],
      [
        0.9271277580410242,
        45.562370298430324,
        301
      ],
      [
        0.9271638840436935,
        45.562446573749185,
        301
      ],
      [
        0.9272431768476963,
        45.56254195980728,
        301
      ],
      [
        0.9273499622941017,
        45.562602980062366,
        301.4
      ],
      [
        0.9274730086326599,
        45.562664000317454,
        302
      ],
      [
        0.9274994116276503,
        45.56267539970577,
        302
      ],
      [
        0.9275886788964272,
        45.56271362118423,
        302
      ],
      [
        0.9277021698653698,
        45.562744131311774,
        302.20000000000005
      ],
      [
        0.92782580293715,
        45.56273650377989,
        302
      ],
      [
        0.9278998151421547,
        45.562728876248,
        301.79999999999995
      ],
      [
        0.9279884118586779,
        45.562721248716116,
        301.6
      ],
      [
        0.9281484223902225,
        45.562705993652344,
        301.6
      ],
      [
        0.9283196646720171,
        45.562721248716116,
        302
      ],
      [
        0.9285275358706713,
        45.562721248716116,
        302.20000000000005
      ],
      [
        0.9285997040569782,
        45.56267925538123,
        302.4
      ],
      [
        0.9286073315888643,
        45.56264488957822,
        302.4
      ],
      [
        0.9285401087254286,
        45.562583869323134,
        302.4
      ],
      [
        0.928379176184535,
        45.56256861425936,
        302
      ],
      [
        0.9282422997057438,
        45.56255335919559,
        302.20000000000005
      ],
      [
        0.9280998073518276,
        45.56253047659993,
        302.20000000000005
      ],
      [
        0.9280508570373058,
        45.5625113658607,
        302.20000000000005
      ],
      [
        0.9279788564890623,
        45.562446573749185,
        302.20000000000005
      ],
      [
        0.9279444068670273,
        45.56241220794618,
        302.20000000000005
      ],
      [
        0.9278386272490025,
        45.562305422499776,
        302.20000000000005
      ],
      [
        0.9277686383575201,
        45.5622024089098,
        302.20000000000005
      ],
      [
        0.927771907299757,
        45.562087995931506,
        302.6
      ],
      [
        0.9278212767094374,
        45.56198498234153,
        302.79999999999995
      ],
      [
        0.9278294909745455,
        45.5619658716023,
        303
      ],
      [
        0.9278728254139423,
        45.56190107949078,
        303
      ],
      [
        0.9279435686767101,
        45.56182472035289,
        303.20000000000005
      ],
      [
        0.9280114620923996,
        45.56171793490648,
        303
      ],
      [
        0.9280968736857176,
        45.56160729378462,
        302.79999999999995
      ],
      [
        0.9281569719314575,
        45.56152724660933,
        302.79999999999995
      ],
      [
        0.9282309841364622,
        45.56140897795558,
        302.4
      ],
      [
        0.9282634221017361,
        45.56131359189749,
        302.4
      ],
      [
        0.9282801020890474,
        45.561218205839396,
        302.20000000000005
      ],
      [
        0.9282821975648403,
        45.56120680645108,
        302.20000000000005
      ],
      [
        0.9283319022506475,
        45.56108468212187,
        302
      ],
      [
        0.9283385239541531,
        45.56105802766979,
        302
      ],
      [
        0.9283446427434683,
        45.561000779271126,
        301.6
      ],
      [
        0.9283831156790257,
        45.56090162135661,
        301.6
      ],
      [
        0.9284006338566542,
        45.560802379623055,
        301.6
      ],
      [
        0.9284181520342827,
        45.56071470491588,
        302
      ],
      [
        0.9284511767327785,
        45.56060406379402,
        301.6
      ],
      [
        0.9285557828843594,
        45.560508677735925,
        301.6
      ],
      [
        0.9286447148770094,
        45.56044380180538,
        301.6
      ],
      [
        0.9286646638065577,
        45.56032561697066,
        301.6
      ],
      [
        0.9286083374172449,
        45.56024163030088,
        301.6
      ],
      [
        0.9285933338105679,
        45.56013870052993,
        301.6
      ],
      [
        0.9286244306713343,
        45.5600661970675,
        302
      ],
      [
        0.9286519233137369,
        45.55994030088186,
        302.4
      ],
      [
        0.9287009574472904,
        45.559856398031116,
        302.6
      ],
      [
        0.9287597984075546,
        45.559757156297565,
        302.6
      ],
      [
        0.9288405161350965,
        45.5596274882555,
        302.4
      ],
      [
        0.9288553521037102,
        45.55951684713364,
        302
      ],
      [
        0.9288737084716558,
        45.559440571814775,
        301.6
      ],
      [
        0.9288810845464468,
        45.55941768921912,
        301.6
      ],
      [
        0.9289506543427706,
        45.559322303161025,
        302.20000000000005
      ],
      [
        0.9289876185357571,
        45.55928802117705,
        302.4
      ],
      [
        0.9290431067347527,
        45.55920026265085,
        303
      ],
      [
        0.9290612116456032,
        45.55917352437973,
        303
      ],
      [
        0.9291224833577871,
        45.55907436646521,
        304
      ],
      [
        0.9291291888803244,
        45.559062883257866,
        304
      ],
      [
        0.9290921408683062,
        45.55895609781146,
        303.79999999999995
      ],
      [
        0.9289644844830036,
        45.558929443359375,
        303.6
      ],
      [
        0.9288516640663147,
        45.55893707089126,
        303.6
      ],
      [
        0.9287711977958679,
        45.55894469842315,
        303.6
      ],
      [
        0.9285385999828577,
        45.55893707089126,
        303.4
      ],
      [
        0.9282712172716856,
        45.55894469842315,
        303.20000000000005
      ],
      [
        0.9282312355935574,
        45.55894469842315,
        303
      ],
      [
        0.9280603285878897,
        45.55893707089126,
        303
      ],
      [
        0.9280250407755375,
        45.55893707089126,
        302.79999999999995
      ],
      [
        0.927833179011941,
        45.558925587683916,
        302.6
      ],
      [
        0.9276609309017658,
        45.5589332152158,
        302.4
      ],
      [
        0.9275652095675468,
        45.5589332152158,
        302.20000000000005
      ],
      [
        0.9274306800216436,
        45.5589332152158,
        302
      ],
      [
        0.9273353777825832,
        45.5589332152158,
        302
      ],
      [
        0.9272534027695656,
        45.5589332152158,
        302
      ],
      [
        0.9271952323615551,
        45.5589332152158,
        301.79999999999995
      ],
      [
        0.9269395843148232,
        45.55892173200846,
        301.79999999999995
      ],
      [
        0.9267421904951334,
        45.55891796015203,
        301.4
      ],
      [
        0.9264970198273659,
        45.558906476944685,
        301
      ],
      [
        0.926265511661768,
        45.558910332620144,
        301.6
      ],
      [
        0.9261598996818066,
        45.558910332620144,
        301.79999999999995
      ],
      [
        0.926033416762948,
        45.55888359434903,
        302.6
      ],
      [
        0.9259835444390774,
        45.558849312365055,
        302.79999999999995
      ],
      [
        0.9259578958153725,
        45.55881880223751,
        303
      ],
      [
        0.9259387850761414,
        45.55876155383885,
        303.20000000000005
      ],
      [
        0.925903832539916,
        45.558692906051874,
        302.20000000000005
      ],
      [
        0.9258947800844908,
        45.55868142284453,
        302
      ],
      [
        0.9258739929646254,
        45.55862040258944,
        301
      ],
      [
        0.9258605819195509,
        45.558593748137355,
        300.4
      ],
      [
        0.9258401300758123,
        45.558551754802465,
        299.79999999999995
      ],
      [
        0.9258102066814899,
        45.55848310701549,
        299.4
      ],
      [
        0.9257891681045294,
        45.55841823108494,
        298.79999999999995
      ],
      [
        0.9257761761546135,
        45.558395348489285,
        298.79999999999995
      ],
      [
        0.9257466718554497,
        45.558296190574765,
        299.4
      ],
      [
        0.9257724042981863,
        45.55824279785156,
        299.4
      ],
      [
        0.9258127212524414,
        45.558196948841214,
        299.4
      ],
      [
        0.925888828933239,
        45.558059653267264,
        299.20000000000005
      ],
      [
        0.9258954506367445,
        45.557998633012176,
        299.20000000000005
      ],
      [
        0.9259001445025206,
        45.55793375708163,
        299
      ],
      [
        0.9259207639843225,
        45.55781548842788,
        298.6
      ],
      [
        0.9259443171322346,
        45.55770484730601,
        298.4
      ],
      [
        0.9259738214313984,
        45.557620944455266,
        298.4
      ],
      [
        0.9260355122387409,
        45.55749890394509,
        298.79999999999995
      ],
      [
        0.9260674472898245,
        45.55743402801454,
        298.6
      ],
      [
        0.926080858334899,
        45.557388262823224,
        298.6
      ],
      [
        0.9261060878634453,
        45.55728147737682,
        298.4
      ],
      [
        0.9261114522814751,
        45.557170836254954,
        298.4
      ],
      [
        0.9261196665465832,
        45.55706405080855,
        298.79999999999995
      ],
      [
        0.9261329099535942,
        45.55692667141557,
        299.20000000000005
      ],
      [
        0.9261413756757975,
        45.55678174830973,
        299.6
      ],
      [
        0.926138861104846,
        45.55665962398052,
        299.4
      ],
      [
        0.9261405374854803,
        45.55664059706032,
        299
      ],
      [
        0.9261638391762972,
        45.556514700874686,
        298.6
      ],
      [
        0.9261661022901535,
        45.55644605308771,
        298
      ],
      [
        0.9261728916317225,
        45.55642694234848,
        297.79999999999995
      ],
      [
        0.9261744003742933,
        45.55642317049205,
        297.4
      ],
      [
        0.9261614084243774,
        45.55642317049205,
        297.4
      ],
      [
        0.9260853845626116,
        45.55640405975282,
        297.6
      ],
      [
        0.9259629249572754,
        45.55638503283262,
        297.4
      ],
      [
        0.9258029982447624,
        45.55636977776885,
        297.6
      ],
      [
        0.9256065264344215,
        45.556381177157164,
        298
      ],
      [
        0.9254367928951979,
        45.55639266036451,
        298.4
      ],
      [
        0.9252623654901981,
        45.55640405975282,
        298.6
      ],
      [
        0.9251357149332762,
        45.556400287896395,
        298.6
      ],
      [
        0.9249729383736849,
        45.55640791542828,
        298.4
      ],
      [
        0.9247647318989038,
        45.55642694234848,
        298
      ],
      [
        0.9245898015797138,
        45.55646130815148,
        298
      ],
      [
        0.9244016278535128,
        45.55649181827903,
        298.4
      ],
      [
        0.9242935013025999,
        45.55649181827903,
        298.79999999999995
      ],
      [
        0.9242572076618671,
        45.5564727075398,
        299
      ],
      [
        0.9242402762174606,
        45.556438425555825,
        299.4
      ],
      [
        0.9242629911750555,
        45.556400287896395,
        299.4
      ],
      [
        0.9243337344378233,
        45.55629727430642,
        299.4
      ],
      [
        0.9244291204959154,
        45.556179005652666,
        299.20000000000005
      ],
      [
        0.9244530089199543,
        45.55607984773815,
        298.79999999999995
      ],
      [
        0.9243760630488396,
        45.55597683414817,
        299
      ],
      [
        0.9243159648030996,
        45.55589670315385,
        299
      ],
      [
        0.9243531804531813,
        45.55579754523933,
        299.20000000000005
      ],
      [
        0.9244750533252954,
        45.555767035111785,
        299
      ],
      [
        0.9246380813419819,
        45.55575555190444,
        298.79999999999995
      ],
      [
        0.9247818309813738,
        45.55567927658558,
        299.20000000000005
      ],
      [
        0.9248824138194323,
        45.55559151805937,
        299.20000000000005
      ],
      [
        0.92497025616467,
        45.55553435347974,
        299.20000000000005
      ],
      [
        0.9249815717339516,
        45.55552672594786,
        299.20000000000005
      ],
      [
        0.9250790532678366,
        45.555465621873736,
        298.79999999999995
      ],
      [
        0.9251121617853642,
        45.55544273927808,
        298.79999999999995
      ],
      [
        0.9252006746828556,
        45.555351208895445,
        298.20000000000005
      ],
      [
        0.9253133274614811,
        45.55526345036924,
        298.6
      ],
      [
        0.925445593893528,
        45.55516429245472,
        299
      ],
      [
        0.9256306663155556,
        45.55502314120531,
        299.4
      ],
      [
        0.9257215261459351,
        45.554954493418336,
        299.4
      ],
      [
        0.9258631803095341,
        45.55486673489213,
        299.20000000000005
      ],
      [
        0.925978347659111,
        45.55477134883404,
        299.20000000000005
      ],
      [
        0.9261042438447475,
        45.554660791531205,
        298.6
      ],
      [
        0.9261741489171982,
        45.5545196402818,
        298.6
      ],
      [
        0.9261593129485846,
        45.55448527447879,
        298.6
      ],
      [
        0.9261392802000046,
        45.55445090867579,
        298.79999999999995
      ],
      [
        0.9261145535856485,
        45.55439751595259,
        298.79999999999995
      ],
      [
        0.9260257892310619,
        45.55427547544241,
        299.20000000000005
      ],
      [
        0.9259661938995123,
        45.55419534444809,
        299.20000000000005
      ],
      [
        0.9258775133639574,
        45.55407330393791,
        298.79999999999995
      ],
      [
        0.9258316643536091,
        45.553970290347934,
        299
      ],
      [
        0.9257644414901733,
        45.553871132433414,
        298.79999999999995
      ],
      [
        0.9256626851856709,
        45.55376426316798,
        298.79999999999995
      ],
      [
        0.9255912713706493,
        45.55368421599269,
        298.79999999999995
      ],
      [
        0.9255124814808369,
        45.553611712530255,
        298.79999999999995
      ],
      [
        0.9253816399723291,
        45.55353920906782,
        299.20000000000005
      ],
      [
        0.925244428217411,
        45.553493443876505,
        299.6
      ],
      [
        0.9251472819596529,
        45.55344767868519,
        299.79999999999995
      ],
      [
        0.9251153469085693,
        45.553436279296875,
        300
      ],
      [
        0.9249695856124163,
        45.553394285961986,
        300
      ],
      [
        0.9247734490782022,
        45.553337037563324,
        300.20000000000005
      ],
      [
        0.9246618021279573,
        45.553314154967666,
        300
      ],
      [
        0.9246167913079262,
        45.55332178249955,
        300
      ],
      [
        0.9244525898247957,
        45.55335992015898,
        300.20000000000005
      ],
      [
        0.9243069123476744,
        45.553413312882185,
        300.4
      ],
      [
        0.9241655934602022,
        45.55347818881273,
        300.79999999999995
      ],
      [
        0.9241507574915886,
        45.55348204448819,
        301
      ],
      [
        0.9240152221173048,
        45.55355831980705,
        301.4
      ],
      [
        0.9239118732511997,
        45.55360408499837,
        301.79999999999995
      ],
      [
        0.9238606598228216,
        45.55362696759403,
        301.79999999999995
      ],
      [
        0.9238009806722403,
        45.55364607833326,
        301.79999999999995
      ],
      [
        0.9237240348011255,
        45.55364607833326,
        302
      ],
      [
        0.9236019104719162,
        45.553592601791024,
        300.79999999999995
      ],
      [
        0.9235868230462074,
        45.55358497425914,
        300.6
      ],
      [
        0.9234804566949606,
        45.55346678942442,
        300
      ],
      [
        0.9234646987169981,
        45.553394285961986,
        299.79999999999995
      ],
      [
        0.9234729968011379,
        45.55334089323878,
        299.6
      ],
      [
        0.9234799537807703,
        45.553218768909574,
        299.4
      ],
      [
        0.9234735835343599,
        45.55310435593128,
        299.6
      ],
      [
        0.9234178438782692,
        45.55298994295299,
        300
      ],
      [
        0.9233780298382044,
        45.5529135838151,
        300
      ],
      [
        0.9233243856579065,
        45.552783915773034,
        300.4
      ],
      [
        0.9232550673186779,
        45.55265424773097,
        300.4
      ],
      [
        0.9231895208358765,
        45.55255500599742,
        300.4
      ],
      [
        0.9231164306402206,
        45.55247495882213,
        300.20000000000005
      ],
      [
        0.9231028519570827,
        45.55244059301913,
        300.20000000000005
      ],
      [
        0.9230660554021597,
        45.55237194523215,
        300.20000000000005
      ],
      [
        0.9230005089193583,
        45.55227655917406,
        300.20000000000005
      ],
      [
        0.9229150135070086,
        45.552192656323314,
        300.20000000000005
      ],
      [
        0.9227904584258795,
        45.552093498408794,
        300.6
      ],
      [
        0.9226643946021795,
        45.55202099494636,
        300.79999999999995
      ],
      [
        0.9226514026522636,
        45.552009511739016,
        300.79999999999995
      ],
      [
        0.9225013665854931,
        45.551895098760724,
        300.79999999999995
      ],
      [
        0.9223592095077038,
        45.551795940846205,
        300.79999999999995
      ],
      [
        0.9222057368606329,
        45.55178445763886,
        300.6
      ],
      [
        0.9220997057855129,
        45.55184547789395,
        300.6
      ],
      [
        0.9219612367451191,
        45.551952347159386,
        300.6
      ],
      [
        0.9218498412519693,
        45.55204387754202,
        300.6
      ],
      [
        0.9217439778149128,
        45.55213540792465,
        300.6
      ],
      [
        0.9216257929801941,
        45.55223842151463,
        300.79999999999995
      ],
      [
        0.921479444950819,
        45.55232232436538,
        300.79999999999995
      ],
      [
        0.9212399739772081,
        45.55237571708858,
        300.79999999999995
      ],
      [
        0.9210678935050964,
        45.552383344620466,
        300.79999999999995
      ],
      [
        0.920906038954854,
        45.55239097215235,
        300.79999999999995
      ],
      [
        0.920714596286416,
        45.552425337955356,
        301.20000000000005
      ],
      [
        0.9206030331552029,
        45.55245207622647,
        301.20000000000005
      ],
      [
        0.9204638935625553,
        45.5524902138859,
        301.20000000000005
      ],
      [
        0.9203469660133123,
        45.552524495869875,
        301.20000000000005
      ],
      [
        0.9202281106263399,
        45.5524902138859,
        301.20000000000005
      ],
      [
        0.9202450420707464,
        45.5524024553597,
        301
      ],
      [
        0.920361215248704,
        45.55230329744518,
        301.20000000000005
      ],
      [
        0.9203654900193214,
        45.55221168324351,
        301.20000000000005
      ],
      [
        0.9202873706817627,
        45.55212015286088,
        301.6
      ],
      [
        0.9202256798744202,
        45.55207438766956,
        301.6
      ],
      [
        0.9201472252607346,
        45.552047649398446,
        301.6
      ],
      [
        0.9200935810804367,
        45.55194086395204,
        301.20000000000005
      ],
      [
        0.9201313834637403,
        45.551895098760724,
        301.20000000000005
      ],
      [
        0.9202058147639036,
        45.55184547789395,
        301
      ],
      [
        0.9203228261321783,
        45.551776830106974,
        300.79999999999995
      ],
      [
        0.9204090759158134,
        45.55170432664454,
        301.4
      ],
      [
        0.9204608760774136,
        45.551639534533024,
        302
      ],
      [
        0.9204792324453592,
        45.55158228613436,
        302.4
      ],
      [
        0.9205183759331703,
        45.5515060108155,
        303
      ],
      [
        0.9205291047692299,
        45.55146787315607,
        303
      ],
      [
        0.9205532446503639,
        45.551357232034206,
        302.6
      ],
      [
        0.9205245785415173,
        45.551242819055915,
        302.20000000000005
      ],
      [
        0.9203945752233267,
        45.55113594979048,
        302.6
      ],
      [
        0.9202542621642351,
        45.55103679187596,
        302.4
      ],
      [
        0.9200794156640768,
        45.55096814408898,
        302.20000000000005
      ],
      [
        0.9198778308928013,
        45.55093763396144,
        302.4
      ],
      [
        0.9197106957435608,
        45.55093000642955,
        302.4
      ],
      [
        0.9195355139672756,
        45.55091852322221,
        302.79999999999995
      ],
      [
        0.919319512322545,
        45.55089564062655,
        302.4
      ],
      [
        0.9191750083118677,
        45.55087661370635,
        302
      ],
      [
        0.9191589150577784,
        45.55087661370635,
        302
      ],
      [
        0.9190489444881678,
        45.55087661370635,
        301.79999999999995
      ],
      [
        0.9188793785870075,
        45.550826992839575,
        301.6
      ],
      [
        0.9187942184507847,
        45.55076211690903,
        301.4
      ],
      [
        0.9187792986631393,
        45.55073923431337,
        301.4
      ],
      [
        0.9186782129108906,
        45.55062482133508,
        301.79999999999995
      ],
      [
        0.9185977466404438,
        45.5505561735481,
        303
      ],
      [
        0.9185161907225847,
        45.55050269700587,
        303.4
      ],
      [
        0.9184663183987141,
        45.55047604255378,
        303.6
      ],
      [
        0.9184535779058933,
        45.550468415021896,
        303.4
      ],
      [
        0.9183906298130751,
        45.55040739476681,
        303.4
      ],
      [
        0.918384175747633,
        45.550392139703035,
        303.4
      ],
      [
        0.9183130133897066,
        45.55028149858117,
        302
      ],
      [
        0.9183101635426283,
        45.550273871049285,
        301.79999999999995
      ],
      [
        0.9182805754244328,
        45.55020136758685,
        301
      ],
      [
        0.918263727799058,
        45.55017848499119,
        300.6
      ],
      [
        0.9182181302458048,
        45.55012123659253,
        299.79999999999995
      ],
      [
        0.9182078205049038,
        45.55010983720422,
        299.6
      ],
      [
        0.9181434474885464,
        45.54999156855047,
        298.79999999999995
      ],
      [
        0.9181343950331211,
        45.54998008534312,
        298.6
      ],
      [
        0.9181005321443081,
        45.54990766569972,
        297.79999999999995
      ],
      [
        0.9180872887372971,
        45.54988855496049,
        297.6
      ],
      [
        0.9180431999266148,
        45.54983139038086,
        296.6
      ],
      [
        0.9180357400327921,
        45.549816051498055,
        296.4
      ],
      [
        0.9179884660989046,
        45.54972837679088,
        296.20000000000005
      ],
      [
        0.9179614763706923,
        45.549640618264675,
        295.4
      ],
      [
        0.9179589617997408,
        45.54962913505733,
        295.20000000000005
      ],
      [
        0.9179573692381382,
        45.54957574233413,
        294.79999999999995
      ],
      [
        0.917956531047821,
        45.549541460350156,
        294.4
      ],
      [
        0.9179608058184385,
        45.54946895688772,
        293.20000000000005
      ],
      [
        0.9179775696247816,
        45.54941933602095,
        293
      ],
      [
        0.9179599676281214,
        45.54937742650509,
        292.6
      ],
      [
        0.9179364982992411,
        45.54936217144132,
        292.4
      ],
      [
        0.9179096762090921,
        45.549346916377544,
        292.4
      ],
      [
        0.917895594611764,
        45.5493354331702,
        292.20000000000005
      ],
      [
        0.9178251028060913,
        45.549301067367196,
        292.20000000000005
      ],
      [
        0.9177034813910723,
        45.549224792048335,
        292.4
      ],
      [
        0.9176437184214592,
        45.54919051006436,
        292.20000000000005
      ],
      [
        0.9176344145089388,
        45.54919051006436,
        292.20000000000005
      ],
      [
        0.917639946565032,
        45.54919051006436,
        292.20000000000005
      ],
      [
        0.9176403656601906,
        45.54919051006436,
        292
      ]
    ]
  }
}
