{
  "type": "Feature",
  "properties": {
    "id": "24173191196",
    "activity": "hiking",
    "name": "Mialet Hiking",
    "date": "2026-08-30T12:26:37Z",
    "distanceKm": 9.1,
    "movingTimeSeconds": 5834,
    "elapsedTimeSeconds": 5915,
    "ascentM": 47,
    "descentM": 45,
    "providers": [
      "Garmin"
    ]
  },
  "geometry": {
    "type": "LineString",
    "coordinates": [
      [
        0.9178603067994118,
        45.54939645342529,
        292.4
      ],
      [
        0.9179290384054184,
        45.549346916377544,
        292.4
      ],
      [
        0.9179509151726961,
        45.549381198361516,
        292.6
      ],
      [
        0.9179247636348009,
        45.54945370182395,
        293.4
      ],
      [
        0.9179219976067543,
        45.54949183948338,
        293.4
      ],
      [
        0.9179098438471556,
        45.549560487270355,
        294.4
      ],
      [
        0.9179048985242844,
        45.54957574233413,
        294.4
      ],
      [
        0.9178956784307957,
        45.54969401098788,
        295
      ],
      [
        0.9178989473730326,
        45.54970549419522,
        295
      ],
      [
        0.9179387614130974,
        45.54977028630674,
        295.4
      ],
      [
        0.9179634880274534,
        45.5497931689024,
        295.79999999999995
      ],
      [
        0.9180388413369656,
        45.5498809274286,
        296.6
      ],
      [
        0.9180885460227728,
        45.54994580335915,
        297
      ],
      [
        0.9181242529302835,
        45.54998771287501,
        297.6
      ],
      [
        0.9181780647486448,
        45.550052588805556,
        298.6
      ],
      [
        0.9182003606110811,
        45.5500830989331,
        298.79999999999995
      ],
      [
        0.9182175435125828,
        45.55010598152876,
        299.20000000000005
      ],
      [
        0.9182680025696754,
        45.550155602395535,
        299.6
      ],
      [
        0.9189788717776537,
        45.55088038556278,
        300
      ],
      [
        0.9190205298364162,
        45.55089564062655,
        300.20000000000005
      ],
      [
        0.9191715717315674,
        45.55091852322221,
        300.6
      ],
      [
        0.9192866552621126,
        45.55091852322221,
        300.6
      ],
      [
        0.9193902555853128,
        45.55093000642955,
        301
      ],
      [
        0.9195538703352213,
        45.55094903334975,
        301
      ],
      [
        0.9196226019412279,
        45.55095288902521,
        301
      ],
      [
        0.9196780901402235,
        45.550964288413525,
        300.79999999999995
      ],
      [
        0.9197286330163479,
        45.55097577162087,
        300.79999999999995
      ],
      [
        0.9197684470564127,
        45.55097577162087,
        300.79999999999995
      ],
      [
        0.9198215045034885,
        45.55098717100918,
        300.6
      ],
      [
        0.9199159685522318,
        45.550983399152756,
        300.20000000000005
      ],
      [
        0.9199532680213451,
        45.550983399152756,
        300.20000000000005
      ],
      [
        0.9201152063906193,
        45.55101005360484,
        300.20000000000005
      ],
      [
        0.9202433656901121,
        45.55105967447162,
        300.4
      ],
      [
        0.9202727023512125,
        45.55107492953539,
        300.4
      ],
      [
        0.9203172102570534,
        45.551101667806506,
        300.6
      ],
      [
        0.9203603770583868,
        45.55112832225859,
        300.6
      ],
      [
        0.9204045496881008,
        45.551162688061595,
        300.6
      ],
      [
        0.9205467067658901,
        45.551269473508,
        300.6
      ],
      [
        0.9205701760947704,
        45.55126570165157,
        300.20000000000005
      ],
      [
        0.9205825813114643,
        45.55127710103989,
        300.20000000000005
      ],
      [
        0.9205600339919329,
        45.551319094374776,
        300.6
      ],
      [
        0.9205136820673943,
        45.55144113488495,
        300.79999999999995
      ],
      [
        0.9204965829849243,
        45.551498383283615,
        300.79999999999995
      ],
      [
        0.9204538352787495,
        45.55160516873002,
        300.6
      ],
      [
        0.9203482232987881,
        45.551711954176426,
        300
      ],
      [
        0.9202206507325172,
        45.55180734023452,
        300
      ],
      [
        0.9201431181281805,
        45.55186073295772,
        300.20000000000005
      ],
      [
        0.9201147872954607,
        45.55187984369695,
        300.20000000000005
      ],
      [
        0.9200714528560638,
        45.55192183703184,
        300.20000000000005
      ],
      [
        0.9200671780854464,
        45.55199425667524,
        300.20000000000005
      ],
      [
        0.9200795833021402,
        45.55200573988259,
        300.20000000000005
      ],
      [
        0.9202182199805975,
        45.55207438766956,
        300.6
      ],
      [
        0.9203255083411932,
        45.552150662988424,
        300.79999999999995
      ],
      [
        0.9203472174704075,
        45.55226515978575,
        300.79999999999995
      ],
      [
        0.9202574472874403,
        45.55236046202481,
        300.6
      ],
      [
        0.9202456288039684,
        45.55247873067856,
        300.6
      ],
      [
        0.9203749615699053,
        45.55251309648156,
        300.79999999999995
      ],
      [
        0.9205344691872597,
        45.55247873067856,
        300.6
      ],
      [
        0.9207553323358297,
        45.55241393856704,
        300.4
      ],
      [
        0.9209030214697123,
        45.552387200295925,
        300.4
      ],
      [
        0.9211346972733736,
        45.55237571708858,
        300.20000000000005
      ],
      [
        0.9212888404726982,
        45.55236046202481,
        299.79999999999995
      ],
      [
        0.9213061910122633,
        45.55235669016838,
        299.6
      ],
      [
        0.9214468393474817,
        45.552310924977064,
        300.20000000000005
      ],
      [
        0.9215936064720154,
        45.5522536765784,
        300.4
      ],
      [
        0.9217252023518085,
        45.55218117311597,
        300.4
      ],
      [
        0.92183374799788,
        45.55210489779711,
        300.4
      ],
      [
        0.9218566305935383,
        45.55207824334502,
        300.6
      ],
      [
        0.9219422098249197,
        45.552009511739016,
        300.6
      ],
      [
        0.9220733027905226,
        45.55190272629261,
        301
      ],
      [
        0.922183021903038,
        45.551830222830176,
        301
      ],
      [
        0.9223116002976894,
        45.55182259529829,
        301
      ],
      [
        0.9223313815891743,
        45.55182645097375,
        301
      ],
      [
        0.9223827626556158,
        45.55184547789395,
        301
      ],
      [
        0.9224541764706373,
        45.55189895443618,
        300.79999999999995
      ],
      [
        0.9226002730429173,
        45.55199425667524,
        301
      ],
      [
        0.922719044610858,
        45.55205527693033,
        300.79999999999995
      ],
      [
        0.9228304401040077,
        45.55214303545654,
        300.79999999999995
      ],
      [
        0.9229392372071743,
        45.552249904721975,
        300.4
      ],
      [
        0.9230664744973183,
        45.55236431770027,
        300.20000000000005
      ],
      [
        0.9231321047991514,
        45.55249784141779,
        300
      ],
      [
        0.9232181869447231,
        45.55263136513531,
        300
      ],
      [
        0.9233041852712631,
        45.55278777144849,
        300
      ],
      [
        0.9233700670301914,
        45.55293655022979,
        299.79999999999995
      ],
      [
        0.923425555229187,
        45.553016597405076,
        299.6
      ],
      [
        0.9234372898936272,
        45.55305473506451,
        299.4
      ],
      [
        0.9234388824552298,
        45.55306621827185,
        299.4
      ],
      [
        0.9234579093754292,
        45.553218768909574,
        299.20000000000005
      ],
      [
        0.9234491921961308,
        45.55330275557935,
        299.20000000000005
      ],
      [
        0.9234395530074835,
        45.55336754769087,
        299.4
      ],
      [
        0.9234876651316881,
        45.55352018214762,
        299.79999999999995
      ],
      [
        0.9236103761941195,
        45.553611712530255,
        300.4
      ],
      [
        0.9236396290361881,
        45.5536231957376,
        300.6
      ],
      [
        0.9237186703830957,
        45.5536422226578,
        301
      ],
      [
        0.9238200075924397,
        45.553630823269486,
        301
      ],
      [
        0.923876166343689,
        45.553615568205714,
        300.79999999999995
      ],
      [
        0.9239799343049526,
        45.553569719195366,
        300.6
      ],
      [
        0.9241280425339937,
        45.55348581634462,
        300.20000000000005
      ],
      [
        0.924163581803441,
        45.55347056128085,
        300.20000000000005
      ],
      [
        0.9242984466254711,
        45.55340191349387,
        299.79999999999995
      ],
      [
        0.924416882917285,
        45.553352292627096,
        299.4
      ],
      [
        0.9245079103857279,
        45.55332941003144,
        299
      ],
      [
        0.9246149472892284,
        45.553318010643125,
        298.79999999999995
      ],
      [
        0.9247035440057516,
        45.553318010643125,
        299
      ],
      [
        0.92486422508955,
        45.553352292627096,
        299.20000000000005
      ],
      [
        0.9250573441386223,
        45.553413312882185,
        299.20000000000005
      ],
      [
        0.9250773768872023,
        45.55342094041407,
        299.20000000000005
      ],
      [
        0.9252834878861904,
        45.553493443876505,
        298.79999999999995
      ],
      [
        0.9254231303930283,
        45.55354306474328,
        298.6
      ],
      [
        0.9255506191402674,
        45.55363845080137,
        298.6
      ],
      [
        0.9256412275135517,
        45.553749008104205,
        298.79999999999995
      ],
      [
        0.9257222805172205,
        45.55387490428984,
        298.79999999999995
      ],
      [
        0.9258456621319056,
        45.554046565666795,
        299
      ],
      [
        0.9259387850761414,
        45.55418008938432,
        299
      ],
      [
        0.9260130487382412,
        45.554283102974296,
        299
      ],
      [
        0.9260276332497597,
        45.554305985569954,
        299
      ],
      [
        0.9261376038193703,
        45.55449290201068,
        298.79999999999995
      ],
      [
        0.9261054173111916,
        45.5546264257282,
        299
      ],
      [
        0.925998380407691,
        45.55473321117461,
        299.6
      ],
      [
        0.9258885774761438,
        45.55482482537627,
        300
      ],
      [
        0.9258167445659637,
        45.554878218099475,
        300.4
      ],
      [
        0.9257499407976866,
        45.554939238354564,
        300.4
      ],
      [
        0.9256088733673096,
        45.55503839626908,
        300.4
      ],
      [
        0.9254613518714905,
        45.555133782327175,
        300.20000000000005
      ],
      [
        0.9253393951803446,
        45.55522154085338,
        299.6
      ],
      [
        0.9253104776144028,
        45.55524442344904,
        299.6
      ],
      [
        0.9252865891903639,
        45.5552673060447,
        299.6
      ],
      [
        0.925260940566659,
        45.555290188640356,
        299.6
      ],
      [
        0.925184665247798,
        45.55534743703902,
        299.6
      ],
      [
        0.9250544104725122,
        45.55543896742165,
        299.4
      ],
      [
        0.9250389039516449,
        45.55544659495354,
        299.20000000000005
      ],
      [
        0.9249026142060757,
        45.5555572360754,
        299.79999999999995
      ],
      [
        0.9248889517039061,
        45.55556486360729,
        299.79999999999995
      ],
      [
        0.9248580224812031,
        45.555587746202946,
        299.79999999999995
      ],
      [
        0.9248270932585001,
        45.55561440065503,
        300
      ],
      [
        0.9247956611216068,
        45.55563728325069,
        300
      ],
      [
        0.9247006103396416,
        45.555690759792924,
        299.79999999999995
      ],
      [
        0.9245210699737072,
        45.55574415251613,
        299.79999999999995
      ],
      [
        0.9243306331336498,
        45.55578991770744,
        300
      ],
      [
        0.9242811799049377,
        45.55588907562196,
        299.79999999999995
      ],
      [
        0.9243810083717108,
        45.55598823353648,
        299.4
      ],
      [
        0.9244107641279697,
        45.55611798539758,
        299.4
      ],
      [
        0.9243234246969223,
        45.55624765343964,
        299.6
      ],
      [
        0.9242147114127874,
        45.556381177157164,
        299.4
      ],
      [
        0.9242070838809013,
        45.556396432220936,
        299.6
      ],
      [
        0.9242510050535202,
        45.556499445810914,
        299.20000000000005
      ],
      [
        0.9243892226368189,
        45.55652232840657,
        298.6
      ],
      [
        0.9245786536484957,
        45.55651084519923,
        298.4
      ],
      [
        0.9246033802628517,
        45.55650321766734,
        298.20000000000005
      ],
      [
        0.9247317910194397,
        45.55648033507168,
        298.20000000000005
      ],
      [
        0.9248615428805351,
        45.556457452476025,
        298.4
      ],
      [
        0.9250707551836967,
        45.55643079802394,
        298.79999999999995
      ],
      [
        0.9251953940838575,
        45.55641554296017,
        298.6
      ],
      [
        0.9253364615142345,
        45.55641168728471,
        299
      ],
      [
        0.9254190232604742,
        45.55640791542828,
        298.79999999999995
      ],
      [
        0.9254801273345947,
        45.556400287896395,
        298.6
      ],
      [
        0.9256269782781601,
        45.55639266036451,
        298.4
      ],
      [
        0.9257939457893372,
        45.55638503283262,
        298.20000000000005
      ],
      [
        0.9260080195963383,
        45.55638503283262,
        298.20000000000005
      ],
      [
        0.9261289704591036,
        45.556457452476025,
        299.20000000000005
      ],
      [
        0.9261312335729599,
        45.55646508000791,
        299.4
      ],
      [
        0.9261345863342285,
        45.556560466066,
        299.6
      ],
      [
        0.926125617697835,
        45.55664059706032,
        300.20000000000005
      ],
      [
        0.9261219296604395,
        45.55667110718787,
        300.4
      ],
      [
        0.9261145535856485,
        45.556693989783525,
        300.6
      ],
      [
        0.9260930959135294,
        45.556850396096706,
        300.79999999999995
      ],
      [
        0.9260893240571022,
        45.55701442994177,
        300.4
      ],
      [
        0.9260839596390724,
        45.557109815999866,
        300
      ],
      [
        0.9260811097919941,
        45.557170836254954,
        300
      ],
      [
        0.9260573890060186,
        45.557289104908705,
        300
      ],
      [
        0.9260685369372368,
        45.55730435997248,
        300
      ],
      [
        0.9260670281946659,
        45.55741877295077,
        299.79999999999995
      ],
      [
        0.9259775094687939,
        45.557582806795835,
        299.79999999999995
      ],
      [
        0.925922691822052,
        45.557662937790155,
        299.4
      ],
      [
        0.9259073529392481,
        45.55770870298147,
        299.20000000000005
      ],
      [
        0.9258843027055264,
        45.557838371023536,
        299
      ],
      [
        0.9258432313799858,
        45.55800626054406,
        299.79999999999995
      ],
      [
        0.925804590806365,
        45.55816643871367,
        300.20000000000005
      ],
      [
        0.925735691562295,
        45.55829996243119,
        299.79999999999995
      ],
      [
        0.9257493540644646,
        45.55840297602117,
        299.79999999999995
      ],
      [
        0.9258085303008556,
        45.55851738899946,
        300
      ],
      [
        0.925823450088501,
        45.55854412727058,
        299.79999999999995
      ],
      [
        0.9258613362908363,
        45.558631885796785,
        300.4
      ],
      [
        0.9258636832237244,
        45.558654768392444,
        300.79999999999995
      ],
      [
        0.92588203959167,
        45.55870053358376,
        301.6
      ],
      [
        0.92590207234025,
        45.55875778198242,
        302.6
      ],
      [
        0.9259076043963432,
        45.55876540951431,
        302.6
      ],
      [
        0.9259325824677944,
        45.558788292109966,
        303.20000000000005
      ],
      [
        0.9259575605392456,
        45.558811174705625,
        303.4
      ],
      [
        0.9259725641459227,
        45.5588264297694,
        303.4
      ],
      [
        0.9259940218180418,
        45.55885693989694,
        303.4
      ],
      [
        0.9260339196771383,
        45.55891410447657,
        303.20000000000005
      ],
      [
        0.9260635077953339,
        45.55893707089126,
        303
      ],
      [
        0.9262050781399012,
        45.559047628194094,
        302.20000000000005
      ],
      [
        0.9262667689472437,
        45.55908962152898,
        302
      ],
      [
        0.926310271024704,
        45.559127759188414,
        301.6
      ],
      [
        0.9264189004898071,
        45.55923077277839,
        301
      ],
      [
        0.9264545235782862,
        45.55926505476236,
        300.6
      ],
      [
        0.9265129454433918,
        45.559326158836484,
        300.20000000000005
      ],
      [
        0.9265928249806166,
        45.55941383354366,
        299.4
      ],
      [
        0.9266359079629183,
        45.55944819934666,
        299.20000000000005
      ],
      [
        0.9267048072069883,
        45.55949782021344,
        298.6
      ],
      [
        0.926743196323514,
        45.55953595787287,
        298.4
      ],
      [
        0.9267613012343645,
        45.55956261232495,
        298.20000000000005
      ],
      [
        0.9268472157418728,
        45.559719018638134,
        298
      ],
      [
        0.926841851323843,
        45.55974190123379,
        298.20000000000005
      ],
      [
        0.9268387500196695,
        45.559757156297565,
        298.20000000000005
      ],
      [
        0.9268370736390352,
        45.55976863950491,
        298.4
      ],
      [
        0.9268349781632423,
        45.55979152210057,
        298.4
      ],
      [
        0.9268519096076488,
        45.55993267334998,
        298.79999999999995
      ],
      [
        0.9268479701131582,
        45.55997843854129,
        298.6
      ],
      [
        0.9268038813024759,
        45.5600661970675,
        298.79999999999995
      ],
      [
        0.9267471358180046,
        45.56012336164713,
        298.79999999999995
      ],
      [
        0.9266951680183411,
        45.56018061004579,
        298.79999999999995
      ],
      [
        0.9266753029078245,
        45.56025688536465,
        298.6
      ],
      [
        0.9267442859709263,
        45.56034464389086,
        298.79999999999995
      ],
      [
        0.926863057538867,
        45.560470540076494,
        298.4
      ],
      [
        0.9269474633038044,
        45.56056969799101,
        298.20000000000005
      ],
      [
        0.926995575428009,
        45.560668939724565,
        297.79999999999995
      ],
      [
        0.9270365629345179,
        45.5607604701072,
        297.6
      ],
      [
        0.9271003492176533,
        45.56090162135661,
        297.79999999999995
      ],
      [
        0.9271461982280016,
        45.56101226247847,
        298
      ],
      [
        0.9272078052163124,
        45.56112667545676,
        298.4
      ],
      [
        0.9272166900336742,
        45.5612525716424,
        298.6
      ],
      [
        0.9271888621151447,
        45.56135558523238,
        299
      ],
      [
        0.9271397441625595,
        45.56144325993955,
        299.20000000000005
      ],
      [
        0.9270644746720791,
        45.561519619077444,
        299.4
      ],
      [
        0.9269949048757553,
        45.561595894396305,
        299.6
      ],
      [
        0.9269550908356905,
        45.56168365292251,
        299.4
      ],
      [
        0.9269317891448736,
        45.561771327629685,
        299.20000000000005
      ],
      [
        0.9269542526453733,
        45.56188582442701,
        299.4
      ],
      [
        0.9269980061799288,
        45.56200400926173,
        299.4
      ],
      [
        0.9270355571061373,
        45.56208414025605,
        299.4
      ],
      [
        0.927067743614316,
        45.562168043106794,
        299.20000000000005
      ],
      [
        0.9271047078073025,
        45.56228253990412,
        299.4
      ],
      [
        0.927147539332509,
        45.562408436089754,
        299.20000000000005
      ],
      [
        0.9272093139588833,
        45.5624923389405,
        299.20000000000005
      ],
      [
        0.9273181948810816,
        45.56257246993482,
        299.4
      ],
      [
        0.9274424146860838,
        45.56267539970577,
        300
      ],
      [
        0.9275491163134575,
        45.56271739304066,
        300
      ],
      [
        0.9275683108717203,
        45.562721248716116,
        300
      ],
      [
        0.9277673810720444,
        45.56275938637555,
        300.20000000000005
      ],
      [
        0.9279196802526712,
        45.56271362118423,
        300
      ],
      [
        0.928054628893733,
        45.56271362118423,
        299.79999999999995
      ],
      [
        0.9282177407294512,
        45.562721248716116,
        300
      ],
      [
        0.9283824451267719,
        45.562721248716116,
        300.20000000000005
      ],
      [
        0.9284486621618271,
        45.56272502057254,
        300.4
      ],
      [
        0.9285309724509716,
        45.56270976550877,
        300.6
      ],
      [
        0.9285477362573147,
        45.56262963451445,
        301
      ],
      [
        0.9284373465925455,
        45.56256861425936,
        301
      ],
      [
        0.9282697923481464,
        45.562545731663704,
        300.79999999999995
      ],
      [
        0.9281604923307896,
        45.56253433227539,
        300.79999999999995
      ],
      [
        0.9281352628022432,
        45.56253047659993,
        300.6
      ],
      [
        0.9280117135494947,
        45.562480855733156,
        300.79999999999995
      ],
      [
        0.9279790241271257,
        45.5624579731375,
        300.79999999999995
      ],
      [
        0.9278794471174479,
        45.56236267089844,
        300.79999999999995
      ],
      [
        0.927826389670372,
        45.562290167436004,
        300.6
      ],
      [
        0.9277381282299757,
        45.56216041557491,
        301
      ],
      [
        0.9277490247040987,
        45.56208036839962,
        301.4
      ],
      [
        0.9277962986379862,
        45.56198498234153,
        301.79999999999995
      ],
      [
        0.9278783574700356,
        45.561889596283436,
        301.79999999999995
      ],
      [
        0.9279549680650234,
        45.56177895516157,
        301.79999999999995
      ],
      [
        0.9280138928443193,
        45.561672169715166,
        301.79999999999995
      ],
      [
        0.9280509408563375,
        45.56163017638028,
        301.6
      ],
      [
        0.9280634298920631,
        45.561614921316504,
        301.6
      ],
      [
        0.9281243663281202,
        45.56152724660933,
        301.4
      ],
      [
        0.9281804412603378,
        45.561435632407665,
        301
      ],
      [
        0.9282377734780312,
        45.56134410202503,
        300.79999999999995
      ],
      [
        0.9282625839114189,
        45.56122968904674,
        300.4
      ],
      [
        0.9282710496336222,
        45.56121443398297,
        300.4
      ],
      [
        0.9283073432743549,
        45.56112667545676,
        300.20000000000005
      ],
      [
        0.9283409547060728,
        45.56103514507413,
        300.20000000000005
      ],
      [
        0.9283628314733505,
        45.560924503952265,
        300.4
      ],
      [
        0.9283930063247681,
        45.560825346037745,
        300.20000000000005
      ],
      [
        0.92841362580657,
        45.56071847677231,
        300.20000000000005
      ],
      [
        0.928406585007906,
        45.5606116913259,
        300.4
      ],
      [
        0.9284805972129107,
        45.560550671070814,
        300.20000000000005
      ],
      [
        0.9285896457731724,
        45.56048202328384,
        300.20000000000005
      ],
      [
        0.9286715369671583,
        45.560371382161975,
        300.4
      ],
      [
        0.9286680165678263,
        45.56035989895463,
        300.4
      ],
      [
        0.9286234248429537,
        45.560287395492196,
        300.79999999999995
      ],
      [
        0.9285823535174131,
        45.56016921065748,
        300.79999999999995
      ],
      [
        0.928585035726428,
        45.560069968923926,
        301
      ],
      [
        0.9285986144095659,
        45.56000517681241,
        301.4
      ],
      [
        0.9286275319755077,
        45.55994407273829,
        301.6
      ],
      [
        0.9286629874259233,
        45.55986016988754,
        301.6
      ],
      [
        0.9286684356629848,
        45.55984877049923,
        301.6
      ],
      [
        0.9287451300770044,
        45.559738129377365,
        301.79999999999995
      ],
      [
        0.9287921525537968,
        45.559661854058504,
        301.79999999999995
      ],
      [
        0.9288175497204065,
        45.55961223319173,
        301.6
      ],
      [
        0.9288213215768337,
        45.559600749984384,
        301.6
      ],
      [
        0.928850406780839,
        45.55947108194232,
        300.79999999999995
      ],
      [
        0.9289374109357595,
        45.55934518575668,
        301.4
      ],
      [
        0.9290013648569584,
        45.55923840031028,
        302
      ],
      [
        0.9290394186973572,
        45.559181151911616,
        302.4
      ],
      [
        0.9290653187781572,
        45.559123987331986,
        302.79999999999995
      ],
      [
        0.9291037917137146,
        45.55907813832164,
        303.4
      ],
      [
        0.9291200526058674,
        45.55902097374201,
        303.4
      ],
      [
        0.9290884528309107,
        45.558929443359375,
        303.4
      ],
      [
        0.9290755447000265,
        45.55892173200846,
        303.4
      ],
      [
        0.9289900492876768,
        45.55886071175337,
        302.4
      ],
      [
        0.9289588686078787,
        45.55875392630696,
        301.79999999999995
      ],
      [
        0.9289825893938541,
        45.55872341617942,
        301.79999999999995
      ],
      [
        0.9289828408509493,
        45.55871956050396,
        301.79999999999995
      ],
      [
        0.9289746265858412,
        45.55871578864753,
        301.79999999999995
      ],
      [
        0.9289597067981958,
        45.558711932972074,
        301.4
      ],
      [
        0.9289120975881815,
        45.55870430544019,
        301.6
      ],
      [
        0.928817130625248,
        45.55863951332867,
        301.79999999999995
      ],
      [
        0.9287304617464542,
        45.558570781722665,
        302
      ],
      [
        0.9286727104336023,
        45.55847925134003,
        302.20000000000005
      ],
      [
        0.9286513365805149,
        45.55842971429229,
        302.4
      ],
      [
        0.928622167557478,
        45.55836861021817,
        302.6
      ],
      [
        0.9286141209304333,
        45.558353355154395,
        302.6
      ],
      [
        0.9285748936235905,
        45.55826182477176,
        302.79999999999995
      ],
      [
        0.9285251889377832,
        45.558158811181784,
        303
      ],
      [
        0.9284895658493042,
        45.55808639153838,
        303
      ],
      [
        0.9284671861678362,
        45.55799100548029,
        303
      ],
      [
        0.9284763224422932,
        45.557899475097656,
        303
      ],
      [
        0.9284761548042297,
        45.55785748176277,
        303
      ],
      [
        0.9284266177564859,
        45.557765951380134,
        302.6
      ],
      [
        0.9284057468175888,
        45.557662937790155,
        302
      ],
      [
        0.92841069214046,
        45.557563779875636,
        301.4
      ],
      [
        0.9284142125397921,
        45.55753318592906,
        301
      ],
      [
        0.9284153021872044,
        45.55743788369,
        300.79999999999995
      ],
      [
        0.9284536074846983,
        45.55736152455211,
        300.79999999999995
      ],
      [
        0.928481100127101,
        45.55730050429702,
        300.79999999999995
      ],
      [
        0.9284950979053974,
        45.55726622231305,
        301
      ],
      [
        0.9285086765885353,
        45.55722422897816,
        301
      ],
      [
        0.9285382647067308,
        45.55715172551572,
        301
      ],
      [
        0.9285794198513031,
        45.55707930587232,
        301
      ],
      [
        0.9286481514573097,
        45.55699531920254,
        301.6
      ],
      [
        0.9287239238619804,
        45.556915272027254,
        301.6
      ],
      [
        0.9287736285477877,
        45.55684654042125,
        301.6
      ],
      [
        0.9288394264876842,
        45.5567626375705,
        301.4
      ],
      [
        0.9289102535694838,
        45.55667110718787,
        301.4
      ],
      [
        0.9289855230599642,
        45.55659860372543,
        301.6
      ],
      [
        0.9290874470025301,
        45.55651847273111,
        301.79999999999995
      ],
      [
        0.9291897900402546,
        45.55643079802394,
        302
      ],
      [
        0.9292832482606173,
        45.556381177157164,
        301.79999999999995
      ],
      [
        0.9293332044035196,
        45.55635452270508,
        301.79999999999995
      ],
      [
        0.9294778760522604,
        45.556320156902075,
        302.20000000000005
      ],
      [
        0.929533950984478,
        45.556301046162844,
        302.4
      ],
      [
        0.9296007547527552,
        45.556243881583214,
        302.6
      ],
      [
        0.92962053604424,
        45.55620951578021,
        302.6
      ],
      [
        0.9296457655727863,
        45.556159894913435,
        302.6
      ],
      [
        0.9296432510018349,
        45.556121757254004,
        302.6
      ],
      [
        0.9296498727053404,
        45.556064592674375,
        302.20000000000005
      ],
      [
        0.9296802151948214,
        45.55596920661628,
        302.20000000000005
      ],
      [
        0.9297241363674402,
        45.55588907562196,
        301.79999999999995
      ],
      [
        0.9298093803226948,
        45.55579754523933,
        301.6
      ],
      [
        0.9299082029610872,
        45.55570978671312,
        301.79999999999995
      ],
      [
        0.9300321713089943,
        45.5556296557188,
        302
      ],
      [
        0.9301713109016418,
        45.555530497804284,
        302.20000000000005
      ],
      [
        0.9302532020956278,
        45.55547710508108,
        302
      ],
      [
        0.9303691238164902,
        45.555427484214306,
        302
      ],
      [
        0.9304196666926146,
        45.555393202230334,
        302
      ],
      [
        0.9305127058178186,
        45.55531684309244,
        302
      ],
      [
        0.9306328184902668,
        45.555232940241694,
        302
      ],
      [
        0.9307598881423473,
        45.55511089973152,
        302
      ],
      [
        0.9308065753430128,
        45.554977376013994,
        301.79999999999995
      ],
      [
        0.930821830406785,
        45.55487059056759,
        301.6
      ],
      [
        0.9307861234992743,
        45.554737066850066,
        301.79999999999995
      ],
      [
        0.9307139553129673,
        45.554641680791974,
        301.79999999999995
      ],
      [
        0.9306267835199833,
        45.554573033005,
        302
      ],
      [
        0.9305255301296711,
        45.554500529542565,
        302.20000000000005
      ],
      [
        0.9304570499807596,
        45.554462391883135,
        302.4
      ],
      [
        0.9304096084088087,
        45.554420398548245,
        302.6
      ],
      [
        0.9304122067987919,
        45.5543708615005,
        302.79999999999995
      ],
      [
        0.930433077737689,
        45.5543364956975,
        302.79999999999995
      ],
      [
        0.9305296372622252,
        45.55427924729884,
        303.4
      ],
      [
        0.9306173957884312,
        45.55419920012355,
        303.20000000000005
      ],
      [
        0.9305954352021217,
        45.554103814065456,
        302.79999999999995
      ],
      [
        0.9305199980735779,
        45.55403516627848,
        302.4
      ],
      [
        0.9304099436849356,
        45.55394355207682,
        301.79999999999995
      ],
      [
        0.9303505998104811,
        45.55391304194927,
        301.6
      ],
      [
        0.9302985481917858,
        45.553890159353614,
        301.4
      ],
      [
        0.9302602428942919,
        45.553871132433414,
        301.20000000000005
      ],
      [
        0.9302158188074827,
        45.55382151156664,
        300.79999999999995
      ],
      [
        0.9301826264709234,
        45.55371849797666,
        301.20000000000005
      ],
      [
        0.9301590733230114,
        45.553649850189686,
        301
      ],
      [
        0.9301415551453829,
        45.55360794067383,
        301.20000000000005
      ],
      [
        0.9301198460161686,
        45.5535888299346,
        301.20000000000005
      ],
      [
        0.9301100391894579,
        45.55358120240271,
        301.4
      ],
      [
        0.9300993103533983,
        45.55357734672725,
        301.4
      ],
      [
        0.9300846420228481,
        45.55358120240271,
        301.4
      ],
      [
        0.9300840552896261,
        45.55358120240271,
        301.4
      ],
      [
        0.9300695545971394,
        45.55360408499837,
        301
      ],
      [
        0.930074080824852,
        45.553615568205714,
        300.79999999999995
      ],
      [
        0.9300218615680933,
        45.5536231957376,
        300.79999999999995
      ],
      [
        0.9300441574305296,
        45.55362696759403,
        300.6
      ],
      [
        0.9300435706973076,
        45.55360794067383,
        300.4
      ],
      [
        0.9300497733056545,
        45.5535888299346,
        300.20000000000005
      ],
      [
        0.9300984721630812,
        45.553573574870825,
        300
      ],
      [
        0.9301645215600729,
        45.55360022932291,
        300
      ],
      [
        0.930183045566082,
        45.55360408499837,
        300
      ],
      [
        0.9302946086972952,
        45.5536422226578,
        299.79999999999995
      ],
      [
        0.9303839597851038,
        45.553691843524575,
        299.79999999999995
      ],
      [
        0.9304166492074728,
        45.55370324291289,
        300
      ],
      [
        0.9304989594966173,
        45.55376049131155,
        300.20000000000005
      ],
      [
        0.9305221773684025,
        45.55385202169418,
        300.4
      ],
      [
        0.9305602312088013,
        45.55392452515662,
        300.6
      ],
      [
        0.9305680263787508,
        45.553947407752275,
        300.6
      ],
      [
        0.9306443855166435,
        45.55401228368282,
        301
      ],
      [
        0.9307683538645506,
        45.55401605553925,
        301.4
      ],
      [
        0.930907242000103,
        45.55400080047548,
        301.4
      ],
      [
        0.9310279414057732,
        45.55398177355528,
        301.4
      ],
      [
        0.9310640674084425,
        45.55397791787982,
        301.4
      ],
      [
        0.9312338009476662,
        45.553951263427734,
        301
      ],
      [
        0.9313974156975746,
        45.55392452515662,
        301
      ],
      [
        0.9315100684762001,
        45.55392066948116,
        301
      ],
      [
        0.931522473692894,
        45.55392452515662,
        301
      ],
      [
        0.9316741861402988,
        45.55392452515662,
        301
      ],
      [
        0.9317922033369541,
        45.55393592454493,
        301
      ],
      [
        0.9319588355720043,
        45.55393978022039,
        301.20000000000005
      ],
      [
        0.9321203548461199,
        45.553970290347934,
        301
      ],
      [
        0.9322113823145628,
        45.554050421342254,
        301
      ],
      [
        0.9322572313249111,
        45.554126696661115,
        301.4
      ],
      [
        0.93229821883142,
        45.5541877169162,
        301.4
      ],
      [
        0.9323495998978615,
        45.55429835803807,
        302.20000000000005
      ],
      [
        0.9323720633983612,
        45.55435937829316,
        302.4
      ],
      [
        0.9323923476040363,
        45.55439374409616,
        302.4
      ],
      [
        0.9324530325829983,
        45.554500529542565,
        302.79999999999995
      ],
      [
        0.9324825368821621,
        45.5545920599252,
        302.79999999999995
      ],
      [
        0.9324992168694735,
        45.55468367412686,
        303
      ],
      [
        0.9325394500046968,
        45.554794231429696,
        303
      ],
      [
        0.9326180722564459,
        45.554874362424016,
        303
      ],
      [
        0.9327573794871569,
        45.554874362424016,
        302.20000000000005
      ],
      [
        0.9328264463692904,
        45.554794231429696,
        302
      ],
      [
        0.9328615665435791,
        45.55471032857895,
        302
      ],
      [
        0.9328795038163662,
        45.55467219091952,
        301.79999999999995
      ],
      [
        0.9328949265182018,
        45.55458443239331,
        302
      ],
      [
        0.9328977763652802,
        45.55449290201068,
        302
      ],
      [
        0.9329025540500879,
        45.55441277101636,
        301.79999999999995
      ],
      [
        0.9329001232981682,
        45.55429458618164,
        301.4
      ],
      [
        0.932889562100172,
        45.55419157259166,
        301.6
      ],
      [
        0.9328685235232115,
        45.55407707579434,
        301.20000000000005
      ],
      [
        0.9328450541943312,
        45.553970290347934,
        300.79999999999995
      ],
      [
        0.932821249589324,
        45.5538787599653,
        300.4
      ],
      [
        0.9328134544193745,
        45.55382151156664,
        300.4
      ],
      [
        0.932833906263113,
        45.55373760871589,
        300.20000000000005
      ],
      [
        0.9329382609575987,
        45.55370324291289,
        300.79999999999995
      ],
      [
        0.93295494094491,
        45.55369947105646,
        300.79999999999995
      ],
      [
        0.9331080783158541,
        45.553695615381,
        301.4
      ],
      [
        0.9331260155886412,
        45.553695615381,
        301.4
      ],
      [
        0.9332498162984848,
        45.55368421599269,
        301.79999999999995
      ],
      [
        0.9333783946931362,
        45.55368036031723,
        302.20000000000005
      ],
      [
        0.9333969186991453,
        45.55368036031723,
        302.4
      ],
      [
        0.9334578551352024,
        45.553672732785344,
        302.4
      ],
      [
        0.9335698373615742,
        45.553653705865145,
        302.6
      ],
      [
        0.9337332844734192,
        45.5536422226578,
        302.20000000000005
      ],
      [
        0.9337934665381908,
        45.55364607833326,
        302.20000000000005
      ],
      [
        0.93390678986907,
        45.55366133339703,
        301.79999999999995
      ],
      [
        0.9339919500052929,
        45.55368036031723,
        301.6
      ],
      [
        0.9340512100607157,
        45.553710870444775,
        301.4
      ],
      [
        0.9341034293174744,
        45.553729981184006,
        301.4
      ],
      [
        0.934197474271059,
        45.55378337390721,
        301.4
      ],
      [
        0.9343014936894178,
        45.553829139098525,
        301.4
      ],
      [
        0.9343194309622049,
        45.55383676663041,
        301.20000000000005
      ],
      [
        0.9343959577381611,
        45.55385587736964,
        301.20000000000005
      ],
      [
        0.9345975425094366,
        45.553871132433414,
        301
      ],
      [
        0.9347542840987444,
        45.553871132433414,
        300.79999999999995
      ],
      [
        0.9347677789628506,
        45.55386350490153,
        300.79999999999995
      ],
      [
        0.9348708763718605,
        45.55377574637532,
        300.4
      ],
      [
        0.9348826110363007,
        45.55374523624778,
        300.4
      ],
      [
        0.9349287115037441,
        45.553615568205714,
        300
      ],
      [
        0.934973806142807,
        45.55346293374896,
        300.20000000000005
      ],
      [
        0.9350083395838737,
        45.55337903089821,
        300.4
      ],
      [
        0.9350289590656757,
        45.55330275557935,
        300.4
      ],
      [
        0.9350776579231024,
        45.553157748654485,
        300.79999999999995
      ],
      [
        0.9351276140660048,
        45.553016597405076,
        300.4
      ],
      [
        0.9351436235010624,
        45.55296706035733,
        300.4
      ],
      [
        0.9351804200559855,
        45.55288307368755,
        300.20000000000005
      ],
      [
        0.9352192282676697,
        45.552841164171696,
        299.79999999999995
      ],
      [
        0.9353317972272635,
        45.55279154330492,
        299.79999999999995
      ],
      [
        0.9353774785995483,
        45.55277251638472,
        299.20000000000005
      ],
      [
        0.9354432765394449,
        45.55275340564549,
        298.6
      ],
      [
        0.9354814141988754,
        45.552741922438145,
        298.6
      ],
      [
        0.9355586115270853,
        45.55270764045417,
        298.20000000000005
      ],
      [
        0.9355728607624769,
        45.55270001292229,
        298.20000000000005
      ],
      [
        0.9357063006609678,
        45.55265424773097,
        298.6
      ],
      [
        0.9358295146375895,
        45.552608482539654,
        299
      ],
      [
        0.9359567519277334,
        45.55255500599742,
        299.20000000000005
      ],
      [
        0.9359716717153788,
        45.55254737846553,
        299.20000000000005
      ],
      [
        0.9360542334616184,
        45.55251686833799,
        299.79999999999995
      ],
      [
        0.9360782895237207,
        45.55249784141779,
        300
      ],
      [
        0.9361148346215487,
        45.55247495882213,
        300.4
      ],
      [
        0.9361885115504265,
        45.55242156609893,
        300.79999999999995
      ],
      [
        0.9362685587257147,
        45.55236431770027,
        301
      ],
      [
        0.9362904354929924,
        45.55234143510461,
        301
      ],
      [
        0.9363082051277161,
        45.55232232436538,
        301
      ],
      [
        0.9363502822816372,
        45.552288042381406,
        301
      ],
      [
        0.9363605920225382,
        45.55227655917406,
        300.79999999999995
      ],
      [
        0.9364742506295443,
        45.552207911387086,
        300.4
      ],
      [
        0.9365760069340467,
        45.55222316645086,
        300.20000000000005
      ],
      [
        0.9366409666836262,
        45.552246049046516,
        300.20000000000005
      ],
      [
        0.9366855584084988,
        45.55226130411029,
        300.20000000000005
      ],
      [
        0.9366991370916367,
        45.55226515978575,
        300.20000000000005
      ],
      [
        0.936820674687624,
        45.55229566991329,
        300.4
      ],
      [
        0.9369724709540606,
        45.552349062636495,
        300.6
      ],
      [
        0.9371144603937864,
        45.55241393856704,
        300.79999999999995
      ],
      [
        0.9372162166982889,
        45.552486358210444,
        300.79999999999995
      ],
      [
        0.9373428672552109,
        45.55259322747588,
        301
      ],
      [
        0.9374390076845884,
        45.55267713032663,
        301
      ],
      [
        0.9375128522515297,
        45.552764888852835,
        301
      ],
      [
        0.9376020357012749,
        45.55286781862378,
        300.79999999999995
      ],
      [
        0.9376765508204699,
        45.55295180529356,
        300.79999999999995
      ],
      [
        0.9377091564238071,
        45.55298994295299,
        301
      ],
      [
        0.9378192946314812,
        45.55306236259639,
        301
      ],
      [
        0.9379282593727112,
        45.55311583913863,
        301
      ],
      [
        0.9381201211363077,
        45.553138721734285,
        301
      ],
      [
        0.9382874239236116,
        45.5531501211226,
        300.79999999999995
      ],
      [
        0.9383575804531574,
        45.553157748654485,
        301.4
      ],
      [
        0.9384244680404663,
        45.55316537618637,
        301.4
      ],
      [
        0.9385412279516459,
        45.5531844869256,
        301.4
      ],
      [
        0.9385791979730129,
        45.553195886313915,
        301.4
      ],
      [
        0.938689336180687,
        45.55324550718069,
        301
      ],
      [
        0.9388118796050549,
        45.55336754769087,
        300.79999999999995
      ],
      [
        0.9388548787683249,
        45.553413312882185,
        300.79999999999995
      ],
      [
        0.9389065951108932,
        45.55348204448819,
        300.6
      ],
      [
        0.9389424696564674,
        45.553535437211394,
        300.6
      ],
      [
        0.9389568027108908,
        45.5535888299346,
        300.6
      ],
      [
        0.9389699622988701,
        45.553710870444775,
        300.6
      ],
      [
        0.9390027355402708,
        45.55385202169418,
        300.79999999999995
      ],
      [
        0.939020924270153,
        45.553970290347934,
        300.6
      ],
      [
        0.9390423819422722,
        45.55406944826245,
        300.79999999999995
      ],
      [
        0.9390572179108858,
        45.554183945059776,
        301
      ],
      [
        0.9390714671462774,
        45.55429073050618,
        301.20000000000005
      ],
      [
        0.9390898235142231,
        45.55441277101636,
        301.20000000000005
      ],
      [
        0.9391114488244057,
        45.55455015040934,
        301.4
      ],
      [
        0.9392177313566208,
        45.55461117066443,
        301.4
      ],
      [
        0.9393008798360825,
        45.55456540547311,
        301.79999999999995
      ],
      [
        0.9393893927335739,
        45.55449290201068,
        301.79999999999995
      ],
      [
        0.9394554421305656,
        45.55439374409616,
        301.79999999999995
      ],
      [
        0.9395220782607794,
        45.554263992235065,
        301.6
      ],
      [
        0.9395658317953348,
        45.55415343493223,
        301.20000000000005
      ],
      [
        0.9396033827215433,
        45.55405804887414,
        301
      ],
      [
        0.939652668312192,
        45.55400080047548,
        300.79999999999995
      ],
      [
        0.9396621398627758,
        45.553989401087165,
        300.79999999999995
      ],
      [
        0.9397191368043423,
        45.55389401502907,
        300.6
      ],
      [
        0.9397716913372278,
        45.55378722958267,
        300.79999999999995
      ],
      [
        0.9398422669619322,
        45.553687987849116,
        301.20000000000005
      ],
      [
        0.9399415086954832,
        45.55357734672725,
        301.6
      ],
      [
        0.9400503057986498,
        45.553512554615736,
        301.20000000000005
      ],
      [
        0.9401967376470566,
        45.55348204448819,
        300.79999999999995
      ],
      [
        0.9403622802346945,
        45.553474416956306,
        300.6
      ],
      [
        0.9405049402266741,
        45.55348967202008,
        300.4
      ],
      [
        0.9406508691608906,
        45.55352780967951,
        300.6
      ],
      [
        0.9407554753124714,
        45.55355831980705,
        300.79999999999995
      ],
      [
        0.9408864844590425,
        45.553611712530255,
        301
      ],
      [
        0.9409936051815748,
        45.55364607833326,
        301.20000000000005
      ],
      [
        0.9411477483808994,
        45.55372235365212,
        301
      ],
      [
        0.9412510134279728,
        45.553768118843436,
        301.4
      ],
      [
        0.9413759037852287,
        45.55381773971021,
        301.4
      ],
      [
        0.9414764028042555,
        45.553867276757956,
        301.79999999999995
      ],
      [
        0.9415499959141016,
        45.55390164256096,
        301.79999999999995
      ],
      [
        0.9416020475327969,
        45.553928297013044,
        301.79999999999995
      ],
      [
        0.9417532570660114,
        45.553985545411706,
        302
      ],
      [
        0.9418893791735172,
        45.554027538746595,
        302.20000000000005
      ],
      [
        0.9420395828783512,
        45.55407330393791,
        302.20000000000005
      ],
      [
        0.9422076400369406,
        45.554084703326225,
        302
      ],
      [
        0.9424167685210705,
        45.5540809314698,
        302.20000000000005
      ],
      [
        0.9424318559467793,
        45.5540809314698,
        302.20000000000005
      ],
      [
        0.9426016733050346,
        45.55406944826245,
        302.20000000000005
      ],
      [
        0.9427675511687994,
        45.55407330393791,
        301.79999999999995
      ],
      [
        0.9427768550813198,
        45.554084703326225,
        301.79999999999995
      ],
      [
        0.9428576566278934,
        45.55409233085811,
        302
      ],
      [
        0.9430260490626097,
        45.554126696661115,
        302
      ],
      [
        0.9432092774659395,
        45.554145807400346,
        302
      ],
      [
        0.943375825881958,
        45.55417246185243,
        302
      ],
      [
        0.9435257781296968,
        45.5541877169162,
        301.79999999999995
      ],
      [
        0.9436757303774357,
        45.55417631752789,
        302
      ],
      [
        0.9438061527907848,
        45.55419157259166,
        302
      ],
      [
        0.943929785862565,
        45.55429073050618,
        302
      ],
      [
        0.9439652413129807,
        45.5543708615005,
        301.79999999999995
      ],
      [
        0.943973958492279,
        45.55441277101636,
        301.6
      ],
      [
        0.9439804963767529,
        45.554504385218024,
        301.6
      ],
      [
        0.9440112579613924,
        45.55463790893555,
        301.6
      ],
      [
        0.9440571069717407,
        45.5548095703125,
        301.4
      ],
      [
        0.9440772235393524,
        45.55484770797193,
        301.4
      ],
      [
        0.9441178757697344,
        45.55493161082268,
        301.4
      ],
      [
        0.944164814427495,
        45.55504602380097,
        301.6
      ],
      [
        0.9442260023206472,
        45.555171919986606,
        301.4
      ],
      [
        0.9442580211907625,
        45.555274933576584,
        301.6
      ],
      [
        0.9443046245723963,
        45.555370319634676,
        301.79999999999995
      ],
      [
        0.9443376492708921,
        45.55546185001731,
        302
      ],
      [
        0.9443537425249815,
        45.555549608543515,
        302
      ],
      [
        0.9443198796361685,
        45.55566402152181,
        302
      ],
      [
        0.9442518185824156,
        45.555763179436326,
        302
      ],
      [
        0.9441404230892658,
        45.55583568289876,
        302.4
      ],
      [
        0.9441185463219881,
        45.555847166106105,
        302.6
      ],
      [
        0.9440333023667336,
        45.55591581389308,
        302.79999999999995
      ],
      [
        0.9439989365637302,
        45.556003488600254,
        303.20000000000005
      ],
      [
        0.9440100844949484,
        45.55600734427571,
        303.20000000000005
      ],
      [
        0.9441255871206522,
        45.55600734427571,
        303.20000000000005
      ],
      [
        0.9441643115133047,
        45.556003488600254,
        303.20000000000005
      ],
      [
        0.9442471247166395,
        45.555984461680055,
        302.79999999999995
      ],
      [
        0.9443096537142992,
        45.55596920661628,
        302.79999999999995
      ],
      [
        0.9444517269730568,
        45.555946324020624,
        302.6
      ],
      [
        0.944596566259861,
        45.555908186361194,
        302.4
      ],
      [
        0.9446161799132824,
        45.55590055882931,
        302.4
      ],
      [
        0.9447481948882341,
        45.55585479363799,
        302.4
      ],
      [
        0.9448928665369749,
        45.555786062031984,
        302.4
      ],
      [
        0.9449717402458191,
        45.55572126992047,
        302.4
      ],
      [
        0.9450622648000717,
        45.55564113892615,
        302.4
      ],
      [
        0.9451610874384642,
        45.55556100793183,
        302.4
      ],
      [
        0.9452605806291103,
        45.55549998767674,
        302.6
      ],
      [
        0.9453870635479689,
        45.55542371235788,
        302.6
      ],
      [
        0.9454982075840235,
        45.55537794716656,
        302.79999999999995
      ],
      [
        0.9455974493175745,
        45.55532832629979,
        303
      ],
      [
        0.9456370957195759,
        45.55530544370413,
        303
      ],
      [
        0.9457446355372667,
        45.55522916838527,
        303
      ],
      [
        0.9457959327846766,
        45.55517954751849,
        303
      ],
      [
        0.9458153788000345,
        45.55515666492283,
        303
      ],
      [
        0.9458128642290831,
        45.555133782327175,
        303
      ],
      [
        0.9457790851593018,
        45.55508038960397,
        303.4
      ],
      [
        0.9456990379840136,
        45.554996486753225,
        303.4
      ],
      [
        0.9456147998571396,
        45.55492012761533,
        303.20000000000005
      ],
      [
        0.9454947710037231,
        45.5548285972327,
        303.20000000000005
      ],
      [
        0.9454231895506382,
        45.55476757697761,
        302.79999999999995
      ],
      [
        0.9453697130084038,
        45.554660791531205,
        302.79999999999995
      ],
      [
        0.9453760832548141,
        45.5545920599252,
        302.79999999999995
      ],
      [
        0.9453851357102394,
        45.554542522877455,
        302.79999999999995
      ],
      [
        0.9454008936882019,
        45.55442802608013,
        302.6
      ],
      [
        0.9454277157783508,
        45.5543174687773,
        302.20000000000005
      ],
      [
        0.9454466588795185,
        45.55421822704375,
        302
      ],
      [
        0.9454716369509697,
        45.55413817986846,
        302
      ],
      [
        0.9455388598144054,
        45.554027538746595,
        302
      ],
      [
        0.9456346649676561,
        45.553947407752275,
        301.79999999999995
      ],
      [
        0.945688895881176,
        45.55390164256096,
        301.79999999999995
      ],
      [
        0.9457596391439438,
        45.5538443941623,
        301.6
      ],
      [
        0.9457823541015387,
        45.553832994773984,
        301.6
      ],
      [
        0.9458362497389317,
        45.55379862897098,
        301.4
      ],
      [
        0.945968683809042,
        45.55371849797666,
        301
      ],
      [
        0.9459967631846666,
        45.55369947105646,
        301
      ],
      [
        0.9461095836013556,
        45.55360794067383,
        300.6
      ],
      [
        0.9461334720253944,
        45.5535888299346,
        300.6
      ],
      [
        0.9462199732661247,
        45.55352780967951,
        300.4
      ],
      [
        0.9463323745876551,
        45.55342856794596,
        300.4
      ],
      [
        0.9463953226804733,
        45.55334089323878,
        300.79999999999995
      ],
      [
        0.9463875275105238,
        45.55323025211692,
        301.20000000000005
      ],
      [
        0.946287615224719,
        45.553161604329944,
        301.4
      ],
      [
        0.9462234936654568,
        45.55312346667051,
        301.4
      ],
      [
        0.9461753815412521,
        45.55309295654297,
        301.20000000000005
      ],
      [
        0.9460951667279005,
        45.55303570814431,
        301.20000000000005
      ],
      [
        0.9459798317402601,
        45.55297468788922,
        301
      ],
      [
        0.9458625689148903,
        45.5528945568949,
        301.20000000000005
      ],
      [
        0.9457864612340927,
        45.55285641923547,
        301.20000000000005
      ],
      [
        0.9457171428948641,
        45.55281065404415,
        301.20000000000005
      ],
      [
        0.945703312754631,
        45.552803026512265,
        301.20000000000005
      ],
      [
        0.9455545339733362,
        45.552764888852835,
        301.4
      ],
      [
        0.9454411268234253,
        45.55276866070926,
        301.6
      ],
      [
        0.9453387837857008,
        45.55278014391661,
        301.20000000000005
      ],
      [
        0.9452024102210999,
        45.552822053432465,
        300.6
      ],
      [
        0.9451579861342907,
        45.55283353663981,
        300.4
      ],
      [
        0.9450232889503241,
        45.552898328751326,
        301
      ],
      [
        0.9448790363967419,
        45.55291743949056,
        300.79999999999995
      ],
      [
        0.9447257313877344,
        45.55293655022979,
        301
      ],
      [
        0.9445774555206299,
        45.552940322086215,
        301
      ],
      [
        0.9444402437657118,
        45.552944177761674,
        301
      ],
      [
        0.9442889504134655,
        45.552940322086215,
        301.6
      ],
      [
        0.9442529082298279,
        45.552944177761674,
        301.6
      ],
      [
        0.9442176204174757,
        45.5529479496181,
        301.6
      ],
      [
        0.9441426862031221,
        45.552940322086215,
        301.6
      ],
      [
        0.9439927339553833,
        45.552940322086215,
        301.79999999999995
      ],
      [
        0.9438233356922865,
        45.552944177761674,
        302
      ],
      [
        0.9436737187206745,
        45.55295180529356,
        302
      ],
      [
        0.9435300529003143,
        45.55295557714999,
        302
      ],
      [
        0.9434351697564125,
        45.55295180529356,
        302
      ],
      [
        0.943376999348402,
        45.5529479496181,
        302
      ],
      [
        0.9432251192629337,
        45.55293269455433,
        301.6
      ],
      [
        0.9430949483066797,
        45.55290981195867,
        301.20000000000005
      ],
      [
        0.9429850615561008,
        45.55288307368755,
        301.4
      ],
      [
        0.9428240451961756,
        45.55285256356001,
        301.20000000000005
      ],
      [
        0.9427421540021896,
        45.55283353663981,
        301.20000000000005
      ],
      [
        0.9426978137344122,
        45.55281828157604,
        301.20000000000005
      ],
      [
        0.942532941699028,
        45.55276866070926,
        301.4
      ],
      [
        0.9424170199781656,
        45.55273429490626,
        301.6
      ],
      [
        0.9423741046339273,
        45.552722895517945,
        301.6
      ],
      [
        0.9422259125858545,
        45.55268852971494,
        302
      ],
      [
        0.9420887846499681,
        45.552646620199084,
        302
      ],
      [
        0.9420090727508068,
        45.55261611007154,
        301.6
      ],
      [
        0.9419013652950525,
        45.55254737846553,
        301.20000000000005
      ],
      [
        0.9418008662760258,
        45.55247873067856,
        301.20000000000005
      ],
      [
        0.9416620619595051,
        45.55239859968424,
        301
      ],
      [
        0.9415153786540031,
        45.55232995189726,
        301.6
      ],
      [
        0.9414027258753777,
        45.552268931642175,
        301.4
      ],
      [
        0.9412702918052673,
        45.5522002838552,
        302
      ],
      [
        0.9411357622593641,
        45.55212400853634,
        301.79999999999995
      ],
      [
        0.9411205071955919,
        45.55212015286088,
        301.79999999999995
      ],
      [
        0.9409867320209742,
        45.55202862247825,
        301.6
      ],
      [
        0.9408905915915966,
        45.55196760222316,
        301.6
      ],
      [
        0.9407598339021206,
        45.55190272629261,
        301.6
      ],
      [
        0.9405763540416956,
        45.55181882344186,
        302
      ],
      [
        0.9404464345425367,
        45.55176920257509,
        302
      ],
      [
        0.9402881003916264,
        45.551696699112654,
        301.79999999999995
      ],
      [
        0.9401794709265232,
        45.55166241712868,
        301.6
      ],
      [
        0.9401234798133373,
        45.551639534533024,
        301.4
      ],
      [
        0.940008144825697,
        45.55159376934171,
        301.4
      ],
      [
        0.939870597794652,
        45.55154029279947,
        302
      ],
      [
        0.939817288890481,
        45.55152126587927,
        302.6
      ],
      [
        0.9397586993873119,
        45.551498383283615,
        303.20000000000005
      ],
      [
        0.9397269319742918,
        45.55148312821984,
        303.6
      ],
      [
        0.9396541770547628,
        45.5514526180923,
        304.4
      ],
      [
        0.9395915642380714,
        45.55142587982118,
        304.79999999999995
      ],
      [
        0.939532807096839,
        45.55140299722552,
        305.20000000000005
      ],
      [
        0.9395033027976751,
        45.55139159783721,
        305.6
      ],
      [
        0.9394271112978458,
        45.551357232034206,
        305.6
      ],
      [
        0.9392986167222261,
        45.551280956715345,
        305.4
      ],
      [
        0.9391660150140524,
        45.551238963380456,
        304.6
      ],
      [
        0.939067779108882,
        45.55119319818914,
        304
      ],
      [
        0.9390319045633078,
        45.55117794312537,
        303.6
      ],
      [
        0.938959987834096,
        45.551158832386136,
        303
      ],
      [
        0.9388376958668232,
        45.55113980546594,
        302.6
      ],
      [
        0.9387914277613163,
        45.55113594979048,
        302.4
      ],
      [
        0.9386313334107399,
        45.55112832225859,
        302.4
      ],
      [
        0.9385395515710115,
        45.55113217793405,
        302.6
      ],
      [
        0.9384849015623331,
        45.551124550402164,
        302.79999999999995
      ],
      [
        0.9384424053132534,
        45.551124550402164,
        303
      ],
      [
        0.9382922016084194,
        45.551124550402164,
        303.20000000000005
      ],
      [
        0.9381467755883932,
        45.551124550402164,
        303
      ],
      [
        0.9380053728818893,
        45.55110543966293,
        303.20000000000005
      ],
      [
        0.9378768783062696,
        45.55107115767896,
        302.79999999999995
      ],
      [
        0.937739834189415,
        45.55102916434407,
        302.6
      ],
      [
        0.9376042988151312,
        45.55097191594541,
        302.4
      ],
      [
        0.9374625608325005,
        45.55091852322221,
        302.20000000000005
      ],
      [
        0.9373422805219889,
        45.55086135864258,
        301.6
      ],
      [
        0.9372947551310062,
        45.550826992839575,
        301.6
      ],
      [
        0.9372285380959511,
        45.550750717520714,
        301.4
      ],
      [
        0.9371645841747522,
        45.55069346912205,
        301.20000000000005
      ],
      [
        0.9371035639196634,
        45.55062482133508,
        301
      ],
      [
        0.9370075911283493,
        45.55052566342056,
        301.6
      ],
      [
        0.9369572997093201,
        45.55047981441021,
        302
      ],
      [
        0.9369131270796061,
        45.55046455934644,
        302.20000000000005
      ],
      [
        0.9367856383323669,
        45.55046078749001,
        302.6
      ],
      [
        0.9366209339350462,
        45.550533290952444,
        302.79999999999995
      ],
      [
        0.9364694729447365,
        45.55056380107999,
        302.79999999999995
      ],
      [
        0.936387749388814,
        45.55055231787264,
        303
      ],
      [
        0.9362980630248785,
        45.55054091848433,
        303
      ],
      [
        0.936127407476306,
        45.55051803588867,
        303
      ],
      [
        0.9360885992646217,
        45.55058282800019,
        303
      ],
      [
        0.9360844921320677,
        45.550666730850935,
        302.79999999999995
      ],
      [
        0.9360754396766424,
        45.55077360011637,
        302.79999999999995
      ],
      [
        0.9360813908278942,
        45.55085364729166,
        302.79999999999995
      ],
      [
        0.9360778704285622,
        45.55087275803089,
        303
      ],
      [
        0.9360424149781466,
        45.55094903334975,
        303
      ],
      [
        0.9359135013073683,
        45.55102916434407,
        303.20000000000005
      ],
      [
        0.9357733558863401,
        45.55107878521085,
        303.20000000000005
      ],
      [
        0.9356190450489521,
        45.55109404027462,
        303
      ],
      [
        0.9354757983237505,
        45.551101667806506,
        302.79999999999995
      ],
      [
        0.9353520814329386,
        45.55107878521085,
        302.4
      ],
      [
        0.9352130256593227,
        45.55103679187596,
        302.20000000000005
      ],
      [
        0.9351550228893757,
        45.551006281748414,
        302.20000000000005
      ],
      [
        0.9350318927317858,
        45.55093000642955,
        302.20000000000005
      ],
      [
        0.9349220898002386,
        45.55085364729166,
        302.20000000000005
      ],
      [
        0.934808012098074,
        45.5507583450526,
        302.4
      ],
      [
        0.9346773382276297,
        45.55072020739317,
        302.6
      ],
      [
        0.9345501009374857,
        45.550765972584486,
        302.79999999999995
      ],
      [
        0.9345272183418274,
        45.5507773719728,
        302.79999999999995
      ],
      [
        0.9343615081161261,
        45.55084987543523,
        302.6
      ],
      [
        0.9342527110129595,
        45.55087275803089,
        302.6
      ],
      [
        0.9342144057154655,
        45.55087661370635,
        302.6
      ],
      [
        0.9340627770870924,
        45.55091089569032,
        302.6
      ],
      [
        0.9339005872607231,
        45.550941405817866,
        302.4
      ],
      [
        0.9337437618523836,
        45.550945261493325,
        302.4
      ],
      [
        0.9336373116821051,
        45.55089564062655,
        302.4
      ],
      [
        0.933558689430356,
        45.5508117377758,
        302.20000000000005
      ],
      [
        0.9335291851311922,
        45.550708724185824,
        301.79999999999995
      ],
      [
        0.9334971662610769,
        45.550590455532074,
        301.6
      ],
      [
        0.9334489703178406,
        45.550487441942096,
        301.79999999999995
      ],
      [
        0.9333822503685951,
        45.55040353909135,
        302.6
      ],
      [
        0.9332502353936434,
        45.55040353909135,
        302.79999999999995
      ],
      [
        0.9331367444247007,
        45.55046455934644,
        302.79999999999995
      ],
      [
        0.9330490697175264,
        45.55054091848433,
        303
      ],
      [
        0.9329504147171974,
        45.55061719380319,
        303
      ],
      [
        0.9328555315732956,
        45.5507239792496,
        303.6
      ],
      [
        0.9328257758170366,
        45.550750717520714,
        303.6
      ],
      [
        0.9327774960547686,
        45.5507773719728,
        303.6
      ],
      [
        0.9326927550137043,
        45.550826992839575,
        304
      ],
      [
        0.9325833711773157,
        45.55092237889767,
        303.79999999999995
      ],
      [
        0.9324777591973543,
        45.55099102668464,
        303.4
      ],
      [
        0.93241011723876,
        45.5510482750833,
        303
      ],
      [
        0.9323539584875107,
        45.55109404027462,
        302.6
      ],
      [
        0.9323096182197332,
        45.55113217793405,
        302.6
      ],
      [
        0.9322103764861822,
        45.5512160807848,
        302.79999999999995
      ],
      [
        0.9321177564561367,
        45.551299983635545,
        303.6
      ],
      [
        0.9321045130491257,
        45.55130761116743,
        303.6
      ],
      [
        0.9320333506911993,
        45.55136485956609,
        304.20000000000005
      ],
      [
        0.9319499507546425,
        45.55144499056041,
        304.4
      ],
      [
        0.9319122321903706,
        45.55146787315607,
        304.79999999999995
      ],
      [
        0.9318517986685038,
        45.551517410203815,
        304.79999999999995
      ],
      [
        0.9317609388381243,
        45.55161279626191,
        304.6
      ],
      [
        0.9316660556942225,
        45.551696699112654,
        304.20000000000005
      ],
      [
        0.931546613574028,
        45.55177305825055,
        303.79999999999995
      ],
      [
        0.9314736071974039,
        45.551792085170746,
        303.6
      ],
      [
        0.9314151853322983,
        45.551792085170746,
        303.6
      ],
      [
        0.9312954917550087,
        45.55176920257509,
        303.20000000000005
      ],
      [
        0.9311861917376518,
        45.551719665527344,
        302.6
      ],
      [
        0.9311141911894083,
        45.55169292725623,
        302.4
      ],
      [
        0.9309627301990986,
        45.55166618898511,
        302.20000000000005
      ],
      [
        0.9308370854705572,
        45.55163190700114,
        302
      ],
      [
        0.9306857921183109,
        45.55158991366625,
        301.79999999999995
      ],
      [
        0.9305674396455288,
        45.55156325921416,
        302
      ],
      [
        0.9304463211447,
        45.55154800415039,
        302
      ],
      [
        0.9303173236548901,
        45.5515250377357,
        302
      ],
      [
        0.9301900863647461,
        45.5515060108155,
        302
      ],
      [
        0.9301481768488884,
        45.551494527608156,
        302
      ],
      [
        0.9299923572689295,
        45.55146787315607,
        302
      ],
      [
        0.9298071172088385,
        45.55144113488495,
        302
      ],
      [
        0.9296463523060083,
        45.55143350735307,
        302
      ],
      [
        0.9294958133250475,
        45.551437363028526,
        302
      ],
      [
        0.9293337911367416,
        45.55144876241684,
        302.20000000000005
      ],
      [
        0.9291766304522753,
        45.55144876241684,
        302.6
      ],
      [
        0.929044783115387,
        45.55144499056041,
        302.79999999999995
      ],
      [
        0.9290251694619656,
        45.55144113488495,
        302.79999999999995
      ],
      [
        0.9288588725030422,
        45.55140685290098,
        302.79999999999995
      ],
      [
        0.9287006221711636,
        45.551357232034206,
        302.6
      ],
      [
        0.9285247698426247,
        45.551280956715345,
        302.6
      ],
      [
        0.9283646754920483,
        45.551204681396484,
        303
      ],
      [
        0.9282522741705179,
        45.551162688061595,
        303.4
      ],
      [
        0.9281925950199366,
        45.551143577322364,
        303.6
      ],
      [
        0.9281350113451481,
        45.551120694726706,
        304
      ],
      [
        0.9280442353338003,
        45.55107878521085,
        304.6
      ],
      [
        0.9279978834092617,
        45.55105590261519,
        304.6
      ],
      [
        0.9278784412890673,
        45.5509795434773,
        304.20000000000005
      ],
      [
        0.9277869947254658,
        45.550926150754094,
        304
      ],
      [
        0.9276704024523497,
        45.55085750296712,
        303.4
      ],
      [
        0.927569568157196,
        45.550746861845255,
        303.4
      ],
      [
        0.9275466855615377,
        45.55072020739317,
        303.4
      ],
      [
        0.9274860005825758,
        45.55065533146262,
        303.4
      ],
      [
        0.9273875970393419,
        45.55054091848433,
        303.20000000000005
      ],
      [
        0.9273428376764059,
        45.550430277362466,
        302.79999999999995
      ],
      [
        0.9273355454206467,
        45.55039591155946,
        302.6
      ],
      [
        0.9273228049278259,
        45.55030815303326,
        302.79999999999995
      ],
      [
        0.9273114055395126,
        45.550197595730424,
        302.6
      ],
      [
        0.927297743037343,
        45.55010598152876,
        302.6
      ],
      [
        0.9272889420390129,
        45.55000305175781,
        302.4
      ],
      [
        0.9272756986320019,
        45.54991143755615,
        302
      ],
      [
        0.9272953122854233,
        45.549819907173514,
        302.20000000000005
      ],
      [
        0.9273139201104641,
        45.54975125938654,
        302.4
      ],
      [
        0.9273254033178091,
        45.549716893583536,
        302.4
      ],
      [
        0.9273334499448538,
        45.54961387999356,
        302.79999999999995
      ],
      [
        0.9272311069071293,
        45.549564342945814,
        302.79999999999995
      ],
      [
        0.9270475432276726,
        45.549560487270355,
        302.79999999999995
      ],
      [
        0.9268909692764282,
        45.54957574233413,
        303
      ],
      [
        0.9267186373472214,
        45.549598624929786,
        303
      ],
      [
        0.9265708643943071,
        45.54958336986601,
        303.20000000000005
      ],
      [
        0.9264578763395548,
        45.54949569515884,
        303.4
      ],
      [
        0.9263408649712801,
        45.54937357082963,
        303.4
      ],
      [
        0.9262207522988319,
        45.54925153031945,
        303
      ],
      [
        0.9260949399322271,
        45.54923241958022,
        302.79999999999995
      ],
      [
        0.9260006435215473,
        45.54929729551077,
        302.79999999999995
      ],
      [
        0.9258981328457594,
        45.54939268156886,
        303
      ],
      [
        0.9258007351309061,
        45.54946895688772,
        303
      ],
      [
        0.9256826341152191,
        45.54953383281827,
        303
      ],
      [
        0.9255828894674778,
        45.54961773566902,
        303.20000000000005
      ],
      [
        0.9254953823983669,
        45.54972452111542,
        303.4
      ],
      [
        0.925468560308218,
        45.5497741419822,
        303.6
      ],
      [
        0.9254272375255823,
        45.549839017912745,
        303.6
      ],
      [
        0.9254233818501234,
        45.54985427297652,
        303.6
      ],
      [
        0.9253329411149025,
        45.54994957521558,
        302.79999999999995
      ],
      [
        0.9252181090414524,
        45.54996868595481,
        302.79999999999995
      ],
      [
        0.9251153469085693,
        45.54994580335915,
        303.79999999999995
      ],
      [
        0.9250014368444681,
        45.54988478310406,
        304
      ],
      [
        0.9248792286962271,
        45.549797024577856,
        304
      ],
      [
        0.9247591998428106,
        45.54972452111542,
        303.79999999999995
      ],
      [
        0.9246421884745359,
        45.549659729003906,
        303.4
      ],
      [
        0.9245060663670301,
        45.549598624929786,
        302.79999999999995
      ],
      [
        0.9243935812264681,
        45.549560487270355,
        302.79999999999995
      ],
      [
        0.9242757316678762,
        45.54951095022261,
        302.79999999999995
      ],
      [
        0.9242572076618671,
        45.549499467015266,
        302.79999999999995
      ],
      [
        0.9241106919944286,
        45.54941933602095,
        302.79999999999995
      ],
      [
        0.9240054991096258,
        45.549381198361516,
        302.79999999999995
      ],
      [
        0.9238825365900993,
        45.549324033781886,
        303
      ],
      [
        0.9237694647163153,
        45.549266785383224,
        303.20000000000005
      ],
      [
        0.9236613381654024,
        45.54921339266002,
        304
      ],
      [
        0.9235276468098164,
        45.54915999993682,
        304.6
      ],
      [
        0.9235029201954603,
        45.549148516729474,
        304.6
      ],
      [
        0.9234471805393696,
        45.549125634133816,
        304.79999999999995
      ],
      [
        0.9233937878161669,
        45.549106523394585,
        304.79999999999995
      ],
      [
        0.9232666343450546,
        45.54904173128307,
        304.4
      ],
      [
        0.9231476113200188,
        45.54898448288441,
        303.6
      ],
      [
        0.9231342002749443,
        45.54897685535252,
        303.6
      ],
      [
        0.9230446815490723,
        45.54894634522498,
        303
      ],
      [
        0.9229761175811291,
        45.54891960695386,
        302.4
      ],
      [
        0.9229043684899807,
        45.548870069906116,
        302
      ],
      [
        0.9227928891777992,
        45.548789938911796,
        301.79999999999995
      ],
      [
        0.922776460647583,
        45.54877845570445,
        302
      ],
      [
        0.922687528654933,
        45.54871743544936,
        302.20000000000005
      ],
      [
        0.9226488880813122,
        45.54868692532182,
        302.4
      ],
      [
        0.9225541725754738,
        45.548633532598615,
        302.6
      ],
      [
        0.9225346427410841,
        45.54862204939127,
        302.79999999999995
      ],
      [
        0.9224093332886696,
        45.54856102913618,
        302.79999999999995
      ],
      [
        0.9223115164786577,
        45.548492381349206,
        302.79999999999995
      ],
      [
        0.9222100954502821,
        45.548435132950544,
        302.6
      ],
      [
        0.9221875481307507,
        45.548355085775256,
        302.6
      ],
      [
        0.9221877995878458,
        45.54824821650982,
        302.6
      ],
      [
        0.9221929125487804,
        45.5481490585953,
        302.4
      ],
      [
        0.9221547748893499,
        45.54802701808512,
        302.20000000000005
      ],
      [
        0.9220204129815102,
        45.547939259558916,
        302.20000000000005
      ],
      [
        0.9218847099691629,
        45.547943115234375,
        302.6
      ],
      [
        0.9218508470803499,
        45.54795451462269,
        302.79999999999995
      ],
      [
        0.9217650163918734,
        45.548004135489464,
        303.4
      ],
      [
        0.9217530302703381,
        45.54801176302135,
        303.6
      ],
      [
        0.9216636791825294,
        45.548042273148894,
        304.4
      ],
      [
        0.9216381143778563,
        45.54804990068078,
        304.6
      ],
      [
        0.9215285629034042,
        45.54806515574455,
        305.4
      ],
      [
        0.9214805345982313,
        45.548061300069094,
        305.6
      ],
      [
        0.9213938657194376,
        45.54805367253721,
        305.6
      ],
      [
        0.9213742520660162,
        45.54805367253721,
        305.6
      ],
      [
        0.9213527943938971,
        45.54805752821267,
        305.4
      ],
      [
        0.9212158340960741,
        45.548042273148894,
        305.20000000000005
      ],
      [
        0.9210814721882343,
        45.54802316240966,
        305
      ],
      [
        0.9210062026977539,
        45.54801176302135,
        304.6
      ],
      [
        0.9209405723959208,
        45.54802316240966,
        304.4
      ],
      [
        0.9208414983004332,
        45.548080410808325,
        303.4
      ],
      [
        0.9207042865455151,
        45.54817579686642,
        304.20000000000005
      ],
      [
        0.9205980878323317,
        45.54825207218528,
        303.79999999999995
      ],
      [
        0.9205770492553711,
        45.54827109910548,
        303.79999999999995
      ],
      [
        0.9205019474029541,
        45.54835885763168,
        304.4
      ],
      [
        0.9203737881034613,
        45.54848860949278,
        304.20000000000005
      ],
      [
        0.9203287772834301,
        45.54852674715221,
        304.4
      ],
      [
        0.9202501550316811,
        45.54860302247107,
        304.20000000000005
      ],
      [
        0.9201127756386995,
        45.548713663592935,
        304.20000000000005
      ],
      [
        0.9200335666537285,
        45.54879371076822,
        304.20000000000005
      ],
      [
        0.9199262782931328,
        45.548908207565546,
        304.20000000000005
      ],
      [
        0.9198127873241901,
        45.549011221155524,
        304.20000000000005
      ],
      [
        0.9197063371539116,
        45.549106523394585,
        304.20000000000005
      ],
      [
        0.9196264576166868,
        45.54919428192079,
        303.4
      ],
      [
        0.9196039941161871,
        45.54921716451645,
        303.20000000000005
      ],
      [
        0.9194677881896496,
        45.54933928884566,
        302.79999999999995
      ],
      [
        0.9193151537328959,
        45.54948806762695,
        303.79999999999995
      ],
      [
        0.9191700629889965,
        45.5496253632009,
        303.4
      ],
      [
        0.919035617262125,
        45.54976651445031,
        303
      ],
      [
        0.9189687296748161,
        45.54986952804029,
        302.79999999999995
      ],
      [
        0.9189212042838335,
        45.54990381002426,
        302.4
      ],
      [
        0.9188438393175602,
        45.549976313486695,
        302
      ],
      [
        0.918721966445446,
        45.5500640720129,
        302.79999999999995
      ],
      [
        0.918592382222414,
        45.55018996819854,
        303
      ],
      [
        0.9184892009943724,
        45.55027764290571,
        302.79999999999995
      ],
      [
        0.9183860197663307,
        45.55035777390003,
        302.6
      ],
      [
        0.9183679148554802,
        45.550354002043605,
        302.79999999999995
      ],
      [
        0.9183519892394543,
        45.55032340809703,
        302.6
      ],
      [
        0.9183462895452976,
        45.550312008708715,
        302.6
      ],
      [
        0.9183043800294399,
        45.550231877714396,
        301.4
      ],
      [
        0.9182493109256029,
        45.550132719799876,
        300.4
      ],
      [
        0.9182447008788586,
        45.55012123659253,
        300.4
      ],
      [
        0.9182089939713478,
        45.55006021633744,
        299.79999999999995
      ],
      [
        0.9181592892855406,
        45.54998008534312,
        299.20000000000005
      ],
      [
        0.9181017894297838,
        45.5498809274286,
        298.4
      ],
      [
        0.9180836006999016,
        45.54984664544463,
        298.20000000000005
      ],
      [
        0.9180260170251131,
        45.54978939704597,
        297.79999999999995
      ],
      [
        0.9179610572755337,
        45.54968638345599,
        297.20000000000005
      ],
      [
        0.9179552737623453,
        45.54966735653579,
        297
      ],
      [
        0.9179645776748657,
        45.54959485307336,
        296.4
      ],
      [
        0.9179746359586716,
        45.54955671541393,
        296
      ],
      [
        0.9179860353469849,
        45.54951472207904,
        295.6
      ],
      [
        0.9179864544421434,
        45.54941933602095,
        295.20000000000005
      ],
      [
        0.9179903101176023,
        45.54939645342529,
        295
      ],
      [
        0.9179665893316269,
        45.5493697989732,
        294.6
      ],
      [
        0.917949490249157,
        45.54935831576586,
        294.4
      ],
      [
        0.9178488235920668,
        45.54929729551077,
        294.20000000000005
      ],
      [
        0.9177614841610193,
        45.54924004711211,
        294.6
      ],
      [
        0.9177007991820574,
        45.549224792048335,
        294.4
      ],
      [
        0.9176717139780521,
        45.549224792048335,
        294.20000000000005
      ]
    ]
  }
}
