{
  "type": "Feature",
  "properties": {
    "id": "24182065990",
    "activity": "hiking",
    "name": "Saint-Saud-Lacoussière Hiking",
    "date": "2026-08-31T09:41:57Z",
    "distanceKm": 4.38,
    "movingTimeSeconds": 2981,
    "elapsedTimeSeconds": 3106,
    "ascentM": 25,
    "descentM": 21,
    "providers": [
      "Garmin"
    ]
  },
  "geometry": {
    "type": "LineString",
    "coordinates": [
      [
        0.8237477950751781,
        45.55945968255401,
        322.4
      ],
      [
        0.8237822446972132,
        45.55948633700609,
        322.4
      ],
      [
        0.8237849269062281,
        45.55949396453798,
        322.4
      ],
      [
        0.8237967453896999,
        45.55949019268155,
        322.4
      ],
      [
        0.8237925544381142,
        45.55953210219741,
        322.4
      ],
      [
        0.8237157762050629,
        45.55956261232495,
        322.6
      ],
      [
        0.8236335497349501,
        45.559581723064184,
        322.4
      ],
      [
        0.8236390817910433,
        45.5596274882555,
        322.79999999999995
      ],
      [
        0.8236262574791908,
        45.55966562591493,
        323.20000000000005
      ],
      [
        0.8236286044120789,
        45.559638971462846,
        323.20000000000005
      ],
      [
        0.8235895447432995,
        45.559596978127956,
        323
      ],
      [
        0.823456272482872,
        45.559581723064184,
        323.20000000000005
      ],
      [
        0.8233773149549961,
        45.55961608886719,
        323
      ],
      [
        0.8233644906431437,
        45.559619860723615,
        323.20000000000005
      ],
      [
        0.8233488164842129,
        45.55958935059607,
        323.4
      ],
      [
        0.8232074975967407,
        45.55954735726118,
        322.6
      ],
      [
        0.8230168092995882,
        45.55951684713364,
        322
      ],
      [
        0.8229637518525124,
        45.55951684713364,
        321.4
      ],
      [
        0.8229534421116114,
        45.55951684713364,
        321.20000000000005
      ],
      [
        0.8228918351233006,
        45.55951307527721,
        321.4
      ],
      [
        0.8229192439466715,
        45.55943294428289,
        321.4
      ],
      [
        0.8229260332882404,
        45.55939480662346,
        321.4
      ],
      [
        0.8228994626551867,
        45.559322303161025,
        322
      ],
      [
        0.8228608220815659,
        45.55927653796971,
        322.4
      ],
      [
        0.8228211756795645,
        45.55922691710293,
        322.6
      ],
      [
        0.8227576408535242,
        45.55915826931596,
        322.79999999999995
      ],
      [
        0.8227351773530245,
        45.5591353867203,
        322.79999999999995
      ],
      [
        0.8226623386144638,
        45.559028601273894,
        323.20000000000005
      ],
      [
        0.822619004175067,
        45.55895609781146,
        322.79999999999995
      ],
      [
        0.8225926011800766,
        45.55891410447657,
        322.79999999999995
      ],
      [
        0.8225418906658888,
        45.558788292109966,
        322.6
      ],
      [
        0.8225290663540363,
        45.558670023456216,
        322.20000000000005
      ],
      [
        0.8225195948034525,
        45.55862040258944,
        322.20000000000005
      ],
      [
        0.8224921859800816,
        45.55848687887192,
        322.4
      ],
      [
        0.8224684651941061,
        45.55836098268628,
        322.4
      ],
      [
        0.8224325068295002,
        45.558254197239876,
        322
      ],
      [
        0.8224062714725733,
        45.558196948841214,
        322.6
      ],
      [
        0.8223987277597189,
        45.558174066245556,
        322.79999999999995
      ],
      [
        0.8223534654825926,
        45.55809016339481,
        323.20000000000005
      ],
      [
        0.8223223686218262,
        45.55804054252803,
        323.4
      ],
      [
        0.8223006594926119,
        45.558017659932375,
        323.4
      ],
      [
        0.8222196064889431,
        45.557956639677286,
        323.4
      ],
      [
        0.8222061116248369,
        45.55794524028897,
        323.4
      ],
      [
        0.822150707244873,
        45.55790710262954,
        323.20000000000005
      ],
      [
        0.8220767788589001,
        45.55784985423088,
        323.20000000000005
      ],
      [
        0.8220190275460482,
        45.55777735076845,
        322.4
      ],
      [
        0.8219968993216753,
        45.55771633051336,
        322.6
      ],
      [
        0.822004359215498,
        45.5576400551945,
        322.79999999999995
      ],
      [
        0.8220143336802721,
        45.557605689391494,
        323
      ],
      [
        0.8220160938799381,
        45.55759429000318,
        323.4
      ],
      [
        0.8220153395086527,
        45.557582806795835,
        323.4
      ],
      [
        0.8220025151968002,
        45.5574912764132,
        323.4
      ],
      [
        0.8219693228602409,
        45.55734249763191,
        322.79999999999995
      ],
      [
        0.8219445962458849,
        45.55728147737682,
        322.4
      ],
      [
        0.8219398185610771,
        45.55722422897816,
        322.20000000000005
      ],
      [
        0.8219398185610771,
        45.55709833279252,
        321.4
      ],
      [
        0.8219398185610771,
        45.55708307772875,
        321.20000000000005
      ],
      [
        0.8218632079660892,
        45.55700680240989,
        320.6
      ],
      [
        0.821799086406827,
        45.556987691670656,
        320.4
      ],
      [
        0.821724571287632,
        45.55696866475046,
        320.4
      ],
      [
        0.8216291014105082,
        45.556972436606884,
        320
      ],
      [
        0.821544025093317,
        45.55698006413877,
        320.20000000000005
      ],
      [
        0.8213664125651121,
        45.5570182017982,
        320.4
      ],
      [
        0.8212442882359028,
        45.557029685005546,
        321.20000000000005
      ],
      [
        0.8211995288729668,
        45.55704116821289,
        321.4
      ],
      [
        0.8211621455848217,
        45.55707545019686,
        321.6
      ],
      [
        0.8211621455848217,
        45.55706405080855,
        321.4
      ],
      [
        0.8211456332355738,
        45.557071678340435,
        321.4
      ],
      [
        0.8211361616849899,
        45.55707930587232,
        321.4
      ],
      [
        0.8211209066212177,
        45.55707930587232,
        321.4
      ],
      [
        0.8210979402065277,
        45.55708307772875,
        321.20000000000005
      ],
      [
        0.8210251852869987,
        45.55711358785629,
        321.4
      ],
      [
        0.8209245186299086,
        45.557208973914385,
        321
      ],
      [
        0.820839274674654,
        45.55728147737682,
        320.79999999999995
      ],
      [
        0.8207375183701515,
        45.55737677961588,
        320.79999999999995
      ],
      [
        0.8206490054726601,
        45.55743788369,
        320.79999999999995
      ],
      [
        0.8205833751708269,
        45.5574912764132,
        321.20000000000005
      ],
      [
        0.8205310720950365,
        45.557540813460946,
        321.20000000000005
      ],
      [
        0.8204629272222519,
        45.557605689391494,
        321.20000000000005
      ],
      [
        0.8203485980629921,
        45.55765145458281,
        321.4
      ],
      [
        0.8202648628503084,
        45.55767056532204,
        321.6
      ],
      [
        0.8201616816222668,
        45.55775832384825,
        322
      ],
      [
        0.820121867582202,
        45.55779260583222,
        322
      ],
      [
        0.8200766891241074,
        45.557838371023536,
        321.79999999999995
      ],
      [
        0.8200387191027403,
        45.55790324695408,
        321.20000000000005
      ],
      [
        0.8199512958526611,
        45.55796812288463,
        321.79999999999995
      ],
      [
        0.8199374657124281,
        45.557979522272944,
        321.79999999999995
      ],
      [
        0.8198265731334686,
        45.558101646602154,
        322
      ],
      [
        0.8197275828570127,
        45.55824656970799,
        321.79999999999995
      ],
      [
        0.8196114934980869,
        45.55834572762251,
        321.79999999999995
      ],
      [
        0.8194711804389954,
        45.55848310701549,
        322
      ],
      [
        0.8193530794233084,
        45.55858612060547,
        321.79999999999995
      ],
      [
        0.8192204777151346,
        45.558708161115646,
        322
      ],
      [
        0.8191257622092962,
        45.55879591964185,
        322
      ],
      [
        0.8190069068223238,
        45.55889507755637,
        322
      ],
      [
        0.819031298160553,
        45.55897520855069,
        321.79999999999995
      ],
      [
        0.8191327191889286,
        45.55904385633767,
        321.20000000000005
      ],
      [
        0.8191515784710646,
        45.55905148386955,
        321.20000000000005
      ],
      [
        0.8193159475922585,
        45.559062883257866,
        321.20000000000005
      ],
      [
        0.8194959070533514,
        45.55908962152898,
        321.20000000000005
      ],
      [
        0.8196729328483343,
        45.5591163598001,
        321.20000000000005
      ],
      [
        0.8197894413024187,
        45.55908962152898,
        321.20000000000005
      ],
      [
        0.8199390582740307,
        45.55907436646521,
        321.20000000000005
      ],
      [
        0.8200590033084154,
        45.55913161486387,
        321.20000000000005
      ],
      [
        0.8202095422893763,
        45.55922691710293,
        321
      ],
      [
        0.8202764298766851,
        45.55934904143214,
        321
      ],
      [
        0.8203393779695034,
        45.559463454410434,
        320.6
      ],
      [
        0.8203428145498037,
        45.559577867388725,
        320.4
      ],
      [
        0.820340383797884,
        45.55958549492061,
        320.4
      ],
      [
        0.8203413896262646,
        45.55960460565984,
        320.20000000000005
      ],
      [
        0.8203430660068989,
        45.55971524678171,
        320.4
      ],
      [
        0.8203446585685015,
        45.55976101197302,
        320.20000000000005
      ],
      [
        0.8203412219882011,
        45.55982965976,
        320.20000000000005
      ],
      [
        0.8203461673110723,
        45.55997843854129,
        320
      ],
      [
        0.8203362766653299,
        45.56013107299805,
        320
      ],
      [
        0.8203317504376173,
        45.56016921065748,
        320
      ],
      [
        0.8203323371708393,
        45.56026074104011,
        319.79999999999995
      ],
      [
        0.8203550521284342,
        45.56040189228952,
        320
      ],
      [
        0.8203741628676653,
        45.56055444292724,
        319.79999999999995
      ],
      [
        0.8203339297324419,
        45.560687966644764,
        319.6
      ],
      [
        0.8203052636235952,
        45.56077572517097,
        319.4
      ],
      [
        0.8202877454459667,
        45.56081771850586,
        319.4
      ],
      [
        0.8202035911381245,
        45.56093975901604,
        319.4
      ],
      [
        0.8200661279261112,
        45.561080910265446,
        319.4
      ],
      [
        0.8199231326580048,
        45.561138074845076,
        319.6
      ],
      [
        0.8198646269738674,
        45.56114955805242,
        319.79999999999995
      ],
      [
        0.8196987491101027,
        45.56119532324374,
        320
      ],
      [
        0.8196078892797232,
        45.56124871596694,
        319.79999999999995
      ],
      [
        0.8194861840456724,
        45.56129070930183,
        320.20000000000005
      ],
      [
        0.8194001857191324,
        45.56130973622203,
        320.4
      ],
      [
        0.8193530794233084,
        45.56129448115826,
        320.6
      ],
      [
        0.8192386664450169,
        45.56131359189749,
        321
      ],
      [
        0.8191593736410141,
        45.56138223968446,
        320.79999999999995
      ],
      [
        0.8191297017037868,
        45.561458515003324,
        320.79999999999995
      ],
      [
        0.8192163705825806,
        45.56152724660933,
        320.79999999999995
      ],
      [
        0.8193723578006029,
        45.561553901061416,
        321
      ],
      [
        0.819496912881732,
        45.561576783657074,
        321.20000000000005
      ],
      [
        0.8196308556944132,
        45.561653058975935,
        320.79999999999995
      ],
      [
        0.8196345437318087,
        45.56166831403971,
        321
      ],
      [
        0.8196673169732094,
        45.561714163050056,
        321.20000000000005
      ],
      [
        0.8196778781712055,
        45.561752300709486,
        321
      ],
      [
        0.8197098970413208,
        45.56184383109212,
        321
      ],
      [
        0.8197569195181131,
        45.5619658716023,
        321.20000000000005
      ],
      [
        0.8197977393865585,
        45.56206125766039,
        321.20000000000005
      ],
      [
        0.8198088873177767,
        45.56216427125037,
        321.20000000000005
      ],
      [
        0.8198561612516642,
        45.56226342916489,
        321.20000000000005
      ],
      [
        0.8198720030486584,
        45.56229779496789,
        321.4
      ],
      [
        0.8198802173137665,
        45.5623091943562,
        321.4
      ],
      [
        0.8199029322713614,
        45.562347332015634,
        321.20000000000005
      ],
      [
        0.8199113979935646,
        45.56235881522298,
        321.20000000000005
      ],
      [
        0.8199471049010754,
        45.56241606362164,
        321.4
      ],
      [
        0.81999521702528,
        45.56247708387673,
        321.4
      ],
      [
        0.8200885076075792,
        45.56256861425936,
        321
      ],
      [
        0.8201171737164259,
        45.56261437945068,
        321.4
      ],
      [
        0.8201272320002317,
        45.56262963451445,
        321.4
      ],
      [
        0.8201558981090784,
        45.56264874525368,
        321.20000000000005
      ],
      [
        0.8201972208917141,
        45.56269065476954,
        321.4
      ],
      [
        0.8202954567968845,
        45.5627479031682,
        321.4
      ],
      [
        0.820343904197216,
        45.56279366835952,
        321.20000000000005
      ],
      [
        0.8204181678593159,
        45.56286617182195,
        321.20000000000005
      ],
      [
        0.8204563055187464,
        45.562938675284386,
        321.20000000000005
      ],
      [
        0.82051120698452,
        45.563018722459674,
        321.4
      ],
      [
        0.8205682039260864,
        45.56309122592211,
        321.20000000000005
      ],
      [
        0.8206713851541281,
        45.56319038383663,
        321.6
      ],
      [
        0.8207631669938564,
        45.563274370506406,
        322
      ],
      [
        0.8208279591053724,
        45.563312508165836,
        322
      ],
      [
        0.820904653519392,
        45.56334301829338,
        322
      ],
      [
        0.8211142849177122,
        45.5633887834847,
        321.79999999999995
      ],
      [
        0.8212513290345669,
        45.563415521755815,
        321.79999999999995
      ],
      [
        0.8213109243661165,
        45.563434548676014,
        321.79999999999995
      ],
      [
        0.8214416820555925,
        45.5634955689311,
        321.6
      ],
      [
        0.8216364774852991,
        45.56356807239354,
        321.6
      ],
      [
        0.8217912912368774,
        45.56360621005297,
        321.4
      ],
      [
        0.8219457697123289,
        45.56365960277617,
        321.4
      ],
      [
        0.8220642060041428,
        45.56376647204161,
        321.20000000000005
      ],
      [
        0.8221440855413675,
        45.56387325748801,
        320.79999999999995
      ],
      [
        0.8223008271306753,
        45.5639152508229,
        321.20000000000005
      ],
      [
        0.82242077216506,
        45.5638999119401,
        321
      ],
      [
        0.822507357224822,
        45.56384274736047,
        321
      ],
      [
        0.8225071895867586,
        45.56383511982858,
        321
      ],
      [
        0.8225152362138033,
        45.56380075402558,
        321.20000000000005
      ],
      [
        0.8225581515580416,
        45.56372447870672,
        321.20000000000005
      ],
      [
        0.8226227760314941,
        45.563629092648625,
        321.20000000000005
      ],
      [
        0.8227495942264795,
        45.56356044486165,
        321.4
      ],
      [
        0.8228252828121185,
        45.5634955689311,
        321.20000000000005
      ],
      [
        0.8228288870304823,
        45.56348031386733,
        321
      ],
      [
        0.822813967242837,
        45.56345743127167,
        321
      ],
      [
        0.8227729797363281,
        45.56343840435147,
        320.79999999999995
      ],
      [
        0.8226188365370035,
        45.56340403854847,
        321
      ],
      [
        0.8225536253303289,
        45.56332013569772,
        320.79999999999995
      ],
      [
        0.8224836364388466,
        45.56325148791075,
        320.79999999999995
      ],
      [
        0.8223983086645603,
        45.56312936358154,
        321
      ],
      [
        0.8223547227680683,
        45.56304931640625,
        321.20000000000005
      ],
      [
        0.8222709875553846,
        45.562938675284386,
        320.79999999999995
      ],
      [
        0.8222039323300123,
        45.562839433550835,
        320.4
      ],
      [
        0.8221966400742531,
        45.56283180601895,
        320.4
      ],
      [
        0.8221750147640705,
        45.562782268971205,
        320.6
      ],
      [
        0.8221525512635708,
        45.562721248716116,
        321.6
      ],
      [
        0.8220976497977972,
        45.562694510445,
        322.20000000000005
      ],
      [
        0.8219816442579031,
        45.56267925538123,
        322.20000000000005
      ],
      [
        0.8219714183360338,
        45.56267925538123,
        322.20000000000005
      ],
      [
        0.8219337835907936,
        45.562683027237654,
        322.20000000000005
      ],
      [
        0.8218772895634174,
        45.56267925538123,
        322
      ],
      [
        0.8218114078044891,
        45.56267162784934,
        322
      ],
      [
        0.8216596115380526,
        45.562683027237654,
        321.79999999999995
      ],
      [
        0.8214965835213661,
        45.56267539970577,
        322.20000000000005
      ],
      [
        0.821328442543745,
        45.56267539970577,
        322.4
      ],
      [
        0.8212571125477552,
        45.56264874525368,
        322.6
      ],
      [
        0.8211908116936684,
        45.56261437945068,
        322.4
      ],
      [
        0.8210988622158766,
        45.56251899339259,
        322.79999999999995
      ],
      [
        0.8210127800703049,
        45.56243131868541,
        322.20000000000005
      ],
      [
        0.8210305497050285,
        45.562328305095434,
        323.4
      ],
      [
        0.8210422843694687,
        45.56230156682432,
        323.79999999999995
      ],
      [
        0.8211136981844902,
        45.56223291903734,
        323.79999999999995
      ],
      [
        0.821143789216876,
        45.56213753297925,
        323.20000000000005
      ],
      [
        0.8211991097778082,
        45.56204600259662,
        322.79999999999995
      ],
      [
        0.8212597947567701,
        45.56197735480964,
        322.6
      ],
      [
        0.821283096447587,
        45.56195824407041,
        322.4
      ],
      [
        0.8213908039033413,
        45.561893451958895,
        322.4
      ],
      [
        0.8214506506919861,
        45.561851458624005,
        322.20000000000005
      ],
      [
        0.8215056359767914,
        45.56183620356023,
        322.20000000000005
      ],
      [
        0.8216319512575865,
        45.56176755577326,
        322.20000000000005
      ],
      [
        0.8217427600175142,
        45.5616912804544,
        322.20000000000005
      ],
      [
        0.8218661416321993,
        45.56160729378462,
        321.79999999999995
      ],
      [
        0.8219150081276894,
        45.56156538426876,
        321.6
      ],
      [
        0.8219373039901257,
        45.56155012920499,
        321.4
      ],
      [
        0.8220538962632418,
        45.56150436401367,
        321.20000000000005
      ],
      [
        0.8222061954438686,
        45.56148139759898,
        320.79999999999995
      ],
      [
        0.8222831413149834,
        45.56148902513087,
        320.4
      ],
      [
        0.8224089536815882,
        45.56146237067878,
        320.4
      ],
      [
        0.8225055132061243,
        45.56145088747144,
        320.20000000000005
      ],
      [
        0.8226043358445168,
        45.56138223968446,
        320.4
      ],
      [
        0.82261280156672,
        45.5613249912858,
        320.4
      ],
      [
        0.8226068504154682,
        45.56129448115826,
        320.4
      ],
      [
        0.8225901704281569,
        45.56121443398297,
        320.20000000000005
      ],
      [
        0.8225239533931017,
        45.561141930520535,
        319.79999999999995
      ],
      [
        0.8224879950284958,
        45.561099937185645,
        319.4
      ],
      [
        0.8224679622799158,
        45.56105802766979,
        319.6
      ],
      [
        0.8224655315279961,
        45.56101989001036,
        319.6
      ],
      [
        0.8224553894251585,
        45.56093975901604,
        319.6
      ],
      [
        0.8224405534565449,
        45.56084060110152,
        319.4
      ],
      [
        0.822461424395442,
        45.56079475209117,
        319.6
      ],
      [
        0.8224895037710667,
        45.560783352702856,
        319.79999999999995
      ],
      [
        0.8225237019360065,
        45.56075284257531,
        320.6
      ],
      [
        0.8225364424288273,
        45.56071084924042,
        320.79999999999995
      ],
      [
        0.822534179314971,
        45.560607835650444,
        321.20000000000005
      ],
      [
        0.8225360233336687,
        45.56060020811856,
        321.20000000000005
      ],
      [
        0.8225410524755716,
        45.56052016094327,
        321.6
      ],
      [
        0.8225369453430176,
        45.56049727834761,
        321.79999999999995
      ],
      [
        0.8225245401263237,
        45.56041329167783,
        322.20000000000005
      ],
      [
        0.82252680324018,
        45.56037900969386,
        322.6
      ],
      [
        0.8225482609122992,
        45.56031413376331,
        322.79999999999995
      ],
      [
        0.8225636836141348,
        45.56027976796031,
        322
      ],
      [
        0.822587488219142,
        45.56022260338068,
        322.79999999999995
      ],
      [
        0.822633421048522,
        45.56010433472693,
        322.6
      ],
      [
        0.8227044995874166,
        45.55997843854129,
        323
      ],
      [
        0.8227535337209702,
        45.559913562610745,
        323.4
      ],
      [
        0.8227857202291489,
        45.559875424951315,
        323.6
      ],
      [
        0.8228474110364914,
        45.55978775024414,
        323.6
      ],
      [
        0.8229415398091078,
        45.55968850851059,
        323
      ],
      [
        0.822967691347003,
        45.559638971462846,
        322.6
      ],
      [
        0.8229798451066017,
        45.55957023985684,
        321.6
      ],
      [
        0.8229829464107752,
        45.55955121293664,
        321.4
      ],
      [
        0.8229644224047661,
        45.55947493761778,
        321.20000000000005
      ],
      [
        0.8229334093630314,
        45.559326158836484,
        321.79999999999995
      ],
      [
        0.8228550385683775,
        45.55922691710293,
        322.20000000000005
      ],
      [
        0.8227419666945934,
        45.55913924239576,
        322.4
      ],
      [
        0.8226732350885868,
        45.559066738933325,
        322.4
      ],
      [
        0.8226499333977699,
        45.55902097374201,
        322.4
      ],
      [
        0.8225897513329983,
        45.55891410447657,
        322.20000000000005
      ],
      [
        0.8225344307720661,
        45.55881880223751,
        321.79999999999995
      ],
      [
        0.822514146566391,
        45.55875778198242,
        321.6
      ],
      [
        0.8225115481764078,
        45.558727188035846,
        321.6
      ],
      [
        0.8225278090685606,
        45.55860514752567,
        321.6
      ],
      [
        0.8224810380488634,
        45.55846785195172,
        321
      ],
      [
        0.8224696386605501,
        45.558433486148715,
        320.4
      ],
      [
        0.8224496059119701,
        45.55834572762251,
        320.79999999999995
      ],
      [
        0.8224268909543753,
        45.55826568044722,
        320.79999999999995
      ],
      [
        0.8224019967019558,
        45.558174066245556,
        321.20000000000005
      ],
      [
        0.8223232068121433,
        45.55807490833104,
        321.4
      ],
      [
        0.8223035931587219,
        45.55805202573538,
        321.6
      ],
      [
        0.8221824746578932,
        45.5579299852252,
        321.6
      ],
      [
        0.8221137430518866,
        45.557876508682966,
        321.4
      ],
      [
        0.8220677264034748,
        45.55784599855542,
        321.4
      ],
      [
        0.822014668956399,
        45.557739213109016,
        320.79999999999995
      ],
      [
        0.822007292881608,
        45.55761331692338,
        321.20000000000005
      ],
      [
        0.8219655510038137,
        45.557468393817544,
        320.6
      ],
      [
        0.8219480328261852,
        45.55744165554643,
        320.4
      ],
      [
        0.8219100628048182,
        45.557350125163794,
        319.79999999999995
      ],
      [
        0.8219228871166706,
        45.55723948404193,
        319.4
      ],
      [
        0.8219159301370382,
        45.5572013463825,
        318.79999999999995
      ],
      [
        0.8218878507614136,
        45.55707930587232,
        318.4
      ],
      [
        0.8218715060502291,
        45.55704116821289,
        318
      ],
      [
        0.8217866811901331,
        45.55699531920254,
        317.20000000000005
      ],
      [
        0.8217361383140087,
        45.556972436606884,
        317.20000000000005
      ],
      [
        0.8216133434325457,
        45.55695718154311,
        317.79999999999995
      ],
      [
        0.8214386645704508,
        45.55698391981423,
        318
      ],
      [
        0.8213878702372313,
        45.556991547346115,
        318.4
      ],
      [
        0.8212366607040167,
        45.55702582933009,
        318.79999999999995
      ],
      [
        0.8211264386773109,
        45.55707545019686,
        319
      ],
      [
        0.8210699446499348,
        45.55710596032441,
        319.4
      ],
      [
        0.821057204157114,
        45.55711358785629,
        319.4
      ],
      [
        0.8209513407200575,
        45.55719749070704,
        319.20000000000005
      ],
      [
        0.8208474889397621,
        45.55727762170136,
        319
      ],
      [
        0.8207356743514538,
        45.55736915208399,
        319
      ],
      [
        0.8206288050860167,
        45.55744928307831,
        319
      ],
      [
        0.8204883243888617,
        45.55755992420018,
        319.20000000000005
      ],
      [
        0.8203587401658297,
        45.55763242766261,
        319.20000000000005
      ],
      [
        0.8202473446726799,
        45.55766670964658,
        319.20000000000005
      ],
      [
        0.8201146591454744,
        45.55777735076845,
        319.6
      ],
      [
        0.820002593100071,
        45.557861253619194,
        319.6
      ],
      [
        0.8199336938560009,
        45.557956639677286,
        319.20000000000005
      ],
      [
        0.8198373019695282,
        45.55806728079915,
        319.79999999999995
      ],
      [
        0.8197367191314697,
        45.55818932130933,
        319.79999999999995
      ],
      [
        0.8196432609111071,
        45.558296190574765,
        319.79999999999995
      ],
      [
        0.8195741102099419,
        45.55838386528194,
        320
      ],
      [
        0.8194827474653721,
        45.55847925134003,
        319.79999999999995
      ],
      [
        0.819397084414959,
        45.55855938233435,
        320
      ],
      [
        0.8192543406039476,
        45.55868527851999,
        319.79999999999995
      ],
      [
        0.8191421069204807,
        45.55878443643451,
        319.6
      ],
      [
        0.8190001174807549,
        45.5588988494128,
        319.79999999999995
      ],
      [
        0.8190434519201517,
        45.55897898040712,
        319.20000000000005
      ],
      [
        0.8191665820777416,
        45.559024745598435,
        318.79999999999995
      ],
      [
        0.8193405065685511,
        45.55905911140144,
        318.6
      ],
      [
        0.8194793947041035,
        45.5590819939971,
        318.79999999999995
      ],
      [
        0.8196723461151123,
        45.55911250412464,
        318.6
      ],
      [
        0.819811150431633,
        45.55908962152898,
        318.4
      ],
      [
        0.8198458515107632,
        45.55910110473633,
        318.6
      ],
      [
        0.8198554906994104,
        45.559104876592755,
        318.4
      ],
      [
        0.8198571670800447,
        45.55909339338541,
        318
      ],
      [
        0.8198949694633484,
        45.5590819939971,
        318
      ],
      [
        0.819998737424612,
        45.559123987331986,
        318.20000000000005
      ],
      [
        0.8201232925057411,
        45.55919263511896,
        318
      ],
      [
        0.8202056866139174,
        45.55924979969859,
        317.79999999999995
      ],
      [
        0.8202351070940495,
        45.55928802117705,
        317.79999999999995
      ],
      [
        0.8202825486660004,
        45.5593719240278,
        317.79999999999995
      ],
      [
        0.8202867396175861,
        45.55938717909157,
        317.79999999999995
      ],
      [
        0.820330074056983,
        45.55951307527721,
        317.79999999999995
      ],
      [
        0.8203351870179176,
        45.55961608886719,
        317.79999999999995
      ],
      [
        0.8203420601785183,
        45.559719018638134,
        317.6
      ],
      [
        0.8203515317291021,
        45.55983351543546,
        318.20000000000005
      ],
      [
        0.8203422278165817,
        45.55997843854129,
        318.4
      ],
      [
        0.8203141484409571,
        45.56013107299805,
        317.79999999999995
      ],
      [
        0.8203375339508057,
        45.56023785844445,
        317.79999999999995
      ],
      [
        0.8203292358666658,
        45.56033701635897,
        318.20000000000005
      ],
      [
        0.8203371148556471,
        45.560371382161975,
        318.20000000000005
      ],
      [
        0.8203607518225908,
        45.56045142933726,
        318.20000000000005
      ],
      [
        0.8203366119414568,
        45.56056207045913,
        318.20000000000005
      ],
      [
        0.820327140390873,
        45.560687966644764,
        318
      ],
      [
        0.8202945347875357,
        45.56077572517097,
        318
      ],
      [
        0.8202621806412935,
        45.56087488308549,
        318
      ],
      [
        0.8202487695962191,
        45.56089776568115,
        317.79999999999995
      ],
      [
        0.8201582450419664,
        45.561004634946585,
        317.79999999999995
      ],
      [
        0.8200622722506523,
        45.56107328273356,
        317.6
      ],
      [
        0.8200488612055779,
        45.561080910265446,
        317.6
      ],
      [
        0.8199209533631802,
        45.5611228197813,
        317.79999999999995
      ],
      [
        0.8197550754994154,
        45.56116866879165,
        318.4
      ],
      [
        0.8195916283875704,
        45.56123346090317,
        318.6
      ],
      [
        0.8194823283702135,
        45.56128685362637,
        319
      ],
      [
        0.8193865232169628,
        45.56130210869014,
        319.4
      ],
      [
        0.8192840125411749,
        45.56128685362637,
        319.79999999999995
      ],
      [
        0.8191816695034504,
        45.561359357088804,
        319.79999999999995
      ],
      [
        0.8191451244056225,
        45.561454743146896,
        319.79999999999995
      ],
      [
        0.8192089106887579,
        45.56152339093387,
        319.79999999999995
      ],
      [
        0.8193688374012709,
        45.561553901061416,
        320
      ],
      [
        0.819461876526475,
        45.561576783657074,
        320
      ],
      [
        0.8195344638079405,
        45.56160729378462,
        319.79999999999995
      ],
      [
        0.8196285925805569,
        45.56166831403971,
        319.6
      ],
      [
        0.8196684066206217,
        45.56172941811383,
        319.79999999999995
      ],
      [
        0.819690702483058,
        45.56182857602835,
        319.79999999999995
      ],
      [
        0.8197259902954102,
        45.561927733942866,
        320
      ],
      [
        0.8197738509625196,
        45.5620346032083,
        320.20000000000005
      ],
      [
        0.8198124077171087,
        45.56212227791548,
        319.79999999999995
      ],
      [
        0.8198138326406479,
        45.56217952631414,
        320
      ],
      [
        0.8198482822626829,
        45.56227105669677,
        319.79999999999995
      ],
      [
        0.8199099730700254,
        45.56235118769109,
        319.79999999999995
      ],
      [
        0.8199465181678534,
        45.562446573749185,
        320
      ],
      [
        0.820002593100071,
        45.56251522153616,
        320
      ],
      [
        0.820053219795227,
        45.56256861425936,
        319.6
      ],
      [
        0.820148941129446,
        45.56267162784934,
        320.20000000000005
      ],
      [
        0.8202491886913776,
        45.562740275636315,
        320.20000000000005
      ],
      [
        0.8202995639294386,
        45.56280515156686,
        320.4
      ],
      [
        0.8203969616442919,
        45.56286617182195,
        320.4
      ],
      [
        0.8204286452382803,
        45.56288905441761,
        320.20000000000005
      ],
      [
        0.8204800263047218,
        45.5629310477525,
        320.20000000000005
      ],
      [
        0.8205501828342676,
        45.56304931640625,
        319.79999999999995
      ],
      [
        0.820600725710392,
        45.56312173604965,
        320.20000000000005
      ],
      [
        0.8206866402179003,
        45.563194239512086,
        320
      ],
      [
        0.8207740634679794,
        45.56327814236283,
        320.79999999999995
      ],
      [
        0.8208676893264055,
        45.56333916261792,
        320.79999999999995
      ],
      [
        0.8209736365824938,
        45.56338115595281,
        321
      ],
      [
        0.8210753090679646,
        45.56340026669204,
        320.79999999999995
      ],
      [
        0.8212238363921642,
        45.56343077681959,
        320.79999999999995
      ],
      [
        0.8213395904749632,
        45.563453659415245,
        320.79999999999995
      ],
      [
        0.8213641494512558,
        45.56346128694713,
        320.79999999999995
      ],
      [
        0.8214248344302177,
        45.56348794139922,
        320.79999999999995
      ],
      [
        0.8214567694813013,
        45.5634955689311,
        320.79999999999995
      ],
      [
        0.8215923886746168,
        45.56354133412242,
        320.79999999999995
      ],
      [
        0.8217322826385498,
        45.56358718313277,
        320.79999999999995
      ],
      [
        0.8218958973884583,
        45.56362146511674,
        320.79999999999995
      ],
      [
        0.8220264874398708,
        45.563705367967486,
        320.6
      ],
      [
        0.822104187682271,
        45.563808381557465,
        320.6
      ],
      [
        0.8221714943647385,
        45.563888512551785,
        320.6
      ],
      [
        0.8222928643226624,
        45.56391139514744,
        320.6
      ],
      [
        0.8224298246204853,
        45.563888512551785,
        320.79999999999995
      ],
      [
        0.8225119672715664,
        45.56384274736047,
        320.79999999999995
      ],
      [
        0.8225328382104635,
        45.56375498883426,
        321
      ],
      [
        0.8225575648248196,
        45.56372062303126,
        320.79999999999995
      ],
      [
        0.8226105384528637,
        45.56364820338786,
        321
      ],
      [
        0.8226782642304897,
        45.56359858252108,
        321.20000000000005
      ],
      [
        0.8227401226758957,
        45.56356430053711,
        321.4
      ],
      [
        0.8227759972214699,
        45.56354133412242,
        321.4
      ],
      [
        0.8228127937763929,
        45.56350705213845,
        321.20000000000005
      ],
      [
        0.8228111173957586,
        45.56348031386733,
        321.20000000000005
      ],
      [
        0.8228070102632046,
        45.563472686335444,
        321.20000000000005
      ],
      [
        0.8226790186017752,
        45.56344603188336,
        321.4
      ],
      [
        0.8225756697356701,
        45.56338492780924,
        321.4
      ],
      [
        0.8225036691874266,
        45.56328576989472,
        321.6
      ],
      [
        0.8224304113537073,
        45.563178984448314,
        321.79999999999995
      ],
      [
        0.8223660383373499,
        45.56306071579456,
        322
      ],
      [
        0.8222824707627296,
        45.562957702204585,
        321.79999999999995
      ],
      [
        0.8222728315740824,
        45.56294244714081,
        321.79999999999995
      ],
      [
        0.8222352806478739,
        45.56288528256118,
        321.6
      ],
      [
        0.8222292456775904,
        45.5628776550293,
        321.6
      ],
      [
        0.8221740089356899,
        45.56280515156686,
        321.6
      ],
      [
        0.8221696503460407,
        45.56276701390743,
        322
      ],
      [
        0.8221867494285107,
        45.562740275636315,
        322.4
      ],
      [
        0.8221805468201637,
        45.56272502057254,
        322.6
      ],
      [
        0.8221312612295151,
        45.56268688291311,
        322.79999999999995
      ],
      [
        0.8220797125250101,
        45.56267925538123,
        323
      ],
      [
        0.8220114000141621,
        45.56267539970577,
        323.20000000000005
      ],
      [
        0.8219035249203444,
        45.56267925538123,
        322.79999999999995
      ],
      [
        0.8218694943934679,
        45.562683027237654,
        322.6
      ],
      [
        0.8217751141637564,
        45.562683027237654,
        322.79999999999995
      ],
      [
        0.8216348849236965,
        45.56268688291311,
        322.6
      ],
      [
        0.8215203043073416,
        45.56267539970577,
        322.79999999999995
      ],
      [
        0.8213548455387354,
        45.56267162784934,
        323
      ],
      [
        0.8212215732783079,
        45.56263726204634,
        323.20000000000005
      ],
      [
        0.8211759757250547,
        45.562602980062366,
        322.79999999999995
      ],
      [
        0.8211254328489304,
        45.56253433227539,
        323.20000000000005
      ],
      [
        0.8210991974920034,
        45.56250759400427,
        323.4
      ],
      [
        0.8210820984095335,
        45.56248848326504,
        323.6
      ],
      [
        0.8210567012429237,
        45.5624579731375,
        323.20000000000005
      ],
      [
        0.8210189826786518,
        45.56237407028675,
        323.4
      ],
      [
        0.8210375905036926,
        45.56231682188809,
        324
      ],
      [
        0.821048067882657,
        45.56227868422866,
        324.20000000000005
      ],
      [
        0.8210862893611193,
        45.56225202977657,
        324.4
      ],
      [
        0.8211495727300644,
        45.562149016186595,
        324
      ],
      [
        0.821167342364788,
        45.56208036839962,
        323.79999999999995
      ],
      [
        0.8212346490472555,
        45.5620002374053,
        323.6
      ],
      [
        0.8212948311120272,
        45.561950616538525,
        323.6
      ],
      [
        0.8214058075100183,
        45.56188582442701,
        323.6
      ],
      [
        0.8214413467794657,
        45.56184768676758,
        323.4
      ],
      [
        0.8214731141924858,
        45.56183620356023,
        323.4
      ],
      [
        0.8215954061597586,
        45.56180183775723,
        323.20000000000005
      ],
      [
        0.8216758724302053,
        45.561733189970255,
        323.4
      ],
      [
        0.8218016009777784,
        45.56164543144405,
        322.79999999999995
      ],
      [
        0.821913331747055,
        45.56156538426876,
        323
      ],
      [
        0.8219942171126604,
        45.5615425016731,
        322.79999999999995
      ],
      [
        0.8220369648188353,
        45.56152724660933,
        322.6
      ],
      [
        0.8221010863780975,
        45.5615081358701,
        322.6
      ],
      [
        0.8222045190632343,
        45.561496652662754,
        322.4
      ],
      [
        0.8222224563360214,
        45.561496652662754,
        322.4
      ],
      [
        0.8223843947052956,
        45.56148902513087,
        322
      ],
      [
        0.8225530385971069,
        45.561454743146896,
        322
      ],
      [
        0.8225901704281569,
        45.56141274981201,
        322
      ],
      [
        0.8225957024842501,
        45.56137084029615,
        322
      ],
      [
        0.8225713111460209,
        45.56128685362637,
        322
      ],
      [
        0.8225338440388441,
        45.561199178919196,
        321.79999999999995
      ],
      [
        0.8224735781550407,
        45.56107705458999,
        321.6
      ],
      [
        0.8224587421864271,
        45.561042772606015,
        321.4
      ],
      [
        0.822447007521987,
        45.560958785936236,
        321.4
      ],
      [
        0.8224925212562084,
        45.560825346037745,
        322.4
      ],
      [
        0.8225040882825851,
        45.5608138628304,
        322.4
      ],
      [
        0.8225344307720661,
        45.56073373183608,
        323
      ],
      [
        0.8225435670465231,
        45.56060406379402,
        323.4
      ],
      [
        0.8225358556956053,
        45.560546815395355,
        323.4
      ],
      [
        0.8225362747907639,
        45.56053541600704,
        323.6
      ],
      [
        0.8225461654365063,
        45.56051630526781,
        324
      ],
      [
        0.8225581515580416,
        45.56045142933726,
        324.4
      ],
      [
        0.8225553017109632,
        45.56043617427349,
        324.6
      ],
      [
        0.82254683598876,
        45.5603751540184,
        324.79999999999995
      ],
      [
        0.8225548826158047,
        45.560268368572,
        325
      ],
      [
        0.8226082753390074,
        45.56012336164713,
        325
      ],
      [
        0.8226782642304897,
        45.56002420373261,
        325.6
      ],
      [
        0.8227121271193027,
        45.5600128043443,
        325.79999999999995
      ],
      [
        0.822806591168046,
        45.559959411621094,
        326.79999999999995
      ],
      [
        0.8228231035172939,
        45.55994407273829,
        327
      ],
      [
        0.8228604029864073,
        45.559917418286204,
        327
      ],
      [
        0.8229384385049343,
        45.55986016988754,
        327.20000000000005
      ],
      [
        0.8230529353022575,
        45.55979537777603,
        327
      ],
      [
        0.8231494948267937,
        45.55974575690925,
        326.6
      ],
      [
        0.8231692761182785,
        45.559738129377365,
        326.6
      ],
      [
        0.8232061564922333,
        45.559719018638134,
        326.4
      ],
      [
        0.8233234193176031,
        45.55966562591493,
        325.79999999999995
      ],
      [
        0.8233752194792032,
        45.55965037085116,
        325.79999999999995
      ],
      [
        0.8234537579119205,
        45.55963134393096,
        325.6
      ],
      [
        0.823470102623105,
        45.5596274882555,
        325.6
      ],
      [
        0.8236056379973888,
        45.559581723064184,
        325.79999999999995
      ],
      [
        0.8237428497523069,
        45.55950921960175,
        325.79999999999995
      ],
      [
        0.8237627148628235,
        45.559501592069864,
        325.79999999999995
      ]
    ]
  }
}
