{
  "type": "Feature",
  "properties": {
    "id": "24195640827",
    "activity": "hiking",
    "name": "Mialet Hiking",
    "date": "2026-09-01T11:31:08Z",
    "distanceKm": 3.07,
    "movingTimeSeconds": 1851,
    "elapsedTimeSeconds": 1857,
    "ascentM": 24,
    "descentM": 25,
    "providers": [
      "Garmin"
    ]
  },
  "geometry": {
    "type": "LineString",
    "coordinates": [
      [
        0.9328489098697901,
        45.55401228368282,
        297.4
      ],
      [
        0.9328458085656166,
        45.55401991121471,
        297.4
      ],
      [
        0.9328396897763014,
        45.55406182073057,
        297.6
      ],
      [
        0.93284010887146,
        45.55407707579434,
        297.6
      ],
      [
        0.932851005345583,
        45.55419157259166,
        297.6
      ],
      [
        0.9328638296574354,
        45.55427924729884,
        298
      ],
      [
        0.9328696131706238,
        45.55433272384107,
        298.20000000000005
      ],
      [
        0.9328815154731274,
        45.55444713681936,
        298.4
      ],
      [
        0.9328686911612749,
        45.55458828806877,
        298.79999999999995
      ],
      [
        0.9328318107873201,
        45.55470270104706,
        299.20000000000005
      ],
      [
        0.9327942598611116,
        45.554817197844386,
        299.4
      ],
      [
        0.9327880572527647,
        45.5548285972327,
        299.4
      ],
      [
        0.9326989576220512,
        45.554897245019674,
        299.79999999999995
      ],
      [
        0.9325920883566141,
        45.554874362424016,
        300.6
      ],
      [
        0.9325642604380846,
        45.55479045957327,
        301
      ],
      [
        0.9325452335178852,
        45.55467604659498,
        301.20000000000005
      ],
      [
        0.9325171541422606,
        45.5545920599252,
        301.20000000000005
      ],
      [
        0.932510532438755,
        45.55456540547311,
        301.4
      ],
      [
        0.9324606601148844,
        45.554420398548245,
        301.4
      ],
      [
        0.9324061777442694,
        45.55433272384107,
        301.20000000000005
      ],
      [
        0.9323786851018667,
        45.554283102974296,
        301.20000000000005
      ],
      [
        0.9323522821068764,
        45.554241109639406,
        301.20000000000005
      ],
      [
        0.9323003143072128,
        45.55413817986846,
        301
      ],
      [
        0.9322590753436089,
        45.55406182073057,
        301
      ],
      [
        0.9321936964988708,
        45.554008428007364,
        301
      ],
      [
        0.9320615977048874,
        45.55395889095962,
        300.79999999999995
      ],
      [
        0.9319186024367809,
        45.55394355207682,
        301
      ],
      [
        0.9317155927419662,
        45.553909270092845,
        301
      ],
      [
        0.9315482899546623,
        45.55391304194927,
        300.79999999999995
      ],
      [
        0.931362546980381,
        45.55391689762473,
        301
      ],
      [
        0.9312364831566811,
        45.55392066948116,
        301
      ],
      [
        0.9311798214912415,
        45.553928297013044,
        300.79999999999995
      ],
      [
        0.931095415726304,
        45.55394355207682,
        300.79999999999995
      ],
      [
        0.9310095850378275,
        45.55395889095962,
        301
      ],
      [
        0.9308449644595385,
        45.55400465615094,
        301.20000000000005
      ],
      [
        0.9307302162051201,
        45.554027538746595,
        300.79999999999995
      ],
      [
        0.9306109417229891,
        45.554107585921884,
        300.4
      ],
      [
        0.9305857960134745,
        45.55423348210752,
        300.79999999999995
      ],
      [
        0.9304686170071363,
        45.554325096309185,
        301
      ],
      [
        0.9304143022745848,
        45.554424254223704,
        300.20000000000005
      ],
      [
        0.9304210916161537,
        45.55444713681936,
        300
      ],
      [
        0.9304231870919466,
        45.55447764694691,
        299.6
      ],
      [
        0.9304151404649019,
        45.55449675768614,
        299.6
      ],
      [
        0.9303992986679077,
        45.55455392226577,
        299.20000000000005
      ],
      [
        0.9303891565650702,
        45.55460731498897,
        298.4
      ],
      [
        0.9303839597851038,
        45.5546264257282,
        298.20000000000005
      ],
      [
        0.930363591760397,
        45.55467604659498,
        297.20000000000005
      ],
      [
        0.9303531982004642,
        45.55474083870649,
        296.4
      ],
      [
        0.9303417149931192,
        45.55476372130215,
        296.20000000000005
      ],
      [
        0.9303115401417017,
        45.55484385229647,
        295.4
      ],
      [
        0.9303065948188305,
        45.5548629630357,
        295.20000000000005
      ],
      [
        0.9302899148315191,
        45.55493161082268,
        294.4
      ],
      [
        0.9302715584635735,
        45.554973520338535,
        294.20000000000005
      ],
      [
        0.9302152320742607,
        45.555072762072086,
        294.4
      ],
      [
        0.9301892481744289,
        45.55510704405606,
        294.4
      ],
      [
        0.9300839714705944,
        45.55521768517792,
        294
      ],
      [
        0.929977772757411,
        45.55532455444336,
        293.6
      ],
      [
        0.9298605099320412,
        45.55543511174619,
        294.4
      ],
      [
        0.9297880902886391,
        45.5555228702724,
        294.79999999999995
      ],
      [
        0.9297004155814648,
        45.555625883862376,
        294.79999999999995
      ],
      [
        0.9296201169490814,
        45.555728897452354,
        294.6
      ],
      [
        0.929541327059269,
        45.555866193026304,
        294.4
      ],
      [
        0.9294879343360662,
        45.55596920661628,
        294.4
      ],
      [
        0.9294130001217127,
        45.556083619594574,
        294.20000000000005
      ],
      [
        0.9293959010392427,
        45.556163750588894,
        294.20000000000005
      ],
      [
        0.9293634630739689,
        45.55626290850341,
        295.20000000000005
      ],
      [
        0.9293635468930006,
        45.5562705360353,
        295.4
      ],
      [
        0.9293676540255547,
        45.556301046162844,
        296.79999999999995
      ],
      [
        0.9293594397604465,
        45.5563239287585,
        297.6
      ],
      [
        0.929353404790163,
        45.556339183822274,
        298
      ],
      [
        0.9293123334646225,
        45.55636977776885,
        298.6
      ],
      [
        0.9292530734091997,
        45.55640405975282,
        298.4
      ],
      [
        0.9291619621217251,
        45.556457452476025,
        298.20000000000005
      ],
      [
        0.9291200526058674,
        45.556495590135455,
        298.6
      ],
      [
        0.9290099143981934,
        45.556617714464664,
        298.79999999999995
      ],
      [
        0.928936405107379,
        45.55670161731541,
        299
      ],
      [
        0.9288875386118889,
        45.556755010038614,
        299
      ],
      [
        0.9288775641471148,
        45.5567626375705,
        299.20000000000005
      ],
      [
        0.9288208186626434,
        45.55682751350105,
        299.4
      ],
      [
        0.9287147875875235,
        45.55692289955914,
        299.4
      ],
      [
        0.9286174736917019,
        45.55703345686197,
        299.6
      ],
      [
        0.9285577945411205,
        45.557132698595524,
        299.6
      ],
      [
        0.9285485744476318,
        45.55714409798384,
        299.6
      ],
      [
        0.9284740593284369,
        45.55726236663759,
        299.6
      ],
      [
        0.9284179843962193,
        45.55739211849868,
        300
      ],
      [
        0.9284117817878723,
        45.557407373562455,
        300
      ],
      [
        0.9283979516476393,
        45.557445511221886,
        300.20000000000005
      ],
      [
        0.9283925034105778,
        45.557563779875636,
        301
      ],
      [
        0.9283995442092419,
        45.55759043432772,
        301.20000000000005
      ],
      [
        0.9284121170639992,
        45.557723958045244,
        302.20000000000005
      ],
      [
        0.9284360893070698,
        45.557838371023536,
        303.20000000000005
      ],
      [
        0.9284453094005585,
        45.557876508682966,
        303.4
      ],
      [
        0.9284478239715099,
        45.5579833779484,
        303.79999999999995
      ],
      [
        0.9285017196089029,
        45.558101646602154,
        304
      ],
      [
        0.9285512566566467,
        45.55825042538345,
        303.79999999999995
      ],
      [
        0.9286143723875284,
        45.558395348489285,
        303.6
      ],
      [
        0.9286603890359402,
        45.558551754802465,
        303.6
      ],
      [
        0.9287266060709953,
        45.558670023456216,
        303.20000000000005
      ],
      [
        0.9287458006292582,
        45.558692906051874,
        303
      ],
      [
        0.9288793243467808,
        45.558830201625824,
        302.79999999999995
      ],
      [
        0.9289581142365932,
        45.55889507755637,
        302.79999999999995
      ],
      [
        0.9289524983614683,
        45.558929443359375,
        303.20000000000005
      ],
      [
        0.9289436135441065,
        45.55893707089126,
        303.4
      ],
      [
        0.9288829285651445,
        45.55894469842315,
        304
      ],
      [
        0.9288111794739962,
        45.55894469842315,
        304.20000000000005
      ],
      [
        0.9286436252295971,
        45.55893707089126,
        303.79999999999995
      ],
      [
        0.9284401964396238,
        45.558925587683916,
        303.4
      ],
      [
        0.9282252006232738,
        45.558929443359375,
        302.79999999999995
      ],
      [
        0.9280258789658546,
        45.558925587683916,
        302.4
      ],
      [
        0.9279630146920681,
        45.558925587683916,
        302.20000000000005
      ],
      [
        0.9277473483234644,
        45.55892173200846,
        301.6
      ],
      [
        0.9276419878005981,
        45.55892173200846,
        301.20000000000005
      ],
      [
        0.9275334421545267,
        45.558925587683916,
        300.79999999999995
      ],
      [
        0.9274707455188036,
        45.55892173200846,
        300.79999999999995
      ],
      [
        0.927402600646019,
        45.55892173200846,
        300.6
      ],
      [
        0.9273396525532007,
        45.55891796015203,
        300.4
      ],
      [
        0.9272522293031216,
        45.55891796015203,
        300.20000000000005
      ],
      [
        0.9270588587969542,
        45.55891796015203,
        299.79999999999995
      ],
      [
        0.9268493112176657,
        45.55891796015203,
        299.20000000000005
      ],
      [
        0.9267852734774351,
        45.55891796015203,
        299
      ],
      [
        0.9265147894620895,
        45.55891410447657,
        298.79999999999995
      ],
      [
        0.9262969437986612,
        45.55889122188091,
        299.20000000000005
      ],
      [
        0.9262463171035051,
        45.558868339285254,
        299.4
      ],
      [
        0.9262296371161938,
        45.55887596681714,
        299.6
      ],
      [
        0.9261694550514221,
        45.55887596681714,
        300.4
      ],
      [
        0.9261552058160305,
        45.558868339285254,
        300.6
      ],
      [
        0.9261004719883204,
        45.558788292109966,
        300.20000000000005
      ],
      [
        0.9260004758834839,
        45.55866239592433,
        299.20000000000005
      ],
      [
        0.9259938541799784,
        45.558650912716985,
        299
      ],
      [
        0.9259505197405815,
        45.55858226493001,
        298
      ],
      [
        0.9259009826928377,
        45.55852887220681,
        297
      ],
      [
        0.9258353523910046,
        45.55845636874437,
        296
      ],
      [
        0.9258138947188854,
        45.5584220867604,
        296
      ],
      [
        0.9257702250033617,
        45.55836098268628,
        296
      ],
      [
        0.925789587199688,
        45.55824656970799,
        296.6
      ],
      [
        0.9258704725652933,
        45.55808253586292,
        296.6
      ],
      [
        0.9258745796978474,
        45.55802914313972,
        296.6
      ],
      [
        0.9258878231048584,
        45.5579833779484,
        296.6
      ],
      [
        0.9258910920470953,
        45.55797189474106,
        296.6
      ],
      [
        0.9259251225739717,
        45.55781548842788,
        296.4
      ],
      [
        0.9259344264864922,
        45.5577278137207,
        296.4
      ],
      [
        0.9259890764951706,
        45.55759429000318,
        296.79999999999995
      ],
      [
        0.9260708000510931,
        45.557464538142085,
        296.6
      ],
      [
        0.926063172519207,
        45.55731198750436,
        296.6
      ],
      [
        0.9260802716016769,
        45.55725859478116,
        296.6
      ],
      [
        0.9260928444564342,
        45.557228084653616,
        296.6
      ],
      [
        0.9261252824217081,
        45.557090705260634,
        296.79999999999995
      ],
      [
        0.9261246956884861,
        45.55707545019686,
        297
      ],
      [
        0.9261162299662828,
        45.55698391981423,
        297.6
      ],
      [
        0.9261277131736279,
        45.556930527091026,
        297.79999999999995
      ],
      [
        0.9261289704591036,
        45.556915272027254,
        298
      ],
      [
        0.9261483326554298,
        45.55680077522993,
        298.4
      ],
      [
        0.9261646773666143,
        45.556674879044294,
        298.6
      ],
      [
        0.926169203594327,
        45.55655283853412,
        298.79999999999995
      ],
      [
        0.9261469077318907,
        45.556434569880366,
        298.4
      ],
      [
        0.9260568022727966,
        45.55637354962528,
        298.20000000000005
      ],
      [
        0.9259172435849905,
        45.55635066702962,
        298
      ],
      [
        0.9257383737713099,
        45.556362150236964,
        298
      ],
      [
        0.9255467634648085,
        45.55637354962528,
        298.6
      ],
      [
        0.925346352159977,
        45.556381177157164,
        299
      ],
      [
        0.9252353757619858,
        45.55639266036451,
        298.79999999999995
      ],
      [
        0.9251000918447971,
        45.55641168728471,
        298.79999999999995
      ],
      [
        0.9249407518655062,
        45.55642317049205,
        298.6
      ],
      [
        0.9248565975576639,
        45.556438425555825,
        298.4
      ],
      [
        0.9246731176972389,
        45.55646508000791,
        298.4
      ],
      [
        0.9244959242641926,
        45.55648796260357,
        298.6
      ],
      [
        0.9243333153426647,
        45.55650321766734,
        299
      ],
      [
        0.924310851842165,
        45.556499445810914,
        299
      ],
      [
        0.9242374263703823,
        45.5564536806196,
        299.4
      ],
      [
        0.9242761507630348,
        45.556377405300736,
        299.79999999999995
      ],
      [
        0.9243719559162855,
        45.5562705360353,
        299.6
      ],
      [
        0.9244472254067659,
        45.55615226738155,
        299.20000000000005
      ],
      [
        0.9244453813880682,
        45.55603785440326,
        299.20000000000005
      ],
      [
        0.9243469778448343,
        45.55593484081328,
        299.20000000000005
      ],
      [
        0.9243230056017637,
        45.5558318272233,
        299.20000000000005
      ],
      [
        0.9244364965707064,
        45.555786062031984,
        299.20000000000005
      ],
      [
        0.9245896339416504,
        45.555725041776896,
        298.6
      ],
      [
        0.9247354790568352,
        45.55568313226104,
        299
      ],
      [
        0.924881910905242,
        45.555568635463715,
        299
      ],
      [
        0.9250134229660034,
        45.555488504469395,
        298.6
      ],
      [
        0.9251753613352776,
        45.55536646395922,
        298.79999999999995
      ],
      [
        0.9252896066755056,
        45.555274933576584,
        299
      ],
      [
        0.9253214579075575,
        45.55524819530547,
        299
      ],
      [
        0.9254631958901882,
        45.5551375541836,
        299.6
      ],
      [
        0.9256076160818338,
        45.5550307687372,
        299.79999999999995
      ],
      [
        0.925697972998023,
        45.55496974848211,
        300
      ],
      [
        0.9257445763796568,
        45.554935382679105,
        300.20000000000005
      ],
      [
        0.9258853085339069,
        45.554817197844386,
        300.20000000000005
      ],
      [
        0.9259967040270567,
        45.55474846623838,
        300.4
      ],
      [
        0.9260418824851513,
        45.55471418425441,
        300.20000000000005
      ],
      [
        0.926087899133563,
        45.55466841906309,
        300.20000000000005
      ],
      [
        0.9261355921626091,
        45.55460731498897,
        300
      ],
      [
        0.9261448960751295,
        45.55451578460634,
        300
      ],
      [
        0.9261417109519243,
        45.55447764694691,
        300
      ],
      [
        0.9260786790400743,
        45.55434797890484,
        300.4
      ],
      [
        0.9260140545666218,
        45.55425636470318,
        301
      ],
      [
        0.9259843826293945,
        45.55422208271921,
        301.20000000000005
      ],
      [
        0.9259102866053581,
        45.55409618653357,
        301.6
      ],
      [
        0.9258120507001877,
        45.55395503528416,
        301.79999999999995
      ],
      [
        0.9257431514561176,
        45.553848249837756,
        301.79999999999995
      ],
      [
        0.9256498608738184,
        45.55374138057232,
        302
      ],
      [
        0.92552924528718,
        45.55362696759403,
        302
      ],
      [
        0.9254080429673195,
        45.55356209166348,
        302
      ],
      [
        0.9253501240164042,
        45.553531581535935,
        302.20000000000005
      ],
      [
        0.9252378065139055,
        45.553497299551964,
        302.6
      ],
      [
        0.9250816516578197,
        45.55342856794596,
        302.79999999999995
      ],
      [
        0.9249040391296148,
        45.55337140336633,
        302.79999999999995
      ],
      [
        0.9247058071196079,
        45.55330652743578,
        302.6
      ],
      [
        0.9245128557085991,
        45.55332941003144,
        302.79999999999995
      ],
      [
        0.9243917372077703,
        45.55336754769087,
        303.20000000000005
      ],
      [
        0.9243042301386595,
        45.5534056853503,
        303.4
      ],
      [
        0.9241006337106228,
        45.55350869894028,
        304
      ],
      [
        0.9240810200572014,
        45.55351632647216,
        304
      ],
      [
        0.9240325726568699,
        45.55353920906782,
        304.20000000000005
      ],
      [
        0.9239695407450199,
        45.553569719195366,
        304.6
      ],
      [
        0.9238449856638908,
        45.553634595125914,
        304.4
      ],
      [
        0.9236768446862698,
        45.5536231957376,
        304.20000000000005
      ],
      [
        0.9235524572432041,
        45.553554464131594,
        303
      ],
      [
        0.9235330112278461,
        45.553535437211394,
        302.79999999999995
      ],
      [
        0.9234845638275146,
        45.55342479608953,
        302.20000000000005
      ],
      [
        0.9234803728759289,
        45.5533866584301,
        302
      ],
      [
        0.9234750084578991,
        45.55330652743578,
        302
      ],
      [
        0.9234810434281826,
        45.553119610995054,
        302.20000000000005
      ],
      [
        0.9234405588358641,
        45.552978459745646,
        303
      ],
      [
        0.9234300814568996,
        45.55295180529356,
        303
      ],
      [
        0.9233829751610756,
        45.552864046767354,
        303
      ],
      [
        0.9232932887971401,
        45.5527114123106,
        303.20000000000005
      ],
      [
        0.9232171811163425,
        45.55257411673665,
        303
      ],
      [
        0.9232082962989807,
        45.55255886167288,
        303
      ],
      [
        0.9231195319443941,
        45.55239482782781,
        302.6
      ],
      [
        0.9230166021734476,
        45.552288042381406,
        302.6
      ],
      [
        0.9228987526148558,
        45.55217354558408,
        302.6
      ],
      [
        0.9227462857961655,
        45.55208201520145,
        302.4
      ],
      [
        0.9226249996572733,
        45.55200188420713,
        302.6
      ],
      [
        0.922459289431572,
        45.5518913269043,
        302.20000000000005
      ],
      [
        0.9223284479230642,
        45.55179971270263,
        302
      ],
      [
        0.9223134443163872,
        45.551792085170746,
        302
      ],
      [
        0.9221704490482807,
        45.55180356837809,
        301.79999999999995
      ],
      [
        0.9220396913588047,
        45.55187984369695,
        301.79999999999995
      ],
      [
        0.9219065867364407,
        45.55200188420713,
        301.6
      ],
      [
        0.9218521043658257,
        45.55204002186656,
        301.4
      ],
      [
        0.9217070136219263,
        45.55215829052031,
        301.4
      ],
      [
        0.921550439670682,
        45.55228041484952,
        301.4
      ],
      [
        0.921369893476367,
        45.552345206961036,
        301.6
      ],
      [
        0.9211547300219536,
        45.55237194523215,
        301.6
      ],
      [
        0.9209215454757214,
        45.552383344620466,
        301.4
      ],
      [
        0.9207280911505222,
        45.55242156609893,
        301.4
      ],
      [
        0.9206897020339966,
        45.55243296548724,
        301.4
      ],
      [
        0.9204915538430214,
        45.55248258635402,
        301.4
      ],
      [
        0.9203690942376852,
        45.55252072401345,
        301.79999999999995
      ],
      [
        0.9202561900019646,
        45.552505468949676,
        301.6
      ],
      [
        0.9202385880053043,
        45.55242156609893,
        301.20000000000005
      ],
      [
        0.9202912263572216,
        45.552368089556694,
        301
      ],
      [
        0.9203141927719116,
        45.552345206961036,
        300.79999999999995
      ],
      [
        0.9203678369522095,
        45.552226938307285,
        300.6
      ],
      [
        0.9202875383198261,
        45.552112525328994,
        300.6
      ],
      [
        0.9201342333108187,
        45.55202476680279,
        300.20000000000005
      ],
      [
        0.9201167151331902,
        45.551975229755044,
        299.79999999999995
      ],
      [
        0.9201410226523876,
        45.55190272629261,
        299.4
      ],
      [
        0.9202584531158209,
        45.55180734023452,
        299
      ],
      [
        0.9202749654650688,
        45.55179971270263,
        298.79999999999995
      ],
      [
        0.9203504025936127,
        45.551753947511315,
        298.6
      ],
      [
        0.9204136021435261,
        45.55170055478811,
        298.6
      ],
      [
        0.9204628877341747,
        45.55162427946925,
        299
      ],
      [
        0.920474287122488,
        45.551597541198134,
        299.20000000000005
      ],
      [
        0.9204878658056259,
        45.55156325921416,
        299.20000000000005
      ],
      [
        0.9205372352153063,
        45.55144113488495,
        299
      ],
      [
        0.9205474611371756,
        45.55127332918346,
        298.79999999999995
      ],
      [
        0.9204470459371805,
        45.55117794312537,
        299.20000000000005
      ],
      [
        0.9203615505248308,
        45.551120694726706,
        299.6
      ],
      [
        0.9202644042670727,
        45.551063530147076,
        299.79999999999995
      ],
      [
        0.9202182199805975,
        45.55103679187596,
        299.79999999999995
      ],
      [
        0.9201249293982983,
        45.55098717100918,
        300
      ],
      [
        0.9199437964707613,
        45.550964288413525,
        300.20000000000005
      ],
      [
        0.9199010487645864,
        45.550964288413525,
        300.4
      ],
      [
        0.9196795150637627,
        45.550945261493325,
        300.79999999999995
      ],
      [
        0.91965202242136,
        45.550941405817866,
        301
      ],
      [
        0.9194777626544237,
        45.55091852322221,
        301.20000000000005
      ],
      [
        0.9192722383886576,
        45.55091089569032,
        300.6
      ],
      [
        0.9191368706524372,
        45.55091475136578,
        300.20000000000005
      ],
      [
        0.9190688095986843,
        45.55089949630201,
        300
      ],
      [
        0.9189936239272356,
        45.55087275803089,
        299.6
      ],
      [
        0.918872756883502,
        45.550830764696,
        299.20000000000005
      ],
      [
        0.9188065398484468,
        45.55077360011637,
        299.20000000000005
      ],
      [
        0.9187145065516233,
        45.55067435838282,
        299.6
      ],
      [
        0.918602691963315,
        45.550605710595846,
        300
      ],
      [
        0.9185042884200811,
        45.55054091848433,
        300.79999999999995
      ],
      [
        0.9184929728507996,
        45.55052566342056,
        301
      ],
      [
        0.9184374008327723,
        45.55046078749001,
        301.20000000000005
      ],
      [
        0.9183596167713404,
        45.55034637451172,
        300.20000000000005
      ],
      [
        0.9183483012020588,
        45.5503196362406,
        300
      ],
      [
        0.9182853531092405,
        45.55022047832608,
        299
      ],
      [
        0.9182819165289402,
        45.55020522326231,
        299
      ],
      [
        0.9182255063205957,
        45.55010598152876,
        298.6
      ],
      [
        0.9181673359125853,
        45.550014451146126,
        298
      ],
      [
        0.9181510750204325,
        45.54998771287501,
        298
      ],
      [
        0.9181052260100842,
        45.549919065088034,
        297.4
      ],
      [
        0.9180613048374653,
        45.549839017912745,
        297.20000000000005
      ],
      [
        0.9180101752281189,
        45.54974363185465,
        296.79999999999995
      ],
      [
        0.9180006198585033,
        45.54973214864731,
        296.6
      ],
      [
        0.9179562795907259,
        45.5496443901211,
        296.4
      ],
      [
        0.9179556928575039,
        45.54954523220658,
        295.79999999999995
      ],
      [
        0.9179527591913939,
        45.54952997714281,
        295.79999999999995
      ],
      [
        0.9180043917149305,
        45.549442218616605,
        295.20000000000005
      ],
      [
        0.9179802518337965,
        45.54937742650509,
        294.79999999999995
      ]
    ]
  }
}
