{
  "type": "Feature",
  "properties": {
    "id": "24443104210",
    "activity": "hiking",
    "name": "Saint-Saud-Lacoussière Hiking",
    "date": "2026-09-21T12:20:10Z",
    "distanceKm": 3.82,
    "movingTimeSeconds": 2528,
    "elapsedTimeSeconds": 2611,
    "ascentM": 71,
    "descentM": 73,
    "providers": [
      "Garmin"
    ]
  },
  "geometry": {
    "type": "LineString",
    "coordinates": [
      [
        0.8097099512815475,
        45.54557799361646,
        298
      ],
      [
        0.8097256254404783,
        45.5455551110208,
        297.6
      ],
      [
        0.8097589015960693,
        45.54552451707423,
        297.4
      ],
      [
        0.8098910842090845,
        45.54547875188291,
        297.20000000000005
      ],
      [
        0.8100049942731857,
        45.54544061422348,
        297.20000000000005
      ],
      [
        0.8100190758705139,
        45.545432986691594,
        297.20000000000005
      ],
      [
        0.8101193234324455,
        45.54539870470762,
        297
      ],
      [
        0.8101562038064003,
        45.54538344964385,
        296.79999999999995
      ],
      [
        0.8102150447666645,
        45.54536819458008,
        296.79999999999995
      ],
      [
        0.8102942537516356,
        45.5453376006335,
        296.79999999999995
      ],
      [
        0.810362733900547,
        45.54528043605387,
        296.20000000000005
      ],
      [
        0.810406319797039,
        45.5452308151871,
        296
      ],
      [
        0.8104506600648165,
        45.54512780159712,
        295.79999999999995
      ],
      [
        0.8104502409696579,
        45.54497139528394,
        295
      ],
      [
        0.8104500733315945,
        45.544956140220165,
        294.79999999999995
      ],
      [
        0.8104052301496267,
        45.54485321044922,
        294
      ],
      [
        0.8104001171886921,
        45.54483409970999,
        293.79999999999995
      ],
      [
        0.8104011230170727,
        45.5448264721781,
        293.4
      ],
      [
        0.8103369176387787,
        45.54474634118378,
        293
      ],
      [
        0.8103154599666595,
        45.54471583105624,
        292.6
      ],
      [
        0.810272041708231,
        45.54467006586492,
        292.20000000000005
      ],
      [
        0.8101844508200884,
        45.5445709079504,
        291.79999999999995
      ],
      [
        0.8101399429142475,
        45.544525142759085,
        291.6
      ],
      [
        0.810070876032114,
        45.54443738423288,
        291
      ],
      [
        0.8100041560828686,
        45.54435348138213,
        290.6
      ],
      [
        0.8098910842090845,
        45.544227585196495,
        289.6
      ],
      [
        0.8097696304321289,
        45.544109316542745,
        289.20000000000005
      ],
      [
        0.8096839673817158,
        45.544010158628225,
        288.6
      ],
      [
        0.8096730709075928,
        45.54399490356445,
        288.4
      ],
      [
        0.8095875754952431,
        45.54391477257013,
        287.79999999999995
      ],
      [
        0.8095895033329725,
        45.543910916894674,
        287.6
      ],
      [
        0.8095864020287991,
        45.54390714503825,
        286.79999999999995
      ],
      [
        0.8095861505717039,
        45.54390714503825,
        286.6
      ],
      [
        0.8095861505717039,
        45.54390714503825,
        286.4
      ],
      [
        0.8095857314765453,
        45.54390714503825,
        286.4
      ],
      [
        0.8095667883753777,
        45.5438956618309,
        286.4
      ],
      [
        0.809504259377718,
        45.54381938651204,
        286
      ],
      [
        0.8094496093690395,
        45.543750738725066,
        285.4
      ],
      [
        0.8094307500869036,
        45.543731627985835,
        285.20000000000005
      ],
      [
        0.8093341905623674,
        45.54363624192774,
        284.79999999999995
      ],
      [
        0.80928985029459,
        45.54358670488,
        284.20000000000005
      ],
      [
        0.8092273212969303,
        45.543514201417565,
        283.6
      ],
      [
        0.8091854956001043,
        45.54346843622625,
        283.20000000000005
      ],
      [
        0.8091330248862505,
        45.54341118782759,
        282.79999999999995
      ],
      [
        0.8090953063219786,
        45.54336542263627,
        282.20000000000005
      ],
      [
        0.8090190310031176,
        45.54326626472175,
        281.20000000000005
      ],
      [
        0.8089471980929375,
        45.54318613372743,
        281
      ],
      [
        0.8089174423366785,
        45.543144224211574,
        280.79999999999995
      ],
      [
        0.8088777959346771,
        45.543113630265,
        280.6
      ],
      [
        0.8087741117924452,
        45.543003072962165,
        280.20000000000005
      ],
      [
        0.8086438570171595,
        45.542842810973525,
        280.4
      ],
      [
        0.8085876144468784,
        45.542762679979205,
        280
      ],
      [
        0.8085361495614052,
        45.542701659724116,
        279.79999999999995
      ],
      [
        0.8084346447139978,
        45.5426025018096,
        279
      ],
      [
        0.80842399969697,
        45.54259101860225,
        279
      ],
      [
        0.8082902245223522,
        45.54243846796453,
        278.20000000000005
      ],
      [
        0.808210764080286,
        45.54235833697021,
        278
      ],
      [
        0.8081402722746134,
        45.54228206165135,
        277.20000000000005
      ],
      [
        0.808079419657588,
        45.542213413864374,
        277
      ],
      [
        0.8079943433403969,
        45.54209891706705,
        276
      ],
      [
        0.8079824410378933,
        45.54208751767874,
        276
      ],
      [
        0.8078777510672808,
        45.541995987296104,
        275.20000000000005
      ],
      [
        0.8078480791300535,
        45.541957849636674,
        275
      ],
      [
        0.8077882323414087,
        45.54188534617424,
        274.4
      ],
      [
        0.8077556267380714,
        45.54184335283935,
        274.20000000000005
      ],
      [
        0.8076947741210461,
        45.54174796678126,
        274.20000000000005
      ],
      [
        0.8076100330799818,
        45.541660292074084,
        274.4
      ],
      [
        0.8075124677270651,
        45.54156867787242,
        275
      ],
      [
        0.8074204344302416,
        45.5414504930377,
        275
      ],
      [
        0.8073481824249029,
        45.541358878836036,
        274.79999999999995
      ],
      [
        0.8073168341070414,
        45.54131696932018,
        274.79999999999995
      ],
      [
        0.8072304166853428,
        45.541206328198314,
        274.6
      ],
      [
        0.8071317616850138,
        45.541107170283794,
        274.6
      ],
      [
        0.8069976512342691,
        45.54097364656627,
        274.20000000000005
      ],
      [
        0.8069111499935389,
        45.54089728742838,
        273.79999999999995
      ],
      [
        0.8068348746746778,
        45.540847750380635,
        273.79999999999995
      ],
      [
        0.8066462818533182,
        45.54077910259366,
        273.6
      ],
      [
        0.8064199704676867,
        45.54074096493423,
        273
      ],
      [
        0.8063778094947338,
        45.54073710925877,
        272.79999999999995
      ],
      [
        0.8062571939080954,
        45.540729481726885,
        272.6
      ],
      [
        0.8062148652970791,
        45.540729481726885,
        272.4
      ],
      [
        0.8060572016984224,
        45.540729481726885,
        271.79999999999995
      ],
      [
        0.8060324750840664,
        45.540733337402344,
        271.79999999999995
      ],
      [
        0.8059218339622021,
        45.54074096493423,
        271.4
      ],
      [
        0.8057914115488529,
        45.54074473679066,
        271.6
      ],
      [
        0.8057417068630457,
        45.540748592466116,
        271.6
      ],
      [
        0.8056297246366739,
        45.540756219998,
        270.79999999999995
      ],
      [
        0.8054339233785868,
        45.540771475061774,
        270.6
      ],
      [
        0.8053584024310112,
        45.5407752469182,
        271.6
      ],
      [
        0.8052796125411987,
        45.5407752469182,
        271.4
      ],
      [
        0.805163187906146,
        45.54078287445009,
        271.4
      ],
      [
        0.8050513733178377,
        45.54078287445009,
        271.20000000000005
      ],
      [
        0.8048502076417208,
        45.54077910259366,
        270.79999999999995
      ],
      [
        0.8046387322247028,
        45.54077910259366,
        270.6
      ],
      [
        0.8045986667275429,
        45.54078287445009,
        270.6
      ],
      [
        0.8043983392417431,
        45.54081724025309,
        269.79999999999995
      ],
      [
        0.8042794838547707,
        45.540843894705176,
        269.6
      ],
      [
        0.8042040467262268,
        45.54086300544441,
        269.4
      ],
      [
        0.8040500711649656,
        45.5409583915025,
        269
      ],
      [
        0.8039742149412632,
        45.541004156693816,
        268.4
      ],
      [
        0.8039035554975271,
        45.54104992188513,
        268.20000000000005
      ],
      [
        0.8038047328591347,
        45.54111856967211,
        267.6
      ],
      [
        0.8037582971155643,
        45.54114907979965,
        267.79999999999995
      ],
      [
        0.8036463148891926,
        45.541206328198314,
        267.4
      ],
      [
        0.8036106079816818,
        45.54122921079397,
        267.20000000000005
      ],
      [
        0.8035138808190823,
        45.54127883166075,
        267.20000000000005
      ],
      [
        0.8034189138561487,
        45.54134747944772,
        267.20000000000005
      ],
      [
        0.803288072347641,
        45.54142375476658,
        266.6
      ],
      [
        0.803157901391387,
        45.54151151329279,
        266.6
      ],
      [
        0.8031090348958969,
        45.541542023420334,
        266.4
      ],
      [
        0.803030664101243,
        45.541580161079764,
        265.6
      ],
      [
        0.8029999025166035,
        45.541599271818995,
        265.20000000000005
      ],
      [
        0.8028847351670265,
        45.54166791960597,
        265.20000000000005
      ],
      [
        0.8027819730341434,
        45.54174033924937,
        265.79999999999995
      ],
      [
        0.8026621118187904,
        45.541797587648034,
        265.4
      ],
      [
        0.8025257382541895,
        45.54184720851481,
        264.79999999999995
      ],
      [
        0.8025065436959267,
        45.54186623543501,
        264.20000000000005
      ],
      [
        0.8024972397834063,
        45.54188911803067,
        263.79999999999995
      ],
      [
        0.8024953957647085,
        45.541892973706126,
        263.79999999999995
      ],
      [
        0.8024756144732237,
        45.54186246357858,
        264.4
      ],
      [
        0.8024358004331589,
        45.541854836046696,
        264.6
      ],
      [
        0.8023025281727314,
        45.541854836046696,
        264.4
      ],
      [
        0.802173363044858,
        45.54183958098292,
        264.4
      ],
      [
        0.8021337166428566,
        45.541835725307465,
        264.4
      ],
      [
        0.802008742466569,
        45.54178233258426,
        264.6
      ],
      [
        0.8018774818629026,
        45.54174419492483,
        264.79999999999995
      ],
      [
        0.8017745520919561,
        45.54170982912183,
        264.6
      ],
      [
        0.8017179742455482,
        45.54167554713786,
        265
      ],
      [
        0.8016318082809448,
        45.54160689935088,
        265.20000000000005
      ],
      [
        0.801623510196805,
        45.541599271818995,
        265.20000000000005
      ],
      [
        0.8015017211437225,
        45.54145812056959,
        265.79999999999995
      ],
      [
        0.8014920819550753,
        45.54134362377226,
        266.20000000000005
      ],
      [
        0.8014887291938066,
        45.54132836870849,
        266.20000000000005
      ],
      [
        0.8014854602515697,
        45.54129023104906,
        266.4
      ],
      [
        0.8014852926135063,
        45.541202472522855,
        266.79999999999995
      ],
      [
        0.8015084266662598,
        45.54109191522002,
        267.4
      ],
      [
        0.8015194907784462,
        45.541061321273446,
        267.4
      ],
      [
        0.8015665970742702,
        45.54093928076327,
        268
      ],
      [
        0.801572548225522,
        45.540927881374955,
        268.20000000000005
      ],
      [
        0.801603477448225,
        45.54089351557195,
        268.4
      ],
      [
        0.8016631565988064,
        45.54083249531686,
        269
      ],
      [
        0.8017105981707573,
        45.54077910259366,
        269.4
      ],
      [
        0.8017576206475496,
        45.540721854195,
        269.79999999999995
      ],
      [
        0.801814366132021,
        45.540630323812366,
        270.4
      ],
      [
        0.8018187247216702,
        45.54061884060502,
        270.4
      ],
      [
        0.8018421940505505,
        45.54052345454693,
        270.79999999999995
      ],
      [
        0.801821993663907,
        45.54038615897298,
        271.20000000000005
      ],
      [
        0.8017151243984699,
        45.540275517851114,
        271.6
      ],
      [
        0.8015686087310314,
        45.54014584980905,
        272
      ],
      [
        0.8015003800392151,
        45.54011148400605,
        272.6
      ],
      [
        0.8014072570949793,
        45.54008482955396,
        273.20000000000005
      ],
      [
        0.8013123739510775,
        45.54006571881473,
        273.4
      ],
      [
        0.801227381452918,
        45.54005046375096,
        273.20000000000005
      ],
      [
        0.8010488469153643,
        45.54002372547984,
        273.20000000000005
      ],
      [
        0.8009797800332308,
        45.54001232609153,
        273.79999999999995
      ],
      [
        0.8008318394422531,
        45.539997071027756,
        274
      ],
      [
        0.8007311727851629,
        45.53998181596398,
        274.4
      ],
      [
        0.8007286582142115,
        45.53998181596398,
        274.4
      ],
      [
        0.800704350695014,
        45.539977960288525,
        274.20000000000005
      ],
      [
        0.8006696496158838,
        45.53997033275664,
        274.4
      ],
      [
        0.800595972687006,
        45.539958933368325,
        274.79999999999995
      ],
      [
        0.800522631034255,
        45.539955077692866,
        275
      ],
      [
        0.8003950584679842,
        45.53995130583644,
        275.4
      ],
      [
        0.8002530690282583,
        45.53992842324078,
        275.6
      ],
      [
        0.8001332078129053,
        45.53991316817701,
        275.79999999999995
      ],
      [
        0.799980154260993,
        45.53989405743778,
        276.20000000000005
      ],
      [
        0.7997791562229395,
        45.53986731916666,
        276.79999999999995
      ],
      [
        0.7995629869401455,
        45.53987117484212,
        277.4
      ],
      [
        0.7994270324707031,
        45.53990931250155,
        277.79999999999995
      ],
      [
        0.7994078379124403,
        45.53991316817701,
        277.79999999999995
      ],
      [
        0.7993894815444946,
        45.539920795708895,
        278
      ],
      [
        0.7992006372660398,
        45.54000847041607,
        278.6
      ],
      [
        0.7990861404687166,
        45.540096228942275,
        278.79999999999995
      ],
      [
        0.7989718951284885,
        45.54018013179302,
        279.6
      ],
      [
        0.798910791054368,
        45.54022598080337,
        279.79999999999995
      ],
      [
        0.7988434843719006,
        45.540256490930915,
        280
      ],
      [
        0.7986719068139791,
        45.54029840044677,
        280.20000000000005
      ],
      [
        0.7985507044941187,
        45.54030988365412,
        280.6
      ],
      [
        0.7983875926584005,
        45.54029840044677,
        280.79999999999995
      ],
      [
        0.7983714155852795,
        45.540294628590345,
        280.79999999999995
      ],
      [
        0.798252560198307,
        45.540252635255456,
        281.20000000000005
      ],
      [
        0.7981195393949747,
        45.54018398746848,
        281.6
      ],
      [
        0.7980549149215221,
        45.540138222277164,
        282
      ],
      [
        0.7980265002697706,
        45.54010771214962,
        282.20000000000005
      ],
      [
        0.7979917991906404,
        45.54004283621907,
        282.4
      ],
      [
        0.7979720178991556,
        45.539977960288525,
        282.6
      ],
      [
        0.797937735915184,
        45.53985206410289,
        283
      ],
      [
        0.797933042049408,
        45.53971099667251,
        283.20000000000005
      ],
      [
        0.7978980895131826,
        45.539604127407074,
        283.4
      ],
      [
        0.7978286035358906,
        45.53945534862578,
        283.20000000000005
      ],
      [
        0.7977856881916523,
        45.53940958343446,
        282.79999999999995
      ],
      [
        0.7977545075118542,
        45.53939432837069,
        282.6
      ],
      [
        0.7976808305829763,
        45.5393523350358,
        282
      ],
      [
        0.7976720295846462,
        45.53935619071126,
        282
      ],
      [
        0.7976808305829763,
        45.539363818243146,
        281.6
      ],
      [
        0.7976872846484184,
        45.539367673918605,
        281.4
      ],
      [
        0.7976928167045116,
        45.539363818243146,
        281.20000000000005
      ],
      [
        0.7976892963051796,
        45.539363818243146,
        281.20000000000005
      ],
      [
        0.7976627256721258,
        45.53937144577503,
        281
      ],
      [
        0.7975318841636181,
        45.53943246603012,
        281.20000000000005
      ],
      [
        0.7974199019372463,
        45.53952022455633,
        283
      ],
      [
        0.797374052926898,
        45.5395888723433,
        284
      ],
      [
        0.7973582111299038,
        45.53961175493896,
        284.20000000000005
      ],
      [
        0.7973274495452642,
        45.539642265066504,
        284.4
      ],
      [
        0.7972795888781548,
        45.539703369140625,
        284.4
      ],
      [
        0.797243881970644,
        45.53973387926817,
        284.6
      ],
      [
        0.7971930876374245,
        45.53977578878403,
        284.79999999999995
      ],
      [
        0.7971716299653053,
        45.53979489952326,
        285.20000000000005
      ],
      [
        0.7971477415412664,
        45.5398254096508,
        285.6
      ],
      [
        0.7970946840941906,
        45.53987117484212,
        286.20000000000005
      ],
      [
        0.7970843743532896,
        45.539878802374005,
        286.4
      ],
      [
        0.7970608212053776,
        45.539901684969664,
        286.6
      ],
      [
        0.7969894912093878,
        45.53995130583644,
        287.4
      ],
      [
        0.7969624176621437,
        45.53996656090021,
        287.6
      ],
      [
        0.7969395350664854,
        45.53998181596398,
        287.79999999999995
      ],
      [
        0.7969133835285902,
        45.539997071027756,
        287.79999999999995
      ],
      [
        0.7968838792294264,
        45.540016097947955,
        288
      ],
      [
        0.796782961115241,
        45.54008860141039,
        288.20000000000005
      ],
      [
        0.7967451587319374,
        45.540115339681506,
        288.4
      ],
      [
        0.7966737449169159,
        45.54016873240471,
        289
      ],
      [
        0.7966128922998905,
        45.540214497596025,
        289.6
      ],
      [
        0.796560924500227,
        45.54024886339903,
        290
      ],
      [
        0.7965164165943861,
        45.540294628590345,
        290.20000000000005
      ],
      [
        0.7964901812374592,
        45.54032513871789,
        290.6
      ],
      [
        0.7964613474905491,
        45.54034802131355,
        291
      ],
      [
        0.7964383810758591,
        45.540370903909206,
        291.6
      ],
      [
        0.7963849883526564,
        45.540397642180324,
        292.20000000000005
      ],
      [
        0.7962869200855494,
        45.54043955169618,
        292.6
      ],
      [
        0.796261103823781,
        45.540451034903526,
        293
      ],
      [
        0.7962078787386417,
        45.540470061823726,
        294
      ],
      [
        0.7961408235132694,
        45.540508199483156,
        295
      ],
      [
        0.7961283344775438,
        45.54051582701504,
        295
      ],
      [
        0.7961029373109341,
        45.54053493775427,
        295.20000000000005
      ],
      [
        0.7960484549403191,
        45.54058455862105,
        295.6
      ],
      [
        0.7960127480328083,
        45.54062269628048,
        296.20000000000005
      ],
      [
        0.7959570921957493,
        45.54066460579634,
        297.20000000000005
      ],
      [
        0.7959026098251343,
        45.54069897159934,
        297.4
      ],
      [
        0.7958453614264727,
        45.54074473679066,
        298.20000000000005
      ],
      [
        0.795764559879899,
        45.54079812951386,
        298.6
      ],
      [
        0.7956593669950962,
        45.540847750380635,
        299.20000000000005
      ],
      [
        0.7956167869269848,
        45.540866777300835,
        299.79999999999995
      ],
      [
        0.7955659087747335,
        45.54089351557195,
        299.6
      ],
      [
        0.7955113425850868,
        45.54093550890684,
        299.20000000000005
      ],
      [
        0.7954973448067904,
        45.54096979089081,
        299.20000000000005
      ],
      [
        0.7954913936555386,
        45.54101941175759,
        298.6
      ],
      [
        0.7954905554652214,
        45.54103843867779,
        298
      ],
      [
        0.7954953331500292,
        45.541065176948905,
        298
      ],
      [
        0.7955299504101276,
        45.54112242534757,
        298.20000000000005
      ],
      [
        0.795559287071228,
        45.54117581807077,
        298.6
      ],
      [
        0.7956543378531933,
        45.54129408672452,
        298.6
      ],
      [
        0.7956640608608723,
        45.54130548611283,
        298.6
      ],
      [
        0.7957313675433397,
        45.54138938896358,
        298
      ],
      [
        0.7957723550498486,
        45.541439009830356,
        298
      ],
      [
        0.7958348840475082,
        45.541519140824676,
        297.4
      ],
      [
        0.7959070522338152,
        45.54161452688277,
        297
      ],
      [
        0.7959161885082722,
        45.54162592627108,
        297
      ],
      [
        0.7960550766438246,
        45.541755594313145,
        297.4
      ],
      [
        0.7961001712828875,
        45.54179381579161,
        297.6
      ],
      [
        0.7961776200681925,
        45.54184720851481,
        298
      ],
      [
        0.7961926236748695,
        45.541854836046696,
        298.20000000000005
      ],
      [
        0.7963071204721928,
        45.54192348383367,
        299.20000000000005
      ],
      [
        0.7963371276855469,
        45.54193873889744,
        299.4
      ],
      [
        0.7964060269296169,
        45.54199975915253,
        300.20000000000005
      ],
      [
        0.7964444160461426,
        45.542030269280076,
        300.4
      ],
      [
        0.7965103816241026,
        45.54209891706705,
        301
      ],
      [
        0.796530582010746,
        45.54212565533817,
        301.20000000000005
      ],
      [
        0.7965914346277714,
        45.542213413864374,
        301.6
      ],
      [
        0.7966083660721779,
        45.542247695848346,
        301.79999999999995
      ],
      [
        0.7966878265142441,
        45.54232405498624,
        302
      ],
      [
        0.796707272529602,
        45.54233545437455,
        302
      ],
      [
        0.7968730665743351,
        45.542426984757185,
        302
      ],
      [
        0.7969348412007093,
        45.5424537230283,
        302.20000000000005
      ],
      [
        0.7969935983419418,
        45.54248046129942,
        301.6
      ],
      [
        0.7971250265836716,
        45.542526226490736,
        301.4
      ],
      [
        0.7971780840307474,
        45.54256436415017,
        301.20000000000005
      ],
      [
        0.7972374279052019,
        45.542606273666024,
        301.20000000000005
      ],
      [
        0.7973639946430922,
        45.54269788786769,
        301.20000000000005
      ],
      [
        0.797435911372304,
        45.542766535654664,
        301.20000000000005
      ],
      [
        0.7974452152848244,
        45.54277416318655,
        301.20000000000005
      ],
      [
        0.7974780723452568,
        45.542804673314095,
        301.4
      ],
      [
        0.7975252624601126,
        45.54283518344164,
        301.20000000000005
      ],
      [
        0.7975756376981735,
        45.54286954924464,
        300.79999999999995
      ],
      [
        0.7976344786584377,
        45.54292671382427,
        300
      ],
      [
        0.7976705208420753,
        45.542941968888044,
        299.6
      ],
      [
        0.7977406773716211,
        45.54299158975482,
        299
      ],
      [
        0.7977674994617701,
        45.54300684481859,
        298.6
      ],
      [
        0.7978286035358906,
        45.54304883815348,
        298
      ],
      [
        0.7979161106050014,
        45.54310600273311,
        298
      ],
      [
        0.7980800606310368,
        45.54318998940289,
        297.4
      ],
      [
        0.798186594620347,
        45.54322812706232,
        297.6
      ],
      [
        0.7982491236180067,
        45.54325100965798,
        297.79999999999995
      ],
      [
        0.7982862554490566,
        45.543258637189865,
        297.79999999999995
      ],
      [
        0.798324141651392,
        45.54327003657818,
        298
      ],
      [
        0.7983578369021416,
        45.543277664110065,
        298
      ],
      [
        0.7984304241836071,
        45.54336165077984,
        298.4
      ],
      [
        0.798446349799633,
        45.54343029856682,
        298.79999999999995
      ],
      [
        0.7984471879899502,
        45.54344169795513,
        298.79999999999995
      ],
      [
        0.7984480261802673,
        45.543476063758135,
        299
      ],
      [
        0.7984512951225042,
        45.54350280202925,
        298.79999999999995
      ],
      [
        0.7985036820173264,
        45.54368586279452,
        298.4
      ],
      [
        0.798508208245039,
        45.54369734600186,
        298.20000000000005
      ],
      [
        0.7985419034957886,
        45.543853752315044,
        297.79999999999995
      ],
      [
        0.7985802087932825,
        45.54391477257013,
        297.4
      ],
      [
        0.7986175920814276,
        45.543949054554105,
        296.79999999999995
      ],
      [
        0.7986595015972853,
        45.54398342035711,
        296.6
      ],
      [
        0.7988344319164753,
        45.54409020580351,
        297.6
      ],
      [
        0.798965273424983,
        45.544166564941406,
        297.79999999999995
      ],
      [
        0.7991001382470131,
        45.54423521272838,
        296.79999999999995
      ],
      [
        0.7992223463952541,
        45.54431148804724,
        296.6
      ],
      [
        0.7992229331284761,
        45.54439924657345,
        296.4
      ],
      [
        0.7991143874824047,
        45.54447552189231,
        295.79999999999995
      ],
      [
        0.7991055026650429,
        45.54448692128062,
        295.79999999999995
      ],
      [
        0.7990153972059488,
        45.54454802535474,
        295.4
      ],
      [
        0.7989260461181402,
        45.54462807253003,
        294.79999999999995
      ],
      [
        0.7989070191979408,
        45.54465481080115,
        294.4
      ],
      [
        0.7988915964961052,
        45.544704431667924,
        293.79999999999995
      ],
      [
        0.7988921832293272,
        45.54474634118378,
        293
      ],
      [
        0.798896960914135,
        45.54476545192301,
        292.6
      ],
      [
        0.7989427261054516,
        45.54483409970999,
        291.6
      ],
      [
        0.7990426383912563,
        45.54491423070431,
        290.6
      ],
      [
        0.7991694565862417,
        45.544994277879596,
        289.6
      ],
      [
        0.7993159722536802,
        45.54506678134203,
        289.79999999999995
      ],
      [
        0.7993985339999199,
        45.54510491900146,
        289.6
      ],
      [
        0.7994003780186176,
        45.545112546533346,
        289.4
      ],
      [
        0.799409095197916,
        45.54512017406523,
        289.20000000000005
      ],
      [
        0.7994505017995834,
        45.54518882185221,
        288.4
      ],
      [
        0.7994624879211187,
        45.5452308151871,
        287.4
      ],
      [
        0.7994773238897324,
        45.54524992592633,
        287
      ],
      [
        0.7995082531124353,
        45.545291835442185,
        286.20000000000005
      ],
      [
        0.7995387632399797,
        45.54532620124519,
        285.4
      ],
      [
        0.7995596341788769,
        45.54534908384085,
        285.20000000000005
      ],
      [
        0.799601711332798,
        45.54540247656405,
        284
      ],
      [
        0.7996021304279566,
        45.54539870470762,
        283.79999999999995
      ],
      [
        0.799670023843646,
        45.545448241755366,
        283.4
      ],
      [
        0.7996958401054144,
        45.545471124351025,
        283
      ],
      [
        0.7997405994683504,
        45.545509262010455,
        282.4
      ],
      [
        0.7997684273868799,
        45.54553214460611,
        281.79999999999995
      ],
      [
        0.7998405117541552,
        45.54558176547289,
        280.79999999999995
      ],
      [
        0.7998854387551546,
        45.54560464806855,
        280.6
      ],
      [
        0.7999632228165865,
        45.54569240659475,
        280
      ],
      [
        0.7999706827104092,
        45.54571528919041,
        279.79999999999995
      ],
      [
        0.7999856863170862,
        45.54581444710493,
        279
      ],
      [
        0.7999788969755173,
        45.54586021229625,
        278.79999999999995
      ],
      [
        0.7999382447451353,
        45.545963225886226,
        278.4
      ],
      [
        0.7998922280967236,
        45.546066239476204,
        278
      ],
      [
        0.7998862769454718,
        45.54609297774732,
        277.79999999999995
      ],
      [
        0.7998810801655054,
        45.54610823281109,
        277.79999999999995
      ],
      [
        0.7998588681221008,
        45.54620739072561,
        277.6
      ],
      [
        0.7998350635170937,
        45.54633328691125,
        277.79999999999995
      ],
      [
        0.7998338900506496,
        45.546459183096886,
        277.4
      ],
      [
        0.799816707149148,
        45.54654308594763,
        279
      ],
      [
        0.7997935730963945,
        45.54660796187818,
        280
      ],
      [
        0.799789298325777,
        45.546619361266494,
        280.20000000000005
      ],
      [
        0.7997623085975647,
        45.54664609953761,
        280.6
      ],
      [
        0.7997447066009045,
        45.54666135460138,
        280.6
      ],
      [
        0.7997286133468151,
        45.54668423719704,
        280.79999999999995
      ],
      [
        0.7996745500713587,
        45.54671089164913,
        281.20000000000005
      ],
      [
        0.7996163796633482,
        45.54670326411724,
        281.6
      ],
      [
        0.7994981948286295,
        45.5467605125159,
        281.6
      ],
      [
        0.7995006255805492,
        45.54682916030288,
        281.6
      ],
      [
        0.79951629973948,
        45.54685967043042,
        281.20000000000005
      ],
      [
        0.79951629973948,
        45.54685967043042,
        281.20000000000005
      ],
      [
        0.7995117735117674,
        45.54684064351022,
        281
      ],
      [
        0.7995000388473272,
        45.54683678783476,
        280.79999999999995
      ],
      [
        0.7995006255805492,
        45.54683678783476,
        280.79999999999995
      ],
      [
        0.7995033077895641,
        45.54683678783476,
        280.79999999999995
      ],
      [
        0.7995097618550062,
        45.546855898573995,
        281
      ],
      [
        0.7995406910777092,
        45.54695891216397,
        281.79999999999995
      ],
      [
        0.7995670940726995,
        45.547012304887176,
        282.20000000000005
      ],
      [
        0.7995755597949028,
        45.54703895933926,
        282.4
      ],
      [
        0.7996023818850517,
        45.5471458286047,
        282.6
      ],
      [
        0.7996032200753689,
        45.54715722799301,
        282.6
      ],
      [
        0.7996324729174376,
        45.54725646972656,
        283.4
      ],
      [
        0.799675052985549,
        45.547367027029395,
        284
      ],
      [
        0.799700953066349,
        45.54743953049183,
        284.4
      ],
      [
        0.7997092511504889,
        45.54747766815126,
        284.6
      ],
      [
        0.7997422758489847,
        45.54759208112955,
        285.20000000000005
      ],
      [
        0.7997672539204359,
        45.54764932952821,
        285.6
      ],
      [
        0.799799021333456,
        45.547706577926874,
        286.20000000000005
      ],
      [
        0.7998162880539894,
        45.54775611497462,
        286.6
      ],
      [
        0.7998223230242729,
        45.54780959151685,
        287.20000000000005
      ],
      [
        0.7998646516352892,
        45.54791637696326,
        287.6
      ],
      [
        0.7998848520219326,
        45.547962142154574,
        287.79999999999995
      ],
      [
        0.7998932339251041,
        45.54798888042569,
        288
      ],
      [
        0.7999266777187586,
        45.54810329340398,
        288.6
      ],
      [
        0.799928605556488,
        45.54811477661133,
        288.6
      ],
      [
        0.7999303657561541,
        45.5481300316751,
        288.79999999999995
      ],
      [
        0.799986943602562,
        45.54829020984471,
        289.20000000000005
      ],
      [
        0.8000740315765142,
        45.5483855959028,
        289.6
      ],
      [
        0.8000921364873648,
        45.548412250354886,
        289.6
      ],
      [
        0.8001202158629894,
        45.54844661615789,
        289.79999999999995
      ],
      [
        0.8001868519932032,
        45.54852289147675,
        289.6
      ],
      [
        0.8002803940325975,
        45.54861827753484,
        290
      ],
      [
        0.8003756962716579,
        45.54872891865671,
        290.20000000000005
      ],
      [
        0.8004738483577967,
        45.54878231137991,
        290.6
      ],
      [
        0.8005826454609632,
        45.54871743544936,
        289.6
      ],
      [
        0.8006556518375874,
        45.54868315346539,
        289.4
      ],
      [
        0.8007464278489351,
        45.54864878766239,
        289.6
      ],
      [
        0.8008994814008474,
        45.54859916679561,
        290
      ],
      [
        0.8010226953774691,
        45.548553401604295,
        289.79999999999995
      ],
      [
        0.8011268824338913,
        45.54851149208844,
        289.4
      ],
      [
        0.8011574763804674,
        45.548496237024665,
        289.20000000000005
      ],
      [
        0.8013253659009933,
        45.54846187122166,
        288.79999999999995
      ],
      [
        0.8013732265681028,
        45.548454243689775,
        288.79999999999995
      ],
      [
        0.8014957699924707,
        45.548404622823,
        288.4
      ],
      [
        0.8016321435570717,
        45.548355085775256,
        287.79999999999995
      ],
      [
        0.8017411082983017,
        45.54831309244037,
        287.6
      ],
      [
        0.8017768152058125,
        45.548297837376595,
        287.6
      ],
      [
        0.8019119314849377,
        45.548255844041705,
        287.20000000000005
      ],
      [
        0.8020623866468668,
        45.54821393452585,
        286.79999999999995
      ],
      [
        0.802221642807126,
        45.548156686127186,
        286.79999999999995
      ],
      [
        0.802412498742342,
        45.54811092093587,
        286.79999999999995
      ],
      [
        0.8024267479777336,
        45.54810706526041,
        286.6
      ],
      [
        0.8025243133306503,
        45.54806892760098,
        286.4
      ],
      [
        0.8026999142020941,
        45.54801553487778,
        286
      ],
      [
        0.8028334379196167,
        45.54799265228212,
        286
      ],
      [
        0.8029089588671923,
        45.54797362536192,
        285.6
      ],
      [
        0.8030535466969013,
        45.54796599783003,
        285
      ],
      [
        0.8031501062214375,
        45.54796599783003,
        284.6
      ],
      [
        0.803205007687211,
        45.547962142154574,
        284.4
      ],
      [
        0.8033648505806923,
        45.547939259558916,
        284.4
      ],
      [
        0.8035039901733398,
        45.54795074276626,
        284.20000000000005
      ],
      [
        0.8036023937165737,
        45.547943115234375,
        283.6
      ],
      [
        0.803656792268157,
        45.54793540388346,
        283.20000000000005
      ],
      [
        0.803730133920908,
        45.54793163202703,
        282.4
      ],
      [
        0.8038538508117199,
        45.547924004495144,
        281.79999999999995
      ],
      [
        0.8039556071162224,
        45.547924004495144,
        282
      ],
      [
        0.8040568605065346,
        45.54791637696326,
        282.6
      ],
      [
        0.8042764663696289,
        45.54787823930383,
        282.4
      ],
      [
        0.8044072240591049,
        45.54785535670817,
        282.4
      ],
      [
        0.8044515643268824,
        45.5478401016444,
        282.4
      ],
      [
        0.8044730219990015,
        45.54783247411251,
        282.4
      ],
      [
        0.8046102337539196,
        45.54777522571385,
        282
      ],
      [
        0.8047487027943134,
        45.54771797731519,
        282.20000000000005
      ],
      [
        0.8048836514353752,
        45.54765318520367,
        282.6
      ],
      [
        0.8050241321325302,
        45.54759593680501,
        283
      ],
      [
        0.8050903491675854,
        45.54755779914558,
        283.4
      ],
      [
        0.8051407244056463,
        45.547527289018035,
        283.4
      ],
      [
        0.8051767665892839,
        45.547508178278804,
        283.6
      ],
      [
        0.805322527885437,
        45.5474357586354,
        284.20000000000005
      ],
      [
        0.8054613322019577,
        45.54738228209317,
        284.6
      ],
      [
        0.8054770063608885,
        45.547370882704854,
        284.6
      ],
      [
        0.8055948559194803,
        45.54731748998165,
        285.20000000000005
      ],
      [
        0.8056485000997782,
        45.54730223491788,
        285.4
      ],
      [
        0.8057113643735647,
        45.54727935232222,
        285.6
      ],
      [
        0.805784035474062,
        45.54724498651922,
        285.79999999999995
      ],
      [
        0.8058758173137903,
        45.5471992213279,
        286
      ],
      [
        0.8059049025177956,
        45.54718396626413,
        286
      ],
      [
        0.8060390967875719,
        45.547130573540926,
        286.4
      ],
      [
        0.8060912322252989,
        45.54709620773792,
        286.20000000000005
      ],
      [
        0.8060985244810581,
        45.547092435881495,
        286.20000000000005
      ],
      [
        0.8061597123742104,
        45.54708095267415,
        286.20000000000005
      ],
      [
        0.8062750473618507,
        45.54706569761038,
        286.6
      ],
      [
        0.8063310384750366,
        45.54705421440303,
        287.20000000000005
      ],
      [
        0.8064612094312906,
        45.54703895933926,
        287.4
      ],
      [
        0.8065203856676817,
        45.54703895933926,
        287.79999999999995
      ],
      [
        0.8065631333738565,
        45.54703895933926,
        288
      ],
      [
        0.8066978305578232,
        45.54700844921172,
        288.6
      ],
      [
        0.806731441989541,
        45.54700082167983,
        288.79999999999995
      ],
      [
        0.8068912010639906,
        45.5469436571002,
        289.20000000000005
      ],
      [
        0.806975606828928,
        45.54692840203643,
        289.4
      ],
      [
        0.8070116490125656,
        45.54692077450454,
        289.6
      ],
      [
        0.8070292510092258,
        45.54691691882908,
        289.6
      ],
      [
        0.8071186859160662,
        45.54689780808985,
        289.79999999999995
      ],
      [
        0.8072077017277479,
        45.54688255302608,
        290
      ],
      [
        0.8072540536522865,
        45.546874925494194,
        290.20000000000005
      ],
      [
        0.8073167502880096,
        45.54685967043042,
        290.6
      ],
      [
        0.8073589112609625,
        45.54684827104211,
        290.79999999999995
      ],
      [
        0.8074749168008566,
        45.54682153277099,
        291
      ],
      [
        0.8076060935854912,
        45.546794878318906,
        291.6
      ],
      [
        0.8077812753617764,
        45.5467414855957,
        292
      ],
      [
        0.807915972545743,
        45.5467261467129,
        292.6
      ],
      [
        0.8079960197210312,
        45.5467071197927,
        292.6
      ],
      [
        0.808032313361764,
        45.54669186472893,
        292.6
      ],
      [
        0.8080503344535828,
        45.54668423719704,
        292.79999999999995
      ],
      [
        0.8080975245684385,
        45.54666898213327,
        293
      ],
      [
        0.8081774041056633,
        45.546638472005725,
        293.4
      ],
      [
        0.8082316350191832,
        45.54661558941007,
        293.79999999999995
      ],
      [
        0.8083374984562397,
        45.54656982421875,
        294
      ],
      [
        0.8083534240722656,
        45.54656211286783,
        294
      ],
      [
        0.8084545098245144,
        45.546482065692544,
        294.6
      ],
      [
        0.8085763826966286,
        45.546379052102566,
        294.79999999999995
      ],
      [
        0.8085873629897833,
        45.54636756889522,
        294.79999999999995
      ],
      [
        0.8085999358445406,
        45.54635616950691,
        294.79999999999995
      ],
      [
        0.8086503110826015,
        45.546302776783705,
        295.20000000000005
      ],
      [
        0.808706134557724,
        45.54621116258204,
        295
      ],
      [
        0.8087753690779209,
        45.54608912207186,
        296
      ],
      [
        0.8087895344942808,
        45.54606246761978,
        296.20000000000005
      ],
      [
        0.8088479563593864,
        45.545967081561685,
        296.79999999999995
      ],
      [
        0.8088549133390188,
        45.54595182649791,
        296.79999999999995
      ],
      [
        0.8089421689510345,
        45.54581830278039,
        297.4
      ],
      [
        0.8089725114405155,
        45.54578016512096,
        298
      ],
      [
        0.8090818952769041,
        45.5457229167223,
        298.20000000000005
      ],
      [
        0.809213574975729,
        45.54568477906287,
        297.79999999999995
      ],
      [
        0.8093461766839027,
        45.54565426893532,
        297
      ],
      [
        0.8093874994665384,
        45.54564278572798,
        296.79999999999995
      ],
      [
        0.8093738369643688,
        45.54565426893532,
        296.6
      ],
      [
        0.8093455899506807,
        45.545650413259864,
        296.6
      ]
    ]
  }
}
