{
  "type": "Feature",
  "properties": {
    "id": "24468853690",
    "activity": "walking",
    "name": "Mialet Walking",
    "date": "2026-09-23T12:16:29Z",
    "distanceKm": 3.03,
    "movingTimeSeconds": 1858,
    "elapsedTimeSeconds": 1862,
    "ascentM": 17,
    "descentM": 23,
    "providers": [
      "Garmin"
    ]
  },
  "geometry": {
    "type": "LineString",
    "coordinates": [
      [
        0.9327505063265562,
        45.554641680791974,
        300.4
      ],
      [
        0.9326382726430893,
        45.55455392226577,
        300.4
      ],
      [
        0.9325693733990192,
        45.55451201274991,
        300.79999999999995
      ],
      [
        0.9324534516781569,
        45.554401371628046,
        301
      ],
      [
        0.9323882404714823,
        45.554283102974296,
        301
      ],
      [
        0.9322883281856775,
        45.55411906912923,
        300.79999999999995
      ],
      [
        0.9321517869830132,
        45.55401228368282,
        301
      ],
      [
        0.9319631941616535,
        45.553947407752275,
        301.20000000000005
      ],
      [
        0.9318618569523096,
        45.55393592454493,
        301.20000000000005
      ],
      [
        0.931764543056488,
        45.55391304194927,
        301.20000000000005
      ],
      [
        0.9316722583025694,
        45.55388638749719,
        301.4
      ],
      [
        0.9316502138972282,
        45.55388638749719,
        301.4
      ],
      [
        0.9314850904047489,
        45.55388638749719,
        301.4
      ],
      [
        0.9312902111560106,
        45.55388638749719,
        301.6
      ],
      [
        0.9311133529990911,
        45.55391304194927,
        301.6
      ],
      [
        0.9309773985296488,
        45.55393592454493,
        301.79999999999995
      ],
      [
        0.9308180585503578,
        45.55397414602339,
        301.79999999999995
      ],
      [
        0.9306448046118021,
        45.55403516627848,
        301.4
      ],
      [
        0.9306175634264946,
        45.55411521345377,
        301.4
      ],
      [
        0.9305919986218214,
        45.55422208271921,
        302
      ],
      [
        0.93046342022717,
        45.5543174687773,
        302
      ],
      [
        0.930395694449544,
        45.55441277101636,
        301.6
      ],
      [
        0.9303984604775906,
        45.554424254223704,
        301.4
      ],
      [
        0.9305065870285034,
        45.55452726781368,
        300.6
      ],
      [
        0.9306603111326694,
        45.5546264257282,
        300.6
      ],
      [
        0.9307670965790749,
        45.55472943931818,
        300.4
      ],
      [
        0.9307793341577053,
        45.55476372130215,
        300.4
      ],
      [
        0.9307972714304924,
        45.55482096970081,
        300.4
      ],
      [
        0.9308013785630465,
        45.554836224764585,
        300.6
      ],
      [
        0.9308046475052834,
        45.55498885922134,
        300.79999999999995
      ],
      [
        0.9307536855340004,
        45.55509941652417,
        300.79999999999995
      ],
      [
        0.9306517615914345,
        45.55520243011415,
        301
      ],
      [
        0.9305643383413553,
        45.55527870543301,
        300.79999999999995
      ],
      [
        0.9304977022111416,
        45.555309215560555,
        301.4
      ],
      [
        0.9304464887827635,
        45.55534358136356,
        301.6
      ],
      [
        0.9303144738078117,
        45.55545422248542,
        301.6
      ],
      [
        0.9301743283867836,
        45.55557249113917,
        301.79999999999995
      ],
      [
        0.9300331771373749,
        45.55567164905369,
        302
      ],
      [
        0.9299092087894678,
        45.555728897452354,
        301.79999999999995
      ],
      [
        0.9298836439847946,
        45.555747924372554,
        301.6
      ],
      [
        0.929753640666604,
        45.55585093796253,
        301.79999999999995
      ],
      [
        0.9296806342899799,
        45.555961579084396,
        302.4
      ],
      [
        0.9296684805303812,
        45.55598823353648,
        302.4
      ],
      [
        0.9296614397317171,
        45.55603022687137,
        302.6
      ],
      [
        0.9296570811420679,
        45.55608747527003,
        302.79999999999995
      ],
      [
        0.9296251460909843,
        45.556201888248324,
        303
      ],
      [
        0.929519534111023,
        45.556278163567185,
        302.4
      ],
      [
        0.9294860903173685,
        45.55628964677453,
        302.4
      ],
      [
        0.9293473698198795,
        45.55634303949773,
        302
      ],
      [
        0.9292015247046947,
        45.55641554296017,
        302
      ],
      [
        0.9290721919387579,
        45.55652618408203,
        301.79999999999995
      ],
      [
        0.9289644844830036,
        45.55665962398052,
        301.79999999999995
      ],
      [
        0.9288914781063795,
        45.55672835558653,
        301.6
      ],
      [
        0.9287926554679871,
        45.55683891288936,
        301.79999999999995
      ],
      [
        0.9287810884416103,
        45.556850396096706,
        301.79999999999995
      ],
      [
        0.9286539349704981,
        45.556964809075,
        301.6
      ],
      [
        0.9285817667841911,
        45.55703731253743,
        301.4
      ],
      [
        0.9285198245197535,
        45.557132698595524,
        301
      ],
      [
        0.9284936729818583,
        45.55717846378684,
        300.79999999999995
      ],
      [
        0.9284785855561495,
        45.55722422897816,
        300.79999999999995
      ],
      [
        0.9284462314099073,
        45.55731961503625,
        300.79999999999995
      ],
      [
        0.9284146316349506,
        45.557388262823224,
        300.79999999999995
      ],
      [
        0.9283989574760199,
        45.55743025615811,
        301
      ],
      [
        0.9283857978880405,
        45.55751793086529,
        301.20000000000005
      ],
      [
        0.9284047409892082,
        45.55763619951904,
        301.79999999999995
      ],
      [
        0.9284082613885403,
        45.55767433717847,
        302.6
      ],
      [
        0.9284270368516445,
        45.557739213109016,
        302.79999999999995
      ],
      [
        0.9284328203648329,
        45.557804089039564,
        303.20000000000005
      ],
      [
        0.9284406155347824,
        45.55783459916711,
        303.4
      ],
      [
        0.9284482430666685,
        45.55786510929465,
        303.6
      ],
      [
        0.9284530207514763,
        45.557918502017856,
        303.79999999999995
      ],
      [
        0.9284403640776873,
        45.55796426720917,
        304
      ],
      [
        0.9284629113972187,
        45.55806342512369,
        304
      ],
      [
        0.9285055752843618,
        45.558177921921015,
        304.20000000000005
      ],
      [
        0.9285495802760124,
        45.55831144563854,
        304
      ],
      [
        0.9285968542098999,
        45.558395348489285,
        304
      ],
      [
        0.9286516718566418,
        45.55851738899946,
        303.79999999999995
      ],
      [
        0.928687546402216,
        45.55857840925455,
        303.79999999999995
      ],
      [
        0.9287383407354355,
        45.55863951332867,
        303.6
      ],
      [
        0.9288295358419418,
        45.558731043711305,
        303.4
      ],
      [
        0.9289308730512857,
        45.558868339285254,
        303.4
      ],
      [
        0.9289304539561272,
        45.5588798224926,
        303.4
      ],
      [
        0.9289079904556274,
        45.558910332620144,
        303.6
      ],
      [
        0.9288652427494526,
        45.55893707089126,
        304
      ],
      [
        0.9287453815340996,
        45.558929443359375,
        304.6
      ],
      [
        0.9285697806626558,
        45.55891796015203,
        304.20000000000005
      ],
      [
        0.9285491611808538,
        45.55892173200846,
        304.20000000000005
      ],
      [
        0.9284796752035618,
        45.55891796015203,
        304
      ],
      [
        0.9283564612269402,
        45.55892173200846,
        303.4
      ],
      [
        0.9281692933291197,
        45.558925587683916,
        302.79999999999995
      ],
      [
        0.9281495120376348,
        45.558925587683916,
        302.79999999999995
      ],
      [
        0.9280145633965731,
        45.55892173200846,
        302.20000000000005
      ],
      [
        0.9279130585491657,
        45.558929443359375,
        301.79999999999995
      ],
      [
        0.927890595048666,
        45.558929443359375,
        301.6
      ],
      [
        0.9277309197932482,
        45.558929443359375,
        301.20000000000005
      ],
      [
        0.9276873338967562,
        45.558929443359375,
        301
      ],
      [
        0.9275484457612038,
        45.55892173200846,
        300.6
      ],
      [
        0.9274393133819103,
        45.55891796015203,
        300.6
      ],
      [
        0.9272901993244886,
        45.55891410447657,
        300
      ],
      [
        0.9272699989378452,
        45.55891410447657,
        300
      ],
      [
        0.9271284285932779,
        45.55891410447657,
        299.6
      ],
      [
        0.9271096531301737,
        45.558910332620144,
        299.4
      ],
      [
        0.9270464535802603,
        45.55891410447657,
        299.20000000000005
      ],
      [
        0.9268384985625744,
        45.55891410447657,
        298.79999999999995
      ],
      [
        0.9266868699342012,
        45.55891410447657,
        298.6
      ],
      [
        0.9265737980604172,
        45.558910332620144,
        298.4
      ],
      [
        0.926418649032712,
        45.558906476944685,
        298.20000000000005
      ],
      [
        0.9262659307569265,
        45.55890270508826,
        298.79999999999995
      ],
      [
        0.9261617437005043,
        45.558887450024486,
        299.4
      ],
      [
        0.9261543676257133,
        45.5588798224926,
        299.4
      ],
      [
        0.9261190798133612,
        45.5588264297694,
        299.20000000000005
      ],
      [
        0.9260105341672897,
        45.558731043711305,
        298.79999999999995
      ],
      [
        0.9259121306240559,
        45.558650912716985,
        298.20000000000005
      ],
      [
        0.9258675388991833,
        45.55860514752567,
        297.6
      ],
      [
        0.9258171636611223,
        45.55852887220681,
        296.4
      ],
      [
        0.9257716499269009,
        45.55844496935606,
        295.4
      ],
      [
        0.92572420835495,
        45.55833810009062,
        295.6
      ],
      [
        0.9257266391068697,
        45.558292334899306,
        296.20000000000005
      ],
      [
        0.9257462527602911,
        45.55821983143687,
        296.4
      ],
      [
        0.9258264675736427,
        45.55805202573538,
        296.4
      ],
      [
        0.9258498530834913,
        45.55791473016143,
        296.79999999999995
      ],
      [
        0.9258988872170448,
        45.55778883397579,
        296.6
      ],
      [
        0.9259288944303989,
        45.5576590821147,
        296.6
      ],
      [
        0.9259790182113647,
        45.55751415900886,
        296.79999999999995
      ],
      [
        0.9260501805692911,
        45.55736152455211,
        296.6
      ],
      [
        0.9260816965252161,
        45.55724333971739,
        296.20000000000005
      ],
      [
        0.9260988794267178,
        45.557128842920065,
        296
      ],
      [
        0.9260924253612757,
        45.55702205747366,
        296.4
      ],
      [
        0.9260908327996731,
        45.55692289955914,
        297
      ],
      [
        0.9260938502848148,
        45.55686950683594,
        297.4
      ],
      [
        0.9261272940784693,
        45.55677026510239,
        297.79999999999995
      ],
      [
        0.9261475782841444,
        45.55664822459221,
        298
      ],
      [
        0.9261500090360641,
        45.55651084519923,
        298
      ],
      [
        0.9260998852550983,
        45.55640791542828,
        298
      ],
      [
        0.9259707201272249,
        45.55636592209339,
        297.79999999999995
      ],
      [
        0.9258433990180492,
        45.556362150236964,
        297.79999999999995
      ],
      [
        0.9256735816597939,
        45.55635452270508,
        298
      ],
      [
        0.9255387168377638,
        45.55636592209339,
        298.4
      ],
      [
        0.9254922810941935,
        45.55636592209339,
        298.4
      ],
      [
        0.9253501240164042,
        45.55636592209339,
        298.6
      ],
      [
        0.9252425841987133,
        45.55636977776885,
        298.6
      ],
      [
        0.9251280874013901,
        45.55638503283262,
        298.6
      ],
      [
        0.9249114152044058,
        45.55640405975282,
        298.20000000000005
      ],
      [
        0.924744363874197,
        45.556434569880366,
        297.4
      ],
      [
        0.9246160369366407,
        45.5564536806196,
        297.79999999999995
      ],
      [
        0.9244449622929096,
        45.55646893568337,
        298
      ],
      [
        0.924291405826807,
        45.556476563215256,
        298.6
      ],
      [
        0.924242539331317,
        45.55644982494414,
        298.79999999999995
      ],
      [
        0.9242270328104496,
        45.556400287896395,
        299
      ],
      [
        0.9242703672498465,
        45.556301046162844,
        299
      ],
      [
        0.9243674296885729,
        45.55617514997721,
        298.4
      ],
      [
        0.924410093575716,
        45.556060736998916,
        298
      ],
      [
        0.9243851155042648,
        45.555965350940824,
        298
      ],
      [
        0.9242941718548536,
        45.55587004870176,
        298
      ],
      [
        0.9243553597480059,
        45.5557784345001,
        297.79999999999995
      ],
      [
        0.9244934096932411,
        45.55575555190444,
        298
      ],
      [
        0.9245681762695312,
        45.55574415251613,
        298
      ],
      [
        0.924699604511261,
        45.55569838732481,
        298.20000000000005
      ],
      [
        0.9247913863509893,
        45.555625883862376,
        299
      ],
      [
        0.9248145204037428,
        45.55560300126672,
        299
      ],
      [
        0.9248394146561623,
        45.55558011867106,
        298.79999999999995
      ],
      [
        0.9248516522347927,
        45.55557249113917,
        298.79999999999995
      ],
      [
        0.9249252453446388,
        45.55553812533617,
        298.4
      ],
      [
        0.9250559192150831,
        45.55544273927808,
        298
      ],
      [
        0.9252024348825216,
        45.55531684309244,
        298
      ],
      [
        0.9253690671175718,
        45.55520243011415,
        299
      ],
      [
        0.9254864975810051,
        45.55509941652417,
        299.4
      ],
      [
        0.925557492300868,
        45.55504225194454,
        299.6
      ],
      [
        0.9257066063582897,
        45.55494301021099,
        300.20000000000005
      ],
      [
        0.9258388727903366,
        45.55483245290816,
        300.20000000000005
      ],
      [
        0.9259261284023523,
        45.5547752045095,
        300.20000000000005
      ],
      [
        0.925994860008359,
        45.55472558364272,
        300
      ],
      [
        0.9261056687682867,
        45.55462257005274,
        299.79999999999995
      ],
      [
        0.9261446446180344,
        45.55452726781368,
        299
      ],
      [
        0.9260912518948317,
        45.554401371628046,
        299.4
      ],
      [
        0.9260516054928303,
        45.55429835803807,
        300
      ],
      [
        0.9260338358581066,
        45.55427161976695,
        300
      ],
      [
        0.9259533695876598,
        45.55418008938432,
        300.4
      ],
      [
        0.9259406290948391,
        45.55416106246412,
        300.4
      ],
      [
        0.9258714783936739,
        45.554050421342254,
        300.6
      ],
      [
        0.9258048422634602,
        45.55392452515662,
        301
      ],
      [
        0.9257307462394238,
        45.55380248464644,
        301
      ],
      [
        0.9256213624030352,
        45.5536765884608,
        301.20000000000005
      ],
      [
        0.9254613518714905,
        45.553569719195366,
        301.20000000000005
      ],
      [
        0.9253651276230812,
        45.55352780967951,
        301.4
      ],
      [
        0.9253197815269232,
        45.55350492708385,
        301.6
      ],
      [
        0.9251643810421228,
        45.55344767868519,
        302
      ],
      [
        0.9250176977366209,
        45.55340191349387,
        302.20000000000005
      ],
      [
        0.9248772170394659,
        45.55334852077067,
        302.4
      ],
      [
        0.924693401902914,
        45.553295128047466,
        302
      ],
      [
        0.9245384205132723,
        45.55330652743578,
        302
      ],
      [
        0.9245229139924049,
        45.55331038311124,
        302
      ],
      [
        0.9243812598288059,
        45.55335992015898,
        302
      ],
      [
        0.9242140408605337,
        45.553432423621416,
        302.4
      ],
      [
        0.9240609873086214,
        45.55351632647216,
        303
      ],
      [
        0.9239964466542006,
        45.553554464131594,
        303.4
      ],
      [
        0.9238811116665602,
        45.553615568205714,
        303.4
      ],
      [
        0.9237192571163177,
        45.553630823269486,
        303.6
      ],
      [
        0.9235693048685789,
        45.553569719195366,
        302.79999999999995
      ],
      [
        0.9235523734241724,
        45.55356209166348,
        302.6
      ],
      [
        0.9235396329313517,
        45.55355069227517,
        302.4
      ],
      [
        0.9234657883644104,
        45.55347056128085,
        301.79999999999995
      ],
      [
        0.9234610106796026,
        45.553455306217074,
        301.79999999999995
      ],
      [
        0.9234548080712557,
        45.55334466509521,
        301.4
      ],
      [
        0.9234584961086512,
        45.55330652743578,
        301.20000000000005
      ],
      [
        0.9234680514782667,
        45.55327224545181,
        301.4
      ],
      [
        0.9234880842268467,
        45.553199741989374,
        301.4
      ],
      [
        0.9234631061553955,
        45.55311198346317,
        301.79999999999995
      ],
      [
        0.9234539698809385,
        45.553081473335624,
        301.79999999999995
      ],
      [
        0.9234217833727598,
        45.55299371480942,
        302.4
      ],
      [
        0.9234051033854485,
        45.5529479496181,
        302.4
      ],
      [
        0.9233081247657537,
        45.55279539898038,
        302.79999999999995
      ],
      [
        0.9232445899397135,
        45.55266950279474,
        303
      ],
      [
        0.9232239704579115,
        45.55257797241211,
        303
      ],
      [
        0.9232100564986467,
        45.55255123414099,
        303
      ],
      [
        0.9231812227517366,
        45.55251309648156,
        303
      ],
      [
        0.9231352061033249,
        45.55244444869459,
        302.79999999999995
      ],
      [
        0.923078041523695,
        45.55236431770027,
        302.20000000000005
      ],
      [
        0.922985253855586,
        45.55226515978575,
        302.4
      ],
      [
        0.9228729363530874,
        45.552169773727655,
        302.20000000000005
      ],
      [
        0.9228271711617708,
        45.55213926360011,
        302.20000000000005
      ],
      [
        0.9227943979203701,
        45.55211638100445,
        302.20000000000005
      ],
      [
        0.9227359760552645,
        45.55207438766956,
        302.20000000000005
      ],
      [
        0.9225399233400822,
        45.55194086395204,
        302.6
      ],
      [
        0.9224176313728094,
        45.551853105425835,
        302.6
      ],
      [
        0.922275222837925,
        45.55178445763886,
        302.20000000000005
      ],
      [
        0.9221603069454432,
        45.55181119590998,
        302
      ],
      [
        0.9220199938863516,
        45.55190272629261,
        301.6
      ],
      [
        0.9219333250075579,
        45.55197900161147,
        301.20000000000005
      ],
      [
        0.9219160582870245,
        45.551990484818816,
        301.20000000000005
      ],
      [
        0.9218066744506359,
        45.55208201520145,
        301.20000000000005
      ],
      [
        0.9216754976660013,
        45.55218117311597,
        301.20000000000005
      ],
      [
        0.921557480469346,
        45.55226515978575,
        301.20000000000005
      ],
      [
        0.9214045945554972,
        45.55231855250895,
        301
      ],
      [
        0.9213052690029144,
        45.55234143510461,
        301
      ],
      [
        0.9211715776473284,
        45.55236431770027,
        301.4
      ],
      [
        0.9209445118904114,
        45.55237957276404,
        301.6
      ],
      [
        0.9208083059638739,
        45.552387200295925,
        301.4
      ],
      [
        0.9207125846296549,
        45.55239859968424,
        301.20000000000005
      ],
      [
        0.920536145567894,
        45.5524558480829,
        301
      ],
      [
        0.9203919768333435,
        45.552505468949676,
        300.79999999999995
      ],
      [
        0.9202381689101458,
        45.55247873067856,
        300.6
      ],
      [
        0.9202276915311813,
        45.5524368211627,
        300.20000000000005
      ],
      [
        0.9202501550316811,
        45.55239097215235,
        300
      ],
      [
        0.9203657414764166,
        45.55227655917406,
        299.79999999999995
      ],
      [
        0.920361215248704,
        45.55219642817974,
        299.4
      ],
      [
        0.920344702899456,
        45.5521659180522,
        299.20000000000005
      ],
      [
        0.9202803298830986,
        45.55207824334502,
        299.4
      ],
      [
        0.9201150387525558,
        45.55203625001013,
        299.4
      ],
      [
        0.920047564432025,
        45.5519637465477,
        299
      ],
      [
        0.920100873336196,
        45.55187598802149,
        298.6
      ],
      [
        0.9201723709702492,
        45.55184170603752,
        298.20000000000005
      ],
      [
        0.9202221594750881,
        45.55181119590998,
        298
      ],
      [
        0.9202831797301769,
        45.551776830106974,
        297.6
      ],
      [
        0.9203537553548813,
        45.551715809851885,
        297.4
      ],
      [
        0.9203780628740788,
        45.551696699112654,
        297.6
      ],
      [
        0.9203929826617241,
        45.55168907158077,
        297.79999999999995
      ],
      [
        0.9204596187919378,
        45.55160516873002,
        298
      ],
      [
        0.9204755444079638,
        45.55154800415039,
        298.4
      ],
      [
        0.9204773046076298,
        45.551498383283615,
        298.4
      ],
      [
        0.9205214772373438,
        45.55137248709798,
        297.79999999999995
      ],
      [
        0.9205365646630526,
        45.551269473508,
        297.4
      ],
      [
        0.9205317869782448,
        45.55125421844423,
        297.4
      ],
      [
        0.9204305335879326,
        45.55115120485425,
        298
      ],
      [
        0.9202712774276733,
        45.551063530147076,
        298.79999999999995
      ],
      [
        0.9201239235699177,
        45.55099865421653,
        299
      ],
      [
        0.9200659207999706,
        45.5509795434773,
        299.20000000000005
      ],
      [
        0.9200479835271835,
        45.55097577162087,
        299.20000000000005
      ],
      [
        0.9199940878897905,
        45.550964288413525,
        299.20000000000005
      ],
      [
        0.9198936726897955,
        45.55095288902521,
        299.20000000000005
      ],
      [
        0.9197092708200216,
        45.550941405817866,
        299.79999999999995
      ],
      [
        0.9195708017796278,
        45.55092237889767,
        300.20000000000005
      ],
      [
        0.9195061773061752,
        45.55091475136578,
        300.4
      ],
      [
        0.9192577376961708,
        45.55089186877012,
        300.79999999999995
      ],
      [
        0.9190431609749794,
        45.550868986174464,
        300.4
      ],
      [
        0.9188647102564573,
        45.550807882100344,
        300.20000000000005
      ],
      [
        0.91874317266047,
        45.5507049523294,
        300.79999999999995
      ],
      [
        0.9186697471886873,
        45.55063244886696,
        301.20000000000005
      ],
      [
        0.9186563361436129,
        45.55062096565962,
        301.4
      ],
      [
        0.918558519333601,
        45.55054091848433,
        302.4
      ],
      [
        0.9184691682457924,
        45.55048367008567,
        303.20000000000005
      ],
      [
        0.9184510633349419,
        45.55047604255378,
        303.20000000000005
      ],
      [
        0.9183565992861986,
        45.550411166623235,
        303
      ],
      [
        0.9183400869369507,
        45.5502852704376,
        302
      ],
      [
        0.9183063916862011,
        45.55018996819854,
        301.20000000000005
      ],
      [
        0.9182799886912107,
        45.55012886412442,
        301
      ],
      [
        0.9182709362357855,
        45.550117464736104,
        301
      ],
      [
        0.9182294458150864,
        45.5500106792897,
        300.20000000000005
      ],
      [
        0.9182178787887096,
        45.549999196082354,
        300.20000000000005
      ],
      [
        0.9181389212608337,
        45.54991143755615,
        299.4
      ],
      [
        0.9181064832955599,
        45.549877155572176,
        299
      ],
      [
        0.9180548507720232,
        45.54983139038086,
        298.6
      ],
      [
        0.9180182218551636,
        45.54976265877485,
        298.20000000000005
      ],
      [
        0.9180022962391376,
        45.54973214864731,
        298
      ],
      [
        0.9179831016808748,
        45.549682611599565,
        297.79999999999995
      ],
      [
        0.9179591294378042,
        45.549560487270355,
        297.20000000000005
      ],
      [
        0.9179562795907259,
        45.54954908788204,
        297.20000000000005
      ],
      [
        0.9179493226110935,
        45.5495185777545,
        297
      ],
      [
        0.9179465565830469,
        45.54946895688772,
        296.79999999999995
      ],
      [
        0.9179369173943996,
        45.54939268156886,
        296.20000000000005
      ],
      [
        0.9179229196161032,
        45.5493697989732,
        295.79999999999995
      ],
      [
        0.9178370051085949,
        45.549282040447,
        295.4
      ],
      [
        0.9177309740334749,
        45.549186654388905,
        295.6
      ],
      [
        0.9176914114505053,
        45.549167627468705,
        295.4
      ]
    ]
  }
}
