{
  "type": "Feature",
  "properties": {
    "id": "24542340666",
    "activity": "hiking",
    "name": "La Coquille Hiking",
    "date": "2026-09-29T14:24:59Z",
    "startDateLocal": "2026-09-29T16:24:59",
    "distanceKm": 2.07,
    "movingTimeSeconds": 1504,
    "elapsedTimeSeconds": 1577,
    "ascentM": 35,
    "descentM": 29,
    "providers": [
      "Garmin"
    ]
  },
  "geometry": {
    "type": "LineString",
    "coordinates": [
      [
        1.0048430878669024,
        45.556381177157164,
        304.20000000000005
      ],
      [
        1.004956578835845,
        45.55644605308771,
        304
      ],
      [
        1.0050296690315008,
        45.55646893568337,
        304
      ],
      [
        1.0050689801573753,
        45.55650321766734,
        304
      ],
      [
        1.0051540564745665,
        45.55656809359789,
        304.20000000000005
      ],
      [
        1.0052267275750637,
        45.556617714464664,
        304
      ],
      [
        1.0052711516618729,
        45.55665962398052,
        304.4
      ],
      [
        1.0054408852010965,
        45.55673975497484,
        304.6
      ],
      [
        1.0055195912718773,
        45.55675886571407,
        305.4
      ],
      [
        1.0055987164378166,
        45.55678552016616,
        306.20000000000005
      ],
      [
        1.005613636225462,
        45.556797003373504,
        306.4
      ],
      [
        1.0056266281753778,
        45.55680463090539,
        306.6
      ],
      [
        1.0051844827830791,
        45.557365380227566,
        315.4
      ],
      [
        1.0051508713513613,
        45.55737677961588,
        315.4
      ],
      [
        1.0051039326936007,
        45.55743788369,
        316
      ],
      [
        1.0051033459603786,
        45.55747602134943,
        316.4
      ],
      [
        1.0051146615296602,
        45.55749890394509,
        316.6
      ],
      [
        1.0051352810114622,
        45.557540813460946,
        317
      ],
      [
        1.005149781703949,
        45.55756755173206,
        317.4
      ],
      [
        1.0051717422902584,
        45.55762857198715,
        318.4
      ],
      [
        1.005218094214797,
        45.5577124748379,
        319.4
      ],
      [
        1.0052270628511906,
        45.557723958045244,
        319.6
      ],
      [
        1.0052874963730574,
        45.55777357891202,
        320.6
      ],
      [
        1.0053019132465124,
        45.55777735076845,
        320.6
      ],
      [
        1.0053620114922523,
        45.557819344103336,
        321.20000000000005
      ],
      [
        1.0053713992238045,
        45.55782697163522,
        321.4
      ],
      [
        1.0053899232298136,
        45.55785362608731,
        321.6
      ],
      [
        1.0054063517600298,
        45.55790324695408,
        322
      ],
      [
        1.0054459143429995,
        45.55799100548029,
        322.79999999999995
      ],
      [
        1.0054642707109451,
        45.558021515607834,
        323
      ],
      [
        1.0055148135870695,
        45.55812067352235,
        323.4
      ],
      [
        1.0055475030094385,
        45.558158811181784,
        323.79999999999995
      ],
      [
        1.0055870655924082,
        45.55824279785156,
        324.20000000000005
      ],
      [
        1.0056111216545105,
        45.55831144563854,
        324.79999999999995
      ],
      [
        1.005635680630803,
        45.55836483836174,
        325
      ],
      [
        1.005662502720952,
        45.558433486148715,
        325.20000000000005
      ],
      [
        1.005695778876543,
        45.558494506403804,
        325.20000000000005
      ],
      [
        1.0057421308010817,
        45.55854412727058,
        325
      ],
      [
        1.0057816095650196,
        45.55858226493001,
        325
      ],
      [
        1.0058966092765331,
        45.558670023456216,
        324.6
      ],
      [
        1.0059523489326239,
        45.558711932972074,
        324.20000000000005
      ],
      [
        1.00601177662611,
        45.55875778198242,
        323.79999999999995
      ],
      [
        1.006043879315257,
        45.55877680890262,
        323.79999999999995
      ],
      [
        1.0061046481132507,
        45.55882257409394,
        323.4
      ],
      [
        1.00620087236166,
        45.558906476944685,
        323
      ],
      [
        1.0062302090227604,
        45.558925587683916,
        323
      ],
      [
        1.0062785726040602,
        45.55896372534335,
        322.6
      ],
      [
        1.0063265170902014,
        45.55901711806655,
        322.6
      ],
      [
        1.0064421873539686,
        45.55908962152898,
        321.79999999999995
      ],
      [
        1.0064482223242521,
        45.55910110473633,
        321.6
      ],
      [
        1.006474206224084,
        45.559123987331986,
        321.20000000000005
      ],
      [
        1.0065216477960348,
        45.55916212499142,
        320.4
      ],
      [
        1.0065371543169022,
        45.559165896847844,
        320.20000000000005
      ],
      [
        1.0066083166748285,
        45.5591887794435,
        319.20000000000005
      ],
      [
        1.006671516224742,
        45.55921166203916,
        318.6
      ],
      [
        1.0067734401673079,
        45.559246027842164,
        318
      ],
      [
        1.0068375617265701,
        45.55925365537405,
        317.6
      ],
      [
        1.0068545769900084,
        45.559242172166705,
        317.20000000000005
      ],
      [
        1.0069217160344124,
        45.55925742723048,
        317
      ],
      [
        1.0069471132010221,
        45.55926891043782,
        316.79999999999995
      ],
      [
        1.0070444270968437,
        45.55930704809725,
        316.20000000000005
      ],
      [
        1.0071352031081915,
        45.5593375582248,
        316
      ],
      [
        1.0071532242000103,
        45.55934518575668,
        316
      ],
      [
        1.007274929434061,
        45.559398578479886,
        315.79999999999995
      ],
      [
        1.007381547242403,
        45.55943671613932,
        316
      ],
      [
        1.0074829682707787,
        45.55947493761778,
        316.20000000000005
      ],
      [
        1.0076382011175156,
        45.55954735726118,
        315.79999999999995
      ],
      [
        1.007758229970932,
        45.55961608886719,
        316
      ],
      [
        1.0077995527535677,
        45.55964659899473,
        316.20000000000005
      ],
      [
        1.0078110359609127,
        45.55965422652662,
        316.20000000000005
      ],
      [
        1.0078384447842836,
        45.559677109122276,
        316.20000000000005
      ],
      [
        1.0078777559101582,
        45.55970376357436,
        316.20000000000005
      ],
      [
        1.007901979610324,
        45.55972664617002,
        316.20000000000005
      ],
      [
        1.0079276282340288,
        45.55978003889322,
        316
      ],
      [
        1.0079336632043123,
        45.55979537777603,
        315.79999999999995
      ],
      [
        1.0079365968704224,
        45.5598106328398,
        315.6
      ],
      [
        1.0079426318407059,
        45.55984877049923,
        314.6
      ],
      [
        1.0079386923462152,
        45.55989068001509,
        314.20000000000005
      ],
      [
        1.0079192463308573,
        45.55997081100941,
        313.6
      ],
      [
        1.0079118702560663,
        45.559997549280524,
        313.6
      ],
      [
        1.0079053323715925,
        45.56004708632827,
        313.4
      ],
      [
        1.007901979610324,
        45.560069968923926,
        313.4
      ],
      [
        1.0078822821378708,
        45.56014247238636,
        313
      ],
      [
        1.0078273806720972,
        45.56026074104011,
        313
      ],
      [
        1.0077728983014822,
        45.560367526486516,
        313.6
      ],
      [
        1.0077136382460594,
        45.560470540076494,
        314.20000000000005
      ],
      [
        1.0076947789639235,
        45.560512533411384,
        314.6
      ],
      [
        1.0076690465211868,
        45.56056207045913,
        314.6
      ],
      [
        1.0076563898473978,
        45.560588808730245,
        314.6
      ],
      [
        1.0076314955949783,
        45.560623090714216,
        314.79999999999995
      ],
      [
        1.007597129791975,
        45.56069559417665,
        314.79999999999995
      ],
      [
        1.0075331758707762,
        45.5608138628304,
        314.6
      ],
      [
        1.0075164958834648,
        45.560848228633404,
        313.79999999999995
      ],
      [
        1.00749964825809,
        45.56090162135661,
        314
      ],
      [
        1.0074929427355528,
        45.56094738654792,
        314
      ],
      [
        1.0074666235595942,
        45.561080910265446,
        314
      ],
      [
        1.00745958276093,
        45.56109230965376,
        313.79999999999995
      ],
      [
        1.0074351914227009,
        45.561161041259766,
        313.6
      ],
      [
        1.0074234567582607,
        45.561199178919196,
        313.4
      ],
      [
        1.007370064035058,
        45.561298336833715,
        313
      ],
      [
        1.0072882566601038,
        45.56140897795558,
        312.79999999999995
      ],
      [
        1.0072491969913244,
        45.561439488083124,
        312.6
      ],
      [
        1.0072113946080208,
        45.5615081358701,
        312.4
      ],
      [
        1.007137382403016,
        45.561614921316504,
        312.20000000000005
      ],
      [
        1.007032860070467,
        45.56172179058194,
        312
      ],
      [
        1.0068901162594557,
        45.56178658269346,
        311.6
      ],
      [
        1.0068485420197248,
        45.5617980659008,
        311.6
      ],
      [
        1.0067573469132185,
        45.56183620356023,
        311.4
      ],
      [
        1.0066280141472816,
        45.56189722381532,
        311.20000000000005
      ],
      [
        1.0064831748604774,
        45.5619658716023,
        311.20000000000005
      ],
      [
        1.0063449572771788,
        45.5620536301285,
        311.4
      ],
      [
        1.006316626444459,
        45.56210325099528,
        311.4
      ],
      [
        1.0062906425446272,
        45.562129905447364,
        311.4
      ],
      [
        1.0062116011977196,
        45.56225965730846,
        311.6
      ],
      [
        1.006159633398056,
        45.56235495954752,
        311.6
      ],
      [
        1.0061373375356197,
        45.562404580414295,
        311.79999999999995
      ],
      [
        1.0060960985720158,
        45.562480855733156,
        311.6
      ],
      [
        1.0060927458107471,
        45.562522849068046,
        311.6
      ],
      [
        1.0060881357640028,
        45.562545731663704,
        311.6
      ],
      [
        1.006064247339964,
        45.56261437945068,
        311.4
      ],
      [
        1.0060046520084143,
        45.56270976550877,
        311.4
      ],
      [
        1.0058951005339622,
        45.56279752403498,
        311.4
      ],
      [
        1.0058180708438158,
        45.5628776550293,
        311.20000000000005
      ],
      [
        1.005777670070529,
        45.56290816515684,
        311
      ],
      [
        1.005791500210762,
        45.56290816515684,
        310.79999999999995
      ],
      [
        1.0057694558054209,
        45.56290816515684,
        310.79999999999995
      ],
      [
        1.005646577104926,
        45.56291579268873,
        311.20000000000005
      ],
      [
        1.0054695513099432,
        45.56292342022061,
        311
      ],
      [
        1.0052508674561977,
        45.56290816515684,
        311
      ],
      [
        1.0051486920565367,
        45.562919564545155,
        310.79999999999995
      ],
      [
        1.0051220376044512,
        45.56292342022061,
        310.79999999999995
      ],
      [
        1.004945682361722,
        45.56291579268873,
        310.79999999999995
      ],
      [
        1.004930678755045,
        45.56291193701327,
        310.79999999999995
      ],
      [
        1.0049216262996197,
        45.56290816515684,
        310.79999999999995
      ],
      [
        1.0048448480665684,
        45.56286617182195,
        310.79999999999995
      ],
      [
        1.004766058176756,
        45.562839433550835,
        310.79999999999995
      ],
      [
        1.0046770423650742,
        45.56279752403498,
        311
      ],
      [
        1.0045526549220085,
        45.56276701390743,
        311.20000000000005
      ],
      [
        1.0044724401086569,
        45.562694510445,
        311.4
      ],
      [
        1.0044772177934647,
        45.562683027237654,
        311.4
      ],
      [
        1.0045600309967995,
        45.56259535253048,
        311.6
      ],
      [
        1.0046327859163284,
        45.56254195980728,
        311.6
      ],
      [
        1.0046720132231712,
        45.56250759400427,
        311.79999999999995
      ],
      [
        1.004769243299961,
        45.562404580414295,
        311.6
      ],
      [
        1.0048106499016285,
        45.562370298430324,
        311.6
      ],
      [
        1.0048648808151484,
        45.562324449419975,
        311.4
      ],
      [
        1.0049534775316715,
        45.56225965730846,
        311.6
      ],
      [
        1.0050734225660563,
        45.56222151964903,
        311.4
      ],
      [
        1.0051709040999413,
        45.56221766397357,
        311.20000000000005
      ],
      [
        1.0052053537219763,
        45.56220626458526,
        311
      ],
      [
        1.0053219459950924,
        45.562129905447364,
        311
      ],
      [
        1.00538095459342,
        45.56206511333585,
        311
      ],
      [
        1.0053944494575262,
        45.56204600259662,
        311.20000000000005
      ],
      [
        1.0054733231663704,
        45.56197735480964,
        311.4
      ],
      [
        1.0055371094495058,
        45.56186294183135,
        312.20000000000005
      ],
      [
        1.0055738221853971,
        45.561813320964575,
        312.4
      ],
      [
        1.0056020691990852,
        45.561771327629685,
        312.6
      ],
      [
        1.0056101996451616,
        45.56175607256591,
        312.6
      ],
      [
        1.0056822840124369,
        45.56163780391216,
        313.20000000000005
      ],
      [
        1.0057133808732033,
        45.56160729378462,
        313.6
      ],
      [
        1.0057519376277924,
        45.5615615285933,
        313.79999999999995
      ],
      [
        1.0058439709246159,
        45.56148902513087,
        314
      ],
      [
        1.0059437155723572,
        45.56144711561501,
        313.4
      ],
      [
        1.0060554463416338,
        45.561378467828035,
        312.6
      ],
      [
        1.0060698632150888,
        45.56136698462069,
        312.4
      ],
      [
        1.0061579570174217,
        45.56129448115826,
        311.79999999999995
      ],
      [
        1.006187293678522,
        45.561256343498826,
        311.79999999999995
      ],
      [
        1.00620087236166,
        45.56122583337128,
        311.79999999999995
      ],
      [
        1.0062059853225946,
        45.56121057830751,
        311.79999999999995
      ],
      [
        1.006175223737955,
        45.56111142039299,
        312.6
      ],
      [
        1.0061765648424625,
        45.561038916930556,
        312.6
      ],
      [
        1.0061991959810257,
        45.560981668531895,
        312.4
      ],
      [
        1.0062183067202568,
        45.56089776568115,
        311.4
      ],
      [
        1.006219144910574,
        45.560886366292834,
        311.4
      ],
      [
        1.0062017105519772,
        45.560825346037745,
        311.4
      ],
      [
        1.0061980225145817,
        45.56082149036229,
        311.20000000000005
      ],
      [
        1.0061828512698412,
        45.56077572517097,
        311.20000000000005
      ],
      [
        1.0061347391456366,
        45.560626946389675,
        311.4
      ],
      [
        1.006086291745305,
        45.56048202328384,
        311.20000000000005
      ],
      [
        1.0059618204832077,
        45.56037900969386,
        310.6
      ],
      [
        1.00589107722044,
        45.56034464389086,
        310.4
      ],
      [
        1.005879594013095,
        45.56034087203443,
        310.4
      ],
      [
        1.0058547835797071,
        45.56031413376331,
        310.4
      ],
      [
        1.0057236906141043,
        45.56021874770522,
        310
      ],
      [
        1.0056867264211178,
        45.56019586510956,
        310.20000000000005
      ],
      [
        1.0055820364505053,
        45.56014247238636,
        310
      ],
      [
        1.005525542423129,
        45.56010810658336,
        311.6
      ],
      [
        1.0054820403456688,
        45.5600852239877,
        312.4
      ],
      [
        1.0054182540625334,
        45.56005094200373,
        312.20000000000005
      ],
      [
        1.0053905937820673,
        45.56003945879638,
        312.20000000000005
      ],
      [
        1.0053682141005993,
        45.560031831264496,
        312.6
      ],
      [
        1.00535505451262,
        45.56002420373261,
        312.79999999999995
      ],
      [
        1.0052429046481848,
        45.55998606607318,
        313.20000000000005
      ],
      [
        1.0051658749580383,
        45.559959411621094,
        314
      ],
      [
        1.0051082074642181,
        45.55994407273829,
        314.4
      ],
      [
        1.005026064813137,
        45.55990979075432,
        315
      ],
      [
        1.0049656312912703,
        45.55988690815866,
        315.6
      ],
      [
        1.004863204434514,
        45.559837287291884,
        316
      ],
      [
        1.0048524755984545,
        45.55982588790357,
        316.20000000000005
      ],
      [
        1.0047717578709126,
        45.55973050184548,
        316.6
      ],
      [
        1.0047492943704128,
        45.55966562591493,
        317.20000000000005
      ],
      [
        1.0047416668385267,
        45.55964659899473,
        317.20000000000005
      ],
      [
        1.004731860011816,
        45.55961223319173,
        317.20000000000005
      ],
      [
        1.0047214664518833,
        45.559539729729295,
        317.4
      ],
      [
        1.0047171078622341,
        45.559463454410434,
        317.6
      ],
      [
        1.004710653796792,
        45.55943671613932,
        317.6
      ],
      [
        1.0046735219657421,
        45.55931467562914,
        317.79999999999995
      ],
      [
        1.0046412516385317,
        45.55926505476236,
        318
      ],
      [
        1.0046306066215038,
        45.559242172166705,
        318
      ],
      [
        1.00462406873703,
        45.55923077277839,
        318
      ],
      [
        1.00456103682518,
        45.559146869927645,
        317.79999999999995
      ],
      [
        1.0045503079891205,
        45.5591353867203,
        317.79999999999995
      ],
      [
        1.0044684167951345,
        45.55905525572598,
        318.20000000000005
      ],
      [
        1.004453832283616,
        45.559047628194094,
        318.20000000000005
      ],
      [
        1.0043716058135033,
        45.55897135287523,
        318.20000000000005
      ],
      [
        1.004238585010171,
        45.55889507755637,
        317.79999999999995
      ],
      [
        1.0041397623717785,
        45.55880354717374,
        317.4
      ],
      [
        1.004089219495654,
        45.55875392630696,
        317.79999999999995
      ],
      [
        1.0040274448692799,
        45.558708161115646,
        318.20000000000005
      ],
      [
        1.0039328131824732,
        45.5586242582649,
        318.4
      ],
      [
        1.0038634948432446,
        45.558513617143035,
        318
      ],
      [
        1.0038543585687876,
        45.55849836207926,
        318
      ],
      [
        1.0038204118609428,
        45.558437341824174,
        317.20000000000005
      ],
      [
        1.003769701346755,
        45.558353355154395,
        317.79999999999995
      ],
      [
        1.0037575475871563,
        45.55826568044722,
        317.6
      ],
      [
        1.0037642531096935,
        45.55824279785156,
        317.6
      ],
      [
        1.0037738922983408,
        45.5581511836499,
        317.6
      ],
      [
        1.0037814360111952,
        45.55812067352235,
        317.6
      ],
      [
        1.0038057435303926,
        45.55804439820349,
        317.20000000000005
      ],
      [
        1.0038059949874878,
        45.558021515607834,
        317
      ],
      [
        1.0037578828632832,
        45.55794524028897,
        317
      ],
      [
        1.003705831244588,
        45.55788413621485,
        316.4
      ],
      [
        1.0036991257220507,
        45.55787273682654,
        316
      ],
      [
        1.0036773327738047,
        45.55781548842788,
        314.79999999999995
      ],
      [
        1.003667525947094,
        45.55776972323656,
        314.79999999999995
      ],
      [
        1.0036596469581127,
        45.5577278137207,
        314.79999999999995
      ],
      [
        1.003644559532404,
        45.55767056532204,
        314.79999999999995
      ],
      [
        1.0036646761000156,
        45.557643827050924,
        315.4
      ],
      [
        1.003694012761116,
        45.55761331692338,
        315.79999999999995
      ],
      [
        1.0037843696773052,
        45.55752941407263,
        316.4
      ],
      [
        1.003817394375801,
        45.55748742073774,
        316.6
      ],
      [
        1.0038264468312263,
        45.55743788369,
        316.20000000000005
      ],
      [
        1.00384421646595,
        45.557426400482655,
        316
      ],
      [
        1.0038945078849792,
        45.55739589035511,
        315.4
      ],
      [
        1.0039126127958298,
        45.55739211849868,
        314.79999999999995
      ],
      [
        1.0039182286709547,
        45.557388262823224,
        314.79999999999995
      ],
      [
        1.003958797082305,
        45.55731961503625,
        314.6
      ],
      [
        1.0040351562201977,
        45.55722422897816,
        314.20000000000005
      ],
      [
        1.0040426161140203,
        45.55721660144627,
        314.20000000000005
      ],
      [
        1.0040515009313822,
        45.557205118238926,
        314.4
      ],
      [
        1.0040727071464062,
        45.55718223564327,
        314.4
      ],
      [
        1.0041332244873047,
        45.55712121538818,
        314.20000000000005
      ],
      [
        1.0041551012545824,
        45.55709833279252,
        314
      ],
      [
        1.004185862839222,
        45.55707930587232,
        313.79999999999995
      ],
      [
        1.0041857790201902,
        45.55708307772875,
        313.6
      ],
      [
        1.004227353259921,
        45.557067822664976,
        313.4
      ],
      [
        1.004254762083292,
        45.55707545019686,
        313.4
      ],
      [
        1.0043512377887964,
        45.55711744353175,
        312.79999999999995
      ],
      [
        1.0043780598789454,
        45.55712121538818,
        312.6
      ],
      [
        1.0044679138809443,
        45.55713647045195,
        312.4
      ],
      [
        1.0046254098415375,
        45.55718223564327,
        312
      ],
      [
        1.0047273337841034,
        45.557212829589844,
        311.6
      ],
      [
        1.0047213826328516,
        45.557205118238926,
        311.6
      ],
      [
        1.0047089774161577,
        45.55719371885061,
        311.6
      ],
      [
        1.004651142284274,
        45.55716320872307,
        311.6
      ],
      [
        1.004515690729022,
        45.55712507106364,
        311.79999999999995
      ],
      [
        1.004368169233203,
        45.55707545019686,
        312.4
      ],
      [
        1.0042499843984842,
        45.5570182017982,
        312.20000000000005
      ],
      [
        1.0042078234255314,
        45.55696103721857,
        312.6
      ],
      [
        1.0042011179029942,
        45.556949554011226,
        312.79999999999995
      ],
      [
        1.0042007826268673,
        45.55688090622425,
        313.79999999999995
      ],
      [
        1.0042027104645967,
        45.55686950683594,
        314
      ],
      [
        1.0042154509574175,
        45.55680840276182,
        314
      ],
      [
        1.0042228270322084,
        45.556774120777845,
        314
      ],
      [
        1.0042398422956467,
        45.55672835558653,
        314
      ],
      [
        1.0042866971343756,
        45.55663296952844,
        313.79999999999995
      ],
      [
        1.0043227393180132,
        45.55652232840657,
        314.20000000000005
      ],
      [
        1.0043416824191809,
        45.556419314816594,
        313.6
      ],
      [
        1.0043323785066605,
        45.55634303949773,
        312.79999999999995
      ],
      [
        1.004336066544056,
        45.556259136646986,
        311.79999999999995
      ],
      [
        1.0043715219944715,
        45.5562515091151,
        311.4
      ],
      [
        1.0044397506862879,
        45.55628579109907,
        310.6
      ],
      [
        1.004464728757739,
        45.5563049018383,
        310
      ],
      [
        1.0045119188725948,
        45.556339183822274,
        309.6
      ],
      [
        1.0045375674962997,
        45.556358294561505,
        309.4
      ],
      [
        1.004540165886283,
        45.55640405975282,
        309
      ],
      [
        1.0045353882014751,
        45.556419314816594,
        309
      ],
      [
        1.0045167803764343,
        45.55644982494414,
        309.20000000000005
      ],
      [
        1.0045141819864511,
        45.556434569880366,
        309.20000000000005
      ],
      [
        1.0045104939490557,
        45.55641168728471,
        309.4
      ],
      [
        1.0044543351978064,
        45.556377405300736,
        309.6
      ],
      [
        1.0044130962342024,
        45.55637354962528,
        309.20000000000005
      ],
      [
        1.0044475458562374,
        45.55637354962528,
        309
      ],
      [
        1.0044475458562374,
        45.55637354962528,
        309.20000000000005
      ],
      [
        1.0044731944799423,
        45.556377405300736,
        309.20000000000005
      ],
      [
        1.0045393276959658,
        45.55644219741225,
        309.20000000000005
      ],
      [
        1.0045212227851152,
        45.5564727075398,
        309
      ],
      [
        1.004507141187787,
        45.556499445810914,
        309
      ]
    ]
  }
}
