{
  "type": "Feature",
  "properties": {
    "id": "24554324507",
    "activity": "hiking",
    "name": "Mialet Hiking",
    "date": "2026-09-30T12:08:06Z",
    "startDateLocal": "2026-09-30T14:08:06",
    "distanceKm": 3.02,
    "movingTimeSeconds": 1801,
    "elapsedTimeSeconds": 1812,
    "ascentM": 16,
    "descentM": 21,
    "providers": [
      "Garmin"
    ]
  },
  "geometry": {
    "type": "LineString",
    "coordinates": [
      [
        0.9325431380420923,
        45.5546264257282,
        300
      ],
      [
        0.9325293079018593,
        45.554561549797654,
        300
      ],
      [
        0.9324837941676378,
        45.55451578460634,
        300.20000000000005
      ],
      [
        0.9324325807392597,
        45.55443565361202,
        300.20000000000005
      ],
      [
        0.9324040822684765,
        45.55434797890484,
        300.20000000000005
      ],
      [
        0.9323409665375948,
        45.55425636470318,
        299.79999999999995
      ],
      [
        0.9322850592434406,
        45.55413817986846,
        299.79999999999995
      ],
      [
        0.9321963787078857,
        45.554027538746595,
        299.6
      ],
      [
        0.9320492763072252,
        45.55397414602339,
        298.79999999999995
      ],
      [
        0.9319120645523071,
        45.55393978022039,
        299.20000000000005
      ],
      [
        0.9317620284855366,
        45.5539321526885,
        298.79999999999995
      ],
      [
        0.931651471182704,
        45.55391304194927,
        298.6
      ],
      [
        0.9314234834164381,
        45.55388638749719,
        298.79999999999995
      ],
      [
        0.9312676638364792,
        45.5539321526885,
        298.79999999999995
      ],
      [
        0.9311408456414938,
        45.553951263427734,
        298.79999999999995
      ],
      [
        0.931095415726304,
        45.55395503528416,
        298.79999999999995
      ],
      [
        0.9309280291199684,
        45.55397791787982,
        299
      ],
      [
        0.9307374246418476,
        45.55400465615094,
        299.4
      ],
      [
        0.9306538570672274,
        45.55405419319868,
        299.20000000000005
      ],
      [
        0.9306386020034552,
        45.55405804887414,
        299
      ],
      [
        0.930603900924325,
        45.554107585921884,
        298.6
      ],
      [
        0.9306119475513697,
        45.554164834320545,
        299
      ],
      [
        0.9304857160896063,
        45.55427161976695,
        299.6
      ],
      [
        0.930468114092946,
        45.554283102974296,
        299.6
      ],
      [
        0.930412458255887,
        45.5543364956975,
        299
      ],
      [
        0.9303992986679077,
        45.55443950928748,
        298.79999999999995
      ],
      [
        0.9304587263613939,
        45.554481502622366,
        298.6
      ],
      [
        0.9305065032094717,
        45.55451201274991,
        298.20000000000005
      ],
      [
        0.930552938953042,
        45.55455015040934,
        298.20000000000005
      ],
      [
        0.9306080918759108,
        45.55459591560066,
        298
      ],
      [
        0.930723762139678,
        45.554679818451405,
        297.6
      ],
      [
        0.930730551481247,
        45.55468744598329,
        297.4
      ],
      [
        0.930788554251194,
        45.5548285972327,
        297.79999999999995
      ],
      [
        0.9307906497269869,
        45.55489347316325,
        297.79999999999995
      ],
      [
        0.9307893924415112,
        45.55492012761533,
        297.79999999999995
      ],
      [
        0.9307900629937649,
        45.554935382679105,
        297.79999999999995
      ],
      [
        0.9307547751814127,
        45.55506127886474,
        298
      ],
      [
        0.9306769911199808,
        45.55516052059829,
        298.4
      ],
      [
        0.9306429605931044,
        45.555194802582264,
        298.6
      ],
      [
        0.930562661960721,
        45.5552673060447,
        298.79999999999995
      ],
      [
        0.9304190799593925,
        45.55535883642733,
        299.20000000000005
      ],
      [
        0.9302715584635735,
        45.555450366809964,
        299.4
      ],
      [
        0.9301615878939629,
        45.55551909841597,
        299.6
      ],
      [
        0.9301446564495564,
        45.55553435347974,
        299.6
      ],
      [
        0.9300557244569063,
        45.55560300126672,
        299.6
      ],
      [
        0.9298968873918056,
        45.55569453164935,
        299.4
      ],
      [
        0.9297471027821302,
        45.5558318272233,
        299.6
      ],
      [
        0.9297072049230337,
        45.555885303765535,
        299.6
      ],
      [
        0.9296868368983269,
        45.55593106895685,
        299.79999999999995
      ],
      [
        0.9296737611293793,
        45.55601119995117,
        299.79999999999995
      ],
      [
        0.9296467714011669,
        45.556121757254004,
        300.20000000000005
      ],
      [
        0.9295780397951603,
        45.55622862651944,
        300.20000000000005
      ],
      [
        0.9294523950666189,
        45.55630867369473,
        300
      ],
      [
        0.9293075557798147,
        45.556358294561505,
        299.4
      ],
      [
        0.9291642252355814,
        45.55644605308771,
        299.4
      ],
      [
        0.9290367364883423,
        45.556560466066,
        299.4
      ],
      [
        0.9290164522826672,
        45.55658720433712,
        299.4
      ],
      [
        0.9289287775754929,
        45.556674879044294,
        299.6
      ],
      [
        0.9289073199033737,
        45.556697845458984,
        299.6
      ],
      [
        0.9288198128342628,
        45.55680840276182,
        299.6
      ],
      [
        0.9287115186452866,
        45.55688853375614,
        299.6
      ],
      [
        0.9286420326679945,
        45.556999174878,
        299.4
      ],
      [
        0.9285598900169134,
        45.55710596032441,
        299
      ],
      [
        0.9284757357090712,
        45.55719749070704,
        298.79999999999995
      ],
      [
        0.9284365084022284,
        45.55729287676513,
        298.6
      ],
      [
        0.9283930063247681,
        45.557407373562455,
        298.79999999999995
      ],
      [
        0.9283645078539848,
        45.557544669136405,
        299.20000000000005
      ],
      [
        0.9283783379942179,
        45.557643827050924,
        300
      ],
      [
        0.9283989574760199,
        45.557743068784475,
        300.6
      ],
      [
        0.928411278873682,
        45.55779260583222,
        300.79999999999995
      ],
      [
        0.9284334070980549,
        45.55791473016143,
        301.4
      ],
      [
        0.9284311439841986,
        45.55799477733672,
        301.20000000000005
      ],
      [
        0.928454864770174,
        45.55807113647461,
        301.79999999999995
      ],
      [
        0.928481100127101,
        45.5581321567297,
        301.4
      ],
      [
        0.9285405278205872,
        45.55824656970799,
        301.20000000000005
      ],
      [
        0.9285892266780138,
        45.55834958329797,
        300.79999999999995
      ],
      [
        0.9286411944776773,
        45.55846785195172,
        299.79999999999995
      ],
      [
        0.9286591317504644,
        45.558494506403804,
        299.6
      ],
      [
        0.92869458720088,
        45.558551754802465,
        299.4
      ],
      [
        0.9287597984075546,
        45.5586242582649,
        298.6
      ],
      [
        0.9287919849157333,
        45.558670023456216,
        298.4
      ],
      [
        0.9288844373077154,
        45.55878443643451,
        298.79999999999995
      ],
      [
        0.9289006981998682,
        45.55879591964185,
        298.79999999999995
      ],
      [
        0.92894964851439,
        45.558906476944685,
        299.20000000000005
      ],
      [
        0.9289370756596327,
        45.55891410447657,
        299.4
      ],
      [
        0.9289019554853439,
        45.558929443359375,
        299.79999999999995
      ],
      [
        0.9288120176643133,
        45.5589332152158,
        300
      ],
      [
        0.9287100937217474,
        45.558925587683916,
        300
      ],
      [
        0.9286310523748398,
        45.558925587683916,
        300.20000000000005
      ],
      [
        0.9285037312656641,
        45.5589332152158,
        300.79999999999995
      ],
      [
        0.9283828642219305,
        45.558925587683916,
        300.6
      ],
      [
        0.9283409547060728,
        45.558925587683916,
        300.4
      ],
      [
        0.9281971212476492,
        45.558929443359375,
        300.6
      ],
      [
        0.9281511045992374,
        45.558929443359375,
        300.79999999999995
      ],
      [
        0.9278746694326401,
        45.55891796015203,
        301
      ],
      [
        0.9276338573545218,
        45.55891796015203,
        301.20000000000005
      ],
      [
        0.9274486172944307,
        45.55890270508826,
        301.20000000000005
      ],
      [
        0.9272684901952744,
        45.55890270508826,
        301.4
      ],
      [
        0.9270012751221657,
        45.558910332620144,
        301.4
      ],
      [
        0.9267361555248499,
        45.5588988494128,
        301.6
      ],
      [
        0.9267139434814453,
        45.55889507755637,
        301.6
      ],
      [
        0.926547646522522,
        45.558910332620144,
        300.79999999999995
      ],
      [
        0.9264638274908066,
        45.55891796015203,
        301.6
      ],
      [
        0.9263250231742859,
        45.558910332620144,
        301.79999999999995
      ],
      [
        0.9263035655021667,
        45.558906476944685,
        302
      ],
      [
        0.9261731430888176,
        45.5588798224926,
        302.79999999999995
      ],
      [
        0.9261597320437431,
        45.55886456742883,
        303
      ],
      [
        0.9260839596390724,
        45.558769181370735,
        303
      ],
      [
        0.92607406899333,
        45.55875778198242,
        302.79999999999995
      ],
      [
        0.9260134678333998,
        45.5586966779083,
        302.6
      ],
      [
        0.9259728156030178,
        45.558670023456216,
        302.20000000000005
      ],
      [
        0.9259047545492649,
        45.558628030121326,
        301.6
      ],
      [
        0.9258295688778162,
        45.558570781722665,
        301.20000000000005
      ],
      [
        0.9257873240858316,
        45.55847925134003,
        300.4
      ],
      [
        0.9257780201733112,
        45.55844874121249,
        300.20000000000005
      ],
      [
        0.9257509466260672,
        45.558353355154395,
        300.20000000000005
      ],
      [
        0.9257770143449306,
        45.55822745896876,
        300.4
      ],
      [
        0.9258407168090343,
        45.55810927413404,
        300.20000000000005
      ],
      [
        0.9258613362908363,
        45.55806342512369,
        300.20000000000005
      ],
      [
        0.9258976299315691,
        45.557941384613514,
        300
      ],
      [
        0.9259228594601154,
        45.557800233364105,
        299.6
      ],
      [
        0.9259259607642889,
        45.55778497830033,
        299.4
      ],
      [
        0.9259447362273932,
        45.55767056532204,
        299
      ],
      [
        0.9259962849318981,
        45.55757140740752,
        300
      ],
      [
        0.9260736498981714,
        45.55745313875377,
        299.79999999999995
      ],
      [
        0.9260945208370686,
        45.55727762170136,
        300
      ],
      [
        0.9261089377105236,
        45.55712507106364,
        300
      ],
      [
        0.9261099435389042,
        45.55709456093609,
        300.20000000000005
      ],
      [
        0.9261108655482531,
        45.55699531920254,
        300.4
      ],
      [
        0.9261112008243799,
        45.556915272027254,
        300.79999999999995
      ],
      [
        0.9261155594140291,
        45.55686950683594,
        301
      ],
      [
        0.9261252824217081,
        45.55673975497484,
        301.20000000000005
      ],
      [
        0.9261549543589354,
        45.556617714464664,
        301.20000000000005
      ],
      [
        0.9261502604931593,
        45.556495590135455,
        300.79999999999995
      ],
      [
        0.9260833729058504,
        45.55641168728471,
        300.20000000000005
      ],
      [
        0.9259039163589478,
        45.55636977776885,
        299.79999999999995
      ],
      [
        0.9256981406360865,
        45.556362150236964,
        299.79999999999995
      ],
      [
        0.9255196899175644,
        45.556358294561505,
        300.20000000000005
      ],
      [
        0.9254544787108898,
        45.55636592209339,
        300.4
      ],
      [
        0.9254091326147318,
        45.55636977776885,
        300.4
      ],
      [
        0.9253393951803446,
        45.556381177157164,
        300.6
      ],
      [
        0.9251470305025578,
        45.556381177157164,
        300.20000000000005
      ],
      [
        0.925090117380023,
        45.55638880468905,
        300.20000000000005
      ],
      [
        0.9248895384371281,
        45.556400287896395,
        300
      ],
      [
        0.9247965831309557,
        45.556419314816594,
        299.79999999999995
      ],
      [
        0.9247079864144325,
        45.556438425555825,
        299.79999999999995
      ],
      [
        0.9245495684444904,
        45.55646130815148,
        299.79999999999995
      ],
      [
        0.9244068246334791,
        45.55648033507168,
        300
      ],
      [
        0.9242497477680445,
        45.55646508000791,
        300.4
      ],
      [
        0.9242302179336548,
        45.55642317049205,
        300.4
      ],
      [
        0.9242365881800652,
        45.55637354962528,
        300.4
      ],
      [
        0.9243262745440006,
        45.55627439171076,
        301.6
      ],
      [
        0.9243805892765522,
        45.55620951578021,
        301.20000000000005
      ],
      [
        0.9244148712605238,
        45.55616752244532,
        301.4
      ],
      [
        0.9244561102241278,
        45.556041710078716,
        300.79999999999995
      ],
      [
        0.924375057220459,
        45.55595009587705,
        301
      ],
      [
        0.9243111032992601,
        45.555824199691415,
        301.20000000000005
      ],
      [
        0.9244589600712061,
        45.5557784345001,
        300.79999999999995
      ],
      [
        0.9246467147022486,
        45.55575178004801,
        300.6
      ],
      [
        0.9246677532792091,
        45.555747924372554,
        300.4
      ],
      [
        0.9248074796050787,
        45.55565639398992,
        300.6
      ],
      [
        0.9249785542488098,
        45.555530497804284,
        300.79999999999995
      ],
      [
        0.9250684920698404,
        45.55544659495354,
        300.20000000000005
      ],
      [
        0.9252271614968777,
        45.555332181975245,
        300.20000000000005
      ],
      [
        0.925342496484518,
        45.555232940241694,
        300.20000000000005
      ],
      [
        0.9254729188978672,
        45.555129926651716,
        301.20000000000005
      ],
      [
        0.9255886729806662,
        45.55503839626908,
        301.4
      ],
      [
        0.9256958775222301,
        45.55495826527476,
        301.6
      ],
      [
        0.9257307462394238,
        45.554939238354564,
        301.6
      ],
      [
        0.9258264675736427,
        45.55485533550382,
        301.4
      ],
      [
        0.9260004758834839,
        45.554737066850066,
        301.4
      ],
      [
        0.9261332452297211,
        45.5546264257282,
        301.20000000000005
      ],
      [
        0.9261573012918234,
        45.55450815707445,
        301
      ],
      [
        0.9260885696858168,
        45.55437463335693,
        300.79999999999995
      ],
      [
        0.9259822871536016,
        45.55422208271921,
        301
      ],
      [
        0.9259073529392481,
        45.55411521345377,
        300.79999999999995
      ],
      [
        0.9258388727903366,
        45.55399317294359,
        300.79999999999995
      ],
      [
        0.925769554451108,
        45.553867276757956,
        300.79999999999995
      ],
      [
        0.9256548061966896,
        45.55372235365212,
        300.6
      ],
      [
        0.9255452547222376,
        45.553634595125914,
        300.6
      ],
      [
        0.9255310893058777,
        45.5536231957376,
        300.6
      ],
      [
        0.9255011659115553,
        45.55359645746648,
        300.4
      ],
      [
        0.9252935461699963,
        45.55350869894028,
        300.79999999999995
      ],
      [
        0.9250806458294392,
        45.553432423621416,
        300.79999999999995
      ],
      [
        0.9250234812498093,
        45.553413312882185,
        301
      ],
      [
        0.9248635545372963,
        45.55336377583444,
        301.20000000000005
      ],
      [
        0.9246609639376402,
        45.553314154967666,
        300.6
      ],
      [
        0.9244785737246275,
        45.5533332657069,
        300.20000000000005
      ],
      [
        0.9243074990808964,
        45.5533866584301,
        301.4
      ],
      [
        0.9242914896458387,
        45.553394285961986,
        301.6
      ],
      [
        0.9241544455289841,
        45.55346293374896,
        301.6
      ],
      [
        0.9239990450441837,
        45.55353920906782,
        302.4
      ],
      [
        0.9239425510168076,
        45.553569719195366,
        302.79999999999995
      ],
      [
        0.9238728135824203,
        45.55360794067383,
        303.20000000000005
      ],
      [
        0.9236881602555513,
        45.553634595125914,
        303.20000000000005
      ],
      [
        0.9235794469714165,
        45.553573574870825,
        302.6
      ],
      [
        0.9234789479523897,
        45.55346293374896,
        301.6
      ],
      [
        0.9234665427356958,
        45.553436279296875,
        301.4
      ],
      [
        0.9234597533941269,
        45.55334089323878,
        300.6
      ],
      [
        0.9234655369073153,
        45.55331038311124,
        300.6
      ],
      [
        0.9234796185046434,
        45.553199741989374,
        300.6
      ],
      [
        0.9234550595283508,
        45.55308524519205,
        301.20000000000005
      ],
      [
        0.9234113059937954,
        45.55295180529356,
        301.4
      ],
      [
        0.9233603440225124,
        45.55283353663981,
        301.6
      ],
      [
        0.9233507886528969,
        45.55281828157604,
        301.6
      ],
      [
        0.9232927020639181,
        45.55271526798606,
        301.6
      ],
      [
        0.9232067875564098,
        45.552585599943995,
        301.6
      ],
      [
        0.923142246901989,
        45.55247110314667,
        301.4
      ],
      [
        0.9230642952024937,
        45.55235283449292,
        301
      ],
      [
        0.9229813143610954,
        45.55225753225386,
        301.20000000000005
      ],
      [
        0.9228367265313864,
        45.55215451866388,
        301.4
      ],
      [
        0.9227784723043442,
        45.552112525328994,
        301
      ],
      [
        0.9226525761187077,
        45.5520171392709,
        301.20000000000005
      ],
      [
        0.9225162863731384,
        45.55190272629261,
        301.6
      ],
      [
        0.9223695192486048,
        45.55181882344186,
        301
      ],
      [
        0.922182435169816,
        45.55180734023452,
        300.79999999999995
      ],
      [
        0.9220565389841795,
        45.55187984369695,
        301
      ],
      [
        0.921919159591198,
        45.55199425667524,
        300.6
      ],
      [
        0.9218605700880289,
        45.552047649398446,
        300.6
      ],
      [
        0.9218186605721712,
        45.55207824334502,
        300.6
      ],
      [
        0.9217004757374525,
        45.5521659180522,
        300.4
      ],
      [
        0.9215958695858717,
        45.55226130411029,
        300
      ],
      [
        0.9215805307030678,
        45.552272787317634,
        299.79999999999995
      ],
      [
        0.9214634355157614,
        45.55231469683349,
        300.4
      ],
      [
        0.9212892595678568,
        45.55235669016838,
        300.20000000000005
      ],
      [
        0.9211064502596855,
        45.552368089556694,
        300.4
      ],
      [
        0.9209248144179583,
        45.55237957276404,
        300
      ],
      [
        0.920795314013958,
        45.55241393856704,
        300
      ],
      [
        0.9207323659211397,
        45.552425337955356,
        300.20000000000005
      ],
      [
        0.9204835072159767,
        45.552486358210444,
        300.4
      ],
      [
        0.9204666595906019,
        45.55249398574233,
        300.4
      ],
      [
        0.9202509932219982,
        45.55249784141779,
        300.4
      ],
      [
        0.9202265180647373,
        45.5524558480829,
        300.20000000000005
      ],
      [
        0.9202396776527166,
        45.55241393856704,
        300.20000000000005
      ],
      [
        0.9203521627932787,
        45.55230329744518,
        300.20000000000005
      ],
      [
        0.9203642327338457,
        45.55221553891897,
        300
      ],
      [
        0.9202613867819309,
        45.55210112594068,
        299.79999999999995
      ],
      [
        0.9200908988714218,
        45.55198285728693,
        299.6
      ],
      [
        0.9200894739478827,
        45.55194086395204,
        299.4
      ],
      [
        0.9201208222657442,
        45.55190658196807,
        299.4
      ],
      [
        0.9202220756560564,
        45.551830222830176,
        299.20000000000005
      ],
      [
        0.9203352313488722,
        45.55175017565489,
        298.79999999999995
      ],
      [
        0.9204088244587183,
        45.55169292725623,
        299
      ],
      [
        0.9204476326704025,
        45.551654789596796,
        299
      ],
      [
        0.9204812441021204,
        45.55156325921416,
        299.79999999999995
      ],
      [
        0.9205122571438551,
        45.55146787315607,
        300
      ],
      [
        0.9205200523138046,
        45.551437363028526,
        300
      ],
      [
        0.9205251652747393,
        45.55139536969364,
        300
      ],
      [
        0.9205084852874279,
        45.55123519152403,
        299.6
      ],
      [
        0.9204435255378485,
        45.551181714981794,
        299.6
      ],
      [
        0.9204138536006212,
        45.551158832386136,
        299.6
      ],
      [
        0.9203989338129759,
        45.55114743299782,
        299.6
      ],
      [
        0.9203481394797564,
        45.55111306719482,
        299.6
      ],
      [
        0.9202203154563904,
        45.55103679187596,
        299.6
      ],
      [
        0.9200492408126593,
        45.5509795434773,
        299.79999999999995
      ],
      [
        0.9198459796607494,
        45.550945261493325,
        300.20000000000005
      ],
      [
        0.9197552036494017,
        45.55093377828598,
        300.4
      ],
      [
        0.919668534770608,
        45.55093377828598,
        300.79999999999995
      ],
      [
        0.9195072669535875,
        45.550926150754094,
        301
      ],
      [
        0.9193154890090227,
        45.550907123833895,
        301
      ],
      [
        0.9191305004060268,
        45.550888013094664,
        300.6
      ],
      [
        0.9190225414931774,
        45.550865130499005,
        300.20000000000005
      ],
      [
        0.9189833141863346,
        45.55085364729166,
        300.20000000000005
      ],
      [
        0.918841240927577,
        45.55078122764826,
        300
      ],
      [
        0.918749375268817,
        45.55069346912205,
        300
      ],
      [
        0.9187211282551289,
        45.55067435838282,
        300
      ],
      [
        0.9186932165175676,
        45.55065533146262,
        300
      ],
      [
        0.9186145104467869,
        45.550605710595846,
        300.20000000000005
      ],
      [
        0.9185323677957058,
        45.550529435276985,
        301.4
      ],
      [
        0.918504036962986,
        45.55050655268133,
        301.6
      ],
      [
        0.9184400830417871,
        45.55045693181455,
        301.79999999999995
      ],
      [
        0.918329106643796,
        45.550334891304374,
        301.20000000000005
      ],
      [
        0.9183060564100742,
        45.5502662435174,
        300.6
      ],
      [
        0.9183006919920444,
        45.55025098845363,
        300.20000000000005
      ],
      [
        0.918274037539959,
        45.55014411918819,
        300
      ],
      [
        0.9182317089289427,
        45.55006784386933,
        299.20000000000005
      ],
      [
        0.9182220697402954,
        45.550056444481015,
        299.20000000000005
      ],
      [
        0.9181392565369606,
        45.54992669261992,
        298.4
      ],
      [
        0.9181215707212687,
        45.54988855496049,
        298.20000000000005
      ],
      [
        0.9180757217109203,
        45.5498275347054,
        297.79999999999995
      ],
      [
        0.9180155396461487,
        45.549720749258995,
        297
      ],
      [
        0.9180055651813745,
        45.54970926605165,
        297
      ],
      [
        0.9179746359586716,
        45.549621507525444,
        295.79999999999995
      ],
      [
        0.9179670084267855,
        45.54960625246167,
        295.6
      ],
      [
        0.9179721213877201,
        45.54951472207904,
        295.4
      ],
      [
        0.9180017095059156,
        45.54940793663263,
        294.79999999999995
      ],
      [
        0.9179876279085875,
        45.54937357082963,
        294.4
      ],
      [
        0.9179001208394766,
        45.54931255057454,
        293.79999999999995
      ],
      [
        0.9177722968161106,
        45.54925915785134,
        294.20000000000005
      ],
      [
        0.9175920858979225,
        45.549148516729474,
        293.79999999999995
      ],
      [
        0.917588397860527,
        45.54914474487305,
        293.79999999999995
      ],
      [
        0.917583703994751,
        45.54913703352213,
        293.79999999999995
      ],
      [
        0.9175768308341503,
        45.549125634133816,
        293.6
      ],
      [
        0.9175718855112791,
        45.54911415092647,
        293.6
      ]
    ]
  }
}
