{
  "type": "Feature",
  "properties": {
    "id": "24576877588",
    "activity": "hiking",
    "name": "Mialet Hiking",
    "date": "2026-10-02T10:10:21Z",
    "startDateLocal": "2026-10-02T12:10:21",
    "distanceKm": 4.08,
    "movingTimeSeconds": 2744,
    "elapsedTimeSeconds": 2842,
    "ascentM": 30,
    "descentM": 28,
    "providers": [
      "Garmin"
    ]
  },
  "geometry": {
    "type": "LineString",
    "coordinates": [
      [
        0.9177774097770452,
        45.54927055723965,
        292.4
      ],
      [
        0.917854942381382,
        45.54937357082963,
        292.6
      ],
      [
        0.9178680181503296,
        45.54940030910075,
        292.79999999999995
      ],
      [
        0.9178861230611801,
        45.549446074292064,
        293.6
      ],
      [
        0.9179022163152695,
        45.5495185777545,
        294
      ],
      [
        0.9179034736007452,
        45.54953383281827,
        294
      ],
      [
        0.9179069940000772,
        45.5495719704777,
        294.20000000000005
      ],
      [
        0.9179047308862209,
        45.549598624929786,
        294.6
      ],
      [
        0.9179005399346352,
        45.54965587332845,
        295.20000000000005
      ],
      [
        0.9179030545055866,
        45.549682611599565,
        295.4
      ],
      [
        0.9179193153977394,
        45.549716893583536,
        295.6
      ],
      [
        0.9179812576621771,
        45.54978939704597,
        296.20000000000005
      ],
      [
        0.9180136118084192,
        45.54983139038086,
        296.79999999999995
      ],
      [
        0.9180775657296181,
        45.549938175827265,
        297.4
      ],
      [
        0.9181101713329554,
        45.54998771287501,
        297.79999999999995
      ],
      [
        0.9181585349142551,
        45.550056444481015,
        298.4
      ],
      [
        0.9181914757937193,
        45.550094582140446,
        299
      ],
      [
        0.9184768795967102,
        45.55050655268133,
        300.79999999999995
      ],
      [
        0.918547622859478,
        45.5505752004683,
        300.4
      ],
      [
        0.9185600280761719,
        45.55058668367565,
        300.4
      ],
      [
        0.9186379797756672,
        45.550628593191504,
        300
      ],
      [
        0.918684583157301,
        45.550666730850935,
        299.79999999999995
      ],
      [
        0.9187249839305878,
        45.55070109665394,
        299.6
      ],
      [
        0.9187464416027069,
        45.55072020739317,
        299.6
      ],
      [
        0.9188405703753233,
        45.550788855180144,
        299.4
      ],
      [
        0.9188668057322502,
        45.55080411024392,
        299
      ],
      [
        0.9189869184046984,
        45.550846019759774,
        299.20000000000005
      ],
      [
        0.9191436599940062,
        45.55088038556278,
        299.79999999999995
      ],
      [
        0.9193363599479198,
        45.55089186877012,
        299.6
      ],
      [
        0.9194756671786308,
        45.55091089569032,
        300.4
      ],
      [
        0.9195273835211992,
        45.55091852322221,
        300.6
      ],
      [
        0.9196724742650986,
        45.55093763396144,
        300.4
      ],
      [
        0.9198536071926355,
        45.55094903334975,
        300.4
      ],
      [
        0.9200197365134954,
        45.5509605165571,
        299.79999999999995
      ],
      [
        0.9201827645301819,
        45.55099102668464,
        300
      ],
      [
        0.9203298669308424,
        45.551082557067275,
        300
      ],
      [
        0.9204431064426899,
        45.55116645991802,
        300
      ],
      [
        0.9205743670463562,
        45.55124659091234,
        299.6
      ],
      [
        0.9205609560012817,
        45.55124659091234,
        299.4
      ],
      [
        0.9205495566129684,
        45.55125807411969,
        299.4
      ],
      [
        0.9205555077642202,
        45.55129235610366,
        299.6
      ],
      [
        0.9205502271652222,
        45.551341976970434,
        299.6
      ],
      [
        0.9205301944166422,
        45.55138774216175,
        300
      ],
      [
        0.9205062221735716,
        45.551517410203815,
        300
      ],
      [
        0.9204628877341747,
        45.55162427946925,
        299.6
      ],
      [
        0.9203842654824257,
        45.55170432664454,
        298.79999999999995
      ],
      [
        0.9202908910810947,
        45.55178068578243,
        298.6
      ],
      [
        0.9202440362423658,
        45.55181119590998,
        298.6
      ],
      [
        0.920215705409646,
        45.55182645097375,
        298.6
      ],
      [
        0.920156529173255,
        45.55186836048961,
        299
      ],
      [
        0.9201160445809364,
        45.55190272629261,
        299
      ],
      [
        0.920086121186614,
        45.55193709209561,
        299
      ],
      [
        0.9200872108340263,
        45.55198285728693,
        299
      ],
      [
        0.9201784059405327,
        45.552047649398446,
        299.4
      ],
      [
        0.9202879574149847,
        45.55208201520145,
        299.79999999999995
      ],
      [
        0.9203706867992878,
        45.55212400853634,
        299
      ],
      [
        0.9203874506056309,
        45.552188800647855,
        299.79999999999995
      ],
      [
        0.9203465469181538,
        45.55229944176972,
        299.79999999999995
      ],
      [
        0.9202458802610636,
        45.552406311035156,
        299.79999999999995
      ],
      [
        0.9202359896153212,
        45.55241771042347,
        299.79999999999995
      ],
      [
        0.9202577825635672,
        45.55250161327422,
        300
      ],
      [
        0.9203566890209913,
        45.55251309648156,
        300.4
      ],
      [
        0.9204223193228245,
        45.552505468949676,
        300.4
      ],
      [
        0.9205707628279924,
        45.55247873067856,
        300.20000000000005
      ],
      [
        0.9207456093281507,
        45.55242156609893,
        300.4
      ],
      [
        0.9209359623491764,
        45.552387200295925,
        300.20000000000005
      ],
      [
        0.9211217053234577,
        45.55237194523215,
        300.20000000000005
      ],
      [
        0.9213374555110931,
        45.55235669016838,
        300.4
      ],
      [
        0.9215093683451414,
        45.55231469683349,
        300.4
      ],
      [
        0.921663511544466,
        45.5522346496582,
        300.79999999999995
      ],
      [
        0.9217634238302708,
        45.55216214619577,
        300.79999999999995
      ],
      [
        0.9218748193234205,
        45.552051505073905,
        300.79999999999995
      ],
      [
        0.9220101032406092,
        45.55192946456373,
        301.20000000000005
      ],
      [
        0.9221002925187349,
        45.55186836048961,
        301.6
      ],
      [
        0.9221572056412697,
        45.55183785036206,
        301.79999999999995
      ],
      [
        0.9223097562789917,
        45.55178445763886,
        301.79999999999995
      ],
      [
        0.9223313815891743,
        45.55177305825055,
        301.6
      ],
      [
        0.9223262686282396,
        45.55176543071866,
        301.6
      ],
      [
        0.9223255980759859,
        45.551719665527344,
        301
      ],
      [
        0.9223278611898422,
        45.55172343738377,
        301
      ],
      [
        0.9223749674856663,
        45.551753947511315,
        301.4
      ],
      [
        0.9223929047584534,
        45.55178068578243,
        301.4
      ],
      [
        0.922503462061286,
        45.55192183703184,
        301.6
      ],
      [
        0.9226177912205458,
        45.552009511739016,
        301.6
      ],
      [
        0.9226940665394068,
        45.55206676013768,
        301.6
      ],
      [
        0.9228228963911533,
        45.552150662988424,
        301.79999999999995
      ],
      [
        0.9229470323771238,
        45.552249904721975,
        301.6
      ],
      [
        0.9230392333120108,
        45.55235283449292,
        301.6
      ],
      [
        0.923060355708003,
        45.55239482782781,
        301.6
      ],
      [
        0.9231224656105042,
        45.55249784141779,
        301.79999999999995
      ],
      [
        0.9232059493660927,
        45.55263136513531,
        301.79999999999995
      ],
      [
        0.9232684783637524,
        45.552741922438145,
        302
      ],
      [
        0.9233417361974716,
        45.55287167429924,
        302
      ],
      [
        0.9234082046896219,
        45.55300519801676,
        301.79999999999995
      ],
      [
        0.9234480187296867,
        45.5531310942024,
        301.4
      ],
      [
        0.9234579093754292,
        45.55324927903712,
        301.4
      ],
      [
        0.9234439115971327,
        45.55336754769087,
        301.6
      ],
      [
        0.9234480187296867,
        45.553455306217074,
        301.6
      ],
      [
        0.9234589152038097,
        45.55347818881273,
        301.79999999999995
      ],
      [
        0.9234803728759289,
        45.55350492708385,
        302
      ],
      [
        0.9235802013427019,
        45.55358497425914,
        302.4
      ],
      [
        0.9236294031143188,
        45.553615568205714,
        302.79999999999995
      ],
      [
        0.9237034153193235,
        45.55363845080137,
        303.20000000000005
      ],
      [
        0.9237659443169832,
        45.55363845080137,
        303.4
      ],
      [
        0.9237876534461975,
        45.55363845080137,
        303.4
      ],
      [
        0.9239140525460243,
        45.55360022932291,
        303.4
      ],
      [
        0.9239452332258224,
        45.55358497425914,
        303.4
      ],
      [
        0.9241294674575329,
        45.55350492708385,
        302.6
      ],
      [
        0.9241431299597025,
        45.55350107140839,
        302.4
      ],
      [
        0.9242493286728859,
        45.55345916189253,
        302.4
      ],
      [
        0.9242834430187941,
        45.55344390682876,
        302.4
      ],
      [
        0.9244323894381523,
        45.55337140336633,
        301.6
      ],
      [
        0.9246048051863909,
        45.55332178249955,
        301.4
      ],
      [
        0.9246236644685268,
        45.55332178249955,
        301.4
      ],
      [
        0.924815945327282,
        45.55332941003144,
        301.4
      ],
      [
        0.9249560069292784,
        45.5533866584301,
        301.6
      ],
      [
        0.9251247346401215,
        45.55344767868519,
        301.6
      ],
      [
        0.9253385569900274,
        45.553512554615736,
        301.20000000000005
      ],
      [
        0.9254976455122232,
        45.55359645746648,
        301
      ],
      [
        0.9256061911582947,
        45.55366896092892,
        300.79999999999995
      ],
      [
        0.9256719052791595,
        45.55375663563609,
        300.79999999999995
      ],
      [
        0.9257099591195583,
        45.55381773971021,
        300.79999999999995
      ],
      [
        0.9257953707128763,
        45.55397414602339,
        301
      ],
      [
        0.9258370287716389,
        45.554027538746595,
        301
      ],
      [
        0.9258710592985153,
        45.55406944826245,
        301
      ],
      [
        0.925967451184988,
        45.55419157259166,
        301.20000000000005
      ],
      [
        0.9260479174554348,
        45.554305985569954,
        300.79999999999995
      ],
      [
        0.9261241927742958,
        45.55441662669182,
        300.4
      ],
      [
        0.9261312335729599,
        45.55442802608013,
        300.4
      ],
      [
        0.9261785075068474,
        45.55453103967011,
        300
      ],
      [
        0.9261916670948267,
        45.55454629473388,
        299.79999999999995
      ],
      [
        0.9261913318186998,
        45.55454629473388,
        299.79999999999995
      ],
      [
        0.9261857159435749,
        45.5545920599252,
        300.20000000000005
      ],
      [
        0.9261597320437431,
        45.55461117066443,
        300.20000000000005
      ],
      [
        0.9261283837258816,
        45.55463405326009,
        300.20000000000005
      ],
      [
        0.9260701294988394,
        45.55467604659498,
        300.20000000000005
      ],
      [
        0.9260408766567707,
        45.55469507351518,
        300.4
      ],
      [
        0.9260099474340677,
        45.55472943931818,
        300.4
      ],
      [
        0.9259655233472586,
        45.55476757697761,
        300.4
      ],
      [
        0.925823450088501,
        45.554874362424016,
        300.6
      ],
      [
        0.9257613401859999,
        45.55492775514722,
        300.6
      ],
      [
        0.9256920218467712,
        45.554977376013994,
        300.20000000000005
      ],
      [
        0.9255797881633043,
        45.55504987947643,
        300.20000000000005
      ],
      [
        0.9254318475723267,
        45.55514903739095,
        300
      ],
      [
        0.9253098908811808,
        45.555252050980926,
        299.20000000000005
      ],
      [
        0.9252461045980453,
        45.555290188640356,
        299.20000000000005
      ],
      [
        0.9252320230007172,
        45.55530158802867,
        299.20000000000005
      ],
      [
        0.9251968190073967,
        45.55532832629979,
        299
      ],
      [
        0.9250996727496386,
        45.55539697408676,
        299
      ],
      [
        0.9249939769506454,
        45.55548087693751,
        299
      ],
      [
        0.9249808173626661,
        45.555492360144854,
        299
      ],
      [
        0.9248104132711887,
        45.55563351139426,
        299
      ],
      [
        0.9246541745960712,
        45.55572126992047,
        298.4
      ],
      [
        0.9244428668171167,
        45.555763179436326,
        298.4
      ],
      [
        0.924314958974719,
        45.5558128003031,
        298.4
      ],
      [
        0.9243001230061054,
        45.55587767623365,
        298.4
      ],
      [
        0.924310851842165,
        45.55589670315385,
        298.4
      ],
      [
        0.9243754763156176,
        45.55596920661628,
        298.20000000000005
      ],
      [
        0.9243973530828953,
        45.55599208921194,
        298.20000000000005
      ],
      [
        0.9244241751730442,
        45.556041710078716,
        298.20000000000005
      ],
      [
        0.9243995323777199,
        45.556179005652666,
        298.20000000000005
      ],
      [
        0.9243256878107786,
        45.55628579109907,
        298.4
      ],
      [
        0.924304649233818,
        45.55631252937019,
        298.4
      ],
      [
        0.9242458082735538,
        45.55646508000791,
        298.20000000000005
      ],
      [
        0.9243215806782246,
        45.55651847273111,
        297.79999999999995
      ],
      [
        0.9244992770254612,
        45.5565070733428,
        297.4
      ],
      [
        0.9245237521827221,
        45.55650321766734,
        297.20000000000005
      ],
      [
        0.9246845170855522,
        45.55646130815148,
        297
      ],
      [
        0.9248347207903862,
        45.556438425555825,
        296.79999999999995
      ],
      [
        0.9250207990407944,
        45.55642317049205,
        297.20000000000005
      ],
      [
        0.9251832403242588,
        45.55641554296017,
        297.4
      ],
      [
        0.9253478609025478,
        45.556396432220936,
        297.4
      ],
      [
        0.9255520440638065,
        45.55639266036451,
        297
      ],
      [
        0.9257074445486069,
        45.55638880468905,
        296.6
      ],
      [
        0.925883213058114,
        45.55638880468905,
        296.6
      ],
      [
        0.9260730631649494,
        45.556400287896395,
        296.79999999999995
      ],
      [
        0.9261556249111891,
        45.55642694234848,
        296.6
      ],
      [
        0.9261508472263813,
        45.55643079802394,
        296.6
      ],
      [
        0.9261448960751295,
        45.55642694234848,
        296.4
      ],
      [
        0.9261481650173664,
        45.556438425555825,
        296.20000000000005
      ],
      [
        0.9261341672390699,
        45.5564536806196,
        296.20000000000005
      ],
      [
        0.9261324908584356,
        45.55644982494414,
        296.4
      ],
      [
        0.9261306468397379,
        45.55644605308771,
        296.4
      ],
      [
        0.9261535294353962,
        45.55644982494414,
        296.20000000000005
      ],
      [
        0.9261648450046778,
        45.556476563215256,
        296.4
      ],
      [
        0.926151517778635,
        45.556575721129775,
        296.6
      ],
      [
        0.9261380229145288,
        45.55668636225164,
        297.20000000000005
      ],
      [
        0.9261428005993366,
        45.5567092448473,
        297.20000000000005
      ],
      [
        0.9261436387896538,
        45.55680463090539,
        297.20000000000005
      ],
      [
        0.9261355921626091,
        45.556964809075,
        297.20000000000005
      ],
      [
        0.9261262882500887,
        45.55712507106364,
        297.20000000000005
      ],
      [
        0.9261008910834789,
        45.55726622231305,
        296.79999999999995
      ],
      [
        0.926072895526886,
        45.55739974603057,
        297.20000000000005
      ],
      [
        0.9260041639208794,
        45.557582806795835,
        297
      ],
      [
        0.9259554650634527,
        45.5576590821147,
        296.79999999999995
      ],
      [
        0.9259337559342384,
        45.557701075449586,
        296.4
      ],
      [
        0.9259242843836546,
        45.5577278137207,
        296.4
      ],
      [
        0.9259098675101995,
        45.55779646150768,
        296.4
      ],
      [
        0.9258908405900002,
        45.55789176374674,
        296.6
      ],
      [
        0.9258720651268959,
        45.55804054252803,
        296.79999999999995
      ],
      [
        0.9258332569152117,
        45.55816643871367,
        297.20000000000005
      ],
      [
        0.9258054289966822,
        45.55821983143687,
        297.20000000000005
      ],
      [
        0.9257547184824944,
        45.55833810009062,
        297
      ],
      [
        0.925759831443429,
        45.55838009342551,
        296.79999999999995
      ],
      [
        0.9257650282233953,
        45.55838386528194,
        296.79999999999995
      ],
      [
        0.9258076921105385,
        45.558433486148715,
        296.79999999999995
      ],
      [
        0.9258781000971794,
        45.55850213393569,
        296.79999999999995
      ],
      [
        0.9260326623916626,
        45.55860900320113,
        297.4
      ],
      [
        0.9261015616357327,
        45.558689050376415,
        298
      ],
      [
        0.9261069260537624,
        45.55870053358376,
        298.20000000000005
      ],
      [
        0.9261184930801392,
        45.55874629877508,
        298.79999999999995
      ],
      [
        0.926121175289154,
        45.55878443643451,
        299.20000000000005
      ],
      [
        0.9261226002126932,
        45.55879591964185,
        299.4
      ],
      [
        0.9261454828083515,
        45.5588798224926,
        300
      ],
      [
        0.9261693712323904,
        45.55889507755637,
        300.20000000000005
      ],
      [
        0.9261883981525898,
        45.5588988494128,
        300.4
      ],
      [
        0.9263380151242018,
        45.55890270508826,
        299.4
      ],
      [
        0.9263559523969889,
        45.55890270508826,
        299
      ],
      [
        0.9265084192156792,
        45.5588988494128,
        298.79999999999995
      ],
      [
        0.9265448804944754,
        45.5588988494128,
        298.6
      ],
      [
        0.9265641588717699,
        45.5588988494128,
        298.6
      ],
      [
        0.9266028832644224,
        45.5588988494128,
        298.79999999999995
      ],
      [
        0.9266261849552393,
        45.558906476944685,
        298.6
      ],
      [
        0.9266340639442205,
        45.55891410447657,
        298.6
      ],
      [
        0.9267207328230143,
        45.558929443359375,
        298.20000000000005
      ],
      [
        0.926736993715167,
        45.558925587683916,
        298
      ],
      [
        0.9267708566039801,
        45.55891796015203,
        298
      ],
      [
        0.9267646539956331,
        45.55891796015203,
        298
      ],
      [
        0.9267176315188408,
        45.558929443359375,
        297.79999999999995
      ],
      [
        0.9267285279929638,
        45.5589332152158,
        297.6
      ],
      [
        0.9267458785325289,
        45.55895609781146,
        297.4
      ],
      [
        0.9267561882734299,
        45.55897520855069,
        297.4
      ],
      [
        0.9267514944076538,
        45.55897135287523,
        297.4
      ],
      [
        0.9267048072069883,
        45.558948470279574,
        297
      ],
      [
        0.9266908094286919,
        45.55894469842315,
        297
      ],
      [
        0.9265235066413879,
        45.55891410447657,
        297.4
      ],
      [
        0.9263586346060038,
        45.558906476944685,
        297.6
      ],
      [
        0.9262729715555906,
        45.558910332620144,
        298.20000000000005
      ],
      [
        0.9262032341212034,
        45.55891410447657,
        298.6
      ],
      [
        0.9261332452297211,
        45.55891796015203,
        299.20000000000005
      ],
      [
        0.9260617475956678,
        45.55890270508826,
        299.6
      ],
      [
        0.9260187484323978,
        45.55886071175337,
        300.4
      ],
      [
        0.9259709715843201,
        45.55881494656205,
        300.6
      ],
      [
        0.9258910920470953,
        45.558711932972074,
        299.20000000000005
      ],
      [
        0.9258580673485994,
        45.55864714086056,
        298
      ],
      [
        0.9258417226374149,
        45.55860137566924,
        297.4
      ],
      [
        0.9258356038480997,
        45.558574637398124,
        297
      ],
      [
        0.9258064348250628,
        45.55850213393569,
        295.79999999999995
      ],
      [
        0.9257994778454304,
        45.558494506403804,
        295.6
      ],
      [
        0.9257718175649643,
        45.55841823108494,
        295.6
      ],
      [
        0.9257637709379196,
        45.55840297602117,
        295.4
      ],
      [
        0.9257520362734795,
        45.558334328234196,
        295.6
      ],
      [
        0.9257589932531118,
        45.558292334899306,
        296
      ],
      [
        0.9258117992430925,
        45.55820080451667,
        296
      ],
      [
        0.9258169960230589,
        45.55819317698479,
        296
      ],
      [
        0.925883213058114,
        45.55805202573538,
        296
      ],
      [
        0.9258892480283976,
        45.55801388807595,
        296
      ],
      [
        0.9258978813886642,
        45.557941384613514,
        295.79999999999995
      ],
      [
        0.9259086102247238,
        45.55781171657145,
        295.6
      ],
      [
        0.925943898037076,
        45.55767056532204,
        295.6
      ],
      [
        0.9260268788784742,
        45.55755229666829,
        296.20000000000005
      ],
      [
        0.9260875638574362,
        45.55739974603057,
        296.4
      ],
      [
        0.926121175289154,
        45.5572547391057,
        296.6
      ],
      [
        0.9261200856417418,
        45.55714032612741,
        296.79999999999995
      ],
      [
        0.9261168166995049,
        45.55711358785629,
        297
      ],
      [
        0.9261190798133612,
        45.556987691670656,
        297.6
      ],
      [
        0.9261197503656149,
        45.5569457821548,
        298
      ],
      [
        0.9261219296604395,
        45.556835141032934,
        298.4
      ],
      [
        0.926125030964613,
        45.55669013410807,
        298.79999999999995
      ],
      [
        0.9261690359562635,
        45.556537583470345,
        298.6
      ],
      [
        0.9261272940784693,
        45.55642694234848,
        298
      ],
      [
        0.925994273275137,
        45.55636592209339,
        297.4
      ],
      [
        0.9258520323783159,
        45.556362150236964,
        297.4
      ],
      [
        0.9258052613586187,
        45.55636592209339,
        297.4
      ],
      [
        0.9256428200751543,
        45.556377405300736,
        297.4
      ],
      [
        0.9254599269479513,
        45.55638880468905,
        297.4
      ],
      [
        0.9252176061272621,
        45.55639266036451,
        297.4
      ],
      [
        0.9250782150775194,
        45.55640791542828,
        296.79999999999995
      ],
      [
        0.9250655584037304,
        45.55641168728471,
        296.79999999999995
      ],
      [
        0.9248930588364601,
        45.556438425555825,
        296
      ],
      [
        0.9247080702334642,
        45.556457452476025,
        295.79999999999995
      ],
      [
        0.9246892109513283,
        45.556457452476025,
        295.79999999999995
      ],
      [
        0.9245516639202833,
        45.55648419074714,
        296
      ],
      [
        0.9244075790047646,
        45.55650321766734,
        296.4
      ],
      [
        0.9243522584438324,
        45.55650321766734,
        296.6
      ],
      [
        0.924290819093585,
        45.55648033507168,
        296.79999999999995
      ],
      [
        0.9242665115743876,
        45.55644219741225,
        297
      ],
      [
        0.9242778271436691,
        45.55639266036451,
        297.4
      ],
      [
        0.9242974407970905,
        45.55635066702962,
        297.20000000000005
      ],
      [
        0.9243459720164537,
        45.556259136646986,
        296.79999999999995
      ],
      [
        0.9244185592979193,
        45.556179005652666,
        296.79999999999995
      ],
      [
        0.9244328085333109,
        45.556159894913435,
        296.79999999999995
      ],
      [
        0.9244486503303051,
        45.55613701231778,
        296.79999999999995
      ],
      [
        0.9244661685079336,
        45.55609124712646,
        296.6
      ],
      [
        0.924461055546999,
        45.55599586106837,
        296.79999999999995
      ],
      [
        0.9243331477046013,
        45.55591195821762,
        297.4
      ],
      [
        0.924301715567708,
        45.55586242116988,
        297.4
      ],
      [
        0.9243038110435009,
        45.55583568289876,
        297.6
      ],
      [
        0.9243188984692097,
        45.55581657215953,
        297.79999999999995
      ],
      [
        0.9244460519403219,
        45.555767035111785,
        298
      ],
      [
        0.9244740474969149,
        45.555767035111785,
        298
      ],
      [
        0.9245742950588465,
        45.5557594075799,
        297.79999999999995
      ],
      [
        0.9246471337974072,
        45.55573266930878,
        297.79999999999995
      ],
      [
        0.9247569367289543,
        45.55566016584635,
        298
      ],
      [
        0.9249061346054077,
        45.55556100793183,
        298
      ],
      [
        0.9250511415302753,
        45.555469477549195,
        298
      ],
      [
        0.9251563344150782,
        45.55538171902299,
        297.79999999999995
      ],
      [
        0.9252372197806835,
        45.55530544370413,
        297.6
      ],
      [
        0.9253649599850178,
        45.55519865825772,
        297.6
      ],
      [
        0.9254015050828457,
        45.55517954751849,
        297.79999999999995
      ],
      [
        0.9255219530314207,
        45.55510327219963,
        298.20000000000005
      ],
      [
        0.9256222005933523,
        45.55502314120531,
        298.4
      ],
      [
        0.9257317520678043,
        45.55495063774288,
        298.6
      ],
      [
        0.9258366096764803,
        45.55487059056759,
        298.79999999999995
      ],
      [
        0.925848763436079,
        45.554859107360244,
        298.79999999999995
      ],
      [
        0.9260061755776405,
        45.55473321117461,
        298.79999999999995
      ],
      [
        0.9260742366313934,
        45.55468744598329,
        298.79999999999995
      ],
      [
        0.9261376038193703,
        45.554576804861426,
        298.4
      ],
      [
        0.9261636715382338,
        45.554523412138224,
        298.6
      ],
      [
        0.926148584112525,
        45.55443188175559,
        298.79999999999995
      ],
      [
        0.9260565508157015,
        45.55430984124541,
        299.20000000000005
      ],
      [
        0.9259574767202139,
        45.5541877169162,
        299.6
      ],
      [
        0.9258807823061943,
        45.554065676406026,
        299.6
      ],
      [
        0.9258064348250628,
        45.553947407752275,
        299.6
      ],
      [
        0.9257726557552814,
        45.5538977868855,
        299.79999999999995
      ],
      [
        0.925751868635416,
        45.55385964922607,
        299.79999999999995
      ],
      [
        0.9256824664771557,
        45.55376049131155,
        299.6
      ],
      [
        0.9255744237452745,
        45.553649850189686,
        300
      ],
      [
        0.9254642017185688,
        45.55358497425914,
        300
      ],
      [
        0.9253358747810125,
        45.55352395400405,
        300.20000000000005
      ],
      [
        0.9252813924103975,
        45.55350492708385,
        300.20000000000005
      ],
      [
        0.9252360463142395,
        45.55348967202008,
        300.20000000000005
      ],
      [
        0.9250765386968851,
        45.553436279296875,
        300.6
      ],
      [
        0.9249269217252731,
        45.55337903089821,
        300.6
      ],
      [
        0.9247911348938942,
        45.5533332657069,
        300.4
      ],
      [
        0.9246193058788776,
        45.553318010643125,
        300
      ],
      [
        0.9244994446635246,
        45.553337037563324,
        300.20000000000005
      ],
      [
        0.9244348201900721,
        45.553356148302555,
        300.4
      ],
      [
        0.9242748934775591,
        45.553417168557644,
        301
      ],
      [
        0.9241184033453465,
        45.553493443876505,
        301.20000000000005
      ],
      [
        0.9239516034722328,
        45.553573574870825,
        302
      ],
      [
        0.9239388629794121,
        45.55358120240271,
        302
      ],
      [
        0.9237806126475334,
        45.5536422226578,
        302.4
      ],
      [
        0.923641724511981,
        45.55361934006214,
        302.20000000000005
      ],
      [
        0.9235379565507174,
        45.55353920906782,
        301.4
      ],
      [
        0.923481797799468,
        45.55346678942442,
        301
      ],
      [
        0.9234641119837761,
        45.553417168557644,
        300.79999999999995
      ],
      [
        0.9234781097620726,
        45.55330275557935,
        300.6
      ],
      [
        0.92349654994905,
        45.55317300371826,
        300.6
      ],
      [
        0.9234615974128246,
        45.55306999012828,
        300.79999999999995
      ],
      [
        0.9234333503991365,
        45.552982315421104,
        301.20000000000005
      ],
      [
        0.9233774431049824,
        45.552879301831126,
        301.20000000000005
      ],
      [
        0.9233221225440502,
        45.55278777144849,
        301.6
      ],
      [
        0.923273004591465,
        45.55269615724683,
        301.6
      ],
      [
        0.9232108946889639,
        45.552585599943995,
        301.6
      ],
      [
        0.9231556579470634,
        45.55247495882213,
        301.4
      ],
      [
        0.9231445100158453,
        45.55245207622647,
        301.4
      ],
      [
        0.9230829868465662,
        45.55235669016838,
        301.20000000000005
      ],
      [
        0.9229841642081738,
        45.552249904721975,
        301.20000000000005
      ],
      [
        0.922886012122035,
        45.5521659180522,
        301.20000000000005
      ],
      [
        0.9227438550442457,
        45.55206676013768,
        301.4
      ],
      [
        0.9226327948272228,
        45.55199425667524,
        301.4
      ],
      [
        0.9225363191217184,
        45.551914209499955,
        301.20000000000005
      ],
      [
        0.9224138595163822,
        45.55182645097375,
        301
      ],
      [
        0.9222284518182278,
        45.55176920257509,
        300.4
      ],
      [
        0.9221190679818392,
        45.55183785036206,
        300.4
      ],
      [
        0.9220115281641483,
        45.551914209499955,
        300.20000000000005
      ],
      [
        0.9219156391918659,
        45.55199425667524,
        299.79999999999995
      ],
      [
        0.9218908287584782,
        45.552013367414474,
        299.79999999999995
      ],
      [
        0.9217710513621569,
        45.552127780392766,
        299.6
      ],
      [
        0.9216564707458019,
        45.55223842151463,
        299.4
      ],
      [
        0.9214914310723543,
        45.55233757942915,
        299.4
      ],
      [
        0.9213338512927294,
        45.55237571708858,
        299.4
      ],
      [
        0.9211885090917349,
        45.55237957276404,
        299.6
      ],
      [
        0.921038556843996,
        45.55237957276404,
        299.6
      ],
      [
        0.921001173555851,
        45.552383344620466,
        299.6
      ],
      [
        0.9208707511425018,
        45.55242156609893,
        299.6
      ],
      [
        0.9208380617201328,
        45.552425337955356,
        299.6
      ],
      [
        0.920675452798605,
        45.55244444869459,
        299.6
      ],
      [
        0.9205508138984442,
        45.55247873067856,
        299.6
      ],
      [
        0.9204798191785812,
        45.55250161327422,
        299.6
      ],
      [
        0.920410081744194,
        45.55251686833799,
        299.6
      ],
      [
        0.920241940766573,
        45.5524902138859,
        299.6
      ],
      [
        0.920231631025672,
        45.552406311035156,
        299.20000000000005
      ],
      [
        0.9203164558857679,
        45.552349062636495,
        299
      ],
      [
        0.9203814156353474,
        45.55226130411029,
        299.6
      ],
      [
        0.9203358180820942,
        45.55215451866388,
        299.20000000000005
      ],
      [
        0.9202333074063063,
        45.55205913260579,
        299.4
      ],
      [
        0.9200991969555616,
        45.5519637465477,
        299.20000000000005
      ],
      [
        0.9201544336974621,
        45.55187984369695,
        299
      ],
      [
        0.9202033001929522,
        45.551834078505635,
        298.79999999999995
      ],
      [
        0.9202171303331852,
        45.55182645097375,
        298.79999999999995
      ],
      [
        0.9202402643859386,
        45.55180734023452,
        298.6
      ],
      [
        0.9203502349555492,
        45.55173869244754,
        298
      ],
      [
        0.920471353456378,
        45.55163190700114,
        298.79999999999995
      ],
      [
        0.9204998519271612,
        45.55153266526759,
        299.4
      ],
      [
        0.9205338824540377,
        45.55141062475741,
        299.6
      ],
      [
        0.9205421805381775,
        45.55131146684289,
        299.4
      ],
      [
        0.9204881172627211,
        45.551200825721025,
        299.4
      ],
      [
        0.920405387878418,
        45.55113217793405,
        299.79999999999995
      ],
      [
        0.9203897137194872,
        45.551120694726706,
        299.79999999999995
      ],
      [
        0.9203358180820942,
        45.551086412742734,
        299.79999999999995
      ],
      [
        0.9202344808727503,
        45.551021536812186,
        299.79999999999995
      ],
      [
        0.9200634900480509,
        45.55096814408898,
        299.79999999999995
      ],
      [
        0.9198860451579094,
        45.55095666088164,
        300.20000000000005
      ],
      [
        0.9197003021836281,
        45.55093763396144,
        300.6
      ],
      [
        0.9196060057729483,
        45.550926150754094,
        300.79999999999995
      ],
      [
        0.9194642677903175,
        45.55091475136578,
        300.79999999999995
      ],
      [
        0.9192742500454187,
        45.55089949630201,
        300.79999999999995
      ],
      [
        0.9191913530230522,
        45.55089186877012,
        300.6
      ],
      [
        0.9191182628273964,
        45.550884241238236,
        300.6
      ],
      [
        0.9189831465482712,
        45.55084987543523,
        300.20000000000005
      ],
      [
        0.9188364632427692,
        45.55079262703657,
        299.79999999999995
      ],
      [
        0.9187585115432739,
        45.55069346912205,
        300.20000000000005
      ],
      [
        0.9186569228768349,
        45.55060193873942,
        300.6
      ],
      [
        0.9185641352087259,
        45.550533290952444,
        301.79999999999995
      ],
      [
        0.9185587707906961,
        45.55048367008567,
        301.79999999999995
      ],
      [
        0.9185587707906961,
        45.550472186878324,
        301.6
      ],
      [
        0.9185559209436178,
        45.550472186878324,
        301.20000000000005
      ],
      [
        0.9185559209436178,
        45.550472186878324,
        301.20000000000005
      ],
      [
        0.9185490477830172,
        45.550468415021896,
        301
      ],
      [
        0.9185021929442883,
        45.55046078749001,
        301
      ],
      [
        0.9184609539806843,
        45.550468415021896,
        301.20000000000005
      ],
      [
        0.9184341318905354,
        45.550449304282665,
        301.4
      ],
      [
        0.918396832421422,
        45.550411166623235,
        301.20000000000005
      ],
      [
        0.91837327927351,
        45.55032340809703,
        300.6
      ],
      [
        0.9183451998978853,
        45.550235733389854,
        299.79999999999995
      ],
      [
        0.918338242918253,
        45.55022425018251,
        299.6
      ],
      [
        0.9182949084788561,
        45.55014034733176,
        299.6
      ],
      [
        0.91826431453228,
        45.550075471401215,
        299.20000000000005
      ],
      [
        0.9182587824761868,
        45.55006021633744,
        299.20000000000005
      ],
      [
        0.9182094130665064,
        45.54999156855047,
        298.6
      ],
      [
        0.9182011988013983,
        45.54998394101858,
        298.4
      ],
      [
        0.9181314613670111,
        45.54988478310406,
        298.4
      ],
      [
        0.9180586226284504,
        45.54980079643428,
        297.79999999999995
      ],
      [
        0.9180332254618406,
        45.54976265877485,
        297.6
      ],
      [
        0.917994836345315,
        45.549682611599565,
        297.20000000000005
      ],
      [
        0.9179739654064178,
        45.54959485307336,
        296.6
      ],
      [
        0.9179740492254496,
        45.54951472207904,
        295.79999999999995
      ],
      [
        0.9179921541363001,
        45.54945747368038,
        295.6
      ],
      [
        0.9179952554404736,
        45.549423191696405,
        295.4
      ],
      [
        0.9179587941616774,
        45.54935068823397,
        294.4
      ],
      [
        0.9179476462304592,
        45.54933928884566,
        294.4
      ],
      [
        0.9178320597857237,
        45.54925153031945,
        294.79999999999995
      ],
      [
        0.9178189001977444,
        45.549243902787566,
        294.79999999999995
      ],
      [
        0.9177178144454956,
        45.549163771793246,
        295
      ],
      [
        0.9176486637443304,
        45.549106523394585,
        294.79999999999995
      ],
      [
        0.9176474064588547,
        45.549110379070044,
        294.79999999999995
      ],
      [
        0.9176412038505077,
        45.5490988958627,
        294.6
      ],
      [
        0.9176424611359835,
        45.54909512400627,
        294.6
      ],
      [
        0.9176396112889051,
        45.54909512400627,
        294.6
      ],
      [
        0.9176364261657,
        45.549083640798926,
        294.6
      ],
      [
        0.9176119510084391,
        45.54909126833081,
        294.4
      ],
      [
        0.917608430609107,
        45.54909126833081,
        294.20000000000005
      ],
      [
        0.9175923373550177,
        45.549087496474385,
        293.6
      ],
      [
        0.9175921697169542,
        45.549087496474385,
        293.4
      ],
      [
        0.9175964444875717,
        45.549087496474385,
        293.20000000000005
      ],
      [
        0.9175868052989244,
        45.5490988958627,
        292.79999999999995
      ]
    ]
  }
}
