{
  "type": "Feature",
  "properties": {
    "id": "24589725883",
    "activity": "hiking",
    "name": "Mialet Hiking",
    "date": "2026-10-03T12:01:57Z",
    "startDateLocal": "2026-10-03T14:01:57",
    "distanceKm": 3.79,
    "movingTimeSeconds": 1738,
    "elapsedTimeSeconds": 1758,
    "ascentM": 17,
    "descentM": 23,
    "providers": [
      "Garmin"
    ]
  },
  "geometry": {
    "type": "LineString",
    "coordinates": [
      [
        0.9324221033602953,
        45.55427924729884,
        300.79999999999995
      ],
      [
        0.9328714571893215,
        45.55506127886474,
        300.6
      ],
      [
        0.9328454732894897,
        45.55503839626908,
        300.6
      ],
      [
        0.937091326341033,
        45.560092851519585,
        300.4
      ],
      [
        0.9370527695864439,
        45.56006234139204,
        300.20000000000005
      ],
      [
        0.9322545491158962,
        45.554084703326225,
        299.79999999999995
      ],
      [
        0.9322476759552956,
        45.55407707579434,
        299.79999999999995
      ],
      [
        0.9322010725736618,
        45.55404279381037,
        300
      ],
      [
        0.932096466422081,
        45.55397414602339,
        300
      ],
      [
        0.931956572458148,
        45.553947407752275,
        300.20000000000005
      ],
      [
        0.931768985465169,
        45.55392066948116,
        300.4
      ],
      [
        0.931556923314929,
        45.55390164256096,
        300.6
      ],
      [
        0.9313797298818827,
        45.55391304194927,
        300.79999999999995
      ],
      [
        0.9312296938151121,
        45.55394355207682,
        300.6
      ],
      [
        0.931146964430809,
        45.55395889095962,
        300.79999999999995
      ],
      [
        0.9310250077396631,
        45.55400080047548,
        301
      ],
      [
        0.9308246802538633,
        45.55406182073057,
        301.20000000000005
      ],
      [
        0.9308069944381714,
        45.554065676406026,
        301.20000000000005
      ],
      [
        0.9306866303086281,
        45.554134324193,
        301
      ],
      [
        0.9306256100535393,
        45.554183945059776,
        301.4
      ],
      [
        0.9305603988468647,
        45.55426022037864,
        301.6
      ],
      [
        0.9305424615740776,
        45.55428687483072,
        301.4
      ],
      [
        0.9305354207754135,
        45.55429835803807,
        301.20000000000005
      ],
      [
        0.9305176511406898,
        45.55430984124541,
        300.79999999999995
      ],
      [
        0.9304848778992891,
        45.554325096309185,
        300.6
      ],
      [
        0.9303878992795944,
        45.55441662669182,
        300
      ],
      [
        0.9304491709917784,
        45.55447764694691,
        299.6
      ],
      [
        0.93046342022717,
        45.55448527447879,
        299.6
      ],
      [
        0.9305938426405191,
        45.55453103967011,
        299.20000000000005
      ],
      [
        0.9307043999433517,
        45.5546264257282,
        299
      ],
      [
        0.9307783283293247,
        45.55472558364272,
        298.79999999999995
      ],
      [
        0.930790901184082,
        45.55475232191384,
        298.6
      ],
      [
        0.9308108501136303,
        45.55484385229647,
        299
      ],
      [
        0.9308040607720613,
        45.55498500354588,
        298.79999999999995
      ],
      [
        0.9307648334652185,
        45.55506890639663,
        299.20000000000005
      ],
      [
        0.9307265281677246,
        45.55512615479529,
        299.79999999999995
      ],
      [
        0.9306860435754061,
        45.55516429245472,
        300
      ],
      [
        0.9306158870458603,
        45.55523679591715,
        300.4
      ],
      [
        0.9305541962385178,
        45.5552863329649,
        300.6
      ],
      [
        0.9305314812809229,
        45.55530544370413,
        300.79999999999995
      ],
      [
        0.9305172320455313,
        45.55531684309244,
        300.6
      ],
      [
        0.93044338747859,
        45.555370319634676,
        301
      ],
      [
        0.9302989672869444,
        45.55544273927808,
        301.20000000000005
      ],
      [
        0.930196288973093,
        45.55551524274051,
        301.4
      ],
      [
        0.9301786869764328,
        45.5555228702724,
        301.4
      ],
      [
        0.9300854802131653,
        45.55559914559126,
        301.4
      ],
      [
        0.9299643617123365,
        45.555667877197266,
        301.4
      ],
      [
        0.9298237971961498,
        45.555767035111785,
        301.4
      ],
      [
        0.9297307580709457,
        45.55585856549442,
        301.6
      ],
      [
        0.9297196101397276,
        45.55587004870176,
        301.79999999999995
      ],
      [
        0.9296880103647709,
        45.555942468345165,
        302.20000000000005
      ],
      [
        0.9296577516943216,
        45.55605310946703,
        302.4
      ],
      [
        0.9296525549143553,
        45.556083619594574,
        302.79999999999995
      ],
      [
        0.9296041075140238,
        45.55620951578021,
        302.79999999999995
      ],
      [
        0.9294968191534281,
        45.55628964677453,
        302.4
      ],
      [
        0.9294010140001774,
        45.5563239287585,
        302
      ],
      [
        0.9293814841657877,
        45.55633541196585,
        302
      ],
      [
        0.9292469546198845,
        45.556396432220936,
        301.79999999999995
      ],
      [
        0.929229436442256,
        45.55640405975282,
        301.79999999999995
      ],
      [
        0.9291114192456007,
        45.55649181827903,
        301.79999999999995
      ],
      [
        0.9290010295808315,
        45.55660623125732,
        301.6
      ],
      [
        0.9289053082466125,
        45.556716872379184,
        301.6
      ],
      [
        0.9287936612963676,
        45.556831285357475,
        301.20000000000005
      ],
      [
        0.9286989457905293,
        45.55691904388368,
        301.6
      ],
      [
        0.9286097623407841,
        45.55702582933009,
        301.20000000000005
      ],
      [
        0.9285371750593185,
        45.55708307772875,
        300.6
      ],
      [
        0.9285381808876991,
        45.55707545019686,
        300.6
      ],
      [
        0.9285547770559788,
        45.557090705260634,
        300.6
      ],
      [
        0.9285444673150778,
        45.55712507106364,
        300.6
      ],
      [
        0.9284922480583191,
        45.55722045712173,
        300.79999999999995
      ],
      [
        0.9284359216690063,
        45.55731198750436,
        301
      ],
      [
        0.9284300543367863,
        45.55733101442456,
        301
      ],
      [
        0.9283810202032328,
        45.55743788369,
        301.20000000000005
      ],
      [
        0.9283773321658373,
        45.557483648881316,
        301.6
      ],
      [
        0.9283743984997272,
        45.55751415900886,
        301.6
      ],
      [
        0.9283817745745182,
        45.557582806795835,
        302
      ],
      [
        0.9284002147614956,
        45.55765531025827,
        302.6
      ],
      [
        0.9284041542559862,
        45.55769721977413,
        303
      ],
      [
        0.9284195769578218,
        45.557762095704675,
        303.4
      ],
      [
        0.928431311622262,
        45.55781548842788,
        303.79999999999995
      ],
      [
        0.9284478239715099,
        45.55795286782086,
        304.4
      ],
      [
        0.9284596424549818,
        45.55809401907027,
        304.4
      ],
      [
        0.928505240008235,
        45.558216059580445,
        304.4
      ],
      [
        0.928549999371171,
        45.55834572762251,
        304.20000000000005
      ],
      [
        0.9285980276763439,
        45.55846399627626,
        304
      ],
      [
        0.9286892227828503,
        45.55860900320113,
        303.79999999999995
      ],
      [
        0.9287167154252529,
        45.558631885796785,
        303.79999999999995
      ],
      [
        0.9288454614579678,
        45.55874629877508,
        303.4
      ],
      [
        0.9288608841598034,
        45.55876155383885,
        303.4
      ],
      [
        0.9289234131574631,
        45.558868339285254,
        303.20000000000005
      ],
      [
        0.9289073199033737,
        45.558906476944685,
        303.4
      ],
      [
        0.928839510306716,
        45.55894469842315,
        304
      ],
      [
        0.9286873787641525,
        45.55894084274769,
        304.20000000000005
      ],
      [
        0.9284812677651644,
        45.558925587683916,
        303.6
      ],
      [
        0.9283506777137518,
        45.558925587683916,
        302.6
      ],
      [
        0.9283364284783602,
        45.558925587683916,
        302.6
      ],
      [
        0.9281872306019068,
        45.558929443359375,
        302
      ],
      [
        0.9280838817358017,
        45.558929443359375,
        301.6
      ],
      [
        0.9279555547982454,
        45.558929443359375,
        301.20000000000005
      ],
      [
        0.9277776908129454,
        45.558929443359375,
        300.79999999999995
      ],
      [
        0.9277599211782217,
        45.558925587683916,
        300.6
      ],
      [
        0.9277481865137815,
        45.558929443359375,
        300.6
      ],
      [
        0.9276346955448389,
        45.55893707089126,
        300.4
      ],
      [
        0.9276097174733877,
        45.55893707089126,
        300.4
      ],
      [
        0.9273549914360046,
        45.558925587683916,
        300.20000000000005
      ],
      [
        0.9271822404116392,
        45.558925587683916,
        299.6
      ],
      [
        0.9271597769111395,
        45.558925587683916,
        299.6
      ],
      [
        0.9269426856189966,
        45.55892173200846,
        299.4
      ],
      [
        0.9266934916377068,
        45.55891410447657,
        299
      ],
      [
        0.9266628976911306,
        45.55891410447657,
        299
      ],
      [
        0.9264886379241943,
        45.558906476944685,
        299
      ],
      [
        0.9264541883021593,
        45.55888359434903,
        298.79999999999995
      ],
      [
        0.9264128655195236,
        45.5588798224926,
        298.79999999999995
      ],
      [
        0.926248412579298,
        45.5588798224926,
        299.6
      ],
      [
        0.9261754062026739,
        45.55881494656205,
        300.6
      ],
      [
        0.9261319041252136,
        45.558731043711305,
        299.79999999999995
      ],
      [
        0.9261186607182026,
        45.558711932972074,
        299.6
      ],
      [
        0.9260518569499254,
        45.558628030121326,
        298.4
      ],
      [
        0.9260380268096924,
        45.558612775057554,
        298.4
      ],
      [
        0.9259428922086954,
        45.55853649973869,
        297.4
      ],
      [
        0.9259065985679626,
        45.55850598961115,
        297
      ],
      [
        0.9257677104324102,
        45.5583877209574,
        296.6
      ],
      [
        0.9257513657212257,
        45.55828470736742,
        297.20000000000005
      ],
      [
        0.9258127212524414,
        45.55817029438913,
        297.20000000000005
      ],
      [
        0.9258609171956778,
        45.55804439820349,
        297.20000000000005
      ],
      [
        0.9258816204965115,
        45.55791087448597,
        297.4
      ],
      [
        0.9259128011763096,
        45.557804089039564,
        297.20000000000005
      ],
      [
        0.925951274111867,
        45.5576400551945,
        297.6
      ],
      [
        0.9259996376931667,
        45.557525558397174,
        298.4
      ],
      [
        0.9260229393839836,
        45.5574912764132,
        298.4
      ],
      [
        0.926060238853097,
        45.55743402801454,
        298.4
      ],
      [
        0.9260671120136976,
        45.55741114541888,
        298.4
      ],
      [
        0.9260870609432459,
        45.55727384984493,
        298.6
      ],
      [
        0.9260980412364006,
        45.557147953659296,
        299.20000000000005
      ],
      [
        0.9261116199195385,
        45.557071678340435,
        299.4
      ],
      [
        0.9261132963001728,
        45.5570182017982,
        299.79999999999995
      ],
      [
        0.9261251147836447,
        45.55690001696348,
        300.6
      ],
      [
        0.9261242765933275,
        45.55688476189971,
        300.6
      ],
      [
        0.9261376038193703,
        45.55671310052276,
        301.20000000000005
      ],
      [
        0.9261547867208719,
        45.55657194927335,
        301.20000000000005
      ],
      [
        0.9261322394013405,
        45.55644219741225,
        300.6
      ],
      [
        0.9260035771876574,
        45.55639266036451,
        300.20000000000005
      ],
      [
        0.9257335122674704,
        45.55636977776885,
        300
      ],
      [
        0.9255178458988667,
        45.55636592209339,
        300.4
      ],
      [
        0.9253309294581413,
        45.55639266036451,
        300.4
      ],
      [
        0.9251656383275986,
        45.556381177157164,
        300.20000000000005
      ],
      [
        0.9249626286327839,
        45.55640791542828,
        299.79999999999995
      ],
      [
        0.9247967507690191,
        45.55642317049205,
        299.6
      ],
      [
        0.924775879830122,
        45.55642694234848,
        299.4
      ],
      [
        0.9245540946722031,
        45.55646893568337,
        299.4
      ],
      [
        0.9243737999349833,
        45.55649181827903,
        300
      ],
      [
        0.9242567885667086,
        45.556419314816594,
        300.6
      ],
      [
        0.9242567885667086,
        45.55640405975282,
        300.6
      ],
      [
        0.9243267774581909,
        45.55629727430642,
        300.6
      ],
      [
        0.9243636578321457,
        45.556243881583214,
        300.4
      ],
      [
        0.9244088362902403,
        45.556182861328125,
        300.20000000000005
      ],
      [
        0.9244525898247957,
        45.55603022687137,
        299.79999999999995
      ],
      [
        0.9243508335202932,
        45.55591958574951,
        300.20000000000005
      ],
      [
        0.9243370871990919,
        45.555828055366874,
        300.4
      ],
      [
        0.9244401846081018,
        45.555763179436326,
        300.79999999999995
      ],
      [
        0.9244820941239595,
        45.5557594075799,
        300.79999999999995
      ],
      [
        0.9246490616351366,
        45.555728897452354,
        301
      ],
      [
        0.9246976766735315,
        45.55570978671312,
        301
      ],
      [
        0.9248563461005688,
        45.55560300126672,
        301.4
      ],
      [
        0.9249572642147541,
        45.55552672594786,
        301.6
      ],
      [
        0.9250164404511452,
        45.55547324940562,
        301.6
      ],
      [
        0.9251010976731777,
        45.55540082976222,
        301
      ],
      [
        0.9252176899462938,
        45.5553206987679,
        301.20000000000005
      ],
      [
        0.925252977758646,
        45.555290188640356,
        301.6
      ],
      [
        0.9253994096070528,
        45.555171919986606,
        302
      ],
      [
        0.9255367890000343,
        45.5550651345402,
        302.6
      ],
      [
        0.9255522955209017,
        45.555057507008314,
        302.6
      ],
      [
        0.9256866574287415,
        45.554973520338535,
        303.20000000000005
      ],
      [
        0.925814313814044,
        45.554878218099475,
        303.20000000000005
      ],
      [
        0.9259523637592793,
        45.55476757697761,
        303.20000000000005
      ],
      [
        0.9260610770434141,
        45.554679818451405,
        303.20000000000005
      ],
      [
        0.9261570498347282,
        45.55454629473388,
        302.6
      ],
      [
        0.9261065069586039,
        45.554443281143904,
        303
      ],
      [
        0.9260348416864872,
        45.55430984124541,
        303.20000000000005
      ],
      [
        0.9259612485766411,
        45.554202971979976,
        303.4
      ],
      [
        0.9258943609893322,
        45.55409995839,
        303.4
      ],
      [
        0.9258312452584505,
        45.55400465615094,
        303.20000000000005
      ],
      [
        0.9257359430193901,
        45.55385964922607,
        302.79999999999995
      ],
      [
        0.9256443288177252,
        45.55373375304043,
        302.79999999999995
      ],
      [
        0.9255279041826725,
        45.55361934006214,
        302.79999999999995
      ],
      [
        0.9253917820751667,
        45.553554464131594,
        302.79999999999995
      ],
      [
        0.9252062905579805,
        45.55348581634462,
        303.20000000000005
      ],
      [
        0.9250408317893744,
        45.55344390682876,
        303.4
      ],
      [
        0.9248423483222723,
        45.55336754769087,
        303.4
      ],
      [
        0.9246400929987431,
        45.5533332657069,
        303.20000000000005
      ],
      [
        0.9244257677346468,
        45.553375175222754,
        303.6
      ],
      [
        0.9243814274668694,
        45.553394285961986,
        303.6
      ],
      [
        0.9242644160985947,
        45.553432423621416,
        303.79999999999995
      ],
      [
        0.9240863844752312,
        45.55350492708385,
        304.4
      ],
      [
        0.9240292198956013,
        45.55353920906782,
        304.79999999999995
      ],
      [
        0.9239473287016153,
        45.55358120240271,
        304.79999999999995
      ],
      [
        0.9238305687904358,
        45.55363845080137,
        305.20000000000005
      ],
      [
        0.9236895851790905,
        45.553653705865145,
        305.20000000000005
      ],
      [
        0.9235596656799316,
        45.55358120240271,
        304.6
      ],
      [
        0.9234735835343599,
        45.55345916189253,
        303.79999999999995
      ],
      [
        0.9234738349914551,
        45.55345153436065,
        303.6
      ],
      [
        0.923477690666914,
        45.553352292627096,
        303.6
      ],
      [
        0.9234930295497179,
        45.55318825878203,
        303.4
      ],
      [
        0.923455897718668,
        45.55304710753262,
        304
      ],
      [
        0.9233840648084879,
        45.55291743949056,
        304.20000000000005
      ],
      [
        0.9233194403350353,
        45.55277251638472,
        304.4
      ],
      [
        0.923262108117342,
        45.55266950279474,
        304.4
      ],
      [
        0.9232136607170105,
        45.55257411673665,
        304.4
      ],
      [
        0.9231345355510712,
        45.55244059301913,
        303.6
      ],
      [
        0.9230652172118425,
        45.552349062636495,
        303.6
      ],
      [
        0.9229730162769556,
        45.55223842151463,
        304
      ],
      [
        0.9228232316672802,
        45.552131636068225,
        304
      ],
      [
        0.9227021131664515,
        45.552047649398446,
        304
      ],
      [
        0.9225135203450918,
        45.55190658196807,
        304.20000000000005
      ],
      [
        0.9223850257694721,
        45.55180356837809,
        304.20000000000005
      ],
      [
        0.9223152883350849,
        45.551753947511315,
        303.79999999999995
      ],
      [
        0.9222859516739845,
        45.5517615750432,
        303.79999999999995
      ],
      [
        0.9222028031945229,
        45.551792085170746,
        303.79999999999995
      ],
      [
        0.9220054093748331,
        45.551914209499955,
        303.6
      ],
      [
        0.9218645095825195,
        45.55204002186656,
        303.20000000000005
      ],
      [
        0.9217387810349464,
        45.55214303545654,
        303.20000000000005
      ],
      [
        0.9216061793267727,
        45.55223842151463,
        303.20000000000005
      ],
      [
        0.9214596636593342,
        45.55231469683349,
        303
      ],
      [
        0.9212719090282917,
        45.55237194523215,
        303
      ],
      [
        0.9210971463471651,
        45.55237957276404,
        302.6
      ],
      [
        0.9210783708840609,
        45.552383344620466,
        302.4
      ],
      [
        0.9209242276847363,
        45.5524024553597,
        302.79999999999995
      ],
      [
        0.9208796359598637,
        45.552406311035156,
        302.79999999999995
      ],
      [
        0.9207534044981003,
        45.552429193630815,
        302.79999999999995
      ],
      [
        0.9206034522503614,
        45.552463475614786,
        303.20000000000005
      ],
      [
        0.9205192141234875,
        45.552486358210444,
        303.20000000000005
      ],
      [
        0.9204965829849243,
        45.55249398574233,
        303.20000000000005
      ],
      [
        0.9204612113535404,
        45.55250161327422,
        303
      ],
      [
        0.9203702677041292,
        45.552524495869875,
        303
      ],
      [
        0.9202765580266714,
        45.55251309648156,
        303
      ],
      [
        0.9202464669942856,
        45.5524902138859,
        303.20000000000005
      ],
      [
        0.9202395100146532,
        45.552463475614786,
        303.20000000000005
      ],
      [
        0.9202577825635672,
        45.55241771042347,
        303
      ],
      [
        0.9203581139445305,
        45.55231855250895,
        303
      ],
      [
        0.920361801981926,
        45.5522193107754,
        302.79999999999995
      ],
      [
        0.9202464669942856,
        45.55210875347257,
        302.6
      ],
      [
        0.920091737061739,
        45.5520171392709,
        302.4
      ],
      [
        0.9201308805495501,
        45.551914209499955,
        302.20000000000005
      ],
      [
        0.9202194772660732,
        45.55183785036206,
        302
      ],
      [
        0.9202681761234999,
        45.55180356837809,
        302
      ],
      [
        0.9204381611198187,
        45.55168144404888,
        302
      ],
      [
        0.9204971697181463,
        45.551597541198134,
        302.6
      ],
      [
        0.9205151069909334,
        45.551460245624185,
        302.6
      ],
      [
        0.920525249093771,
        45.55141062475741,
        302.79999999999995
      ],
      [
        0.9205506462603807,
        45.55133434943855,
        302.6
      ],
      [
        0.9204814955592155,
        45.55121230892837,
        302.4
      ],
      [
        0.9203539229929447,
        45.551124550402164,
        302.6
      ],
      [
        0.9202135261148214,
        45.551021536812186,
        302.6
      ],
      [
        0.9200168866664171,
        45.55094903334975,
        302.79999999999995
      ],
      [
        0.919859642162919,
        45.55095666088164,
        303
      ],
      [
        0.9196905791759491,
        45.55093763396144,
        303.4
      ],
      [
        0.9195047523826361,
        45.55092237889767,
        303.6
      ],
      [
        0.9194595739245415,
        45.55091475136578,
        303.79999999999995
      ],
      [
        0.9192138165235519,
        45.550888013094664,
        303.4
      ],
      [
        0.9190085437148809,
        45.55085750296712,
        302.6
      ],
      [
        0.9189906064420938,
        45.55084987543523,
        302.6
      ],
      [
        0.9188094735145569,
        45.55075448937714,
        302.6
      ],
      [
        0.9186860918998718,
        45.55063622072339,
        302.6
      ],
      [
        0.9186230599880219,
        45.55058282800019,
        303.6
      ],
      [
        0.9185748640447855,
        45.55054469034076,
        304.20000000000005
      ],
      [
        0.918438071385026,
        45.550430277362466,
        304.4
      ],
      [
        0.9184178709983826,
        45.55040353909135,
        304.4
      ],
      [
        0.9183456189930439,
        45.55024713277817,
        303.20000000000005
      ],
      [
        0.9182882867753506,
        45.55012886412442,
        303
      ],
      [
        0.9182420186698437,
        45.55007169954479,
        302.6
      ],
      [
        0.918188625946641,
        45.54998008534312,
        302
      ],
      [
        0.9181561879813671,
        45.549919065088034,
        301.4
      ],
      [
        0.9181054774671793,
        45.549839017912745,
        300.79999999999995
      ],
      [
        0.9180456306785345,
        45.5497741419822,
        300.4
      ],
      [
        0.9180227480828762,
        45.54973214864731,
        300.20000000000005
      ],
      [
        0.9179884660989046,
        45.54963299073279,
        299.4
      ],
      [
        0.917988047003746,
        45.54960625246167,
        299.20000000000005
      ],
      [
        0.9179810900241137,
        45.54950709454715,
        298.6
      ],
      [
        0.9179767314344645,
        45.54947658441961,
        298.20000000000005
      ],
      [
        0.9179973509162664,
        45.5493888258934,
        297.4
      ],
      [
        0.9179855324327946,
        45.54931640625,
        297.6
      ],
      [
        0.9179872926324606,
        45.54924767464399,
        297
      ],
      [
        0.9180171322077513,
        45.54919813759625,
        296.4
      ],
      [
        0.9180347342044115,
        45.549148516729474,
        296
      ],
      [
        0.9180442057549953,
        45.54911415092647,
        295.6
      ],
      [
        0.9180576168000698,
        45.54905698634684,
        295
      ],
      [
        0.9180602990090847,
        45.549045503139496,
        294.6
      ],
      [
        0.9180669207125902,
        45.54905698634684,
        294.6
      ],
      [
        0.9180673398077488,
        45.54907224141061,
        294.4
      ]
    ]
  }
}
