{
  "type": "Feature",
  "properties": {
    "id": "24603622266",
    "activity": "hiking",
    "name": "Mialet Hiking",
    "date": "2026-10-04T12:30:46Z",
    "startDateLocal": "2026-10-04T14:30:46",
    "distanceKm": 9.01,
    "movingTimeSeconds": 5671,
    "elapsedTimeSeconds": 5687,
    "ascentM": 55,
    "descentM": 53,
    "providers": [
      "Garmin"
    ]
  },
  "geometry": {
    "type": "LineString",
    "coordinates": [
      [
        0.9178374242037535,
        45.5493697989732,
        294.4
      ],
      [
        0.9178629890084267,
        45.54937742650509,
        294.4
      ],
      [
        0.9179075807332993,
        45.54940793663263,
        294.20000000000005
      ],
      [
        0.9179525915533304,
        45.54943459108472,
        294.4
      ],
      [
        0.9179612249135971,
        45.549442218616605,
        294.4
      ],
      [
        0.9179540164768696,
        45.549503322690725,
        295
      ],
      [
        0.9179435390979052,
        45.549522349610925,
        295.20000000000005
      ],
      [
        0.9179354086518288,
        45.549564342945814,
        295.4
      ],
      [
        0.9179325588047504,
        45.5496253632009,
        295.79999999999995
      ],
      [
        0.9179387614130974,
        45.54967498406768,
        296
      ],
      [
        0.9179486520588398,
        45.54969786666334,
        296.20000000000005
      ],
      [
        0.9179537650197744,
        45.54970926605165,
        296.4
      ],
      [
        0.9179568663239479,
        45.54974363185465,
        296.79999999999995
      ],
      [
        0.9179515857249498,
        45.54975503124297,
        296.79999999999995
      ],
      [
        0.9179608058184385,
        45.54980079643428,
        297.20000000000005
      ],
      [
        0.917987460270524,
        45.549858044832945,
        297.6
      ],
      [
        0.9180233348160982,
        45.54990381002426,
        298
      ],
      [
        0.9180546831339598,
        45.54994580335915,
        298.6
      ],
      [
        0.9181177988648415,
        45.55002593435347,
        299.20000000000005
      ],
      [
        0.9181442856788635,
        45.550056444481015,
        299.6
      ],
      [
        0.9182260930538177,
        45.55014034733176,
        300.6
      ],
      [
        0.9182317089289427,
        45.55014797486365,
        300.79999999999995
      ],
      [
        0.9183031227439642,
        45.55023950524628,
        301.79999999999995
      ],
      [
        0.9183045476675034,
        45.55023950524628,
        301.79999999999995
      ],
      [
        0.9184307791292667,
        45.55051418021321,
        303
      ],
      [
        0.9185150172561407,
        45.55059808306396,
        302.79999999999995
      ],
      [
        0.9186381474137306,
        45.55065910331905,
        302.20000000000005
      ],
      [
        0.918688103556633,
        45.5507049523294,
        301.6
      ],
      [
        0.91874610632658,
        45.55075448937714,
        301.20000000000005
      ],
      [
        0.9188655484467745,
        45.55084224790335,
        301.20000000000005
      ],
      [
        0.9189002495259047,
        45.55085750296712,
        301.20000000000005
      ],
      [
        0.919118095189333,
        45.55089564062655,
        301.6
      ],
      [
        0.9193611703813076,
        45.550926150754094,
        302.20000000000005
      ],
      [
        0.9195674490183592,
        45.55094903334975,
        302.79999999999995
      ],
      [
        0.9197125397622585,
        45.55095288902521,
        302.4
      ],
      [
        0.9198716282844543,
        45.550964288413525,
        302
      ],
      [
        0.9200313035398722,
        45.55097577162087,
        301.6
      ],
      [
        0.9200701117515564,
        45.55098717100918,
        301.6
      ],
      [
        0.9202070720493793,
        45.55104064755142,
        302
      ],
      [
        0.9203458763659,
        45.55111692287028,
        302
      ],
      [
        0.920460456982255,
        45.55120845325291,
        302
      ],
      [
        0.9205070603638887,
        45.551261845976114,
        302
      ],
      [
        0.9205053839832544,
        45.55131523869932,
        302
      ],
      [
        0.9204777237027884,
        45.55147550068796,
        302.6
      ],
      [
        0.9204437769949436,
        45.55160902440548,
        302.4
      ],
      [
        0.9203454572707415,
        45.55170055478811,
        301.20000000000005
      ],
      [
        0.9201784059405327,
        45.551814967766404,
        301
      ],
      [
        0.9200857020914555,
        45.55190272629261,
        300.79999999999995
      ],
      [
        0.9201069921255112,
        45.552009511739016,
        300.79999999999995
      ],
      [
        0.9202493168413639,
        45.55207438766956,
        301.20000000000005
      ],
      [
        0.9203362371772528,
        45.55213540792465,
        301
      ],
      [
        0.9203475527465343,
        45.5521659180522,
        301
      ],
      [
        0.9203537553548813,
        45.55228418670595,
        301
      ],
      [
        0.9202547650784254,
        45.55236431770027,
        300.6
      ],
      [
        0.9202313795685768,
        45.552383344620466,
        300.6
      ],
      [
        0.9202388394623995,
        45.55247495882213,
        300.79999999999995
      ],
      [
        0.9202778153121471,
        45.55249398574233,
        300.6
      ],
      [
        0.9203436132520437,
        45.552505468949676,
        300.4
      ],
      [
        0.9204478841274977,
        45.55249784141779,
        300.6
      ],
      [
        0.9204658214002848,
        45.55249398574233,
        300.6
      ],
      [
        0.9204831719398499,
        45.5524902138859,
        300.4
      ],
      [
        0.9205037914216518,
        45.552486358210444,
        300.20000000000005
      ],
      [
        0.920714596286416,
        45.55244444869459,
        300.79999999999995
      ],
      [
        0.920826243236661,
        45.55241771042347,
        301.4
      ],
      [
        0.920850383117795,
        45.55241393856704,
        301.4
      ],
      [
        0.9208756126463413,
        45.552406311035156,
        301.4
      ],
      [
        0.9209188632667065,
        45.5524024553597,
        301
      ],
      [
        0.9209576714783907,
        45.55239482782781,
        301
      ],
      [
        0.9211308415979147,
        45.552383344620466,
        300.79999999999995
      ],
      [
        0.9212160017341375,
        45.55237571708858,
        300.6
      ],
      [
        0.9214540477842093,
        45.552345206961036,
        300.6
      ],
      [
        0.9216070175170898,
        45.55226515978575,
        300.79999999999995
      ],
      [
        0.9217647649347782,
        45.552150662988424,
        300.79999999999995
      ],
      [
        0.9219142142683268,
        45.55202476680279,
        300.79999999999995
      ],
      [
        0.9220969397574663,
        45.55188361555338,
        301.4
      ],
      [
        0.9221613965928555,
        45.551830222830176,
        301.6
      ],
      [
        0.9222566988319159,
        45.55178831331432,
        301.79999999999995
      ],
      [
        0.922363568097353,
        45.55182259529829,
        302
      ],
      [
        0.9225061442703009,
        45.55192946456373,
        302
      ],
      [
        0.9226844273507595,
        45.55203625001013,
        302
      ],
      [
        0.922866566106677,
        45.55217354558408,
        301.6
      ],
      [
        0.9229968208819628,
        45.552268931642175,
        301.20000000000005
      ],
      [
        0.9230650495737791,
        45.55236431770027,
        301.20000000000005
      ],
      [
        0.9230725094676018,
        45.55237957276404,
        301.20000000000005
      ],
      [
        0.9231377206742764,
        45.55249784141779,
        301.20000000000005
      ],
      [
        0.9232336096465588,
        45.55266187526286,
        301.4
      ],
      [
        0.9233133215457201,
        45.55279154330492,
        301.4
      ],
      [
        0.9233714919537306,
        45.552902184426785,
        301.20000000000005
      ],
      [
        0.9234321769326925,
        45.553020453080535,
        301
      ],
      [
        0.9234470129013062,
        45.55305473506451,
        301
      ],
      [
        0.9234624356031418,
        45.553100584074855,
        300.6
      ],
      [
        0.9234630223363638,
        45.55314634926617,
        300.6
      ],
      [
        0.9234451688826084,
        45.553218768909574,
        300.4
      ],
      [
        0.9234336018562317,
        45.55327224545181,
        300.6
      ],
      [
        0.9234492760151625,
        45.55338280275464,
        300.79999999999995
      ],
      [
        0.9235087037086487,
        45.55351632647216,
        301.20000000000005
      ],
      [
        0.9235817100852728,
        45.55358120240271,
        301.4
      ],
      [
        0.9236743301153183,
        45.5536231957376,
        302.20000000000005
      ],
      [
        0.9236966259777546,
        45.553630823269486,
        302.20000000000005
      ],
      [
        0.9238569717854261,
        45.5536231957376,
        302.4
      ],
      [
        0.9240382723510265,
        45.553535437211394,
        302.20000000000005
      ],
      [
        0.924184201285243,
        45.55345916189253,
        301.4
      ],
      [
        0.9243531804531813,
        45.55338280275464,
        301.20000000000005
      ],
      [
        0.9244976006448269,
        45.5533332657069,
        300.4
      ],
      [
        0.9245949983596802,
        45.553314154967666,
        300
      ],
      [
        0.9247674979269505,
        45.55332563817501,
        300
      ],
      [
        0.9249506425112486,
        45.55340191349387,
        300
      ],
      [
        0.9251492936164141,
        45.55346678942442,
        300.20000000000005
      ],
      [
        0.9253701567649841,
        45.55352018214762,
        300
      ],
      [
        0.9255351964384317,
        45.553611712530255,
        300.20000000000005
      ],
      [
        0.9255508705973625,
        45.55362696759403,
        300.20000000000005
      ],
      [
        0.9256750904023647,
        45.553752863779664,
        300
      ],
      [
        0.9257693868130445,
        45.55387490428984,
        300.79999999999995
      ],
      [
        0.9258162416517735,
        45.553947407752275,
        301.6
      ],
      [
        0.9258463326841593,
        45.553989401087165,
        302
      ],
      [
        0.925869382917881,
        45.554027538746595,
        301.79999999999995
      ],
      [
        0.9259112924337387,
        45.55409995839,
        301.79999999999995
      ],
      [
        0.9259331692010164,
        45.55413817986846,
        301.79999999999995
      ],
      [
        0.9260402899235487,
        45.55429073050618,
        301.79999999999995
      ],
      [
        0.9261380229145288,
        45.554420398548245,
        301.4
      ],
      [
        0.926142381504178,
        45.554424254223704,
        301.20000000000005
      ],
      [
        0.9261607378721237,
        45.5545196402818,
        301.4
      ],
      [
        0.9261018969118595,
        45.55464553646743,
        301.4
      ],
      [
        0.925953621044755,
        45.55477134883404,
        301.6
      ],
      [
        0.9258139785379171,
        45.55489347316325,
        301.4
      ],
      [
        0.9256826341152191,
        45.554992631077766,
        301
      ],
      [
        0.9255743399262428,
        45.55506127886474,
        300.6
      ],
      [
        0.9255475178360939,
        45.55508038960397,
        300.4
      ],
      [
        0.9253913629800081,
        45.55518717505038,
        299.6
      ],
      [
        0.9253744315356016,
        45.55519865825772,
        299.6
      ],
      [
        0.9251930471509695,
        45.55533980950713,
        298.79999999999995
      ],
      [
        0.9250575117766857,
        45.55543896742165,
        298.6
      ],
      [
        0.9249244909733534,
        45.5555572360754,
        298.79999999999995
      ],
      [
        0.9248676616698503,
        45.55559914559126,
        298.79999999999995
      ],
      [
        0.9247720241546631,
        45.555667877197266,
        298.4
      ],
      [
        0.9246421884745359,
        45.55574029684067,
        298
      ],
      [
        0.9245126880705357,
        45.55577466264367,
        297.6
      ],
      [
        0.9243469778448343,
        45.55579754523933,
        297.79999999999995
      ],
      [
        0.9243050683289766,
        45.555885303765535,
        297.79999999999995
      ],
      [
        0.9243826847523451,
        45.55595772340894,
        297.79999999999995
      ],
      [
        0.9244354907423258,
        45.55601119995117,
        298
      ],
      [
        0.9244482312351465,
        45.55609124712646,
        298
      ],
      [
        0.9243599697947502,
        45.55622477084398,
        298
      ],
      [
        0.9242391027510166,
        45.556396432220936,
        298
      ],
      [
        0.9242342412471771,
        45.55641168728471,
        298
      ],
      [
        0.9242776595056057,
        45.55648796260357,
        298
      ],
      [
        0.9242968540638685,
        45.55648796260357,
        298
      ],
      [
        0.9244426991790533,
        45.55649181827903,
        297.6
      ],
      [
        0.9246582817286253,
        45.55646130815148,
        297
      ],
      [
        0.9248578548431396,
        45.556434569880366,
        297.20000000000005
      ],
      [
        0.9250306896865368,
        45.556419314816594,
        297.6
      ],
      [
        0.9252219647169113,
        45.55640791542828,
        298.6
      ],
      [
        0.9252943843603134,
        45.556400287896395,
        298.6
      ],
      [
        0.9254171792417765,
        45.55639266036451,
        298.6
      ],
      [
        0.9255438297986984,
        45.556381177157164,
        298
      ],
      [
        0.9256880823522806,
        45.556377405300736,
        298.20000000000005
      ],
      [
        0.925872316583991,
        45.556381177157164,
        298.20000000000005
      ],
      [
        0.9258925169706345,
        45.556377405300736,
        298.20000000000005
      ],
      [
        0.9259975422173738,
        45.556377405300736,
        298.20000000000005
      ],
      [
        0.9260767512023449,
        45.556396432220936,
        298.4
      ],
      [
        0.9261453151702881,
        45.55646893568337,
        298.79999999999995
      ],
      [
        0.926147997379303,
        45.55661008693278,
        299.4
      ],
      [
        0.9261403698474169,
        45.55664059706032,
        299.6
      ],
      [
        0.9261361788958311,
        45.55668250657618,
        299.6
      ],
      [
        0.9261391125619411,
        45.55672835558653,
        299.79999999999995
      ],
      [
        0.926138274371624,
        45.55675886571407,
        299.79999999999995
      ],
      [
        0.9261386934667826,
        45.55686179548502,
        299.6
      ],
      [
        0.9261300601065159,
        45.55696103721857,
        299.6
      ],
      [
        0.9261326584964991,
        45.556987691670656,
        299.4
      ],
      [
        0.926132071763277,
        45.55700294673443,
        299.4
      ],
      [
        0.9261241927742958,
        45.55717460811138,
        299
      ],
      [
        0.9261015616357327,
        45.557323386892676,
        298.79999999999995
      ],
      [
        0.9260703809559345,
        45.55745313875377,
        298.79999999999995
      ],
      [
        0.9260085225105286,
        45.55757517926395,
        298.6
      ],
      [
        0.9259632602334023,
        45.5576400551945,
        298.4
      ],
      [
        0.925909448415041,
        45.55779646150768,
        298
      ],
      [
        0.9258962888270617,
        45.557918502017856,
        298.6
      ],
      [
        0.9258984681218863,
        45.5579490121454,
        298.79999999999995
      ],
      [
        0.9258727356791496,
        45.55809016339481,
        299
      ],
      [
        0.9257749188691378,
        45.558254197239876,
        299.20000000000005
      ],
      [
        0.9257534611970186,
        45.55838386528194,
        299
      ],
      [
        0.9258262999355793,
        45.55846022441983,
        299
      ],
      [
        0.9259701333940029,
        45.558574637398124,
        299.4
      ],
      [
        0.9260132163763046,
        45.55860900320113,
        299.6
      ],
      [
        0.9260610770434141,
        45.55864714086056,
        300.4
      ],
      [
        0.9260912518948317,
        45.5586776509881,
        300.79999999999995
      ],
      [
        0.9261415433138609,
        45.55878066457808,
        301.6
      ],
      [
        0.9261413756757975,
        45.558807319030166,
        301.79999999999995
      ],
      [
        0.9261169843375683,
        45.55886071175337,
        302.20000000000005
      ],
      [
        0.9260949399322271,
        45.55887219496071,
        302.4
      ],
      [
        0.9260972030460835,
        45.55888359434903,
        302.6
      ],
      [
        0.9261104464530945,
        45.5588988494128,
        302.79999999999995
      ],
      [
        0.9261210914701223,
        45.558910332620144,
        302.79999999999995
      ],
      [
        0.9262226801365614,
        45.55901334621012,
        303
      ],
      [
        0.9263557847589254,
        45.55912013165653,
        302.4
      ],
      [
        0.9264031425118446,
        45.55917352437973,
        301.6
      ],
      [
        0.9264440461993217,
        45.55920789018273,
        301.6
      ],
      [
        0.9264935832470655,
        45.55925742723048,
        301.6
      ],
      [
        0.9265269432216883,
        45.55928802117705,
        301.4
      ],
      [
        0.9265552740544081,
        45.5593185313046,
        301.20000000000005
      ],
      [
        0.9265643265098333,
        45.559326158836484,
        301.20000000000005
      ],
      [
        0.9266648255288601,
        45.55941383354366,
        300.6
      ],
      [
        0.9266767278313637,
        45.559421461075544,
        300.4
      ],
      [
        0.9267468843609095,
        45.55949782021344,
        299.79999999999995
      ],
      [
        0.9267633967101574,
        45.55952833034098,
        299.79999999999995
      ],
      [
        0.9268374927341938,
        45.559661854058504,
        300
      ],
      [
        0.9268554300069809,
        45.55976478382945,
        300.6
      ],
      [
        0.9268682543188334,
        45.55990979075432,
        300.79999999999995
      ],
      [
        0.9268265124410391,
        45.56004708632827,
        300.6
      ],
      [
        0.9267213195562363,
        45.560150099918246,
        300.79999999999995
      ],
      [
        0.926665160804987,
        45.560272140428424,
        300.79999999999995
      ],
      [
        0.9267384186387062,
        45.560333244502544,
        301
      ],
      [
        0.9268719423562288,
        45.56045905686915,
        300.6
      ],
      [
        0.9270027000457048,
        45.56060406379402,
        300.4
      ],
      [
        0.9270551707595587,
        45.56072233244777,
        299.79999999999995
      ],
      [
        0.9270976670086384,
        45.56087111122906,
        300
      ],
      [
        0.9271453600376844,
        45.56100840680301,
        300
      ],
      [
        0.9271734394133091,
        45.56105417199433,
        300.20000000000005
      ],
      [
        0.9272183664143085,
        45.561119047924876,
        300.4
      ],
      [
        0.9272324480116367,
        45.561222061514854,
        300.79999999999995
      ],
      [
        0.9271863475441933,
        45.56134410202503,
        301
      ],
      [
        0.9271321166306734,
        45.561435632407665,
        301.20000000000005
      ],
      [
        0.9270514827221632,
        45.5615425016731,
        301.20000000000005
      ],
      [
        0.9269678313285112,
        45.56163780391216,
        301.20000000000005
      ],
      [
        0.9269192162901163,
        45.561737045645714,
        300.79999999999995
      ],
      [
        0.9269327949732542,
        45.56188196875155,
        301
      ],
      [
        0.9269816614687443,
        45.561992609873414,
        301.20000000000005
      ],
      [
        0.9270359762012959,
        45.56209562346339,
        301.20000000000005
      ],
      [
        0.9270814061164856,
        45.56224440224469,
        301.20000000000005
      ],
      [
        0.9271135926246643,
        45.562347332015634,
        301.4
      ],
      [
        0.9271576814353466,
        45.5624389462173,
        301.6
      ],
      [
        0.927287433296442,
        45.56254958733916,
        301.79999999999995
      ],
      [
        0.9273761976510286,
        45.56261060759425,
        302.20000000000005
      ],
      [
        0.92751894146204,
        45.562694510445,
        302.4
      ],
      [
        0.9276331029832363,
        45.56273264810443,
        302.6
      ],
      [
        0.9277176763862371,
        45.56275175884366,
        302.6
      ],
      [
        0.9278732445091009,
        45.56273264810443,
        302.6
      ],
      [
        0.9280128870159388,
        45.562702137976885,
        302
      ],
      [
        0.9281383641064167,
        45.562702137976885,
        302.20000000000005
      ],
      [
        0.9283269569277763,
        45.562721248716116,
        302.79999999999995
      ],
      [
        0.9285183995962143,
        45.56270976550877,
        303.20000000000005
      ],
      [
        0.9285970218479633,
        45.56264488957822,
        303.6
      ],
      [
        0.9285923279821873,
        45.56262963451445,
        303.79999999999995
      ],
      [
        0.9285145439207554,
        45.56256861425936,
        304
      ],
      [
        0.928348833695054,
        45.56253810413182,
        304
      ],
      [
        0.9281433094292879,
        45.56251899339259,
        303.4
      ],
      [
        0.9279895853251219,
        45.56245420128107,
        304
      ],
      [
        0.9279045928269625,
        45.562347332015634,
        303.4
      ],
      [
        0.9278030879795551,
        45.56223291903734,
        303.79999999999995
      ],
      [
        0.9277550596743822,
        45.562087995931506,
        304
      ],
      [
        0.9277923591434956,
        45.56204223074019,
        304
      ],
      [
        0.9278194326907396,
        45.561988754197955,
        304.4
      ],
      [
        0.92789470218122,
        45.56189722381532,
        304.4
      ],
      [
        0.9279520343989134,
        45.56178658269346,
        304.4
      ],
      [
        0.9279811196029186,
        45.561737045645714,
        304.4
      ],
      [
        0.9280046727508307,
        45.561695052310824,
        304.20000000000005
      ],
      [
        0.9280899167060852,
        45.561595894396305,
        304
      ],
      [
        0.9281656052917242,
        45.56150050833821,
        303.79999999999995
      ],
      [
        0.92819569632411,
        45.561458515003324,
        303.6
      ],
      [
        0.9282371867448092,
        45.56136698462069,
        303.20000000000005
      ],
      [
        0.9282803535461426,
        45.56126782670617,
        303.20000000000005
      ],
      [
        0.928286723792553,
        45.56123346090317,
        303.20000000000005
      ],
      [
        0.928320586681366,
        45.56108468212187,
        303
      ],
      [
        0.9283560421317816,
        45.560943530872464,
        302.6
      ],
      [
        0.9283704590052366,
        45.56091687642038,
        302.6
      ],
      [
        0.9284150507301092,
        45.56077572517097,
        302.20000000000005
      ],
      [
        0.9284179005771875,
        45.560764241963625,
        302.20000000000005
      ],
      [
        0.9284220915287733,
        45.560646057128906,
        302
      ],
      [
        0.9284854587167501,
        45.56053918786347,
        302
      ],
      [
        0.9286217484623194,
        45.56045905686915,
        302
      ],
      [
        0.9286794997751713,
        45.56035989895463,
        302
      ],
      [
        0.9286358300596476,
        45.56024548597634,
        301.79999999999995
      ],
      [
        0.9285846166312695,
        45.560111962258816,
        302
      ],
      [
        0.9285939205437899,
        45.56004331447184,
        302.20000000000005
      ],
      [
        0.9286100137978792,
        45.56000132113695,
        302.6
      ],
      [
        0.9286903124302626,
        45.55989830754697,
        303.20000000000005
      ],
      [
        0.9287551045417786,
        45.559799149632454,
        303.4
      ],
      [
        0.9288101736456156,
        45.559719018638134,
        303.4
      ],
      [
        0.9288495685905218,
        45.55963511578739,
        303.4
      ],
      [
        0.9288701880723238,
        45.55952447466552,
        303
      ],
      [
        0.9289149474352598,
        45.55941006168723,
        302.6
      ],
      [
        0.929004130885005,
        45.55929564870894,
        303
      ],
      [
        0.929090129211545,
        45.559181151911616,
        303.6
      ],
      [
        0.92912164516747,
        45.5591163598001,
        304.20000000000005
      ],
      [
        0.9291386604309082,
        45.55909339338541,
        304.4
      ],
      [
        0.9291433542966843,
        45.559066738933325,
        304.6
      ],
      [
        0.9291444439440966,
        45.55905525572598,
        304.79999999999995
      ],
      [
        0.9290926437824965,
        45.55895232595503,
        304.4
      ],
      [
        0.9290422685444355,
        45.55888359434903,
        304.20000000000005
      ],
      [
        0.9290027059614658,
        45.558845456689596,
        303.6
      ],
      [
        0.9289659094065428,
        45.558807319030166,
        303.20000000000005
      ],
      [
        0.9288806654512882,
        45.558731043711305,
        303.20000000000005
      ],
      [
        0.9287908114492893,
        45.558631885796785,
        303.79999999999995
      ],
      [
        0.9287590440362692,
        45.55858612060547,
        304.20000000000005
      ],
      [
        0.9287137817591429,
        45.558509761467576,
        304.4
      ],
      [
        0.9286900609731674,
        45.55846785195172,
        304.6
      ],
      [
        0.9286748059093952,
        45.5584220867604,
        304.6
      ],
      [
        0.9286296274513006,
        45.55832670070231,
        305
      ],
      [
        0.9285807609558105,
        45.558196948841214,
        305.20000000000005
      ],
      [
        0.9285460598766804,
        45.558078764006495,
        305.4
      ],
      [
        0.9284868836402893,
        45.55796812288463,
        305.4
      ],
      [
        0.9284945111721754,
        45.557899475097656,
        305.20000000000005
      ],
      [
        0.9284767415374517,
        45.55777735076845,
        304.79999999999995
      ],
      [
        0.928438100963831,
        45.55767819285393,
        304
      ],
      [
        0.9284270368516445,
        45.55763242766261,
        303.6
      ],
      [
        0.9284183196723461,
        45.55759429000318,
        303.20000000000005
      ],
      [
        0.9284243546426296,
        45.5574569106102,
        302.6
      ],
      [
        0.9284466505050659,
        45.55735389702022,
        302.4
      ],
      [
        0.9284839499741793,
        45.55727384984493,
        302
      ],
      [
        0.9285257756710052,
        45.557208973914385,
        302.20000000000005
      ],
      [
        0.9285510051995516,
        45.557147953659296,
        302.20000000000005
      ],
      [
        0.928594172000885,
        45.55707545019686,
        302.20000000000005
      ],
      [
        0.9286378417164087,
        45.55701442994177,
        302.6
      ],
      [
        0.9287158772349358,
        45.556930527091026,
        302.6
      ],
      [
        0.928724342957139,
        45.55691904388368,
        302.6
      ],
      [
        0.9287934098392725,
        45.55684654042125,
        302.6
      ],
      [
        0.9288076590746641,
        45.556835141032934,
        302.6
      ],
      [
        0.9289159532636404,
        45.556716872379184,
        302.6
      ],
      [
        0.9289789013564587,
        45.55663296952844,
        302.79999999999995
      ],
      [
        0.9290418494492769,
        45.55654906667769,
        303
      ],
      [
        0.9291635546833277,
        45.55644982494414,
        303.20000000000005
      ],
      [
        0.9292638022452593,
        45.55640791542828,
        303.4
      ],
      [
        0.9292979165911674,
        45.55639266036451,
        303.4
      ],
      [
        0.9293971583247185,
        45.55635066702962,
        303.6
      ],
      [
        0.929509224370122,
        45.55631252937019,
        304
      ],
      [
        0.9296325221657753,
        45.55624765343964,
        304.4
      ],
      [
        0.9296408202499151,
        45.55623239837587,
        304.4
      ],
      [
        0.9296587575227022,
        45.55617137812078,
        304.6
      ],
      [
        0.929674431681633,
        45.55611412972212,
        304.6
      ],
      [
        0.9297140780836344,
        45.55599208921194,
        304.4
      ],
      [
        0.9297179337590933,
        45.55597683414817,
        304.4
      ],
      [
        0.9297732543200254,
        45.55585093796253,
        303.79999999999995
      ],
      [
        0.9298176784068346,
        45.55580131709576,
        303.6
      ],
      [
        0.9298486076295376,
        45.55577466264367,
        303.4
      ],
      [
        0.9299513697624207,
        45.55569453164935,
        303.4
      ],
      [
        0.9300070255994797,
        45.55566402152181,
        303.4
      ],
      [
        0.9301071055233479,
        45.55559151805937,
        303.4
      ],
      [
        0.9302893280982971,
        45.55546185001731,
        303.20000000000005
      ],
      [
        0.9303722251206636,
        45.55540460161865,
        303
      ],
      [
        0.930457217618823,
        45.55534358136356,
        302.79999999999995
      ],
      [
        0.9305329900234938,
        45.55530544370413,
        302.6
      ],
      [
        0.9305498376488686,
        45.55529781617224,
        302.6
      ],
      [
        0.9305995423346758,
        45.55526345036924,
        302.4
      ],
      [
        0.9306507557630539,
        45.55522916838527,
        302.4
      ],
      [
        0.93076441437006,
        45.55512229911983,
        302
      ],
      [
        0.9308438748121262,
        45.555011741817,
        301.79999999999995
      ],
      [
        0.9308486524969339,
        45.55486673489213,
        301.6
      ],
      [
        0.9308096766471863,
        45.55475232191384,
        301.6
      ],
      [
        0.9307498298585415,
        45.55464553646743,
        301.79999999999995
      ],
      [
        0.93063835054636,
        45.55455392226577,
        301.79999999999995
      ],
      [
        0.93050348572433,
        45.55447387509048,
        302.20000000000005
      ],
      [
        0.930428383871913,
        45.554382260888815,
        302.79999999999995
      ],
      [
        0.9304790943861008,
        45.55430984124541,
        303.4
      ],
      [
        0.9305133763700724,
        45.55429073050618,
        303.6
      ],
      [
        0.9306053258478642,
        45.554225854575634,
        303.79999999999995
      ],
      [
        0.9306338243186474,
        45.55419534444809,
        303.79999999999995
      ],
      [
        0.93064128421247,
        45.55417631752789,
        303.6
      ],
      [
        0.9306448046118021,
        45.55414957925677,
        303.6
      ],
      [
        0.9306490793824196,
        45.554130552336574,
        303.4
      ],
      [
        0.9306702017784119,
        45.554046565666795,
        303.20000000000005
      ],
      [
        0.9308096766471863,
        45.55400080047548,
        303.6
      ],
      [
        0.9308962617069483,
        45.55399702861905,
        303.4
      ],
      [
        0.930975554510951,
        45.553989401087165,
        303.4
      ],
      [
        0.931143444031477,
        45.55396651849151,
        303
      ],
      [
        0.9312909655272961,
        45.553947407752275,
        302.6
      ],
      [
        0.931337820366025,
        45.55393978022039,
        302.4
      ],
      [
        0.9314923826605082,
        45.55391304194927,
        302.6
      ],
      [
        0.9316570032387972,
        45.55392452515662,
        302.4
      ],
      [
        0.9318336099386215,
        45.55393978022039,
        302.6
      ],
      [
        0.9319968055933714,
        45.55396266281605,
        302.6
      ],
      [
        0.932161845266819,
        45.55403131060302,
        302.6
      ],
      [
        0.9322359412908554,
        45.554103814065456,
        302.4
      ],
      [
        0.9322698041796684,
        45.55415720678866,
        302.79999999999995
      ],
      [
        0.932312048971653,
        45.55421445518732,
        302.79999999999995
      ],
      [
        0.9323566406965256,
        45.55429458618164,
        303.20000000000005
      ],
      [
        0.9324002265930176,
        45.554382260888815,
        303.20000000000005
      ],
      [
        0.9324418846517801,
        45.554458536207676,
        303.4
      ],
      [
        0.9324718080461025,
        45.554504385218024,
        303.4
      ],
      [
        0.9324814472347498,
        45.554573033005,
        303.4
      ],
      [
        0.9324980434030294,
        45.55462257005274,
        303.4
      ],
      [
        0.9325157292187214,
        45.55468744598329,
        303.4
      ],
      [
        0.9325415454804897,
        45.55476757697761,
        303.6
      ],
      [
        0.9325508493930101,
        45.55481334216893,
        303.6
      ],
      [
        0.932649839669466,
        45.55491250008345,
        303.4
      ],
      [
        0.9326824452728033,
        45.55490872822702,
        303.4
      ],
      [
        0.9327742271125317,
        45.554878218099475,
        302.79999999999995
      ],
      [
        0.9328388515859842,
        45.55479045957327,
        302.6
      ],
      [
        0.9328749775886536,
        45.55470270104706,
        302.79999999999995
      ],
      [
        0.9328788332641125,
        45.55467219091952,
        302.6
      ],
      [
        0.9329104330390692,
        45.55453103967011,
        302.79999999999995
      ],
      [
        0.932906661182642,
        45.55443565361202,
        302.79999999999995
      ],
      [
        0.9329143725335598,
        45.55434035137296,
        302.6
      ],
      [
        0.9329149592667818,
        45.554321240633726,
        302.6
      ],
      [
        0.9328935015946627,
        45.554206827655435,
        302.20000000000005
      ],
      [
        0.9328776597976685,
        45.55409995839,
        301.79999999999995
      ],
      [
        0.9328768216073513,
        45.554065676406026,
        301.6
      ],
      [
        0.9328764025121927,
        45.55395503528416,
        301
      ],
      [
        0.932861315086484,
        45.55388253182173,
        300.4
      ],
      [
        0.9328541066497564,
        45.55384062230587,
        300.4
      ],
      [
        0.9328353311866522,
        45.55373375304043,
        300
      ],
      [
        0.9328460600227118,
        45.55372612550855,
        300.20000000000005
      ],
      [
        0.9329465590417385,
        45.55370324291289,
        300.6
      ],
      [
        0.9330940805375576,
        45.55370324291289,
        301
      ],
      [
        0.9331380017101765,
        45.55370324291289,
        301.4
      ],
      [
        0.9332535043358803,
        45.55369947105646,
        301.4
      ],
      [
        0.9332773089408875,
        45.55369947105646,
        301.6
      ],
      [
        0.9333791490644217,
        45.553687987849116,
        302.4
      ],
      [
        0.9334361460059881,
        45.55368036031723,
        302.6
      ],
      [
        0.933473277837038,
        45.5536765884608,
        302.6
      ],
      [
        0.9336182847619057,
        45.55366510525346,
        302.6
      ],
      [
        0.9338085539638996,
        45.5536422226578,
        302.4
      ],
      [
        0.9339761082082987,
        45.55366133339703,
        302
      ],
      [
        0.934129748493433,
        45.55372612550855,
        302
      ],
      [
        0.934197474271059,
        45.553749008104205,
        302
      ],
      [
        0.9343056008219719,
        45.55379862897098,
        301.79999999999995
      ],
      [
        0.9345084428787231,
        45.55385202169418,
        301.79999999999995
      ],
      [
        0.9346870612353086,
        45.55386350490153,
        301.79999999999995
      ],
      [
        0.9348531905561686,
        45.5538253672421,
        301.79999999999995
      ],
      [
        0.9349049907177687,
        45.55373760871589,
        301.6
      ],
      [
        0.9349567070603371,
        45.55355069227517,
        301.4
      ],
      [
        0.9349639993160963,
        45.55352018214762,
        301.4
      ],
      [
        0.9350145421922207,
        45.55337903089821,
        301.79999999999995
      ],
      [
        0.9350183978676796,
        45.55336754769087,
        301.79999999999995
      ],
      [
        0.9350444655865431,
        45.553279872983694,
        302.4
      ],
      [
        0.9350770711898804,
        45.55318825878203,
        301.79999999999995
      ],
      [
        0.9351397678256035,
        45.55300519801676,
        301.20000000000005
      ],
      [
        0.9352065715938807,
        45.55285641923547,
        300.79999999999995
      ],
      [
        0.9352967608720064,
        45.552803026512265,
        300.6
      ],
      [
        0.935355182737112,
        45.55278014391661,
        300.4
      ],
      [
        0.9355586115270853,
        45.55270764045417,
        299.6
      ],
      [
        0.9357026126235723,
        45.5526580195874,
        299.6
      ],
      [
        0.9357182867825031,
        45.55265424773097,
        299.6
      ],
      [
        0.9357376489788294,
        45.552646620199084,
        299.79999999999995
      ],
      [
        0.9357576817274094,
        45.5526389926672,
        299.79999999999995
      ],
      [
        0.9358193725347519,
        45.55261225439608,
        299.79999999999995
      ],
      [
        0.9358491282910109,
        45.55259699933231,
        300
      ],
      [
        0.9359901957213879,
        45.552528351545334,
        300.6
      ],
      [
        0.936130341142416,
        45.55247110314667,
        301.6
      ],
      [
        0.9361488651484251,
        45.552463475614786,
        301.6
      ],
      [
        0.936236372217536,
        45.552406311035156,
        302.20000000000005
      ],
      [
        0.9362595062702894,
        45.55237571708858,
        302.20000000000005
      ],
      [
        0.9363289922475815,
        45.552307069301605,
        302.6
      ],
      [
        0.9363528806716204,
        45.552288042381406,
        302.4
      ],
      [
        0.9364053513854742,
        45.5522536765784,
        302.20000000000005
      ],
      [
        0.9364458359777927,
        45.552226938307285,
        302
      ],
      [
        0.9365513641387224,
        45.552192656323314,
        302
      ],
      [
        0.9366772603243589,
        45.552226938307285,
        301.79999999999995
      ],
      [
        0.9367884881794453,
        45.55227655917406,
        302.4
      ],
      [
        0.9368460718542337,
        45.55229944176972,
        302.4
      ],
      [
        0.936910193413496,
        45.55231855250895,
        302.6
      ],
      [
        0.9369659330695868,
        45.55232995189726,
        302.79999999999995
      ],
      [
        0.9370400290936232,
        45.55235283449292,
        302.79999999999995
      ],
      [
        0.9371394384652376,
        45.55242156609893,
        302.79999999999995
      ],
      [
        0.9372248500585556,
        45.552528351545334,
        303
      ],
      [
        0.9373435378074646,
        45.552623737603426,
        303.4
      ],
      [
        0.93745325691998,
        45.55270764045417,
        303.20000000000005
      ],
      [
        0.9375487267971039,
        45.552799170836806,
        303
      ],
      [
        0.9376397542655468,
        45.55290595628321,
        302.6
      ],
      [
        0.9377078991383314,
        45.55298994295299,
        302.79999999999995
      ],
      [
        0.9378423448652029,
        45.553081473335624,
        302.79999999999995
      ],
      [
        0.9379827417433262,
        45.553138721734285,
        302.6
      ],
      [
        0.9380233101546764,
        45.55314249359071,
        302.6
      ],
      [
        0.9381656348705292,
        45.5531501211226,
        302.6
      ],
      [
        0.9383926168084145,
        45.553161604329944,
        302.6
      ],
      [
        0.9385518729686737,
        45.55318063125014,
        302.79999999999995
      ],
      [
        0.9387130569666624,
        45.55326461791992,
        302.4
      ],
      [
        0.9387984685599804,
        45.55334852077067,
        302
      ],
      [
        0.9388348460197449,
        45.55338280275464,
        301.6
      ],
      [
        0.9388814494013786,
        45.55344767868519,
        301.4
      ],
      [
        0.9389466606080532,
        45.553554464131594,
        301.6
      ],
      [
        0.9389596525579691,
        45.553630823269486,
        301.79999999999995
      ],
      [
        0.9389637596905231,
        45.55368421599269,
        302
      ],
      [
        0.9389936830848455,
        45.553810112178326,
        302
      ],
      [
        0.9390137158334255,
        45.55395503528416,
        301.79999999999995
      ],
      [
        0.9390329103916883,
        45.55406182073057,
        301.79999999999995
      ],
      [
        0.9390665218234062,
        45.554202971979976,
        301.79999999999995
      ],
      [
        0.9390846267342567,
        45.55431361310184,
        301.79999999999995
      ],
      [
        0.9391143824905157,
        45.55443950928748,
        301.6
      ],
      [
        0.9391111135482788,
        45.55455777794123,
        301.79999999999995
      ],
      [
        0.9391615726053715,
        45.554603543132544,
        302
      ],
      [
        0.9391855448484421,
        45.554603543132544,
        302
      ],
      [
        0.9392992034554482,
        45.55458443239331,
        302
      ],
      [
        0.9393370058387518,
        45.554561549797654,
        302.20000000000005
      ],
      [
        0.9394242614507675,
        45.554466247558594,
        302.4
      ],
      [
        0.9395037218928337,
        45.5543364956975,
        302.4
      ],
      [
        0.9395486488938332,
        45.55421445518732,
        302
      ],
      [
        0.9396089147776365,
        45.55411144159734,
        301.6
      ],
      [
        0.9396650735288858,
        45.55399702861905,
        301.79999999999995
      ],
      [
        0.9396739583462477,
        45.55398177355528,
        301.6
      ],
      [
        0.9397453721612692,
        45.55386350490153,
        301.4
      ],
      [
        0.9397908858954906,
        45.553791001439095,
        301.79999999999995
      ],
      [
        0.9398133493959904,
        45.553749008104205,
        302
      ],
      [
        0.9399046283215284,
        45.55364607833326,
        302.6
      ],
      [
        0.939940670505166,
        45.55360022932291,
        302.6
      ],
      [
        0.9400060493499041,
        45.553535437211394,
        302.79999999999995
      ],
      [
        0.9401179477572441,
        45.55350107140839,
        302.6
      ],
      [
        0.9403335303068161,
        45.55348204448819,
        302.20000000000005
      ],
      [
        0.9404536429792643,
        45.553493443876505,
        302
      ],
      [
        0.9404787886887789,
        45.553497299551964,
        302
      ],
      [
        0.940615413710475,
        45.553535437211394,
        302
      ],
      [
        0.9406663756817579,
        45.55355069227517,
        302
      ],
      [
        0.940840719267726,
        45.55362696759403,
        301.79999999999995
      ],
      [
        0.9410122968256474,
        45.553672732785344,
        301.6
      ],
      [
        0.9410650189965963,
        45.553691843524575,
        301.6
      ],
      [
        0.9411764144897461,
        45.553729981184006,
        301.4
      ],
      [
        0.9413759037852287,
        45.55381388403475,
        301.6
      ],
      [
        0.9414484910666943,
        45.553848249837756,
        301.6
      ],
      [
        0.9415224194526672,
        45.55388638749719,
        301.79999999999995
      ],
      [
        0.9417355712503195,
        45.553985545411706,
        301.79999999999995
      ],
      [
        0.9418756328523159,
        45.55403893813491,
        302
      ],
      [
        0.9420780558139086,
        45.55407707579434,
        301.6
      ],
      [
        0.9422717615962029,
        45.554088559001684,
        301.6
      ],
      [
        0.9424235578626394,
        45.554088559001684,
        301.6
      ],
      [
        0.9426217060536146,
        45.5540809314698,
        301.79999999999995
      ],
      [
        0.9426392242312431,
        45.5540809314698,
        301.79999999999995
      ],
      [
        0.9427908528596163,
        45.55407707579434,
        301.20000000000005
      ],
      [
        0.9428241290152073,
        45.55407330393791,
        301.4
      ],
      [
        0.9428864065557718,
        45.554084703326225,
        301.4
      ],
      [
        0.9429195988923311,
        45.55409618653357,
        301.4
      ],
      [
        0.9430881589651108,
        45.55414195172489,
        301.4
      ],
      [
        0.9433106146752834,
        45.554168689996004,
        300.79999999999995
      ],
      [
        0.9434562921524048,
        45.55417631752789,
        301.20000000000005
      ],
      [
        0.9434890653938055,
        45.55418008938432,
        301.20000000000005
      ],
      [
        0.9436826035380363,
        45.55419534444809,
        301.4
      ],
      [
        0.9437886346131563,
        45.55421445518732,
        301.20000000000005
      ],
      [
        0.9439380001276731,
        45.55428687483072,
        301.4
      ],
      [
        0.9439860284328461,
        45.554386116564274,
        301.20000000000005
      ],
      [
        0.9439908899366856,
        45.554401371628046,
        301.20000000000005
      ],
      [
        0.9440205618739128,
        45.55453489534557,
        301.4
      ],
      [
        0.9440506529062986,
        45.554656935855746,
        301.6
      ],
      [
        0.9440941549837589,
        45.55482096970081,
        301.79999999999995
      ],
      [
        0.9441311191767454,
        45.554973520338535,
        302
      ],
      [
        0.9442058019340038,
        45.555114671587944,
        302
      ],
      [
        0.9442495554685593,
        45.55525582283735,
        302.4
      ],
      [
        0.9442938957363367,
        45.55536646395922,
        302.20000000000005
      ],
      [
        0.9443445224314928,
        45.5555038433522,
        302
      ],
      [
        0.9443256631493568,
        45.5556296557188,
        302
      ],
      [
        0.9442607033997774,
        45.55574415251613,
        302
      ],
      [
        0.9441405907273293,
        45.555866193026304,
        302
      ],
      [
        0.9440088272094727,
        45.55593106895685,
        302.4
      ],
      [
        0.9439838491380215,
        45.55595009587705,
        302.6
      ],
      [
        0.943991644307971,
        45.555984461680055,
        302.79999999999995
      ],
      [
        0.9440011996775866,
        45.55599208921194,
        303
      ],
      [
        0.9440166223794222,
        45.55599208921194,
        303
      ],
      [
        0.9441268444061279,
        45.556003488600254,
        302.79999999999995
      ],
      [
        0.9443263337016106,
        45.55600734427571,
        302.6
      ],
      [
        0.9445582609623671,
        45.55595009587705,
        302.6
      ],
      [
        0.9446962270885706,
        45.55588907562196,
        302.6
      ],
      [
        0.9448359534144402,
        45.555828055366874,
        302.6
      ],
      [
        0.9449590835720301,
        45.555763179436326,
        302.20000000000005
      ],
      [
        0.945060420781374,
        45.55568313226104,
        302.4
      ],
      [
        0.9451575670391321,
        45.55559914559126,
        302.4
      ],
      [
        0.9452590718865395,
        45.555530497804284,
        302.20000000000005
      ],
      [
        0.9453873988240957,
        45.55545422248542,
        302
      ],
      [
        0.945518659427762,
        45.555370319634676,
        302.6
      ],
      [
        0.9455968625843525,
        45.555332181975245,
        302.6
      ],
      [
        0.9457561187446117,
        45.55524442344904,
        302.79999999999995
      ],
      [
        0.9458126965910196,
        45.55515666492283,
        302.79999999999995
      ],
      [
        0.9457912389189005,
        45.55508801713586,
        303
      ],
      [
        0.945743964985013,
        45.5550307687372,
        303
      ],
      [
        0.9456560388207436,
        45.55496212095022,
        303
      ],
      [
        0.9455954376608133,
        45.55491250008345,
        303.20000000000005
      ],
      [
        0.9455138817429543,
        45.554817197844386,
        303.20000000000005
      ],
      [
        0.9454099461436272,
        45.55473321117461,
        303.20000000000005
      ],
      [
        0.9453866444528103,
        45.554603543132544,
        303.20000000000005
      ],
      [
        0.9454130474478006,
        45.554466247558594,
        303.20000000000005
      ],
      [
        0.945432661101222,
        45.55435175076127,
        302.79999999999995
      ],
      [
        0.9454666916280985,
        45.55421059951186,
        302.20000000000005
      ],
      [
        0.9455067571252584,
        45.55409995839,
        302.20000000000005
      ],
      [
        0.9455607365816832,
        45.55401991121471,
        301.6
      ],
      [
        0.9455741476267576,
        45.55400465615094,
        301.6
      ],
      [
        0.9456946793943644,
        45.55392066948116,
        302.20000000000005
      ],
      [
        0.945788724347949,
        45.55385587736964,
        302.20000000000005
      ],
      [
        0.9459296241402626,
        45.553752863779664,
        302
      ],
      [
        0.9460763912647963,
        45.55364607833326,
        301.6
      ],
      [
        0.9462246671319008,
        45.553535437211394,
        301.6
      ],
      [
        0.946233719587326,
        45.55352780967951,
        301.6
      ],
      [
        0.9463565144687891,
        45.55342479608953,
        302
      ],
      [
        0.9464399144053459,
        45.55330652743578,
        302.6
      ],
      [
        0.9464399144053459,
        45.55329127237201,
        302.6
      ],
      [
        0.9463752899318933,
        45.55319211445749,
        303.20000000000005
      ],
      [
        0.9462442807853222,
        45.55311583913863,
        303.4
      ],
      [
        0.9462273493409157,
        45.55310435593128,
        303.20000000000005
      ],
      [
        0.9460786543786526,
        45.55300896987319,
        302.79999999999995
      ],
      [
        0.9459754731506109,
        45.55293655022979,
        303
      ],
      [
        0.9458587132394314,
        45.55287544615567,
        303.20000000000005
      ],
      [
        0.94581613317132,
        45.55284879170358,
        303.20000000000005
      ],
      [
        0.9455906599760056,
        45.55274963378906,
        303.20000000000005
      ],
      [
        0.9454245306551456,
        45.55275340564549,
        303.20000000000005
      ],
      [
        0.945378765463829,
        45.552764888852835,
        303.20000000000005
      ],
      [
        0.9452741593122482,
        45.55279154330492,
        303
      ],
      [
        0.9452508576214314,
        45.552799170836806,
        303
      ],
      [
        0.9451222792267799,
        45.55285256356001,
        302.6
      ],
      [
        0.9450921881943941,
        45.55287167429924,
        302.6
      ],
      [
        0.9449424035847187,
        45.5529289226979,
        302.79999999999995
      ],
      [
        0.9448206145316362,
        45.55293269455433,
        302.79999999999995
      ],
      [
        0.9447611030191183,
        45.55293655022979,
        303
      ],
      [
        0.9445951413363218,
        45.55293269455433,
        303.4
      ],
      [
        0.9444424230605364,
        45.55293269455433,
        303.6
      ],
      [
        0.944380396977067,
        45.55293655022979,
        303.79999999999995
      ],
      [
        0.9442612901329994,
        45.55293269455433,
        303.79999999999995
      ],
      [
        0.9440783131867647,
        45.55292506702244,
        303.79999999999995
      ],
      [
        0.9439231641590595,
        45.55292506702244,
        304
      ],
      [
        0.9437516704201698,
        45.55293655022979,
        304
      ],
      [
        0.9437048994004726,
        45.552921295166016,
        304
      ],
      [
        0.9435325674712658,
        45.5529289226979,
        304
      ],
      [
        0.9433291386812925,
        45.5529135838151,
        304
      ],
      [
        0.9431478381156921,
        45.5529135838151,
        303.6
      ],
      [
        0.9431224409490824,
        45.55290981195867,
        303.6
      ],
      [
        0.9429447446018457,
        45.552879301831126,
        303.4
      ],
      [
        0.9428124781697989,
        45.55283730849624,
        303.20000000000005
      ],
      [
        0.9426635317504406,
        45.552803026512265,
        303.20000000000005
      ],
      [
        0.9424729272723198,
        45.55275340564549,
        303.6
      ],
      [
        0.9423337876796722,
        45.552722895517945,
        304.20000000000005
      ],
      [
        0.9421591088175774,
        45.55266187526286,
        304.6
      ],
      [
        0.9419981762766838,
        45.55260085500777,
        304
      ],
      [
        0.9418598748743534,
        45.552524495869875,
        303.6
      ],
      [
        0.9417138621211052,
        45.5524368211627,
        303
      ],
      [
        0.9415376745164394,
        45.55233380757272,
        303.20000000000005
      ],
      [
        0.9413503389805555,
        45.55224227719009,
        303.6
      ],
      [
        0.941316643729806,
        45.55221553891897,
        303.79999999999995
      ],
      [
        0.9412665199488401,
        45.55218502879143,
        303.79999999999995
      ],
      [
        0.9411312360316515,
        45.55210489779711,
        303.6
      ],
      [
        0.940989414229989,
        45.552013367414474,
        303.79999999999995
      ],
      [
        0.9408452454954386,
        45.55192946456373,
        303.6
      ],
      [
        0.9407094586640596,
        45.55186836048961,
        303.79999999999995
      ],
      [
        0.940530588850379,
        45.551792085170746,
        304
      ],
      [
        0.9403480309993029,
        45.55172729305923,
        303.79999999999995
      ],
      [
        0.9402081370353699,
        45.55166618898511,
        303.4
      ],
      [
        0.9400578495115042,
        45.55160516873002,
        303
      ],
      [
        0.9398810751736164,
        45.55154029279947,
        303.79999999999995
      ],
      [
        0.9397661592811346,
        45.551498383283615,
        304.79999999999995
      ],
      [
        0.9396669175475836,
        45.55144499056041,
        305.79999999999995
      ],
      [
        0.9395877085626125,
        45.551418252289295,
        306.6
      ],
      [
        0.9395367465913296,
        45.55139536969364,
        306.79999999999995
      ],
      [
        0.9394776541739702,
        45.55137248709798,
        306.79999999999995
      ],
      [
        0.9393885545432568,
        45.55133049376309,
        307.20000000000005
      ],
      [
        0.9393157996237278,
        45.551299983635545,
        306.79999999999995
      ],
      [
        0.9392841998487711,
        45.55128472857177,
        306.79999999999995
      ],
      [
        0.9392352495342493,
        45.551261845976114,
        306.6
      ],
      [
        0.9391162265092134,
        45.551204681396484,
        305.79999999999995
      ],
      [
        0.9390970319509506,
        45.55119697004557,
        305.6
      ],
      [
        0.9389987960457802,
        45.551162688061595,
        304.6
      ],
      [
        0.9389800205826759,
        45.551158832386136,
        304.4
      ],
      [
        0.9388426411896944,
        45.551143577322364,
        303.79999999999995
      ],
      [
        0.9388217702507973,
        45.55113980546594,
        303.6
      ],
      [
        0.9387229476124048,
        45.55113217793405,
        303.4
      ],
      [
        0.9386641904711723,
        45.55113217793405,
        303.6
      ],
      [
        0.9385783597826958,
        45.55113594979048,
        303.79999999999995
      ],
      [
        0.9384854882955551,
        45.55113980546594,
        304
      ],
      [
        0.9384294133633375,
        45.55113980546594,
        304.20000000000005
      ],
      [
        0.938324136659503,
        45.55113594979048,
        304.20000000000005
      ],
      [
        0.9382905252277851,
        45.55113217793405,
        304.4
      ],
      [
        0.9381359629333019,
        45.551120694726706,
        304.20000000000005
      ],
      [
        0.9379653073847294,
        45.55110929533839,
        304
      ],
      [
        0.9378294367343187,
        45.55105590261519,
        303.6
      ],
      [
        0.9376747068017721,
        45.55099479854107,
        303.6
      ],
      [
        0.9375646524131298,
        45.55094903334975,
        303.4
      ],
      [
        0.9374295361340046,
        45.55089949630201,
        303.20000000000005
      ],
      [
        0.9373022150248289,
        45.55081550963223,
        303
      ],
      [
        0.9372108522802591,
        45.550727834925056,
        303
      ],
      [
        0.9371215011924505,
        45.55063244886696,
        303
      ],
      [
        0.9370352514088154,
        45.55054469034076,
        303.20000000000005
      ],
      [
        0.9370236843824387,
        45.550533290952444,
        303.4
      ],
      [
        0.9369558747857809,
        45.55047604255378,
        303.6
      ],
      [
        0.9369124565273523,
        45.550453159958124,
        303.79999999999995
      ],
      [
        0.9367725625634193,
        45.55046455934644,
        304.20000000000005
      ],
      [
        0.9366382844746113,
        45.550510324537754,
        304.4
      ],
      [
        0.9365000668913126,
        45.55055994540453,
        304.6
      ],
      [
        0.936480201780796,
        45.55056380107999,
        304.6
      ],
      [
        0.9363240469247103,
        45.550548546016216,
        304.6
      ],
      [
        0.9362838137894869,
        45.550533290952444,
        304.6
      ],
      [
        0.936165377497673,
        45.55051803588867,
        304.20000000000005
      ],
      [
        0.9361154213547707,
        45.550590455532074,
        304.20000000000005
      ],
      [
        0.9361154213547707,
        45.550670586526394,
        304.20000000000005
      ],
      [
        0.936106201261282,
        45.55072020739317,
        304.20000000000005
      ],
      [
        0.9360885992646217,
        45.55085750296712,
        304.20000000000005
      ],
      [
        0.936010479927063,
        45.55097577162087,
        304.20000000000005
      ],
      [
        0.9358783811330795,
        45.5510482750833,
        304.4
      ],
      [
        0.9357219748198986,
        45.55109781213105,
        304.20000000000005
      ],
      [
        0.9355424344539642,
        45.55111306719482,
        303.79999999999995
      ],
      [
        0.9354845155030489,
        45.55110929533839,
        303.6
      ],
      [
        0.9354763012379408,
        45.55111306719482,
        303.4
      ],
      [
        0.9354686737060547,
        45.55110929533839,
        303.4
      ],
      [
        0.9354112576693296,
        45.55109404027462,
        303.4
      ],
      [
        0.9352551028132439,
        45.551063530147076,
        303.20000000000005
      ],
      [
        0.935147562995553,
        45.551021536812186,
        303.4
      ],
      [
        0.9350842796266079,
        45.5509605165571,
        303.6
      ],
      [
        0.9350386820733547,
        45.55092237889767,
        303.6
      ],
      [
        0.934915216639638,
        45.550826992839575,
        303.4
      ],
      [
        0.9347567986696959,
        45.5507239792496,
        303.4
      ],
      [
        0.9345992188900709,
        45.55073923431337,
        303.6
      ],
      [
        0.9344558045268059,
        45.55080025456846,
        303.79999999999995
      ],
      [
        0.9343194309622049,
        45.55085364729166,
        303.6
      ],
      [
        0.9341564029455185,
        45.550888013094664,
        303.79999999999995
      ],
      [
        0.933988681063056,
        45.55092237889767,
        303.79999999999995
      ],
      [
        0.9338150918483734,
        45.550941405817866,
        303.6
      ],
      [
        0.9336926322430372,
        45.550945261493325,
        303.79999999999995
      ],
      [
        0.9336117468774319,
        45.55088038556278,
        303.79999999999995
      ],
      [
        0.9335636347532272,
        45.55076974444091,
        303.6
      ],
      [
        0.9335415903478861,
        45.550670586526394,
        303
      ],
      [
        0.9335112478584051,
        45.5505561735481,
        303.4
      ],
      [
        0.9334363136440516,
        45.550430277362466,
        303.79999999999995
      ],
      [
        0.933314859867096,
        45.55039591155946,
        304
      ],
      [
        0.9331546816974878,
        45.550449304282665,
        303.79999999999995
      ],
      [
        0.933039765805006,
        45.55055231787264,
        304
      ],
      [
        0.9329820144921541,
        45.550590455532074,
        304.20000000000005
      ],
      [
        0.9329401049762964,
        45.55063244886696,
        304.20000000000005
      ],
      [
        0.932854525744915,
        45.55072020739317,
        304.6
      ],
      [
        0.9328433778136969,
        45.55073160678148,
        304.79999999999995
      ],
      [
        0.9327816870063543,
        45.55077360011637,
        305
      ],
      [
        0.9327304735779762,
        45.55081550963223,
        305
      ],
      [
        0.9326094388961792,
        45.55089949630201,
        305
      ],
      [
        0.9324734844267368,
        45.551006281748414,
        304.4
      ],
      [
        0.9323515277355909,
        45.55109018459916,
        303.79999999999995
      ],
      [
        0.9322685468941927,
        45.551162688061595,
        303.79999999999995
      ],
      [
        0.9322531241923571,
        45.551181714981794,
        303.79999999999995
      ],
      [
        0.9321286529302597,
        45.55127332918346,
        304.4
      ],
      [
        0.9319955483078957,
        45.551380114629865,
        305.4
      ],
      [
        0.9319424070417881,
        45.55142587982118,
        305.4
      ],
      [
        0.9318870026618242,
        45.55148690007627,
        305.6
      ],
      [
        0.9317721705883741,
        45.55158228613436,
        305.4
      ],
      [
        0.9316476993262768,
        45.55170432664454,
        305
      ],
      [
        0.9315447695553303,
        45.55176543071866,
        304.6
      ],
      [
        0.9313939791172743,
        45.55176920257509,
        303.79999999999995
      ],
      [
        0.9313598647713661,
        45.5517615750432,
        303.6
      ],
      [
        0.931219132617116,
        45.55172729305923,
        303.4
      ],
      [
        0.9310584515333176,
        45.551696699112654,
        303.6
      ],
      [
        0.9309035539627075,
        45.55165856145322,
        303.6
      ],
      [
        0.9307793341577053,
        45.55162042379379,
        303.6
      ],
      [
        0.930630387738347,
        45.551597541198134,
        303.79999999999995
      ],
      [
        0.9304603189229965,
        45.55156325921416,
        303.79999999999995
      ],
      [
        0.9303527791053057,
        45.551536520943046,
        303.79999999999995
      ],
      [
        0.9302496816962957,
        45.551517410203815,
        303.6
      ],
      [
        0.9300951194018126,
        45.551494527608156,
        303.6
      ],
      [
        0.9299406409263611,
        45.5514526180923,
        304.20000000000005
      ],
      [
        0.9297794569283724,
        45.551418252289295,
        304.4
      ],
      [
        0.9295898582786322,
        45.55142587982118,
        304.4
      ],
      [
        0.9294513892382383,
        45.55144499056041,
        304.20000000000005
      ],
      [
        0.9294077195227146,
        45.55144876241684,
        304.20000000000005
      ],
      [
        0.9294109046459198,
        45.55144876241684,
        304.4
      ],
      [
        0.929314848035574,
        45.55144499056041,
        304.4
      ],
      [
        0.9291332960128784,
        45.55143350735307,
        304.6
      ],
      [
        0.9290923923254013,
        45.55142973549664,
        304.79999999999995
      ],
      [
        0.9290480520576239,
        45.551422107964754,
        304.6
      ],
      [
        0.9289578627794981,
        45.55141062475741,
        304.79999999999995
      ],
      [
        0.9289397578686476,
        45.55140685290098,
        304.79999999999995
      ],
      [
        0.9287562780082226,
        45.55138774216175,
        304.4
      ],
      [
        0.9287100937217474,
        45.55137248709798,
        304.4
      ],
      [
        0.928624514490366,
        45.551338121294975,
        304.4
      ],
      [
        0.9284876380115747,
        45.551280956715345,
        304.4
      ],
      [
        0.9283692855387926,
        45.55122756399214,
        304.79999999999995
      ],
      [
        0.9282521903514862,
        45.55117794312537,
        305
      ],
      [
        0.9281342569738626,
        45.55111692287028,
        305.4
      ],
      [
        0.928051695227623,
        45.551086412742734,
        305.79999999999995
      ],
      [
        0.9280168265104294,
        45.55107115767896,
        305.79999999999995
      ],
      [
        0.9279599133878946,
        45.551044419407845,
        305.79999999999995
      ],
      [
        0.9278852306306362,
        45.55099479854107,
        305.4
      ],
      [
        0.9277832228690386,
        45.55091852322221,
        304.6
      ],
      [
        0.927750701084733,
        45.55089564062655,
        304.20000000000005
      ],
      [
        0.9276335220783949,
        45.550784999504685,
        304.79999999999995
      ],
      [
        0.9275342803448439,
        45.550689697265625,
        304.79999999999995
      ],
      [
        0.9275220427662134,
        45.55067821405828,
        304.79999999999995
      ],
      [
        0.9274357929825783,
        45.55058282800019,
        304.79999999999995
      ],
      [
        0.9273726772516966,
        45.55043404921889,
        304.6
      ],
      [
        0.9273277502506971,
        45.55031578056514,
        304.4
      ],
      [
        0.9273233916610479,
        45.55017085745931,
        304
      ],
      [
        0.9273184463381767,
        45.550056444481015,
        303.6
      ],
      [
        0.9273153450340033,
        45.55004118941724,
        303.6
      ],
      [
        0.9273217152804136,
        45.549976313486695,
        303.4
      ],
      [
        0.9273190330713987,
        45.54996105842292,
        303.6
      ],
      [
        0.9273194521665573,
        45.54994194768369,
        303.6
      ],
      [
        0.9273188654333353,
        45.54992669261992,
        303.79999999999995
      ],
      [
        0.9273241460323334,
        45.54991529323161,
        303.79999999999995
      ],
      [
        0.9273402392864227,
        45.54980842396617,
        303.20000000000005
      ],
      [
        0.9273679833859205,
        45.54968638345599,
        303.4
      ],
      [
        0.9273464418947697,
        45.54959485307336,
        303.6
      ],
      [
        0.9272280894219875,
        45.54954523220658,
        303.6
      ],
      [
        0.9269816614687443,
        45.54955671541393,
        303.20000000000005
      ],
      [
        0.9268015343695879,
        45.54960625246167,
        303
      ],
      [
        0.9267629776149988,
        45.54961010813713,
        303
      ],
      [
        0.926743196323514,
        45.54961387999356,
        303
      ],
      [
        0.9267000295221806,
        45.54961387999356,
        303
      ],
      [
        0.9266375843435526,
        45.54961010813713,
        303
      ],
      [
        0.926528787240386,
        45.5495376046747,
        303.20000000000005
      ],
      [
        0.9264001250267029,
        45.54940793663263,
        303.4
      ],
      [
        0.9262533579021692,
        45.54927818477154,
        303.20000000000005
      ],
      [
        0.9260823670774698,
        45.549262929707766,
        303.20000000000005
      ],
      [
        0.9260223526507616,
        45.549285812303424,
        303
      ],
      [
        0.9259879030287266,
        45.54932780563831,
        303
      ],
      [
        0.9259012341499329,
        45.54939268156886,
        302.79999999999995
      ],
      [
        0.9257900062948465,
        45.549480356276035,
        303
      ],
      [
        0.9256855677813292,
        45.54955671541393,
        302.79999999999995
      ],
      [
        0.925579285249114,
        45.549640618264675,
        303.20000000000005
      ],
      [
        0.9254949633032084,
        45.54973214864731,
        303.79999999999995
      ],
      [
        0.9254338592290878,
        45.54985427297652,
        304
      ],
      [
        0.9253583382815123,
        45.54996868595481,
        303.79999999999995
      ],
      [
        0.925240907818079,
        45.54998008534312,
        304
      ],
      [
        0.9251238126307726,
        45.549919065088034,
        304.6
      ],
      [
        0.9250152669847012,
        45.54985041730106,
        305.20000000000005
      ],
      [
        0.9249332919716835,
        45.54981227964163,
        305.4
      ],
      [
        0.9248959925025702,
        45.549797024577856,
        305.4
      ],
      [
        0.9247731976211071,
        45.54973600432277,
        305.20000000000005
      ],
      [
        0.9246358182281256,
        45.54966735653579,
        304.79999999999995
      ],
      [
        0.9245316311717033,
        45.54961010813713,
        304.6
      ],
      [
        0.9243599697947502,
        45.5495376046747,
        304.4
      ],
      [
        0.9242377616465092,
        45.54948806762695,
        304.6
      ],
      [
        0.9241072554141283,
        45.549423191696405,
        304.79999999999995
      ],
      [
        0.9240876417607069,
        45.54941170848906,
        304.79999999999995
      ],
      [
        0.9239600691944361,
        45.54935831576586,
        305.20000000000005
      ],
      [
        0.9238437283784151,
        45.549301067367196,
        305.4
      ],
      [
        0.9238067641854286,
        45.549285812303424,
        305.6
      ],
      [
        0.9237272199243307,
        45.54925915785134,
        306.4
      ],
      [
        0.9236506093293428,
        45.549224792048335,
        306.6
      ],
      [
        0.9235670417547226,
        45.54919051006436,
        307.20000000000005
      ],
      [
        0.9234500303864479,
        45.549148516729474,
        307.6
      ],
      [
        0.9234104678034782,
        45.54913703352213,
        307.79999999999995
      ],
      [
        0.9233898483216763,
        45.549125634133816,
        307.79999999999995
      ],
      [
        0.9232283290475607,
        45.54905698634684,
        307.4
      ],
      [
        0.9231657162308693,
        45.549030248075724,
        306.6
      ],
      [
        0.9231381397694349,
        45.54901499301195,
        306.6
      ],
      [
        0.9230254869908094,
        45.54894248954952,
        305.6
      ],
      [
        0.9229848347604275,
        45.54891960695386,
        305.6
      ],
      [
        0.9229235630482435,
        45.54888532496989,
        305.20000000000005
      ],
      [
        0.922786770388484,
        45.54880142211914,
        304.79999999999995
      ],
      [
        0.9226741176098585,
        45.54872506298125,
        305.4
      ],
      [
        0.9225405938923359,
        45.548633532598615,
        306
      ],
      [
        0.9225176274776459,
        45.54861827753484,
        306
      ],
      [
        0.9224357362836599,
        45.54856102913618,
        306.20000000000005
      ],
      [
        0.9224198944866657,
        45.54854962974787,
        306.20000000000005
      ],
      [
        0.9223487321287394,
        45.54851149208844,
        306
      ],
      [
        0.9223178029060364,
        45.548496237024665,
        306
      ],
      [
        0.9222176391631365,
        45.54841987788677,
        306
      ],
      [
        0.9222111012786627,
        45.54832834750414,
        306
      ],
      [
        0.9222286194562912,
        45.54821007885039,
        305.79999999999995
      ],
      [
        0.9222131967544556,
        45.548099437728524,
        305
      ],
      [
        0.9221277013421059,
        45.54798888042569,
        305.6
      ],
      [
        0.9220024757087231,
        45.547939259558916,
        306.20000000000005
      ],
      [
        0.9218560438603163,
        45.547962142154574,
        306.6
      ],
      [
        0.9218120388686657,
        45.54797362536192,
        306.6
      ],
      [
        0.9217315725982189,
        45.548019390553236,
        307.20000000000005
      ],
      [
        0.9217016492038965,
        45.54802701808512,
        307.6
      ],
      [
        0.9216863941401243,
        45.54803078994155,
        307.79999999999995
      ],
      [
        0.9216077718883753,
        45.54805367253721,
        308.6
      ],
      [
        0.9215915109962225,
        45.54805752821267,
        308.79999999999995
      ],
      [
        0.9215213544666767,
        45.54805752821267,
        309.20000000000005
      ],
      [
        0.9213718213140965,
        45.54804990068078,
        309.4
      ],
      [
        0.9212054405361414,
        45.54804604500532,
        309
      ],
      [
        0.9210364613682032,
        45.54803078994155,
        308.6
      ],
      [
        0.9209424164146185,
        45.54803464561701,
        308.6
      ],
      [
        0.9208663087338209,
        45.548076555132866,
        308.4
      ],
      [
        0.9208101499825716,
        45.5481490585953,
        307.79999999999995
      ],
      [
        0.9208099823445082,
        45.5481490585953,
        307.6
      ],
      [
        0.9207711741328239,
        45.548179568722844,
        308
      ],
      [
        0.9207606967538595,
        45.54819105193019,
        308.20000000000005
      ],
      [
        0.9206379018723965,
        45.54829406552017,
        307.6
      ],
      [
        0.920525835826993,
        45.548404622823,
        307.20000000000005
      ],
      [
        0.920430114492774,
        45.54850000888109,
        306.6
      ],
      [
        0.9203931502997875,
        45.548534374684095,
        306.6
      ],
      [
        0.9202811680734158,
        45.548652643337846,
        305.6
      ],
      [
        0.9201996959745884,
        45.548747945576906,
        305
      ],
      [
        0.9201034717261791,
        45.54883955977857,
        304.79999999999995
      ],
      [
        0.9200661722570658,
        45.54887384176254,
        304.79999999999995
      ],
      [
        0.9200077503919601,
        45.54891583509743,
        304.6
      ],
      [
        0.9199666790664196,
        45.548950117081404,
        304.79999999999995
      ],
      [
        0.9198183193802834,
        45.54910275153816,
        303.79999999999995
      ],
      [
        0.9198080934584141,
        45.54911415092647,
        303.79999999999995
      ],
      [
        0.9197853785008192,
        45.54914474487305,
        303.6
      ],
      [
        0.9197469893842936,
        45.549186654388905,
        303.6
      ],
      [
        0.9196474961936474,
        45.54929343983531,
        304
      ],
      [
        0.9196320734918118,
        45.549304923042655,
        304
      ],
      [
        0.9195531997829676,
        45.549385054036975,
        303.79999999999995
      ],
      [
        0.9194485936313868,
        45.54949183948338,
        303
      ],
      [
        0.9193698037415743,
        45.549564342945814,
        303
      ],
      [
        0.9193470887839794,
        45.54958722554147,
        302.79999999999995
      ],
      [
        0.9192734118551016,
        45.54966350086033,
        302.6
      ],
      [
        0.9191998187452555,
        45.549739776179194,
        302.20000000000005
      ],
      [
        0.9190246369689703,
        45.54987329989672,
        301.79999999999995
      ],
      [
        0.9189419075846672,
        45.54994194768369,
        301.6
      ],
      [
        0.9188952203840017,
        45.549972457811236,
        301.6
      ],
      [
        0.9187743533402681,
        45.550052588805556,
        301.79999999999995
      ],
      [
        0.9186670649796724,
        45.55014411918819,
        301.4
      ],
      [
        0.9185734391212463,
        45.55022425018251,
        301
      ],
      [
        0.9184437710791826,
        45.55032726377249,
        301.20000000000005
      ],
      [
        0.9183592814952135,
        45.55036540143192,
        300.79999999999995
      ],
      [
        0.9183580242097378,
        45.550354002043605,
        300.79999999999995
      ],
      [
        0.9183565992861986,
        45.550331035628915,
        300.6
      ],
      [
        0.9183559287339449,
        45.55030815303326,
        300.6
      ],
      [
        0.9183505643159151,
        45.550273871049285,
        300.4
      ],
      [
        0.9183183778077364,
        45.550151746720076,
        299.79999999999995
      ],
      [
        0.9182888735085726,
        45.55010220967233,
        299.6
      ],
      [
        0.918246628716588,
        45.55004118941724,
        299.4
      ],
      [
        0.9181557688862085,
        45.54991529323161,
        298.79999999999995
      ],
      [
        0.9181138593703508,
        45.549858044832945,
        298.6
      ],
      [
        0.9180891327559948,
        45.54981227964163,
        298.20000000000005
      ],
      [
        0.9180254302918911,
        45.54972452111542,
        297.6
      ],
      [
        0.9180204849690199,
        45.54970926605165,
        297.4
      ],
      [
        0.9179897233843803,
        45.54961010813713,
        297.20000000000005
      ],
      [
        0.9179575368762016,
        45.549499467015266,
        296.4
      ],
      [
        0.9179589617997408,
        45.54948806762695,
        296.4
      ],
      [
        0.9179705288261175,
        45.54937742650509,
        295.79999999999995
      ],
      [
        0.9179047308862209,
        45.54931255057454,
        295.6
      ],
      [
        0.917768944054842,
        45.54924767464399,
        295.79999999999995
      ],
      [
        0.9176956862211227,
        45.549167627468705,
        295.79999999999995
      ],
      [
        0.9176781680434942,
        45.54907224141061,
        295.4
      ],
      [
        0.9177097678184509,
        45.54905698634684,
        295.4
      ],
      [
        0.9177439659833908,
        45.54906075820327,
        295.4
      ],
      [
        0.9178083389997482,
        45.54905313067138,
        295.20000000000005
      ]
    ]
  }
}
