{
  "type": "Feature",
  "properties": {
    "id": "4130623469",
    "activity": "hiking",
    "name": "Waverley Hiking",
    "date": "2019-10-06T10:15:22.000Z",
    "distanceKm": 13.38,
    "movingTimeSeconds": 10200,
    "elapsedTimeSeconds": 16010.4150390625,
    "ascentM": 144,
    "descentM": 690,
    "providers": [
      "Garmin"
    ]
  },
  "geometry": {
    "type": "LineString",
    "coordinates": [
      [
        -0.6470191385596991,
        51.13362570293248,
        93.39999999999998
      ],
      [
        -0.6471569370478392,
        51.133620254695415,
        92.39999999999998
      ],
      [
        -0.6474799755960703,
        51.13359812647104,
        92.20000000000005
      ],
      [
        -0.6480590812861919,
        51.13354221917689,
        95.60000000000002
      ],
      [
        -0.6487726327031851,
        51.13350357860327,
        98.39999999999998
      ],
      [
        -0.6490785721689463,
        51.133490754291415,
        99.60000000000002
      ],
      [
        -0.6497976556420326,
        51.13348136655986,
        101
      ],
      [
        -0.65022605471313,
        51.13354272209108,
        102
      ],
      [
        -0.6509594712406397,
        51.13350315950811,
        104.39999999999998
      ],
      [
        -0.6516822427511215,
        51.13349930383265,
        105.79999999999995
      ],
      [
        -0.6524107977747917,
        51.133481953293085,
        106.79999999999995
      ],
      [
        -0.6527366861701012,
        51.13352327607572,
        105.60000000000002
      ],
      [
        -0.653245048597455,
        51.13358278758824,
        105.20000000000005
      ],
      [
        -0.6534033827483654,
        51.133592845872045,
        105.20000000000005
      ],
      [
        -0.6535812467336655,
        51.133582619950175,
        103.60000000000002
      ],
      [
        -0.6540024373680353,
        51.13360097631812,
        99.79999999999995
      ],
      [
        -0.6540245655924082,
        51.133598294109106,
        99.79999999999995
      ],
      [
        -0.6540461909025908,
        51.13359443843365,
        99.60000000000002
      ],
      [
        -0.654067900031805,
        51.133594354614615,
        99.60000000000002
      ],
      [
        -0.6541348714381456,
        51.13357985392213,
        99.60000000000002
      ],
      [
        -0.6541642919182777,
        51.133572813123465,
        99.60000000000002
      ],
      [
        -0.654180720448494,
        51.13357013091445,
        99.79999999999995
      ],
      [
        -0.6541972327977419,
        51.13356719724834,
        99.60000000000002
      ],
      [
        -0.6542384717613459,
        51.1335588991642,
        99.60000000000002
      ],
      [
        -0.6545036751776934,
        51.13351942040026,
        99.39999999999998
      ],
      [
        -0.6545889191329479,
        51.13350626081228,
        99.20000000000005
      ],
      [
        -0.654728477820754,
        51.133489245548844,
        98.79999999999995
      ],
      [
        -0.6548615824431181,
        51.13347533158958,
        97.79999999999995
      ],
      [
        -0.6551277916878462,
        51.13350424915552,
        90.79999999999995
      ],
      [
        -0.6554756406694651,
        51.13350776955485,
        87.60000000000002
      ],
      [
        -0.6555791571736336,
        51.13357323221862,
        86.39999999999998
      ],
      [
        -0.6562400702387094,
        51.133444821462035,
        91
      ],
      [
        -0.6565419025719166,
        51.13343090750277,
        93
      ],
      [
        -0.6572423782199621,
        51.13351933658123,
        94
      ],
      [
        -0.6576855294406414,
        51.133580189198256,
        93.39999999999998
      ],
      [
        -0.6583829876035452,
        51.133681861683726,
        91.39999999999998
      ],
      [
        -0.6585839856415987,
        51.133681777864695,
        92.20000000000005
      ],
      [
        -0.6590571440756321,
        51.13356669433415,
        96.20000000000005
      ],
      [
        -0.6591229420155287,
        51.1333585716784,
        91.79999999999995
      ],
      [
        -0.6591250374913216,
        51.1333273909986,
        92.20000000000005
      ],
      [
        -0.659128725528717,
        51.1333120521158,
        91.79999999999995
      ],
      [
        -0.6591371912509203,
        51.13328003324568,
        90
      ],
      [
        -0.659144064411521,
        51.13322915509343,
        89.79999999999995
      ],
      [
        -0.6591441482305527,
        51.133211217820644,
        90.20000000000005
      ],
      [
        -0.6591508537530899,
        51.1331788636744,
        90.79999999999995
      ],
      [
        -0.6591508537530899,
        51.1331788636744,
        90.79999999999995
      ],
      [
        -0.6591583974659443,
        51.13316377624869,
        91.20000000000005
      ],
      [
        -0.6591707188636065,
        51.13313226029277,
        92.20000000000005
      ],
      [
        -0.6592350080609322,
        51.13298415206373,
        93
      ],
      [
        -0.6593957729637623,
        51.132800756022334,
        92.20000000000005
      ],
      [
        -0.6595073360949755,
        51.132679553702474,
        89.79999999999995
      ],
      [
        -0.6595951784402132,
        51.132488111034036,
        87.60000000000002
      ],
      [
        -0.6596898939460516,
        51.13226247020066,
        90.20000000000005
      ],
      [
        -0.6597756408154964,
        51.13203817047179,
        85.60000000000002
      ],
      [
        -0.6598955020308495,
        51.13182468339801,
        83.39999999999998
      ],
      [
        -0.6600035447627306,
        51.131731141358614,
        82.60000000000002
      ],
      [
        -0.6603728514164686,
        51.13139427267015,
        84.79999999999995
      ],
      [
        -0.6604279205203056,
        51.1313502676785,
        83.39999999999998
      ],
      [
        -0.6608788669109344,
        51.130981631577015,
        85.79999999999995
      ],
      [
        -0.6612058449536562,
        51.13057443872094,
        82.39999999999998
      ],
      [
        -0.6614063400775194,
        51.13017512485385,
        76.79999999999995
      ],
      [
        -0.661405585706234,
        51.130159785971045,
        76.79999999999995
      ],
      [
        -0.6615062523633242,
        51.12970816902816,
        75.39999999999998
      ],
      [
        -0.6615981180220842,
        51.12951664254069,
        73.79999999999995
      ],
      [
        -0.6618609745055437,
        51.12911347299814,
        74.20000000000005
      ],
      [
        -0.6618712842464447,
        51.12910081632435,
        74.20000000000005
      ],
      [
        -0.6618824321776628,
        51.12908891402185,
        74
      ],
      [
        -0.6618960946798325,
        51.129078939557076,
        74
      ],
      [
        -0.6619093380868435,
        51.12906854599714,
        74
      ],
      [
        -0.6619942467659712,
        51.128989504650235,
        75.20000000000005
      ],
      [
        -0.6620783172547817,
        51.12891901284456,
        74.20000000000005
      ],
      [
        -0.6621326319873333,
        51.128859501332045,
        74
      ],
      [
        -0.6621696799993515,
        51.12881759181619,
        74
      ],
      [
        -0.6622176244854927,
        51.12875908613205,
        73.39999999999998
      ],
      [
        -0.6622911337763071,
        51.12868448719382,
        74.39999999999998
      ],
      [
        -0.6625321134924889,
        51.128460355103016,
        77.79999999999995
      ],
      [
        -0.6630187667906284,
        51.12812725827098,
        71.79999999999995
      ],
      [
        -0.6633539590984583,
        51.12773096188903,
        77
      ],
      [
        -0.6634002272039652,
        51.127576399594545,
        76.39999999999998
      ],
      [
        -0.6634037476032972,
        51.127447402104735,
        68.60000000000002
      ],
      [
        -0.6633580662310123,
        51.12730449065566,
        60.60000000000002
      ],
      [
        -0.6633734051138163,
        51.12714305520058,
        57
      ],
      [
        -0.6633832957595587,
        51.12711916677654,
        58.60000000000002
      ],
      [
        -0.6633029971271753,
        51.12682110629976,
        65.39999999999998
      ],
      [
        -0.6631051003932953,
        51.12646169029176,
        60.799999999999955
      ],
      [
        -0.6629903521388769,
        51.12625440582633,
        62
      ],
      [
        -0.6629292480647564,
        51.12618022598326,
        64.39999999999998
      ],
      [
        -0.6629737559705973,
        51.12607394345105,
        60.200000000000045
      ],
      [
        -0.6630866602063179,
        51.12601401284337,
        60.200000000000045
      ],
      [
        -0.663387319073081,
        51.12596514634788,
        58
      ],
      [
        -0.6635419651865959,
        51.12583950161934,
        58.60000000000002
      ],
      [
        -0.6636433862149715,
        51.12573246471584,
        65.39999999999998
      ],
      [
        -0.6636746507138014,
        51.125677060335875,
        66.20000000000005
      ],
      [
        -0.6636781711131334,
        51.12566608004272,
        66
      ],
      [
        -0.6636977009475231,
        51.12564269453287,
        65.79999999999995
      ],
      [
        -0.6636982876807451,
        51.12562634982169,
        65.39999999999998
      ],
      [
        -0.6637168955057859,
        51.12554496154189,
        66.20000000000005
      ],
      [
        -0.6637584697455168,
        51.125473883002996,
        63
      ],
      [
        -0.6638163048774004,
        51.125424010679126,
        62.200000000000045
      ],
      [
        -0.6638263631612062,
        51.12541529349983,
        62.39999999999998
      ],
      [
        -0.6638395227491856,
        51.12540456466377,
        62
      ],
      [
        -0.663861483335495,
        51.125380424782634,
        61.39999999999998
      ],
      [
        -0.6639022193849087,
        51.12533876672387,
        62.60000000000002
      ],
      [
        -0.6639105174690485,
        51.125329714268446,
        62.60000000000002
      ],
      [
        -0.6639298796653748,
        51.125306747853756,
        62.60000000000002
      ],
      [
        -0.6639622338116169,
        51.12525042146444,
        63.60000000000002
      ],
      [
        -0.6639675982296467,
        51.12524203956127,
        63.799999999999955
      ],
      [
        -0.6639757286757231,
        51.12523332238197,
        64
      ],
      [
        -0.6639927439391613,
        51.125212367624044,
        65.20000000000005
      ],
      [
        -0.664011687040329,
        51.125182108953595,
        66.39999999999998
      ],
      [
        -0.6640106812119484,
        51.125173307955265,
        66.79999999999995
      ],
      [
        -0.6640075799077749,
        51.125163501128554,
        67.20000000000005
      ],
      [
        -0.6640012096613646,
        51.125154113397,
        67.39999999999998
      ],
      [
        -0.6639915704727173,
        51.12514464184642,
        67.79999999999995
      ],
      [
        -0.6639826856553555,
        51.12513089552522,
        68.39999999999998
      ],
      [
        -0.6639660056680441,
        51.125103486701846,
        69.20000000000005
      ],
      [
        -0.6639366690069437,
        51.125058056786656,
        69.39999999999998
      ],
      [
        -0.6639241799712181,
        51.125052105635405,
        69.20000000000005
      ],
      [
        -0.6635599862784147,
        51.12481296993792,
        68.60000000000002
      ],
      [
        -0.6634534522891045,
        51.12474096938968,
        69.60000000000002
      ],
      [
        -0.663170563057065,
        51.12456318922341,
        70.20000000000005
      ],
      [
        -0.6626647152006626,
        51.12424174323678,
        71.60000000000002
      ],
      [
        -0.6623037066310644,
        51.123987436294556,
        73.79999999999995
      ],
      [
        -0.6622509006410837,
        51.12394301220775,
        73.79999999999995
      ],
      [
        -0.6620837654918432,
        51.12381745129824,
        72.39999999999998
      ],
      [
        -0.6616112776100636,
        51.12347161397338,
        73.39999999999998
      ],
      [
        -0.6615403667092323,
        51.123423501849174,
        74.39999999999998
      ],
      [
        -0.6612910889089108,
        51.12322744913399,
        75.79999999999995
      ],
      [
        -0.661200899630785,
        51.1231407802552,
        75
      ],
      [
        -0.6609674636274576,
        51.122908014804125,
        72
      ],
      [
        -0.6609470117837191,
        51.12289468757808,
        71.79999999999995
      ],
      [
        -0.6608097162097692,
        51.12280324101448,
        71.79999999999995
      ],
      [
        -0.6605274137109518,
        51.122381715103984,
        67
      ],
      [
        -0.660335635766387,
        51.12214157357812,
        64.20000000000005
      ],
      [
        -0.6599732860922813,
        51.121754832565784,
        64
      ],
      [
        -0.6595967710018158,
        51.12137203104794,
        58
      ],
      [
        -0.6594013050198555,
        51.12124244682491,
        57.799999999999955
      ],
      [
        -0.6590584851801395,
        51.12109249457717,
        57.200000000000045
      ],
      [
        -0.6587150786072016,
        51.12101085484028,
        61.200000000000045
      ],
      [
        -0.6584906112402678,
        51.120927119627595,
        66
      ],
      [
        -0.6584518868476152,
        51.12092192284763,
        66.60000000000002
      ],
      [
        -0.6584412418305874,
        51.120920330286026,
        67
      ],
      [
        -0.6584153417497873,
        51.1209184024483,
        67.39999999999998
      ],
      [
        -0.6584153417497873,
        51.1209184024483,
        67.39999999999998
      ],
      [
        -0.6583359651267529,
        51.12092887982726,
        68.60000000000002
      ],
      [
        -0.6582511402666569,
        51.120931059122086,
        71.20000000000005
      ],
      [
        -0.6582090631127357,
        51.12092544324696,
        71.60000000000002
      ],
      [
        -0.6581954844295979,
        51.12092552706599,
        72
      ],
      [
        -0.6581148505210876,
        51.12092938274145,
        73
      ],
      [
        -0.6580920517444611,
        51.120922677218914,
        73
      ],
      [
        -0.6580780539661646,
        51.12091915681958,
        72.79999999999995
      ],
      [
        -0.6580553390085697,
        51.12091664224863,
        73.20000000000005
      ],
      [
        -0.6579914689064026,
        51.120910942554474,
        74.20000000000005
      ],
      [
        -0.6579800695180893,
        51.1209059972316,
        74.39999999999998
      ],
      [
        -0.6579694245010614,
        51.120904153212905,
        74.60000000000002
      ],
      [
        -0.6579493917524815,
        51.12089803442359,
        74.20000000000005
      ],
      [
        -0.6579409260302782,
        51.12089459784329,
        74.39999999999998
      ],
      [
        -0.6579345557838678,
        51.12088990397751,
        74.60000000000002
      ],
      [
        -0.6578996032476425,
        51.120873810723424,
        75.60000000000002
      ],
      [
        -0.6578529998660088,
        51.120864087715745,
        76.39999999999998
      ],
      [
        -0.6577492319047451,
        51.120844054967165,
        77
      ],
      [
        -0.6576919835060835,
        51.12082427367568,
        78.20000000000005
      ],
      [
        -0.6576283648610115,
        51.120795188471675,
        78.60000000000002
      ],
      [
        -0.6575256865471601,
        51.120735509321094,
        76.79999999999995
      ],
      [
        -0.6574447173625231,
        51.120702400803566,
        76
      ],
      [
        -0.6574089266359806,
        51.12069712020457,
        76.20000000000005
      ],
      [
        -0.6573944259434938,
        51.120690666139126,
        76
      ],
      [
        -0.6573811825364828,
        51.120676919817924,
        75.79999999999995
      ],
      [
        -0.6573732197284698,
        51.12066535279155,
        76
      ],
      [
        -0.6573645863682032,
        51.12065873108804,
        76.20000000000005
      ],
      [
        -0.6573538575321436,
        51.12065076828003,
        76.20000000000005
      ],
      [
        -0.6573426257818937,
        51.12064247019589,
        76.20000000000005
      ],
      [
        -0.6573277059942484,
        51.120636351406574,
        76.20000000000005
      ],
      [
        -0.6573147140443325,
        51.12062931060791,
        76.39999999999998
      ],
      [
        -0.6573074217885733,
        51.12062084488571,
        76.39999999999998
      ],
      [
        -0.6573025602847338,
        51.12061011604965,
        76.79999999999995
      ],
      [
        -0.6572937592864037,
        51.120606595650315,
        77.79999999999995
      ],
      [
        -0.6572878081351519,
        51.120605170726776,
        78
      ],
      [
        -0.6572726368904114,
        51.1206039134413,
        78.20000000000005
      ],
      [
        -0.6572935078293085,
        51.12061061896384,
        77.79999999999995
      ],
      [
        -0.6572921667248011,
        51.12061221152544,
        77.39999999999998
      ],
      [
        -0.6572909094393253,
        51.120612379163504,
        77.60000000000002
      ],
      [
        -0.6572891492396593,
        51.12061120569706,
        77.79999999999995
      ],
      [
        -0.6572677753865719,
        51.120577761903405,
        78.60000000000002
      ],
      [
        -0.6572196632623672,
        51.120538702234626,
        79.60000000000002
      ],
      [
        -0.6572085153311491,
        51.120532834902406,
        79.39999999999998
      ],
      [
        -0.6571527756750584,
        51.12049050629139,
        82
      ],
      [
        -0.657135508954525,
        51.120476089417934,
        82
      ],
      [
        -0.6570925936102867,
        51.120444405823946,
        82.60000000000002
      ],
      [
        -0.6570063438266516,
        51.12037072889507,
        82.60000000000002
      ],
      [
        -0.6567629333585501,
        51.120162857696414,
        79.79999999999995
      ],
      [
        -0.6567221134901047,
        51.12012413330376,
        80.60000000000002
      ],
      [
        -0.6567101273685694,
        51.12010560929775,
        80.79999999999995
      ],
      [
        -0.6565619353204966,
        51.11996931955218,
        81.79999999999995
      ],
      [
        -0.6565166730433702,
        51.11992958933115,
        82
      ],
      [
        -0.6564802955836058,
        51.11989388242364,
        82.20000000000005
      ],
      [
        -0.6564435828477144,
        51.11985272727907,
        82.20000000000005
      ],
      [
        -0.6564030982553959,
        51.11983763985336,
        82.79999999999995
      ],
      [
        -0.6563675589859486,
        51.1197938863188,
        82.60000000000002
      ],
      [
        -0.6563054490834475,
        51.119717778638005,
        82.39999999999998
      ],
      [
        -0.6562202051281929,
        51.119643766433,
        82.60000000000002
      ],
      [
        -0.6561032775789499,
        51.11952893435955,
        84.39999999999998
      ],
      [
        -0.6560547463595867,
        51.1194762121886,
        85.20000000000005
      ],
      [
        -0.6559646409004927,
        51.119388369843364,
        84.79999999999995
      ],
      [
        -0.655796667560935,
        51.119228610768914,
        85.20000000000005
      ],
      [
        -0.6556858588010073,
        51.119120232760906,
        83.79999999999995
      ],
      [
        -0.6556304544210434,
        51.11907798796892,
        84
      ],
      [
        -0.6556000281125307,
        51.119056697934866,
        84.60000000000002
      ],
      [
        -0.6555541791021824,
        51.11901453696191,
        84.79999999999995
      ],
      [
        -0.6555200647562742,
        51.118978913873434,
        85
      ],
      [
        -0.655128126963973,
        51.11859384924173,
        85
      ],
      [
        -0.6548832077533007,
        51.118371561169624,
        79.20000000000005
      ],
      [
        -0.654825372621417,
        51.118301739916205,
        78.79999999999995
      ],
      [
        -0.6543723307549953,
        51.11799906939268,
        78.20000000000005
      ],
      [
        -0.6536947377026081,
        51.11785917542875,
        73.60000000000002
      ],
      [
        -0.6531046517193317,
        51.11760704778135,
        70.20000000000005
      ],
      [
        -0.6525561399757862,
        51.11731309443712,
        68.79999999999995
      ],
      [
        -0.6523254700005054,
        51.11713891848922,
        69
      ],
      [
        -0.6522801239043474,
        51.11710681580007,
        69.79999999999995
      ],
      [
        -0.6521543115377426,
        51.1170069873333,
        69.39999999999998
      ],
      [
        -0.6519511342048645,
        51.116854939609766,
        67.79999999999995
      ],
      [
        -0.6520435027778149,
        51.11680087633431,
        67.20000000000005
      ],
      [
        -0.6520639546215534,
        51.11680397763848,
        65
      ],
      [
        -0.652043167501688,
        51.116802552714944,
        65
      ],
      [
        -0.6519830692559481,
        51.116791823878884,
        65.39999999999998
      ],
      [
        -0.6519681494683027,
        51.11678729765117,
        65.60000000000002
      ],
      [
        -0.651952475309372,
        51.11678084358573,
        65.79999999999995
      ],
      [
        -0.6519340351223946,
        51.11677355132997,
        65.60000000000002
      ],
      [
        -0.6518848333507776,
        51.116760140284896,
        65.39999999999998
      ],
      [
        -0.651808138936758,
        51.11672946251929,
        65.79999999999995
      ],
      [
        -0.6517399102449417,
        51.11669392324984,
        67
      ],
      [
        -0.6517078075557947,
        51.116681434214115,
        67.20000000000005
      ],
      [
        -0.6516695022583008,
        51.11667321994901,
        67.60000000000002
      ],
      [
        -0.6516503915190697,
        51.11666760407388,
        67.79999999999995
      ],
      [
        -0.6516303587704897,
        51.11666098237038,
        68
      ],
      [
        -0.6516132596880198,
        51.11665293574333,
        68
      ],
      [
        -0.6514740362763405,
        51.11657867208123,
        67.60000000000002
      ],
      [
        -0.65132693387568,
        51.11650197766721,
        68.39999999999998
      ],
      [
        -0.6512966752052307,
        51.11648429185152,
        68.60000000000002
      ],
      [
        -0.6512693502008915,
        51.11647163517773,
        68.79999999999995
      ],
      [
        -0.6512255966663361,
        51.116453194990754,
        69.20000000000005
      ],
      [
        -0.6511618103832006,
        51.11639929935336,
        68.20000000000005
      ],
      [
        -0.6511478126049042,
        51.1163470800966,
        67.39999999999998
      ],
      [
        -0.6511637382209301,
        51.11632260493934,
        66.60000000000002
      ],
      [
        -0.6512733735144138,
        51.116227470338345,
        66.20000000000005
      ],
      [
        -0.651505384594202,
        51.116006691008806,
        67.60000000000002
      ],
      [
        -0.6515203882008791,
        51.1159931961447,
        68
      ],
      [
        -0.651533380150795,
        51.11598246730864,
        68
      ],
      [
        -0.6516191270202398,
        51.115913819521666,
        67.60000000000002
      ],
      [
        -0.6516954861581326,
        51.11584232188761,
        67.39999999999998
      ],
      [
        -0.6521409004926682,
        51.1154870968312,
        69.39999999999998
      ],
      [
        -0.6522882543504238,
        51.11536589451134,
        74
      ],
      [
        -0.6524761766195297,
        51.114933639764786,
        67.20000000000005
      ],
      [
        -0.6524567306041718,
        51.114854430779815,
        65.60000000000002
      ],
      [
        -0.6524479296058416,
        51.11473205499351,
        69.39999999999998
      ],
      [
        -0.6524639390408993,
        51.1146738845855,
        72
      ],
      [
        -0.6524644419550896,
        51.11466223374009,
        72
      ],
      [
        -0.6524653639644384,
        51.11459685489535,
        73.60000000000002
      ],
      [
        -0.6524734105914831,
        51.114522675052285,
        74.39999999999998
      ],
      [
        -0.652477266266942,
        51.11449744552374,
        74.60000000000002
      ],
      [
        -0.6524910964071751,
        51.114448411390185,
        75.39999999999998
      ],
      [
        -0.6524989753961563,
        51.114421589300036,
        76.79999999999995
      ],
      [
        -0.6525249592959881,
        51.114302817732096,
        81.60000000000002
      ],
      [
        -0.652531161904335,
        51.114253951236606,
        81.79999999999995
      ],
      [
        -0.652548260986805,
        51.11408790573478,
        83.39999999999998
      ],
      [
        -0.6525521166622639,
        51.114042308181524,
        84.79999999999995
      ],
      [
        -0.6525645218789577,
        51.11401280388236,
        86.60000000000002
      ],
      [
        -0.6525698862969875,
        51.113992016762495,
        87.39999999999998
      ],
      [
        -0.6525697186589241,
        51.11384768038988,
        86.39999999999998
      ],
      [
        -0.6525182537734509,
        51.113552218303084,
        89.79999999999995
      ],
      [
        -0.652514984831214,
        51.11354727298021,
        90.20000000000005
      ],
      [
        -0.6525054294615984,
        51.11352958716452,
        90.39999999999998
      ],
      [
        -0.6524593289941549,
        51.11343193799257,
        93.39999999999998
      ],
      [
        -0.6524549704045057,
        51.113364631310105,
        93.20000000000005
      ],
      [
        -0.6524465885013342,
        51.11333697102964,
        92.79999999999995
      ],
      [
        -0.6524173356592655,
        51.11325214616954,
        86.39999999999998
      ],
      [
        -0.652399817481637,
        51.11322180368006,
        83.20000000000005
      ],
      [
        -0.6523701455444098,
        51.11311904154718,
        77.60000000000002
      ],
      [
        -0.6522843148559332,
        51.11287906765938,
        82.39999999999998
      ],
      [
        -0.6521481089293957,
        51.11280740238726,
        84
      ],
      [
        -0.6521369609981775,
        51.11279918812215,
        83.60000000000002
      ],
      [
        -0.6519618630409241,
        51.11269743181765,
        84
      ],
      [
        -0.6518525630235672,
        51.112601375207305,
        83.79999999999995
      ],
      [
        -0.6513530854135752,
        51.11234354786575,
        79.60000000000002
      ],
      [
        -0.6509538553655148,
        51.11228437162936,
        81.39999999999998
      ],
      [
        -0.6508796755224466,
        51.1123080085963,
        85.60000000000002
      ],
      [
        -0.6501546408981085,
        51.112360060214996,
        81.60000000000002
      ],
      [
        -0.6494304444640875,
        51.112399706617,
        81.60000000000002
      ],
      [
        -0.6488468963652849,
        51.1124271992594,
        83.20000000000005
      ],
      [
        -0.6481280643492937,
        51.11243742518127,
        84.39999999999998
      ],
      [
        -0.6479648686945438,
        51.11240406520665,
        83.60000000000002
      ],
      [
        -0.6476009264588356,
        51.112247155979276,
        82.60000000000002
      ],
      [
        -0.647260369732976,
        51.1120075173676,
        76.79999999999995
      ],
      [
        -0.647180825471878,
        51.11198144964874,
        76.20000000000005
      ],
      [
        -0.6471145246177912,
        51.111940294504166,
        76
      ],
      [
        -0.6465438008308411,
        51.111716497689486,
        76.79999999999995
      ],
      [
        -0.6463425513356924,
        51.11173032782972,
        76.39999999999998
      ],
      [
        -0.6460785213857889,
        51.11166059039533,
        76
      ],
      [
        -0.6457578297704458,
        51.111570820212364,
        77.79999999999995
      ],
      [
        -0.6451974995434284,
        51.111283488571644,
        79.20000000000005
      ],
      [
        -0.64460389316082,
        51.11103001981974,
        80.39999999999998
      ],
      [
        -0.6441651005297899,
        51.11083245836198,
        80.60000000000002
      ],
      [
        -0.6440351810306311,
        51.11075894907117,
        82.20000000000005
      ],
      [
        -0.643965695053339,
        51.110738245770335,
        80.39999999999998
      ],
      [
        -0.6439382024109364,
        51.11072391271591,
        80.39999999999998
      ],
      [
        -0.6435851566493511,
        51.11056507565081,
        79
      ],
      [
        -0.6429595313966274,
        51.110497852787375,
        84
      ],
      [
        -0.6422433815896511,
        51.1104204878211,
        83
      ],
      [
        -0.6415483541786671,
        51.110312696546316,
        78.39999999999998
      ],
      [
        -0.6408295221626759,
        51.110220830887556,
        75.79999999999995
      ],
      [
        -0.6401133723556995,
        51.11024161800742,
        77.20000000000005
      ],
      [
        -0.6398669444024563,
        51.11028905957937,
        76
      ],
      [
        -0.6396427284926176,
        51.110378662124276,
        75.79999999999995
      ],
      [
        -0.6390128284692764,
        51.11038478091359,
        77
      ],
      [
        -0.6388219725340605,
        51.11037983559072,
        77.39999999999998
      ],
      [
        -0.6380944233387709,
        51.11040037125349,
        71.20000000000005
      ],
      [
        -0.63737609423697,
        51.11046843230724,
        78.39999999999998
      ],
      [
        -0.6371421553194523,
        51.110500702634454,
        81.60000000000002
      ],
      [
        -0.6364412605762482,
        51.11058896407485,
        78.39999999999998
      ],
      [
        -0.6360403541475534,
        51.1106295324862,
        81.79999999999995
      ],
      [
        -0.6353442370891571,
        51.11072366125882,
        83.79999999999995
      ],
      [
        -0.6350874155759811,
        51.11076003871858,
        82.60000000000002
      ],
      [
        -0.63502530567348,
        51.11077135428786,
        81.60000000000002
      ],
      [
        -0.6345451902598143,
        51.11076833680272,
        79
      ],
      [
        -0.6338287051767111,
        51.11081167124212,
        75.60000000000002
      ],
      [
        -0.6331259664148092,
        51.110877469182014,
        59
      ],
      [
        -0.6330754235386848,
        51.11087872646749,
        57
      ],
      [
        -0.632829749956727,
        51.11087344586849,
        54.200000000000045
      ],
      [
        -0.6327860802412033,
        51.11087101511657,
        54
      ],
      [
        -0.6325806397944689,
        51.110866237431765,
        55.39999999999998
      ],
      [
        -0.6325436756014824,
        51.11086665652692,
        54.799999999999955
      ],
      [
        -0.6324452720582485,
        51.11087084747851,
        54.799999999999955
      ],
      [
        -0.6317222490906715,
        51.11081561073661,
        55.799999999999955
      ],
      [
        -0.6314404495060444,
        51.11078669317067,
        48.200000000000045
      ],
      [
        -0.6313756573945284,
        51.11078694462776,
        47.200000000000045
      ],
      [
        -0.6306689791381359,
        51.110812928527594,
        41.799999999999955
      ],
      [
        -0.6299688387662172,
        51.11069390550256,
        49
      ],
      [
        -0.6296227499842644,
        51.11031638458371,
        47.799999999999955
      ],
      [
        -0.6295867078006268,
        51.11022401601076,
        46.799999999999955
      ],
      [
        -0.6295271962881088,
        51.11004313454032,
        44.799999999999955
      ],
      [
        -0.6295149587094784,
        51.10992821864784,
        44.200000000000045
      ],
      [
        -0.6295238435268402,
        51.10990282148123,
        43.39999999999998
      ],
      [
        -0.6294763181358576,
        51.10987935215235,
        43.200000000000045
      ],
      [
        -0.6291360128670931,
        51.10979444347322,
        41.799999999999955
      ],
      [
        -0.6291263736784458,
        51.10980022698641,
        41.39999999999998
      ],
      [
        -0.6292584724724293,
        51.109577771276236,
        33.39999999999998
      ],
      [
        -0.6294736359268427,
        51.10952127724886,
        27
      ],
      [
        -0.6294849514961243,
        51.109528904780746,
        23
      ],
      [
        -0.6295575387775898,
        51.109523456543684,
        20.200000000000045
      ],
      [
        -0.6295313034206629,
        51.10951507464051,
        9.800000000000011
      ],
      [
        -0.6292071752250195,
        51.109675504267216,
        -1.8000000000000114
      ],
      [
        -0.62927414663136,
        51.10958179458976,
        14.200000000000045
      ],
      [
        -0.6293067522346973,
        51.109582632780075,
        16.399999999999977
      ],
      [
        -0.6293087638914585,
        51.109599312767386,
        32.39999999999998
      ],
      [
        -0.6293054949492216,
        51.10958539880812,
        56.200000000000045
      ],
      [
        -0.6294253561645746,
        51.10960325226188,
        62.39999999999998
      ],
      [
        -0.6294137053191662,
        51.10954784788191,
        63.200000000000045
      ],
      [
        -0.6294380128383636,
        51.109512308612466,
        59
      ],
      [
        -0.6292981188744307,
        51.109512308612466,
        50.200000000000045
      ],
      [
        -0.6290829554200172,
        51.109635438770056,
        36.200000000000045
      ],
      [
        -0.6290650181472301,
        51.10963610932231,
        35.799999999999955
      ],
      [
        -0.6290199235081673,
        51.10964700579643,
        32
      ],
      [
        -0.6290314067155123,
        51.10965027473867,
        34.200000000000045
      ],
      [
        -0.6289557181298733,
        51.10970291309059,
        26.799999999999955
      ],
      [
        -0.6289106234908104,
        51.10971640795469,
        24.200000000000045
      ],
      [
        -0.6289863120764494,
        51.10971095971763,
        27
      ],
      [
        -0.6289662793278694,
        51.109730741009116,
        27.200000000000045
      ],
      [
        -0.6289290636777878,
        51.10974851064384,
        26
      ],
      [
        -0.6289290636777878,
        51.10977918840945,
        21.200000000000045
      ],
      [
        -0.6289199274033308,
        51.109697967767715,
        6.800000000000011
      ],
      [
        -0.6288625113666058,
        51.10970987007022,
        1.3999999999999773
      ],
      [
        -0.6290292274206877,
        51.10976644791663,
        20.600000000000023
      ],
      [
        -0.6290452368557453,
        51.10977290198207,
        22.399999999999977
      ],
      [
        -0.6290623359382153,
        51.10978371463716,
        29.399999999999977
      ],
      [
        -0.6291491724550724,
        51.10969268716872,
        39.39999999999998
      ],
      [
        -0.6291562970727682,
        51.10968732275069,
        40.799999999999955
      ],
      [
        -0.6291727256029844,
        51.10969344154,
        41.799999999999955
      ],
      [
        -0.6290631741285324,
        51.10964683815837,
        44.60000000000002
      ],
      [
        -0.6292537786066532,
        51.10962227918208,
        45.200000000000045
      ],
      [
        -0.6292034033685923,
        51.10961213707924,
        44.39999999999998
      ],
      [
        -0.6291915848851204,
        51.10961155034602,
        44
      ],
      [
        -0.6290700472891331,
        51.10969142988324,
        39.39999999999998
      ],
      [
        -0.6295196525752544,
        51.10977047123015,
        59.799999999999955
      ],
      [
        -0.6295394338667393,
        51.109799137338996,
        55
      ],
      [
        -0.6294071674346924,
        51.10969444736838,
        53
      ],
      [
        -0.629272973164916,
        51.10958975739777,
        54.39999999999998
      ],
      [
        -0.6292063370347023,
        51.10960643738508,
        45
      ],
      [
        -0.6292909104377031,
        51.10966167412698,
        55
      ],
      [
        -0.6292027328163385,
        51.109646586701274,
        55
      ],
      [
        -0.6292177364230156,
        51.10966552980244,
        53.799999999999955
      ],
      [
        -0.629240870475769,
        51.10966267995536,
        53.60000000000002
      ],
      [
        -0.6291855499148369,
        51.10964834690094,
        52.60000000000002
      ],
      [
        -0.6291257869452238,
        51.109665697440505,
        52
      ],
      [
        -0.6292392779141665,
        51.10974155366421,
        39.200000000000045
      ],
      [
        -0.6291930936276913,
        51.10974591225386,
        38.60000000000002
      ],
      [
        -0.6291670259088278,
        51.10975035466254,
        38.39999999999998
      ],
      [
        -0.6291347555816174,
        51.10975136049092,
        36.799999999999955
      ],
      [
        -0.6291838735342026,
        51.10969972796738,
        33.799999999999955
      ],
      [
        -0.6291904952377081,
        51.109695537015796,
        33.39999999999998
      ],
      [
        -0.6293298024684191,
        51.109577687457204,
        20.799999999999955
      ],
      [
        -0.6293668504804373,
        51.10955270938575,
        18.600000000000023
      ],
      [
        -0.6292483303695917,
        51.109623201191425,
        29
      ],
      [
        -0.643039159476757,
        51.10544767230749,
        64
      ],
      [
        -0.6430503074079752,
        51.105482541024685,
        72.39999999999998
      ],
      [
        -0.643173772841692,
        51.10554054379463,
        70.60000000000002
      ],
      [
        -0.643805181607604,
        51.10574388876557,
        64.79999999999995
      ],
      [
        -0.6441573053598404,
        51.10585805028677,
        58.39999999999998
      ],
      [
        -0.6446610577404499,
        51.106137251481414,
        51.200000000000045
      ],
      [
        -0.6445427052676678,
        51.106250155717134,
        53.39999999999998
      ],
      [
        -0.6444007158279419,
        51.10644930973649,
        55.39999999999998
      ],
      [
        -0.644386550411582,
        51.1064572725445,
        55.39999999999998
      ],
      [
        -0.6442821957170963,
        51.106542432680726,
        55.60000000000002
      ],
      [
        -0.6443262007087469,
        51.106596160680056,
        55.799999999999955
      ],
      [
        -0.6443708762526512,
        51.10665977932513,
        57
      ],
      [
        -0.6445132847875357,
        51.10679908655584,
        58.799999999999955
      ],
      [
        -0.6445666775107384,
        51.10684317536652,
        59.200000000000045
      ],
      [
        -0.644580340012908,
        51.106860525906086,
        59.200000000000045
      ],
      [
        -0.6446181423962116,
        51.10689237713814,
        59.39999999999998
      ],
      [
        -0.6446417793631554,
        51.106911739334464,
        59.60000000000002
      ],
      [
        -0.6446687690913677,
        51.10693143680692,
        59.60000000000002
      ],
      [
        -0.6446908134967089,
        51.10695163719356,
        59.60000000000002
      ],
      [
        -0.6447030510753393,
        51.10696244984865,
        59.60000000000002
      ],
      [
        -0.6447272747755051,
        51.10698156058788,
        59.60000000000002
      ],
      [
        -0.6447272747755051,
        51.10698156058788,
        59.60000000000002
      ],
      [
        -0.6449268478900194,
        51.10717392526567,
        59.799999999999955
      ],
      [
        -0.6449584476649761,
        51.10718381591141,
        60
      ],
      [
        -0.6451006047427654,
        51.10717048868537,
        60.39999999999998
      ],
      [
        -0.6452233158051968,
        51.107160933315754,
        61
      ],
      [
        -0.6453521456569433,
        51.10714207403362,
        61.200000000000045
      ],
      [
        -0.6456328555941582,
        51.10720091499388,
        60.60000000000002
      ],
      [
        -0.6458580773323774,
        51.107193287461996,
        60.60000000000002
      ],
      [
        -0.6460728216916323,
        51.107210386544466,
        58.799999999999955
      ],
      [
        -0.6460432335734367,
        51.10721482895315,
        57.60000000000002
      ],
      [
        -0.6460432335734367,
        51.10721482895315,
        57.60000000000002
      ],
      [
        -0.6460324209183455,
        51.10721290111542,
        57.39999999999998
      ],
      [
        -0.64603166654706,
        51.10720233991742,
        57.200000000000045
      ],
      [
        -0.6460489332675934,
        51.10719689168036,
        57
      ],
      [
        -0.6460489332675934,
        51.10719689168036,
        57
      ],
      [
        -0.6460802815854549,
        51.10718708485365,
        56.60000000000002
      ],
      [
        -0.646094111725688,
        51.10718264244497,
        56.799999999999955
      ],
      [
        -0.6461544614285231,
        51.107183983549476,
        56.200000000000045
      ],
      [
        -0.6462226901203394,
        51.1071084626019,
        53.200000000000045
      ],
      [
        -0.6462418008595705,
        51.1070965602994,
        53.60000000000002
      ],
      [
        -0.6462688744068146,
        51.10705951228738,
        52.200000000000045
      ],
      [
        -0.6463218480348587,
        51.1070222966373,
        52.39999999999998
      ],
      [
        -0.6463977880775928,
        51.10698935575783,
        54.200000000000045
      ],
      [
        -0.6464066728949547,
        51.10698491334915,
        54.200000000000045
      ],
      [
        -0.6464982032775879,
        51.106944093480706,
        54.39999999999998
      ],
      [
        -0.6465323176234961,
        51.10693604685366,
        55.200000000000045
      ],
      [
        -0.6465555354952812,
        51.10692758113146,
        56.39999999999998
      ],
      [
        -0.6465730536729097,
        51.10692682676017,
        57.39999999999998
      ],
      [
        -0.6465735565871,
        51.10692749731243,
        57.39999999999998
      ],
      [
        -0.6466054078191519,
        51.10692171379924,
        56.39999999999998
      ],
      [
        -0.6466372590512037,
        51.10689447261393,
        56.200000000000045
      ],
      [
        -0.6466510891914368,
        51.1068650521338,
        55.60000000000002
      ],
      [
        -0.6466608960181475,
        51.10685247927904,
        55.799999999999955
      ],
      [
        -0.6466624885797501,
        51.10684510320425,
        56
      ],
      [
        -0.646672211587429,
        51.106828255578876,
        56.39999999999998
      ],
      [
        -0.6466697808355093,
        51.10681610181928,
        57.60000000000002
      ],
      [
        -0.6466613989323378,
        51.10679523088038,
        58.60000000000002
      ],
      [
        -0.6466558668762445,
        51.10677134245634,
        60
      ],
      [
        -0.6466513406485319,
        51.106763798743486,
        60.39999999999998
      ],
      [
        -0.6466485746204853,
        51.1067580152303,
        61
      ],
      [
        -0.6466533523052931,
        51.10674820840359,
        62
      ],
      [
        -0.6466533523052931,
        51.10674820840359,
        62
      ],
      [
        -0.6466551125049591,
        51.10674250870943,
        62
      ],
      [
        -0.6466556992381811,
        51.10673806630075,
        61.799999999999955
      ],
      [
        -0.646660141646862,
        51.10673429444432,
        61.799999999999955
      ],
      [
        -0.6466673500835896,
        51.10672532580793,
        61.60000000000002
      ],
      [
        -0.6466687750071287,
        51.1067215539515,
        62
      ],
      [
        -0.646670451387763,
        51.106722224503756,
        62.200000000000045
      ],
      [
        -0.6466763187199831,
        51.10672147013247,
        61.200000000000045
      ],
      [
        -0.6467015482485294,
        51.10670085065067,
        60.60000000000002
      ],
      [
        -0.6467132829129696,
        51.10667637549341,
        59.799999999999955
      ],
      [
        -0.6467603053897619,
        51.10664955340326,
        61
      ],
      [
        -0.6467759795486927,
        51.10664083622396,
        61.39999999999998
      ],
      [
        -0.6467898096889257,
        51.10664167441428,
        63.60000000000002
      ],
      [
        -0.6467922404408455,
        51.10664242878556,
        63.799999999999955
      ],
      [
        -0.6468016281723976,
        51.10663647763431,
        63.799999999999955
      ],
      [
        -0.6468052323907614,
        51.10663454979658,
        63.799999999999955
      ],
      [
        -0.6468090880662203,
        51.10662566497922,
        63.60000000000002
      ],
      [
        -0.6468131951987743,
        51.1066163610667,
        63.799999999999955
      ],
      [
        -0.6468158774077892,
        51.10658350400627,
        65.20000000000005
      ],
      [
        -0.6468276958912611,
        51.10656162723899,
        66
      ],
      [
        -0.6469965074211359,
        51.10645425505936,
        68.39999999999998
      ],
      [
        -0.6470450386404991,
        51.10643606632948,
        68.39999999999998
      ],
      [
        -0.64711251296103,
        51.10642575658858,
        69
      ],
      [
        -0.6471715215593576,
        51.1064247507602,
        68
      ],
      [
        -0.6472882814705372,
        51.10642827115953,
        66.60000000000002
      ],
      [
        -0.6474296003580093,
        51.106411926448345,
        70
      ],
      [
        -0.6475502997636795,
        51.10640471801162,
        70.79999999999995
      ],
      [
        -0.6479393038898706,
        51.10635777935386,
        70
      ],
      [
        -0.6481275614351034,
        51.106312684714794,
        68.20000000000005
      ],
      [
        -0.6487339083105326,
        51.106223249807954,
        71.39999999999998
      ],
      [
        -0.6494546681642532,
        51.10620413906872,
        71.39999999999998
      ],
      [
        -0.6499378010630608,
        51.106230206787586,
        70.20000000000005
      ],
      [
        -0.6500274036079645,
        51.106245797127485,
        70
      ],
      [
        -0.6500681396573782,
        51.10625141300261,
        69.79999999999995
      ],
      [
        -0.6500864122062922,
        51.106255017220974,
        70
      ],
      [
        -0.650127986446023,
        51.106260465458035,
        70
      ],
      [
        -0.650127986446023,
        51.106260465458035,
        70
      ],
      [
        -0.6501658726483583,
        51.10626507550478,
        70.20000000000005
      ],
      [
        -0.6501807924360037,
        51.106270272284746,
        70.20000000000005
      ],
      [
        -0.6502183433622122,
        51.10627127811313,
        69.20000000000005
      ],
      [
        -0.6502384599298239,
        51.106271697208285,
        69.39999999999998
      ],
      [
        -0.6503434013575315,
        51.10629189759493,
        68.79999999999995
      ],
      [
        -0.6503757555037737,
        51.10630262643099,
        68.60000000000002
      ],
      [
        -0.6504053436219692,
        51.10630891285837,
        68.39999999999998
      ],
      [
        -0.6504402961581945,
        51.10631695948541,
        68
      ],
      [
        -0.6506868917495012,
        51.10632366500795,
        68.79999999999995
      ],
      [
        -0.6510638259351254,
        51.10627588815987,
        70.60000000000002
      ],
      [
        -0.6513462122529745,
        51.106235571205616,
        72
      ],
      [
        -0.6514778919517994,
        51.10623330809176,
        72.20000000000005
      ],
      [
        -0.6518556643277407,
        51.106221321970224,
        74.20000000000005
      ],
      [
        -0.6523193512111902,
        51.10621964558959,
        76
      ],
      [
        -0.6530404463410378,
        51.10618201084435,
        77.60000000000002
      ],
      [
        -0.6537578534334898,
        51.10614923760295,
        78.20000000000005
      ],
      [
        -0.6544782780110836,
        51.10614194534719,
        72.79999999999995
      ],
      [
        -0.6545388791710138,
        51.10613943077624,
        73.20000000000005
      ],
      [
        -0.6549982912838459,
        51.106118224561214,
        70.79999999999995
      ],
      [
        -0.655063921585679,
        51.10603650100529,
        68.60000000000002
      ],
      [
        -0.6550834514200687,
        51.10579828731716,
        69.39999999999998
      ],
      [
        -0.6552050728350878,
        51.10535421408713,
        70.39999999999998
      ],
      [
        -0.6553945038467646,
        51.10491760075092,
        70.79999999999995
      ],
      [
        -0.655578151345253,
        51.104562962427735,
        69.39999999999998
      ],
      [
        -0.6556440331041813,
        51.104379734024405,
        70.39999999999998
      ],
      [
        -0.65597721375525,
        51.10398209653795,
        67.60000000000002
      ],
      [
        -0.6561378110200167,
        51.10381915234029,
        66.39999999999998
      ],
      [
        -0.6561471987515688,
        51.10380792059004,
        66.20000000000005
      ],
      [
        -0.656176870688796,
        51.103776236996055,
        66
      ],
      [
        -0.6562652997672558,
        51.10366450622678,
        66.20000000000005
      ],
      [
        -0.6563413236290216,
        51.10356383956969,
        66.39999999999998
      ],
      [
        -0.6564298365265131,
        51.10345596447587,
        66.60000000000002
      ],
      [
        -0.6567466724663973,
        51.10305245965719,
        66.20000000000005
      ],
      [
        -0.6571038253605366,
        51.10265792347491,
        67.79999999999995
      ],
      [
        -0.6573863793164492,
        51.10236053355038,
        64.20000000000005
      ],
      [
        -0.6574160512536764,
        51.102347038686275,
        65.20000000000005
      ],
      [
        -0.657738670706749,
        51.101947305724025,
        61
      ],
      [
        -0.6578424386680126,
        51.10182400792837,
        58.39999999999998
      ],
      [
        -0.6578427739441395,
        51.10182451084256,
        58.60000000000002
      ],
      [
        -0.6578427739441395,
        51.10182451084256,
        58.60000000000002
      ],
      [
        -0.6578450370579958,
        51.1018259357661,
        59.200000000000045
      ],
      [
        -0.6578675005584955,
        51.10182140953839,
        58.60000000000002
      ],
      [
        -0.6579234078526497,
        51.101801209151745,
        58.39999999999998
      ],
      [
        -0.6579893734306097,
        51.10178276896477,
        57.799999999999955
      ],
      [
        -0.6581682432442904,
        51.10173013061285,
        57.39999999999998
      ],
      [
        -0.658285254612565,
        51.10169601626694,
        55.39999999999998
      ],
      [
        -0.6584036909043789,
        51.101676151156425,
        56
      ],
      [
        -0.6585114821791649,
        51.1016721278429,
        55.799999999999955
      ],
      [
        -0.6592267099767923,
        51.10169241204858,
        54.60000000000002
      ],
      [
        -0.6597654987126589,
        51.10171219334006,
        56.799999999999955
      ],
      [
        -0.6598887965083122,
        51.10154732130468,
        49
      ],
      [
        -0.6597905606031418,
        51.10173691995442,
        52.39999999999998
      ],
      [
        -0.6598366610705853,
        51.101837335154414,
        54.200000000000045
      ],
      [
        -0.6605100631713867,
        51.10191964544356,
        59.60000000000002
      ],
      [
        -0.6606430001556873,
        51.10190656967461,
        61.39999999999998
      ],
      [
        -0.6609340198338032,
        51.10189366154373,
        63
      ],
      [
        -0.6615532748401165,
        51.10195191577077,
        62.200000000000045
      ],
      [
        -0.6622649822384119,
        51.10201628878713,
        64.39999999999998
      ],
      [
        -0.6628165114670992,
        51.10206054523587,
        70.39999999999998
      ],
      [
        -0.6630719918757677,
        51.10210304148495,
        71.20000000000005
      ],
      [
        -0.6632713135331869,
        51.10205987468362,
        69.60000000000002
      ],
      [
        -0.6639551930129528,
        51.10197588801384,
        71.20000000000005
      ],
      [
        -0.6641271058470011,
        51.1019469704479,
        69.20000000000005
      ],
      [
        -0.6640626490116119,
        51.10184630379081,
        69
      ],
      [
        -0.6641007028520107,
        51.10172443091869,
        68
      ],
      [
        -0.6641644053161144,
        51.10159870237112,
        67.79999999999995
      ],
      [
        -0.6642423570156097,
        51.10133425332606,
        68
      ],
      [
        -0.6643308699131012,
        51.10088682733476,
        66.39999999999998
      ],
      [
        -0.664359200745821,
        51.10070787370205,
        66.20000000000005
      ],
      [
        -0.6643560156226158,
        51.10068851150572,
        66.39999999999998
      ],
      [
        -0.6643741205334663,
        51.100651044398546,
        66.79999999999995
      ],
      [
        -0.6643607933074236,
        51.100628999993205,
        66.79999999999995
      ],
      [
        -0.6644240766763687,
        51.1005206219852,
        66.20000000000005
      ],
      [
        -0.6645135954022408,
        51.10039179213345,
        65.60000000000002
      ],
      [
        -0.6648440100252628,
        51.10008887015283,
        62.39999999999998
      ],
      [
        -0.6651543080806732,
        51.10000362619758,
        64.20000000000005
      ],
      [
        -0.6653353571891785,
        51.09996649436653,
        69.79999999999995
      ],
      [
        -0.6656765844672918,
        51.09991201199591,
        75
      ],
      [
        -0.6658389419317245,
        51.09983271919191,
        71.60000000000002
      ],
      [
        -0.6663176324218512,
        51.09967748634517,
        63.799999999999955
      ],
      [
        -0.6665680836886168,
        51.09960615634918,
        61.60000000000002
      ],
      [
        -0.666727339848876,
        51.09954295679927,
        60.60000000000002
      ],
      [
        -0.6668185349553823,
        51.09948445111513,
        62.200000000000045
      ],
      [
        -0.666891960427165,
        51.099447486922145,
        63.60000000000002
      ],
      [
        -0.6670233886688948,
        51.09939149580896,
        60.60000000000002
      ],
      [
        -0.6673579942435026,
        51.09921027906239,
        63.60000000000002
      ],
      [
        -0.6678141374140978,
        51.09907382167876,
        61.60000000000002
      ],
      [
        -0.6680676061660051,
        51.09891280531883,
        63.60000000000002
      ],
      [
        -0.6685079913586378,
        51.098573841154575,
        79
      ],
      [
        -0.6690073013305664,
        51.09859077259898,
        78.79999999999995
      ],
      [
        -0.6690119113773108,
        51.09859211370349,
        79
      ],
      [
        -0.6690196227282286,
        51.09859353862703,
        79.39999999999998
      ],
      [
        -0.6690135877579451,
        51.09860175289214,
        79.60000000000002
      ],
      [
        -0.6690091453492641,
        51.09860586002469,
        80.39999999999998
      ],
      [
        -0.669008307158947,
        51.09859814867377,
        79.79999999999995
      ],
      [
        -0.6690640468150377,
        51.09856830909848,
        76.79999999999995
      ],
      [
        -0.669074859470129,
        51.098565962165594,
        76
      ],
      [
        -0.6691138353198767,
        51.098532769829035,
        73.39999999999998
      ],
      [
        -0.6691543199121952,
        51.098495637997985,
        71.79999999999995
      ],
      [
        -0.669162617996335,
        51.09849354252219,
        72.20000000000005
      ],
      [
        -0.669177956879139,
        51.09848792664707,
        72.60000000000002
      ],
      [
        -0.6691864226013422,
        51.09848524443805,
        72.60000000000002
      ],
      [
        -0.6693075411021709,
        51.098467726260424,
        73.39999999999998
      ],
      [
        -0.6693160068243742,
        51.098471162840724,
        72.79999999999995
      ],
      [
        -0.6693589221686125,
        51.098485831171274,
        72.79999999999995
      ],
      [
        -0.6694191880524158,
        51.09848071821034,
        71.20000000000005
      ],
      [
        -0.6694725807756186,
        51.09846009872854,
        70.60000000000002
      ],
      [
        -0.6697314977645874,
        51.09834962524474,
        69.60000000000002
      ],
      [
        -0.6697629299014807,
        51.098338812589645,
        69.79999999999995
      ],
      [
        -0.6697855610400438,
        51.098322216421366,
        70.60000000000002
      ],
      [
        -0.6698678713291883,
        51.098286509513855,
        70.79999999999995
      ],
      [
        -0.6699140556156635,
        51.09827519394457,
        69.79999999999995
      ],
      [
        -0.6699464097619057,
        51.09825801104307,
        69.60000000000002
      ],
      [
        -0.6699994672089815,
        51.098258597776294,
        69.39999999999998
      ],
      [
        -0.6706267688423395,
        51.09804796054959,
        70
      ],
      [
        -0.6707478035241365,
        51.09803320840001,
        72.79999999999995
      ],
      [
        -0.670763561502099,
        51.09802633523941,
        73.39999999999998
      ],
      [
        -0.6707925628870726,
        51.098022647202015,
        74.20000000000005
      ],
      [
        -0.6707925628870726,
        51.098022647202015,
        74.20000000000005
      ],
      [
        -0.6708163674920797,
        51.09800906851888,
        75
      ],
      [
        -0.670829527080059,
        51.09800571575761,
        75.39999999999998
      ],
      [
        -0.6708533316850662,
        51.09799423255026,
        75.60000000000002
      ],
      [
        -0.6709058023989201,
        51.09798585064709,
        75.79999999999995
      ],
      [
        -0.6709369830787182,
        51.09798140823841,
        75.79999999999995
      ],
      [
        -0.6709519028663635,
        51.097980570048094,
        76
      ],
      [
        -0.67099180072546,
        51.09796623699367,
        76.20000000000005
      ],
      [
        -0.6710487976670265,
        51.09794125892222,
        77.20000000000005
      ],
      [
        -0.6711043696850538,
        51.097929859533906,
        77.39999999999998
      ],
      [
        -0.6712078861892223,
        51.09790773130953,
        76.79999999999995
      ],
      [
        -0.6712419167160988,
        51.09789834357798,
        76.39999999999998
      ],
      [
        -0.6713230535387993,
        51.09786766581237,
        75.60000000000002
      ],
      [
        -0.6714570801705122,
        51.09783656895161,
        75.20000000000005
      ],
      [
        -0.6715133227407932,
        51.09782014042139,
        74.79999999999995
      ],
      [
        -0.6715675536543131,
        51.09780362807214,
        72.79999999999995
      ],
      [
        -0.6716036796569824,
        51.09780153259635,
        71.39999999999998
      ],
      [
        -0.6716431584209204,
        51.097811507061124,
        74.39999999999998
      ],
      [
        -0.6716582458466291,
        51.09781628474593,
        74.79999999999995
      ],
      [
        -0.671660928055644,
        51.09781192615628,
        75
      ],
      [
        -0.6716692261397839,
        51.09780605882406,
        74.20000000000005
      ],
      [
        -0.6716680526733398,
        51.09780530445278,
        74.39999999999998
      ],
      [
        -0.6716787815093994,
        51.09780480153859,
        75.39999999999998
      ],
      [
        -0.671690683811903,
        51.09781946986914,
        77
      ],
      [
        -0.6716735847294331,
        51.097815949469805,
        78.39999999999998
      ],
      [
        -0.6716680526733398,
        51.097819888964295,
        79.20000000000005
      ],
      [
        -0.6716670468449593,
        51.097818464040756,
        80.20000000000005
      ],
      [
        -0.6716708187013865,
        51.097813518717885,
        79.39999999999998
      ],
      [
        -0.6716835591942072,
        51.09780781902373,
        79
      ],
      [
        -0.6718326732516289,
        51.09772031195462,
        76.60000000000002
      ],
      [
        -0.6718505267053843,
        51.09770421870053,
        76.20000000000005
      ],
      [
        -0.671860920265317,
        51.09769986011088,
        76.20000000000005
      ],
      [
        -0.6718786060810089,
        51.09768535941839,
        76
      ],
      [
        -0.6718786060810089,
        51.09768535941839,
        76
      ],
      [
        -0.671906853094697,
        51.09767488203943,
        75.79999999999995
      ],
      [
        -0.671906853094697,
        51.09767488203943,
        75.79999999999995
      ],
      [
        -0.6719473376870155,
        51.09767337329686,
        76.60000000000002
      ],
      [
        -0.6719464156776667,
        51.09766440466046,
        77.20000000000005
      ],
      [
        -0.6719578988850117,
        51.09766440466046,
        78.39999999999998
      ],
      [
        -0.6721458211541176,
        51.09762945212424,
        80.20000000000005
      ],
      [
        -0.6722308974713087,
        51.09760967083275,
        78.20000000000005
      ],
      [
        -0.6722983717918396,
        51.09758502803743,
        76
      ],
      [
        -0.6724003795534372,
        51.09755678102374,
        74
      ],
      [
        -0.6726138666272163,
        51.09748444519937,
        74.39999999999998
      ],
      [
        -0.6726250983774662,
        51.09747706912458,
        74.20000000000005
      ],
      [
        -0.6732385698705912,
        51.09721806831658,
        81.79999999999995
      ],
      [
        -0.6737647019326687,
        51.09692302532494,
        80.39999999999998
      ],
      [
        -0.6741449050605297,
        51.09671322628856,
        79.79999999999995
      ],
      [
        -0.6742065958678722,
        51.096640303730965,
        83.60000000000002
      ],
      [
        -0.6743691209703684,
        51.096518682315946,
        82
      ],
      [
        -0.6748259346932173,
        51.096257753670216,
        80.39999999999998
      ],
      [
        -0.6748753041028976,
        51.096235206350684,
        80.60000000000002
      ],
      [
        -0.674902880564332,
        51.096216682344675,
        80.79999999999995
      ],
      [
        -0.675270427018404,
        51.09608307480812,
        81.39999999999998
      ],
      [
        -0.6758591718971729,
        51.095835054293275,
        80.20000000000005
      ],
      [
        -0.6759900134056807,
        51.09579079784453,
        80.60000000000002
      ],
      [
        -0.6760092917829752,
        51.09578300267458,
        80.60000000000002
      ],
      [
        -0.6760271452367306,
        51.09577629715204,
        80.60000000000002
      ],
      [
        -0.676196962594986,
        51.0957301966846,
        81
      ],
      [
        -0.6764086056500673,
        51.09566221944988,
        81.79999999999995
      ],
      [
        -0.6764821987599134,
        51.09564755111933,
        82.20000000000005
      ],
      [
        -0.6769056525081396,
        51.095519391819835,
        85.79999999999995
      ],
      [
        -0.6769136991351843,
        51.09547379426658,
        86
      ],
      [
        -0.6769302114844322,
        51.09541101381183,
        86
      ],
      [
        -0.6769852805882692,
        51.095389891415834,
        83.60000000000002
      ],
      [
        -0.677110506221652,
        51.0953276976943,
        81.39999999999998
      ],
      [
        -0.6775275897234678,
        51.095211524516344,
        81.79999999999995
      ],
      [
        -0.6775686610490084,
        51.09520431607962,
        82.39999999999998
      ],
      [
        -0.6776583474129438,
        51.09518981538713,
        82.79999999999995
      ],
      [
        -0.677803186699748,
        51.09515704214573,
        84
      ],
      [
        -0.6778585910797119,
        51.09514765441418,
        84
      ],
      [
        -0.678080627694726,
        51.09508805908263,
        80.79999999999995
      ],
      [
        -0.6780980620533228,
        51.09486442990601,
        77
      ],
      [
        -0.6782854814082384,
        51.09442077577114,
        83.20000000000005
      ],
      [
        -0.6786640081554651,
        51.09402783215046,
        84.39999999999998
      ],
      [
        -0.6788075901567936,
        51.093887351453304,
        86
      ],
      [
        -0.6788177322596312,
        51.09387285076082,
        85.79999999999995
      ],
      [
        -0.6792477238923311,
        51.0937631316483,
        82
      ],
      [
        -0.6799535639584064,
        51.093724155798554,
        82
      ],
      [
        -0.680049704387784,
        51.09370085410774,
        83
      ],
      [
        -0.6803486030548811,
        51.093646958470345,
        80.20000000000005
      ],
      [
        -0.680394871160388,
        51.09362390823662,
        80.20000000000005
      ],
      [
        -0.6808680295944214,
        51.09328955411911,
        92.60000000000002
      ],
      [
        -0.6809698697179556,
        51.09314991161227,
        96.60000000000002
      ],
      [
        -0.6810141261667013,
        51.09314102679491,
        94.60000000000002
      ],
      [
        -0.6810716260224581,
        51.09309668652713,
        93.79999999999995
      ],
      [
        -0.681528439745307,
        51.09276828356087,
        89.20000000000005
      ],
      [
        -0.6818067189306021,
        51.092635011300445,
        89.39999999999998
      ],
      [
        -0.6821425817906857,
        51.09247248619795,
        88.39999999999998
      ],
      [
        -0.682640802115202,
        51.092134192585945,
        93.20000000000005
      ],
      [
        -0.6828428898006678,
        51.09195574186742,
        93.39999999999998
      ],
      [
        -0.682912627235055,
        51.091863457113504,
        96.39999999999998
      ],
      [
        -0.6830499228090048,
        51.09175574965775,
        96.60000000000002
      ],
      [
        -0.6836939882487059,
        51.09155600890517,
        93
      ],
      [
        -0.6838835030794144,
        51.091516530141234,
        91.39999999999998
      ],
      [
        -0.6839219760149717,
        51.091499431058764,
        92
      ],
      [
        -0.6839882768690586,
        51.09147587791085,
        91.79999999999995
      ],
      [
        -0.6844429951161146,
        51.091339169070125,
        88.60000000000002
      ],
      [
        -0.6845802906900644,
        51.09129642136395,
        87.60000000000002
      ],
      [
        -0.6852023117244244,
        51.09117429703474,
        90.20000000000005
      ],
      [
        -0.6856112647801638,
        51.09104488044977,
        91.20000000000005
      ],
      [
        -0.6862617004662752,
        51.09085578471422,
        90.60000000000002
      ],
      [
        -0.6864685658365488,
        51.09078864566982,
        88
      ],
      [
        -0.6866553146392107,
        51.09074388630688,
        87.39999999999998
      ],
      [
        -0.6866923626512289,
        51.0907307267189,
        86.79999999999995
      ],
      [
        -0.6872897408902645,
        51.09060399234295,
        92.39999999999998
      ],
      [
        -0.6874319817870855,
        51.09046183526516,
        95
      ],
      [
        -0.6874878890812397,
        51.09047164209187,
        92.39999999999998
      ],
      [
        -0.687530217692256,
        51.09041640534997,
        89.20000000000005
      ],
      [
        -0.6875486578792334,
        51.090348763391376,
        90.60000000000002
      ],
      [
        -0.6877390947192907,
        51.090160170570016,
        93.60000000000002
      ],
      [
        -0.6877898052334785,
        51.09011113643646,
        94.39999999999998
      ],
      [
        -0.6883862614631653,
        51.089859176427126,
        96.20000000000005
      ],
      [
        -0.6889552250504494,
        51.089591877534986,
        97.39999999999998
      ],
      [
        -0.6889835558831692,
        51.089585004374385,
        97.39999999999998
      ],
      [
        -0.6891063507646322,
        51.08954510651529,
        98.20000000000005
      ],
      [
        -0.6893250346183777,
        51.08941996470094,
        105.39999999999998
      ],
      [
        -0.6893930118530989,
        51.089415522292256,
        105.20000000000005
      ],
      [
        -0.6896455585956573,
        51.08927411958575,
        104.60000000000002
      ],
      [
        -0.6897060759365559,
        51.08925559557974,
        103.79999999999995
      ],
      [
        -0.6898102629929781,
        51.089260624721646,
        102.60000000000002
      ],
      [
        -0.689857704564929,
        51.08926406130195,
        101.79999999999995
      ],
      [
        -0.689902463927865,
        51.08926406130195,
        101.20000000000005
      ],
      [
        -0.6900961697101593,
        51.08925492502749,
        101.60000000000002
      ],
      [
        -0.6901328824460506,
        51.089244950562716,
        101.60000000000002
      ],
      [
        -0.6901511549949646,
        51.08923824504018,
        101.60000000000002
      ],
      [
        -0.6901887059211731,
        51.08923086896539,
        101.39999999999998
      ],
      [
        -0.6901887059211731,
        51.08923086896539,
        101.39999999999998
      ],
      [
        -0.6903146021068096,
        51.0891920607537,
        100.79999999999995
      ],
      [
        -0.6903422623872757,
        51.08917546458542,
        101
      ],
      [
        -0.6904038693755865,
        51.08915191143751,
        100.60000000000002
      ],
      [
        -0.6905223056674004,
        51.089116875082254,
        100.79999999999995
      ],
      [
        -0.690711485221982,
        51.08902618288994,
        101.60000000000002
      ],
      [
        -0.6909155007451773,
        51.0889676772058,
        99.20000000000005
      ],
      [
        -0.69103779271245,
        51.08890414237976,
        100.60000000000002
      ],
      [
        -0.6913929339498281,
        51.088698618113995,
        101.20000000000005
      ],
      [
        -0.6919709499925375,
        51.08842972666025,
        104.20000000000005
      ],
      [
        -0.6922504864633083,
        51.088292598724365,
        103
      ],
      [
        -0.6922774761915207,
        51.08828698284924,
        102.60000000000002
      ],
      [
        -0.6923689227551222,
        51.08826787211001,
        100.60000000000002
      ],
      [
        -0.6924798153340816,
        51.088222190737724,
        99.39999999999998
      ],
      [
        -0.6927834916859865,
        51.08814817853272,
        98.79999999999995
      ],
      [
        -0.6928571686148643,
        51.088129905983806,
        99
      ],
      [
        -0.6929108127951622,
        51.08812370337546,
        99.39999999999998
      ],
      [
        -0.6929284986108541,
        51.08811791986227,
        99.60000000000002
      ],
      [
        -0.6929558236151934,
        51.08811012469232,
        99.79999999999995
      ],
      [
        -0.6929713301360607,
        51.08810534700751,
        99.79999999999995
      ],
      [
        -0.6930823903530836,
        51.08804608695209,
        99.79999999999995
      ],
      [
        -0.6931253056973219,
        51.088024713099,
        99.20000000000005
      ],
      [
        -0.6931634433567524,
        51.08801817521453,
        98.60000000000002
      ],
      [
        -0.6934357713907957,
        51.08792010694742,
        101.39999999999998
      ],
      [
        -0.693568792194128,
        51.08787358738482,
        103
      ],
      [
        -0.6936319917440414,
        51.087847016751766,
        103.20000000000005
      ],
      [
        -0.6936821155250072,
        51.087842490524054,
        102
      ],
      [
        -0.6936952751129866,
        51.08784131705761,
        101.20000000000005
      ],
      [
        -0.6937569659203291,
        51.087832767516375,
        100.79999999999995
      ],
      [
        -0.6939197424799204,
        51.08784441836178,
        98.39999999999998
      ],
      [
        -0.6941023003309965,
        51.08783167786896,
        99.39999999999998
      ],
      [
        -0.6941249314695597,
        51.08782949857414,
        99.60000000000002
      ],
      [
        -0.6941333133727312,
        51.08782715164125,
        99.60000000000002
      ],
      [
        -0.69414840079844,
        51.08782874420285,
        99.39999999999998
      ],
      [
        -0.6941572856158018,
        51.087827403098345,
        99.39999999999998
      ],
      [
        -0.6941785756498575,
        51.08782581053674,
        99.60000000000002
      ],
      [
        -0.694221742451191,
        51.08780510723591,
        99.39999999999998
      ],
      [
        -0.6942412722855806,
        51.0877884272486,
        99.79999999999995
      ],
      [
        -0.6942542642354965,
        51.08778448775411,
        100
      ],
      [
        -0.6942744646221399,
        51.08776738867164,
        101.20000000000005
      ],
      [
        -0.694373119622469,
        51.087723383679986,
        103
      ],
      [
        -0.6944051384925842,
        51.08770955353975,
        103.39999999999998
      ],
      [
        -0.6944640632718801,
        51.087691532447934,
        103.20000000000005
      ],
      [
        -0.6944933161139488,
        51.08767879195511,
        103
      ],
      [
        -0.6945241615176201,
        51.08766999095678,
        102.60000000000002
      ],
      [
        -0.6945241615176201,
        51.08766999095678,
        102.60000000000002
      ],
      [
        -0.6945622153580189,
        51.087659262120724,
        102
      ],
      [
        -0.6945622153580189,
        51.087659262120724,
        102
      ],
      [
        -0.6946011912077665,
        51.087642665952444,
        102
      ],
      [
        -0.6946182064712048,
        51.087636882439256,
        102
      ],
      [
        -0.6946182064712048,
        51.087636882439256,
        102
      ],
      [
        -0.6946481298655272,
        51.08762489631772,
        101.39999999999998
      ],
      [
        -0.6946481298655272,
        51.08762489631772,
        101.39999999999998
      ],
      [
        -0.6946846749633551,
        51.08761500567198,
        101.60000000000002
      ],
      [
        -0.6950458511710167,
        51.08751215972006,
        102.79999999999995
      ],
      [
        -0.6951501220464706,
        51.08750285580754,
        103.39999999999998
      ],
      [
        -0.6955605000257492,
        51.08759614638984,
        104
      ],
      [
        -0.695762000977993,
        51.08754727989435,
        102.39999999999998
      ],
      [
        -0.695916311815381,
        51.08750922605395,
        104.39999999999998
      ],
      [
        -0.6959943473339081,
        51.08750159852207,
        108.60000000000002
      ],
      [
        -0.6961582135409117,
        51.08751408755779,
        111.60000000000002
      ],
      [
        -0.6962825171649456,
        51.08748869039118,
        114.60000000000002
      ],
      [
        -0.6966187991201878,
        51.08744057826698,
        119
      ],
      [
        -0.697050467133522,
        51.08746170066297,
        119
      ],
      [
        -0.6977165769785643,
        51.08729456551373,
        116.79999999999995
      ],
      [
        -0.6983550265431404,
        51.08711485750973,
        115
      ],
      [
        -0.6984810065478086,
        51.08709683641791,
        115
      ],
      [
        -0.6991188693791628,
        51.08690086752176,
        122.39999999999998
      ],
      [
        -0.6991878524422646,
        51.086834985762835,
        125.39999999999998
      ],
      [
        -0.6992346234619617,
        51.08680288307369,
        127.60000000000002
      ],
      [
        -0.6992418318986893,
        51.08680355362594,
        128.20000000000005
      ],
      [
        -0.6992493756115437,
        51.08678930439055,
        128.39999999999998
      ],
      [
        -0.6994662992656231,
        51.08690279535949,
        117.20000000000005
      ],
      [
        -0.6995958834886551,
        51.086888210847974,
        113.39999999999998
      ],
      [
        -0.7000831235200167,
        51.08685024082661,
        113.79999999999995
      ],
      [
        -0.7003044057637453,
        51.08681947924197,
        113.79999999999995
      ],
      [
        -0.7003685273230076,
        51.08681847341359,
        113.60000000000002
      ],
      [
        -0.7005340699106455,
        51.08678687363863,
        114.60000000000002
      ],
      [
        -0.7006501592695713,
        51.086755357682705,
        115.60000000000002
      ],
      [
        -0.7007929030805826,
        51.08674672432244,
        116.20000000000005
      ],
      [
        -0.7008616346865892,
        51.08674052171409,
        116.60000000000002
      ],
      [
        -0.700977137312293,
        51.08673029579222,
        116
      ],
      [
        -0.701136477291584,
        51.086722584441304,
        116.39999999999998
      ],
      [
        -0.7012016884982586,
        51.08672300353646,
        115.20000000000005
      ],
      [
        -0.701349126175046,
        51.08671814203262,
        114.20000000000005
      ],
      [
        -0.7014005910605192,
        51.08670732937753,
        115.20000000000005
      ],
      [
        -0.7020841352641582,
        51.08677312731743,
        118.79999999999995
      ],
      [
        -0.7023367658257484,
        51.08685686253011,
        118.39999999999998
      ],
      [
        -0.7025714591145515,
        51.08698728494346,
        116.79999999999995
      ],
      [
        -0.7026047352701426,
        51.08707336708903,
        119.39999999999998
      ],
      [
        -0.7029763050377369,
        51.08721594326198,
        120
      ],
      [
        -0.703588267788291,
        51.08745273202658,
        115.20000000000005
      ],
      [
        -0.7042206823825836,
        51.08767711557448,
        121.20000000000005
      ],
      [
        -0.704257981851697,
        51.08768759295344,
        121.20000000000005
      ],
      [
        -0.7048371713608503,
        51.087850285694,
        125.20000000000005
      ],
      [
        -0.7051076553761959,
        51.08791457489133,
        127.39999999999998
      ],
      [
        -0.7057702448219061,
        51.08794139698148,
        132.20000000000005
      ],
      [
        -0.7058222964406013,
        51.08801415190101,
        138
      ],
      [
        -0.7058130763471127,
        51.08800417743623,
        137.20000000000005
      ],
      [
        -0.7058251462876797,
        51.0879919398576,
        135.39999999999998
      ],
      [
        -0.705840652808547,
        51.08800166286528,
        132.60000000000002
      ],
      [
        -0.7058485317975283,
        51.08802949078381,
        128.60000000000002
      ],
      [
        -0.7058490347117186,
        51.08805580995977,
        127.60000000000002
      ],
      [
        -0.7057859189808369,
        51.088240295648575,
        126.20000000000005
      ],
      [
        -0.7057699933648109,
        51.08824943192303,
        126
      ],
      [
        -0.705764964222908,
        51.08824926428497,
        125.60000000000002
      ],
      [
        -0.7057784590870142,
        51.088254544883966,
        124.79999999999995
      ],
      [
        -0.7057744357734919,
        51.08825236558914,
        124.39999999999998
      ],
      [
        -0.7057725917547941,
        51.08825186267495,
        124.39999999999998
      ],
      [
        -0.7057724241167307,
        51.08825261704624,
        124.20000000000005
      ],
      [
        -0.7057699095457792,
        51.08825664035976,
        124.20000000000005
      ],
      [
        -0.7057640422135592,
        51.088262340053916,
        124
      ],
      [
        -0.7057361304759979,
        51.08832218684256,
        123.20000000000005
      ],
      [
        -0.7057436741888523,
        51.08838773332536,
        122.60000000000002
      ],
      [
        -0.705767311155796,
        51.08840164728463,
        122.79999999999995
      ],
      [
        -0.7057834044098854,
        51.08840650878847,
        122.79999999999995
      ],
      [
        -0.7058145012706518,
        51.08841589652002,
        122.39999999999998
      ],
      [
        -0.705842999741435,
        51.088419668376446,
        122.60000000000002
      ],
      [
        -0.7058435864746571,
        51.08841891400516,
        122.60000000000002
      ],
      [
        -0.705841826274991,
        51.088417153805494,
        122.20000000000005
      ],
      [
        -0.7058336120098829,
        51.08842570334673,
        121.79999999999995
      ],
      [
        -0.7058058679103851,
        51.08840684406459,
        121.60000000000002
      ],
      [
        -0.7057965639978647,
        51.08838262036443,
        123
      ],
      [
        -0.7057942170649767,
        51.088374238461256,
        122.79999999999995
      ],
      [
        -0.7057818118482828,
        51.08835672028363,
        122.60000000000002
      ],
      [
        -0.7058867532759905,
        51.08823912218213,
        125.60000000000002
      ],
      [
        -0.7059194426983595,
        51.08823124319315,
        125.60000000000002
      ],
      [
        -0.7059194426983595,
        51.08823124319315,
        125.60000000000002
      ],
      [
        -0.7061468437314034,
        51.0881801135838,
        126.60000000000002
      ],
      [
        -0.7062666211277246,
        51.08812361955643,
        127.60000000000002
      ],
      [
        -0.7063224446028471,
        51.088079111650586,
        128.60000000000002
      ],
      [
        -0.706511540338397,
        51.087980791926384,
        132
      ],
      [
        -0.7069126144051552,
        51.08801105059683,
        134.20000000000005
      ],
      [
        -0.7075884472578764,
        51.088104424998164,
        136
      ],
      [
        -0.707658352330327,
        51.08814708888531,
        135.60000000000002
      ],
      [
        -0.7076949812471867,
        51.08816569671035,
        136.20000000000005
      ],
      [
        -0.7076938077807426,
        51.0881663672626,
        136.60000000000002
      ],
      [
        -0.7076901197433472,
        51.08816544525325,
        136
      ],
      [
        -0.70770931430161,
        51.08816142193973,
        134.60000000000002
      ],
      [
        -0.7077157683670521,
        51.08816930092871,
        134.39999999999998
      ],
      [
        -0.7077518105506897,
        51.08822596259415,
        133.60000000000002
      ],
      [
        -0.7077561691403389,
        51.08823476359248,
        133.79999999999995
      ],
      [
        -0.7077596895396709,
        51.08825999312103,
        133.79999999999995
      ],
      [
        -0.7077671494334936,
        51.08827876858413,
        134.39999999999998
      ],
      [
        -0.7077583484351635,
        51.088304752483964,
        135
      ],
      [
        -0.7077465299516916,
        51.08831564895809,
        135
      ],
      [
        -0.7075709290802479,
        51.08844481408596,
        136.39999999999998
      ],
      [
        -0.7075442746281624,
        51.08854346908629,
        136
      ],
      [
        -0.7075297739356756,
        51.08861496672034,
        138
      ],
      [
        -0.7074953243136406,
        51.08874966390431,
        140
      ],
      [
        -0.7073881197720766,
        51.08897262252867,
        140.60000000000002
      ],
      [
        -0.7074265088886023,
        51.08898955397308,
        140.79999999999995
      ],
      [
        -0.7076199632138014,
        51.08902869746089,
        139.20000000000005
      ],
      [
        -0.7077663112431765,
        51.08905644156039,
        139.60000000000002
      ],
      [
        -0.7082596700638533,
        51.08915526419878,
        139.20000000000005
      ],
      [
        -0.708379615098238,
        51.08912198804319,
        137.79999999999995
      ],
      [
        -0.7084709778428078,
        51.08899936079979,
        133.39999999999998
      ],
      [
        -0.7085089478641748,
        51.088967341929674,
        133.79999999999995
      ],
      [
        -0.7085340097546577,
        51.08894286677241,
        133
      ],
      [
        -0.7087095268070698,
        51.088795848190784,
        131.39999999999998
      ],
      [
        -0.7087713852524757,
        51.0887829400599,
        132.39999999999998
      ],
      [
        -0.7089905720204115,
        51.08866768889129,
        139.60000000000002
      ],
      [
        -0.7092202361673117,
        51.088597029447556,
        145.20000000000005
      ],
      [
        -0.7098018564283848,
        51.0888780746609,
        133.60000000000002
      ],
      [
        -0.7104617636650801,
        51.08910530805588,
        135
      ],
      [
        -0.7111097685992718,
        51.089319633319974,
        135.60000000000002
      ],
      [
        -0.7117541693150997,
        51.089499508962035,
        134.20000000000005
      ],
      [
        -0.7118970807641745,
        51.089433040469885,
        135.20000000000005
      ],
      [
        -0.7121493760496378,
        51.08928526751697,
        134
      ],
      [
        -0.7125429902225733,
        51.08937696553767,
        134
      ],
      [
        -0.7131208386272192,
        51.08922701328993,
        135.20000000000005
      ],
      [
        -0.7132103573530912,
        51.08920865692198,
        133.60000000000002
      ],
      [
        -0.7134111877530813,
        51.089177979156375,
        133.20000000000005
      ],
      [
        -0.7136061508208513,
        51.08914495445788,
        132.60000000000002
      ],
      [
        -0.7136652432382107,
        51.08914059586823,
        132.20000000000005
      ],
      [
        -0.7136664167046547,
        51.08914403244853,
        132.60000000000002
      ],
      [
        -0.7136791571974754,
        51.08914973214269,
        132.79999999999995
      ],
      [
        -0.7138372398912907,
        51.089167166501284,
        129.20000000000005
      ],
      [
        -0.7138792332261801,
        51.089180409908295,
        126.79999999999995
      ],
      [
        -0.7139722723513842,
        51.08919541351497,
        126.39999999999998
      ],
      [
        -0.7139924727380276,
        51.089196000248194,
        126.79999999999995
      ],
      [
        -0.7141599431633949,
        51.08922022394836,
        126.20000000000005
      ],
      [
        -0.7142646331340075,
        51.089246878400445,
        125.60000000000002
      ],
      [
        -0.7143653836101294,
        51.08926112763584,
        126.20000000000005
      ],
      [
        -0.7143970672041178,
        51.08927269466221,
        125.20000000000005
      ],
      [
        -0.7144118193536997,
        51.08927680179477,
        125.20000000000005
      ],
      [
        -0.7144532259553671,
        51.08929398469627,
        125.20000000000005
      ],
      [
        -0.7144875917583704,
        51.08930194750428,
        125.79999999999995
      ],
      [
        -0.7145371288061142,
        51.089317202568054,
        126.20000000000005
      ],
      [
        -0.7146123982965946,
        51.08930563554168,
        128
      ],
      [
        -0.715227797627449,
        51.089104637503624,
        127.79999999999995
      ],
      [
        -0.7155376765877008,
        51.08916490338743,
        128.39999999999998
      ],
      [
        -0.7158550154417753,
        51.08922072686255,
        128.39999999999998
      ],
      [
        -0.716569572687149,
        51.08914252370596,
        132.20000000000005
      ],
      [
        -0.7170406356453896,
        51.08909516595304,
        131.39999999999998
      ],
      [
        -0.7174726389348507,
        51.08904043212533,
        134
      ],
      [
        -0.7177958451211452,
        51.088965917006135,
        137.60000000000002
      ],
      [
        -0.7184401620179415,
        51.08875025063753,
        138.39999999999998
      ],
      [
        -0.7184997573494911,
        51.08873398974538,
        137.20000000000005
      ],
      [
        -0.7186348736286163,
        51.08869040384889,
        134.39999999999998
      ],
      [
        -0.7187983207404613,
        51.08861597254872,
        134.60000000000002
      ],
      [
        -0.7189155835658312,
        51.08853223733604,
        134.39999999999998
      ],
      [
        -0.7191418949514627,
        51.088424529880285,
        138.39999999999998
      ],
      [
        -0.7191298250108957,
        51.08832897618413,
        144.39999999999998
      ],
      [
        -0.7191710639744997,
        51.088304836302996,
        145
      ],
      [
        -0.7191983051598072,
        51.08830014243722,
        145.39999999999998
      ],
      [
        -0.7192860636860132,
        51.08829033561051,
        145.79999999999995
      ],
      [
        -0.7193318288773298,
        51.08831983990967,
        145.60000000000002
      ],
      [
        -0.7194516062736511,
        51.08847448602319,
        146
      ],
      [
        -0.7193413004279137,
        51.088528549298644,
        146
      ],
      [
        -0.7195410411804914,
        51.08881336636841,
        151.79999999999995
      ],
      [
        -0.7194424699991941,
        51.08856836333871,
        155
      ],
      [
        -0.7193821202963591,
        51.0885101929307,
        152.60000000000002
      ],
      [
        -0.7193717267364264,
        51.08847507275641,
        153.39999999999998
      ],
      [
        -0.7193738222122192,
        51.08844732865691,
        153.79999999999995
      ],
      [
        -0.719368290156126,
        51.088282875716686,
        152.20000000000005
      ],
      [
        -0.7194069307297468,
        51.08820718713105,
        151.39999999999998
      ],
      [
        -0.7194149773567915,
        51.08818296343088,
        149.79999999999995
      ],
      [
        -0.7194122113287449,
        51.08811708167195,
        142.39999999999998
      ],
      [
        -0.7194290589541197,
        51.08814088627696,
        141.39999999999998
      ],
      [
        -0.7194468285888433,
        51.08815371058881,
        141
      ],
      [
        -0.7192382868379354,
        51.08824649825692,
        126.79999999999995
      ],
      [
        -0.7189310900866985,
        51.088374741375446,
        126.60000000000002
      ],
      [
        -0.7189243007451296,
        51.08837792649865,
        126.60000000000002
      ],
      [
        -0.7189110573381186,
        51.088383961468935,
        126.60000000000002
      ],
      [
        -0.7187708280980587,
        51.08839745633304,
        125.60000000000002
      ],
      [
        -0.7187133282423019,
        51.088338531553745,
        120.39999999999998
      ],
      [
        -0.7187249790877104,
        51.08850826509297,
        117.20000000000005
      ],
      [
        -0.718965707346797,
        51.08884991146624,
        164.39999999999998
      ]
    ]
  }
}
