{
  "type": "Feature",
  "properties": {
    "id": "4257786853",
    "activity": "hiking",
    "name": "Epping Forest Hiking",
    "date": "2019-11-16T10:29:37.000Z",
    "distanceKm": 6.34,
    "movingTimeSeconds": 5138,
    "elapsedTimeSeconds": 7356.97314453125,
    "ascentM": 90,
    "descentM": 313,
    "providers": [
      "Garmin"
    ]
  },
  "geometry": {
    "type": "LineString",
    "coordinates": [
      [
        0.042324503883719444,
        51.64949697442353,
        84.79999999999995
      ],
      [
        0.04242232069373131,
        51.649532932788134,
        76.79999999999995
      ],
      [
        0.04250228404998779,
        51.649574507027864,
        71.60000000000002
      ],
      [
        0.04252768121659756,
        51.649602837860584,
        71
      ],
      [
        0.042665982618927956,
        51.64983375929296,
        67.20000000000005
      ],
      [
        0.043014418333768845,
        51.65022988803685,
        65.39999999999998
      ],
      [
        0.043198904022574425,
        51.65045913308859,
        65.39999999999998
      ],
      [
        0.043258918449282646,
        51.65058167651296,
        66
      ],
      [
        0.043334607034921646,
        51.650658370926976,
        65.79999999999995
      ],
      [
        0.04359486512839794,
        51.650909911841154,
        64.79999999999995
      ],
      [
        0.044124266132712364,
        51.65121350437403,
        63.799999999999955
      ],
      [
        0.0447272602468729,
        51.65145364589989,
        62.200000000000045
      ],
      [
        0.04512464627623558,
        51.65164617821574,
        62
      ],
      [
        0.04521726630628109,
        51.651725051924586,
        62
      ],
      [
        0.04527183249592781,
        51.65173410438001,
        61.799999999999955
      ],
      [
        0.04545070230960846,
        51.65176830254495,
        61.60000000000002
      ],
      [
        0.04547492600977421,
        51.651763105764985,
        61.200000000000045
      ],
      [
        0.045540472492575645,
        51.6517517901957,
        60.200000000000045
      ],
      [
        0.046278079971671104,
        51.651818342506886,
        55.799999999999955
      ],
      [
        0.04697050899267197,
        51.651969300583005,
        50.39999999999998
      ],
      [
        0.0471492949873209,
        51.65201942436397,
        49
      ],
      [
        0.04778414033353329,
        51.652271719649434,
        46.200000000000045
      ],
      [
        0.04819703288376331,
        51.65245880372822,
        47
      ],
      [
        0.04855292849242687,
        51.65266550146043,
        43.39999999999998
      ],
      [
        0.04904075525701046,
        51.65299960412085,
        42.799999999999955
      ],
      [
        0.04909280687570572,
        51.65304754860699,
        44.39999999999998
      ],
      [
        0.04927561618387699,
        51.653256844729185,
        47.60000000000002
      ],
      [
        0.04935038276016712,
        51.65334736928344,
        47
      ],
      [
        0.04970879293978214,
        51.653735702857375,
        46.39999999999998
      ],
      [
        0.04975900053977966,
        51.65379052050412,
        46.200000000000045
      ],
      [
        0.05011489614844322,
        51.654186733067036,
        41
      ],
      [
        0.05047657527029514,
        51.654533073306084,
        49.200000000000045
      ],
      [
        0.050532231107354164,
        51.65457967668772,
        50.200000000000045
      ],
      [
        0.05053902044892311,
        51.65458671748638,
        50.39999999999998
      ],
      [
        0.05055620335042477,
        51.65460675023496,
        50.799999999999955
      ],
      [
        0.05056265741586685,
        51.654616137966514,
        51.200000000000045
      ],
      [
        0.050566764548420906,
        51.654633237048984,
        51.200000000000045
      ],
      [
        0.050566764548420906,
        51.654633237048984,
        51.200000000000045
      ],
      [
        0.05057984031736851,
        51.65468470193446,
        51.39999999999998
      ],
      [
        0.050714537501335144,
        51.65488176047802,
        56
      ],
      [
        0.05072677507996559,
        51.654894249513745,
        56
      ],
      [
        0.0508400984108448,
        51.655142018571496,
        61.60000000000002
      ],
      [
        0.05085728131234646,
        51.65520437993109,
        61
      ],
      [
        0.051011256873607635,
        51.65547117590904,
        57.60000000000002
      ],
      [
        0.05103179253637791,
        51.65554200299084,
        57.799999999999955
      ],
      [
        0.05108191631734371,
        51.655653985217214,
        59.200000000000045
      ],
      [
        0.05114302039146423,
        51.655803602188826,
        61
      ],
      [
        0.051145367324352264,
        51.655813325196505,
        61.60000000000002
      ],
      [
        0.051156431436538696,
        51.65583310648799,
        61.60000000000002
      ],
      [
        0.051179314032197,
        51.6558997426182,
        62.39999999999998
      ],
      [
        0.05126866512000561,
        51.65601180866361,
        71.79999999999995
      ],
      [
        0.05133337341248989,
        51.65608858689666,
        75
      ],
      [
        0.05133664235472679,
        51.6560968849808,
        74.79999999999995
      ],
      [
        0.051423897966742516,
        51.65621565654874,
        76.20000000000005
      ],
      [
        0.05149715580046177,
        51.65637440979481,
        75.39999999999998
      ],
      [
        0.05151601508259773,
        51.65640475228429,
        75.60000000000002
      ],
      [
        0.05152464844286442,
        51.65641221217811,
        75.60000000000002
      ],
      [
        0.05153185687959194,
        51.65641950443387,
        75.79999999999995
      ],
      [
        0.051547782495617867,
        51.65643936954439,
        75.39999999999998
      ],
      [
        0.05158550105988979,
        51.65649527683854,
        75
      ],
      [
        0.051597487181425095,
        51.656502820551395,
        74.60000000000002
      ],
      [
        0.05161718465387821,
        51.656515058130026,
        74.20000000000005
      ],
      [
        0.051638977602124214,
        51.656525703147054,
        74
      ],
      [
        0.051731010898947716,
        51.65659300982952,
        73.79999999999995
      ],
      [
        0.051746517419815063,
        51.65659116581082,
        73.60000000000002
      ],
      [
        0.051747020334005356,
        51.65658605284989,
        74.20000000000005
      ],
      [
        0.0517352856695652,
        51.656577587127686,
        76.39999999999998
      ],
      [
        0.05173142999410629,
        51.656585382297635,
        78.60000000000002
      ],
      [
        0.05172916688024998,
        51.65658655576408,
        79
      ],
      [
        0.05172832868993282,
        51.656585382297635,
        79.39999999999998
      ],
      [
        0.05172053351998329,
        51.65658454410732,
        79.20000000000005
      ],
      [
        0.05171977914869785,
        51.656583370640874,
        79.20000000000005
      ],
      [
        0.051721539348363876,
        51.65658253245056,
        79.20000000000005
      ],
      [
        0.051721371710300446,
        51.65658261626959,
        79.39999999999998
      ],
      [
        0.051720282062888145,
        51.656586304306984,
        79.39999999999998
      ],
      [
        0.05171726457774639,
        51.65658965706825,
        79.60000000000002
      ],
      [
        0.051710307598114014,
        51.65659887716174,
        79.79999999999995
      ],
      [
        0.05170963704586029,
        51.656602062284946,
        79.79999999999995
      ],
      [
        0.05171223543584347,
        51.656600972637534,
        80
      ],
      [
        0.05171215161681175,
        51.656598122790456,
        80
      ],
      [
        0.05171475000679493,
        51.65659384801984,
        80
      ],
      [
        0.051814913749694824,
        51.656705075874925,
        77.60000000000002
      ],
      [
        0.051869647577404976,
        51.65681445971131,
        72.79999999999995
      ],
      [
        0.05187425762414932,
        51.65682518854737,
        72.39999999999998
      ],
      [
        0.05187719129025936,
        51.65683491155505,
        72.20000000000005
      ],
      [
        0.051887836307287216,
        51.6568411141634,
        71.60000000000002
      ],
      [
        0.051906947046518326,
        51.65702132508159,
        73.60000000000002
      ],
      [
        0.051879119127988815,
        51.657099360600114,
        76.20000000000005
      ],
      [
        0.05187543109059334,
        51.6571088321507,
        76.39999999999998
      ],
      [
        0.051858583465218544,
        51.657183431088924,
        78.39999999999998
      ],
      [
        0.05185514688491821,
        51.65721000172198,
        80
      ],
      [
        0.05183519795536995,
        51.65726347826421,
        80.39999999999998
      ],
      [
        0.05182882770895958,
        51.657284097746015,
        80.60000000000002
      ],
      [
        0.051957909017801285,
        51.65771593339741,
        77.79999999999995
      ],
      [
        0.052354540675878525,
        51.65809211321175,
        71.79999999999995
      ],
      [
        0.05264514125883579,
        51.65832504630089,
        69.39999999999998
      ],
      [
        0.05266978405416012,
        51.658351281657815,
        69.60000000000002
      ],
      [
        0.052749160677194595,
        51.65850307792425,
        74
      ],
      [
        0.05279450677335262,
        51.65851925499737,
        76.79999999999995
      ],
      [
        0.05282132886350155,
        51.658536940813065,
        79.79999999999995
      ],
      [
        0.05283180624246597,
        51.65852537378669,
        81.20000000000005
      ],
      [
        0.05282711237668991,
        51.6585264634341,
        81.60000000000002
      ],
      [
        0.05283507518470287,
        51.65852210484445,
        81.79999999999995
      ],
      [
        0.05280314013361931,
        51.65854632854462,
        83
      ],
      [
        0.05275167524814606,
        51.658669877797365,
        83.39999999999998
      ],
      [
        0.05274522118270397,
        51.65868379175663,
        83
      ],
      [
        0.05274119786918163,
        51.65869175456464,
        83.39999999999998
      ],
      [
        0.05273834802210331,
        51.658716816455126,
        84
      ],
      [
        0.05273181013762951,
        51.65879426524043,
        83.39999999999998
      ],
      [
        0.05273046903312206,
        51.65882100351155,
        83.60000000000002
      ],
      [
        0.05271119065582752,
        51.658928375691175,
        85
      ],
      [
        0.05269543267786503,
        51.658998699858785,
        86.60000000000002
      ],
      [
        0.052687302231788635,
        51.659030048176646,
        87.39999999999998
      ],
      [
        0.05267816595733166,
        51.65906642563641,
        87.60000000000002
      ],
      [
        0.052662575617432594,
        51.65913758799434,
        89.60000000000002
      ],
      [
        0.05266467109322548,
        51.65915091522038,
        89.79999999999995
      ],
      [
        0.05266517400741577,
        51.659162901341915,
        89.60000000000002
      ],
      [
        0.052673304453492165,
        51.65919919498265,
        90.39999999999998
      ],
      [
        0.05268814042210579,
        51.659249402582645,
        90
      ],
      [
        0.05269534885883331,
        51.65927144698799,
        90
      ],
      [
        0.052696941420435905,
        51.659285109490156,
        89.20000000000005
      ],
      [
        0.05269870162010193,
        51.65929768234491,
        88.39999999999998
      ],
      [
        0.0527039822191,
        51.65932307951152,
        87.20000000000005
      ],
      [
        0.05272393114864826,
        51.65936725214124,
        87
      ],
      [
        0.052719321101903915,
        51.65939826518297,
        87.20000000000005
      ],
      [
        0.05271655507385731,
        51.659411592409015,
        87.20000000000005
      ],
      [
        0.052710939198732376,
        51.659432630985975,
        87.20000000000005
      ],
      [
        0.052708759903907776,
        51.65944252163172,
        87.20000000000005
      ],
      [
        0.05271244794130325,
        51.65945107117295,
        87.39999999999998
      ],
      [
        0.05270959809422493,
        51.65947252884507,
        87.79999999999995
      ],
      [
        0.052701886743307114,
        51.65950940921903,
        88
      ],
      [
        0.052697695791721344,
        51.65952240116894,
        88.20000000000005
      ],
      [
        0.05267355591058731,
        51.65961175225675,
        90
      ],
      [
        0.05269836634397507,
        51.659669084474444,
        91.20000000000005
      ],
      [
        0.05274161696434021,
        51.65975399315357,
        90.20000000000005
      ],
      [
        0.052818143740296364,
        51.65986103005707,
        87.79999999999995
      ],
      [
        0.052863406017422676,
        51.659932527691126,
        85.39999999999998
      ],
      [
        0.05275595001876354,
        51.65996706113219,
        87
      ],
      [
        0.05269291810691357,
        51.659973599016666,
        86.20000000000005
      ],
      [
        0.052650757133960724,
        51.659995475783944,
        86
      ],
      [
        0.05232620984315872,
        51.660031685605645,
        80.79999999999995
      ],
      [
        0.05227910354733467,
        51.65999287739396,
        81
      ],
      [
        0.052089840173721313,
        51.65992196649313,
        86.20000000000005
      ],
      [
        0.051479972898960114,
        51.659771176055074,
        87
      ],
      [
        0.05135717801749706,
        51.65972298011184,
        90
      ],
      [
        0.05133161321282387,
        51.65969280526042,
        89.79999999999995
      ],
      [
        0.05119658075273037,
        51.6596591938287,
        88.20000000000005
      ],
      [
        0.05072895437479019,
        51.65959691628814,
        85.79999999999995
      ],
      [
        0.050356797873973846,
        51.659636311233044,
        86.79999999999995
      ],
      [
        0.04980962723493576,
        51.65971174836159,
        86.79999999999995
      ],
      [
        0.049292128533124924,
        51.65953204035759,
        89
      ],
      [
        0.04921107552945614,
        51.659470265731215,
        88.20000000000005
      ],
      [
        0.04897286184132099,
        51.65917153470218,
        82.39999999999998
      ],
      [
        0.04892407916486263,
        51.65913423523307,
        82.39999999999998
      ],
      [
        0.0487365759909153,
        51.65897514671087,
        80.39999999999998
      ],
      [
        0.048432732000947,
        51.65877305902541,
        78.60000000000002
      ],
      [
        0.04814573563635349,
        51.65865152142942,
        79.20000000000005
      ],
      [
        0.04798270761966705,
        51.65852009318769,
        79.39999999999998
      ],
      [
        0.047928476706147194,
        51.65848623029888,
        80.39999999999998
      ],
      [
        0.04788707010447979,
        51.65848975069821,
        84.60000000000002
      ],
      [
        0.048045823350548744,
        51.65861405432224,
        76.60000000000002
      ],
      [
        0.04806568846106529,
        51.658713296055794,
        80.39999999999998
      ],
      [
        0.04784197546541691,
        51.65870332159102,
        78.60000000000002
      ],
      [
        0.04779771901667118,
        51.658708937466145,
        77.39999999999998
      ],
      [
        0.04773150198161602,
        51.658699214458466,
        76.39999999999998
      ],
      [
        0.04767056554555893,
        51.658685049042106,
        75.60000000000002
      ],
      [
        0.047605689615011215,
        51.65867884643376,
        75.20000000000005
      ],
      [
        0.04759118892252445,
        51.658672308549285,
        75
      ],
      [
        0.04756344482302666,
        51.65865118615329,
        74.60000000000002
      ],
      [
        0.047446684911847115,
        51.65860399603844,
        72.20000000000005
      ],
      [
        0.04724007099866867,
        51.65852780453861,
        70.20000000000005
      ],
      [
        0.04713420756161213,
        51.65853325277567,
        67.60000000000002
      ],
      [
        0.046923235058784485,
        51.65855177678168,
        66.39999999999998
      ],
      [
        0.04665710963308811,
        51.6583726555109,
        61.60000000000002
      ],
      [
        0.046583516523242,
        51.65830224752426,
        60.39999999999998
      ],
      [
        0.04643172025680542,
        51.658232007175684,
        62.200000000000045
      ],
      [
        0.04635117016732693,
        51.65818934328854,
        63.200000000000045
      ],
      [
        0.04621915519237518,
        51.65813754312694,
        63.200000000000045
      ],
      [
        0.046085044741630554,
        51.65814760141075,
        72.20000000000005
      ],
      [
        0.04609585739672184,
        51.65816444903612,
        77.39999999999998
      ],
      [
        0.04609309136867523,
        51.65816629305482,
        77.60000000000002
      ],
      [
        0.046095605939626694,
        51.65816185064614,
        77.39999999999998
      ],
      [
        0.046108514070510864,
        51.65815598331392,
        81
      ],
      [
        0.04607305862009525,
        51.65812756866217,
        81.79999999999995
      ],
      [
        0.04603508859872818,
        51.658108374103904,
        82.20000000000005
      ],
      [
        0.04602670669555664,
        51.65810166858137,
        81.79999999999995
      ],
      [
        0.04590977914631367,
        51.658039474859834,
        80.39999999999998
      ],
      [
        0.04589988850057125,
        51.658034697175026,
        79.79999999999995
      ],
      [
        0.045878179371356964,
        51.65801575407386,
        79.60000000000002
      ],
      [
        0.04585856571793556,
        51.65798985399306,
        79
      ],
      [
        0.04577692598104477,
        51.65797778405249,
        74.60000000000002
      ],
      [
        0.045724036172032356,
        51.65801097638905,
        72.60000000000002
      ],
      [
        0.04570886492729187,
        51.658035116270185,
        72
      ],
      [
        0.04567106254398823,
        51.6581205278635,
        69.20000000000005
      ],
      [
        0.045662010088562965,
        51.65813276544213,
        68.79999999999995
      ],
      [
        0.04565278999507427,
        51.65814181789756,
        68.39999999999998
      ],
      [
        0.045639798045158386,
        51.65815346874297,
        67.20000000000005
      ],
      [
        0.04562554880976677,
        51.6581691429019,
        65.39999999999998
      ],
      [
        0.04559319466352463,
        51.65820258669555,
        63.799999999999955
      ],
      [
        0.04557366482913494,
        51.65822261944413,
        63
      ],
      [
        0.04556436091661453,
        51.6582365334034,
        62
      ],
      [
        0.045525385066866875,
        51.658301912248135,
        59.60000000000002
      ],
      [
        0.04555136896669865,
        51.65833820588887,
        60.200000000000045
      ],
      [
        0.0454895943403244,
        51.6584141459316,
        61.39999999999998
      ],
      [
        0.045422203838825226,
        51.65845546871424,
        62
      ],
      [
        0.045407870784401894,
        51.65847944095731,
        61.60000000000002
      ],
      [
        0.04538699984550476,
        51.65849234908819,
        62
      ],
      [
        0.04525322467088699,
        51.65851338766515,
        64.20000000000005
      ],
      [
        0.04520301707088947,
        51.6585283074528,
        64.79999999999995
      ],
      [
        0.045136548578739166,
        51.65854934602976,
        65.60000000000002
      ],
      [
        0.045107631012797356,
        51.658558901399374,
        65.79999999999995
      ],
      [
        0.04508902318775654,
        51.658565774559975,
        66
      ],
      [
        0.04477755166590214,
        51.658670296892524,
        65.39999999999998
      ],
      [
        0.04468325525522232,
        51.65871354751289,
        64.20000000000005
      ],
      [
        0.04467101767659187,
        51.65871958248317,
        64.20000000000005
      ],
      [
        0.04462592303752899,
        51.658751517534256,
        65.20000000000005
      ],
      [
        0.044615110382437706,
        51.658758306875825,
        65.20000000000005
      ],
      [
        0.04460781812667847,
        51.65876442566514,
        65.39999999999998
      ],
      [
        0.04455811344087124,
        51.65878680534661,
        67.79999999999995
      ],
      [
        0.04453808069229126,
        51.65880046784878,
        68.60000000000002
      ],
      [
        0.044472115114331245,
        51.658822763711214,
        71
      ],
      [
        0.04441511817276478,
        51.658843886107206,
        72.60000000000002
      ],
      [
        0.044378237798810005,
        51.65885034017265,
        72.79999999999995
      ],
      [
        0.0443608034402132,
        51.65885486640036,
        73
      ],
      [
        0.044151004403829575,
        51.65894606150687,
        75
      ],
      [
        0.044038351625204086,
        51.65899710729718,
        75
      ],
      [
        0.04398386925458908,
        51.65903558023274,
        76.20000000000005
      ],
      [
        0.04396224394440651,
        51.65905016474426,
        76.60000000000002
      ],
      [
        0.043951431289315224,
        51.65905854664743,
        77
      ],
      [
        0.04394254647195339,
        51.65906340815127,
        77.39999999999998
      ],
      [
        0.04393399693071842,
        51.659070616588,
        77.60000000000002
      ],
      [
        0.043924860656261444,
        51.65908293798566,
        77.79999999999995
      ],
      [
        0.0438554584980011,
        51.65916399098933,
        80.39999999999998
      ],
      [
        0.04384757950901985,
        51.659168265759945,
        80.60000000000002
      ],
      [
        0.04383743740618229,
        51.659183856099844,
        80.79999999999995
      ],
      [
        0.043835174292325974,
        51.65919793769717,
        81
      ],
      [
        0.04381815902888775,
        51.65923205204308,
        81
      ],
      [
        0.043812794610857964,
        51.659241104498506,
        81
      ],
      [
        0.04380743019282818,
        51.65925342589617,
        81.20000000000005
      ],
      [
        0.043782368302345276,
        51.65931151248515,
        81.39999999999998
      ],
      [
        0.043711625039577484,
        51.65936306118965,
        81.79999999999995
      ],
      [
        0.04363115876913071,
        51.659471187740564,
        79.20000000000005
      ],
      [
        0.043570809066295624,
        51.65943338535726,
        76.79999999999995
      ],
      [
        0.043476931750774384,
        51.659395499154925,
        77
      ],
      [
        0.04344130866229534,
        51.6593761369586,
        76.60000000000002
      ],
      [
        0.04340970888733864,
        51.65938787162304,
        75.60000000000002
      ],
      [
        0.043360842391848564,
        51.65939809754491,
        76.39999999999998
      ],
      [
        0.04330409690737724,
        51.65944838896394,
        77.20000000000005
      ],
      [
        0.04327576607465744,
        51.65947680361569,
        78.20000000000005
      ],
      [
        0.043259840458631516,
        51.659501949325204,
        78.79999999999995
      ],
      [
        0.043224385008215904,
        51.65954763069749,
        79.60000000000002
      ],
      [
        0.04317501559853554,
        51.659601693972945,
        79.79999999999995
      ],
      [
        0.04314785823225975,
        51.659632455557585,
        80.39999999999998
      ],
      [
        0.042950548231601715,
        51.65978316217661,
        81.39999999999998
      ],
      [
        0.04291785880923271,
        51.65979187935591,
        81.60000000000002
      ],
      [
        0.0428845826536417,
        51.659796154126525,
        82.20000000000005
      ],
      [
        0.04286915995180607,
        51.65979799814522,
        82.20000000000005
      ],
      [
        0.04285197705030441,
        51.65980369783938,
        82.39999999999998
      ],
      [
        0.04279665648937225,
        51.659803949296474,
        83.20000000000005
      ],
      [
        0.04275776445865631,
        51.65980277583003,
        83.60000000000002
      ],
      [
        0.04272717051208019,
        51.65980671532452,
        83.79999999999995
      ],
      [
        0.042715687304735184,
        51.65982029400766,
        84.39999999999998
      ],
      [
        0.042720381170511246,
        51.65982021018863,
        85.79999999999995
      ],
      [
        0.042723147198557854,
        51.659822054207325,
        86.20000000000005
      ],
      [
        0.042723147198557854,
        51.65982289239764,
        86.20000000000005
      ],
      [
        0.042723398655653,
        51.659822473302484,
        86.39999999999998
      ],
      [
        0.04272356629371643,
        51.659822557121515,
        86.39999999999998
      ],
      [
        0.04272465594112873,
        51.65982230566442,
        86.20000000000005
      ],
      [
        0.042736055329442024,
        51.659820545464754,
        84.79999999999995
      ],
      [
        0.04273722879588604,
        51.6598198749125,
        84.39999999999998
      ],
      [
        0.04273664206266403,
        51.65981945581734,
        84.60000000000002
      ],
      [
        0.042734378948807716,
        51.659820126369596,
        84.60000000000002
      ],
      [
        0.04273035563528538,
        51.659818114712834,
        85.60000000000002
      ],
      [
        0.04272172227501869,
        51.659819623455405,
        86.39999999999998
      ],
      [
        0.042711496353149414,
        51.65982037782669,
        87.20000000000005
      ],
      [
        0.04269498400390148,
        51.659820545464754,
        87.39999999999998
      ],
      [
        0.042640166357159615,
        51.65981601923704,
        88.20000000000005
      ],
      [
        0.04259699955582619,
        51.65980604477227,
        89
      ],
      [
        0.04255928099155426,
        51.65980755351484,
        89.79999999999995
      ],
      [
        0.0425524078309536,
        51.659809313714504,
        90.20000000000005
      ],
      [
        0.04252022132277489,
        51.65983839891851,
        90.60000000000002
      ],
      [
        0.04246171563863754,
        51.65987050160766,
        90
      ],
      [
        0.04235182888805866,
        51.65993814356625,
        86.79999999999995
      ],
      [
        0.042266836389899254,
        51.660119192674756,
        87.60000000000002
      ],
      [
        0.04224982112646103,
        51.66019722819328,
        87
      ],
      [
        0.04225200042128563,
        51.6602102201432,
        87
      ],
      [
        0.04226960241794586,
        51.66032010689378,
        88.20000000000005
      ],
      [
        0.04231972619891167,
        51.660776836797595,
        92.60000000000002
      ],
      [
        0.04268048331141472,
        51.661178497597575,
        86.60000000000002
      ],
      [
        0.04302657209336758,
        51.66158200241625,
        84.20000000000005
      ],
      [
        0.04308289848268032,
        51.6616590321064,
        82
      ],
      [
        0.04329613409936428,
        51.66185894049704,
        80.20000000000005
      ],
      [
        0.04331817850470543,
        51.66188836097717,
        81.39999999999998
      ],
      [
        0.04332228563725948,
        51.661893893033266,
        82
      ],
      [
        0.04345321096479893,
        51.662056585773826,
        88.60000000000002
      ],
      [
        0.04371900111436844,
        51.66229815222323,
        96.20000000000005
      ],
      [
        0.04372847266495228,
        51.66231282055378,
        96.79999999999995
      ],
      [
        0.04373157396912575,
        51.66232304647565,
        96.79999999999995
      ],
      [
        0.04374356009066105,
        51.662340480834246,
        96.60000000000002
      ],
      [
        0.043758731335401535,
        51.66236805729568,
        96.20000000000005
      ],
      [
        0.04378044046461582,
        51.66240217164159,
        96.20000000000005
      ],
      [
        0.04379955120384693,
        51.6624880861491,
        96.39999999999998
      ],
      [
        0.04380558617413044,
        51.66251465678215,
        97
      ],
      [
        0.04381849430501461,
        51.66255086660385,
        97.39999999999998
      ],
      [
        0.04383182153105736,
        51.66260216385126,
        97.39999999999998
      ],
      [
        0.043858643621206284,
        51.66264750994742,
        96.39999999999998
      ],
      [
        0.043891919776797295,
        51.66276686824858,
        100
      ],
      [
        0.043955789878964424,
        51.66287960484624,
        100.39999999999998
      ],
      [
        0.04400230944156647,
        51.66296208277345,
        100.79999999999995
      ],
      [
        0.044155195355415344,
        51.663154447451234,
        104.20000000000005
      ],
      [
        0.04422317259013653,
        51.66327045299113,
        100.79999999999995
      ],
      [
        0.04422107711434364,
        51.66335360147059,
        99.39999999999998
      ],
      [
        0.04419492557644844,
        51.66355929337442,
        99
      ],
      [
        0.04414848983287811,
        51.66400990448892,
        95.60000000000002
      ],
      [
        0.04403466358780861,
        51.66413797996938,
        94.39999999999998
      ],
      [
        0.04366368055343628,
        51.664528995752335,
        96.60000000000002
      ],
      [
        0.043365536257624626,
        51.66494457051158,
        99.39999999999998
      ],
      [
        0.042905956506729126,
        51.66529543697834,
        98.39999999999998
      ],
      [
        0.042356522753834724,
        51.66550473310053,
        98.60000000000002
      ],
      [
        0.04224537871778011,
        51.66555343195796,
        99.60000000000002
      ],
      [
        0.041690077632665634,
        51.66585107333958,
        94.39999999999998
      ],
      [
        0.041064703837037086,
        51.66608928702772,
        97.39999999999998
      ],
      [
        0.04056698642671108,
        51.66620872914791,
        91.79999999999995
      ],
      [
        0.0404979195445776,
        51.66618760675192,
        93.60000000000002
      ],
      [
        0.04039205610752106,
        51.66610982269049,
        95.60000000000002
      ],
      [
        0.040219807997345924,
        51.66593883186579,
        102
      ],
      [
        0.04018854349851608,
        51.66591251268983,
        103.20000000000005
      ],
      [
        0.04010690376162529,
        51.665813690051436,
        108.60000000000002
      ],
      [
        0.040101371705532074,
        51.66582131758332,
        107.79999999999995
      ],
      [
        0.04009977914392948,
        51.665830789133906,
        107.79999999999995
      ],
      [
        0.040095169097185135,
        51.66584964841604,
        106
      ],
      [
        0.0401118490844965,
        51.66587881743908,
        102
      ],
      [
        0.04010120406746864,
        51.665878146886826,
        101
      ],
      [
        0.040086787194013596,
        51.66585920378566,
        101.39999999999998
      ],
      [
        0.04007287323474884,
        51.66585945524275,
        101.60000000000002
      ],
      [
        0.040064575150609016,
        51.66589055210352,
        100.39999999999998
      ],
      [
        0.04004412330687046,
        51.665942184627056,
        99.60000000000002
      ],
      [
        0.04002140834927559,
        51.66592366062105,
        103.20000000000005
      ],
      [
        0.040022917091846466,
        51.66592081077397,
        103.79999999999995
      ],
      [
        0.040022581815719604,
        51.66592005640268,
        103.79999999999995
      ],
      [
        0.040022414177656174,
        51.66591888293624,
        104
      ],
      [
        0.04003406502306461,
        51.66591787710786,
        103.60000000000002
      ],
      [
        0.04005518741905689,
        51.66594545356929,
        98
      ],
      [
        0.040034400299191475,
        51.66593455709517,
        98
      ],
      [
        0.04003171809017658,
        51.665933802723885,
        98.60000000000002
      ],
      [
        0.04003305919468403,
        51.665930869057775,
        99
      ],
      [
        0.04002442583441734,
        51.665937239304185,
        98
      ],
      [
        0.04002233035862446,
        51.66593883186579,
        99
      ],
      [
        0.04002006724476814,
        51.66594251990318,
        99.20000000000005
      ],
      [
        0.040052253752946854,
        51.6659140214324,
        104.39999999999998
      ],
      [
        0.04005719907581806,
        51.66592424735427,
        103.20000000000005
      ],
      [
        0.04003381356596947,
        51.665926510468125,
        105.20000000000005
      ],
      [
        0.0400426983833313,
        51.66592475026846,
        105.79999999999995
      ],
      [
        0.04004253074526787,
        51.66592542082071,
        106
      ],
      [
        0.04003993235528469,
        51.665924079716206,
        106.20000000000005
      ],
      [
        0.04004009999334812,
        51.665923995897174,
        106.20000000000005
      ],
      [
        0.04004764370620251,
        51.665923073887825,
        106.60000000000002
      ],
      [
        0.04004320129752159,
        51.66591737419367,
        106
      ],
      [
        0.040056779980659485,
        51.66591410525143,
        107
      ],
      [
        0.04006172530353069,
        51.66590848937631,
        107.39999999999998
      ],
      [
        0.04006465896964073,
        51.66590605862439,
        106.79999999999995
      ],
      [
        0.040013277903199196,
        51.66593262925744,
        105.79999999999995
      ],
      [
        0.04001629538834095,
        51.66592877358198,
        105.60000000000002
      ],
      [
        0.040019480511546135,
        51.66592877358198,
        105.60000000000002
      ],
      [
        0.040020234882831573,
        51.66592885740101,
        105.60000000000002
      ],
      [
        0.0400209054350853,
        51.665928438305855,
        105.60000000000002
      ],
      [
        0.040020737797021866,
        51.66592860594392,
        105.60000000000002
      ],
      [
        0.040020737797021866,
        51.665928438305855,
        105.60000000000002
      ],
      [
        0.040021492168307304,
        51.66592852212489,
        105.60000000000002
      ],
      [
        0.0400361604988575,
        51.66591318324208,
        104
      ],
      [
        0.04003884270787239,
        51.665915697813034,
        104
      ],
      [
        0.04003582522273064,
        51.665925001725554,
        108.20000000000005
      ],
      [
        0.0400339812040329,
        51.665925504639745,
        108
      ],
      [
        0.040034567937254906,
        51.665921648964286,
        107.79999999999995
      ],
      [
        0.04003465175628662,
        51.665921565145254,
        107.60000000000002
      ],
      [
        0.04003632813692093,
        51.66592173278332,
        107.39999999999998
      ],
      [
        0.04003582522273064,
        51.665921565145254,
        107.60000000000002
      ],
      [
        0.04003498703241348,
        51.66592290624976,
        108
      ],
      [
        0.04003339447081089,
        51.665920894593,
        108.20000000000005
      ],
      [
        0.040034567937254906,
        51.665920140221715,
        108.39999999999998
      ],
      [
        0.040034400299191475,
        51.66592022404075,
        108.39999999999998
      ],
      [
        0.04003607667982578,
        51.66590438224375,
        107.39999999999998
      ],
      [
        0.040037333965301514,
        51.665905974805355,
        107.39999999999998
      ],
      [
        0.040046386420726776,
        51.6659087408334,
        106.39999999999998
      ],
      [
        0.040045296773314476,
        51.66590974666178,
        106.60000000000002
      ],
      [
        0.0400448776781559,
        51.66590957902372,
        106.60000000000002
      ],
      [
        0.04004227928817272,
        51.66591636836529,
        106.60000000000002
      ],
      [
        0.04004353657364845,
        51.66591603308916,
        106.60000000000002
      ],
      [
        0.040031131356954575,
        51.665920643135905,
        102.60000000000002
      ],
      [
        0.040039680898189545,
        51.66593606583774,
        102.20000000000005
      ],
      [
        0.040037836879491806,
        51.665941178798676,
        102.20000000000005
      ],
      [
        0.04003381356596947,
        51.66594428010285,
        101.60000000000002
      ],
      [
        0.04002082161605358,
        51.66595375165343,
        100.60000000000002
      ],
      [
        0.04001922905445099,
        51.66595408692956,
        100.60000000000002
      ],
      [
        0.04001428373157978,
        51.66595836170018,
        100.20000000000005
      ],
      [
        0.04001679830253124,
        51.66596037335694,
        100.20000000000005
      ],
      [
        0.04001352936029434,
        51.665964564308524,
        100.20000000000005
      ],
      [
        0.04001101478934288,
        51.665966073051095,
        100.39999999999998
      ],
      [
        0.04001026041805744,
        51.665964061394334,
        100.60000000000002
      ],
      [
        0.040011098608374596,
        51.6659639775753,
        100.60000000000002
      ],
      [
        0.039999447762966156,
        51.665967078879476,
        100.60000000000002
      ],
      [
        0.04000305198132992,
        51.66596833616495,
        100.20000000000005
      ],
      [
        0.04000598564743996,
        51.665969509631395,
        100
      ],
      [
        0.040006404742598534,
        51.66597018018365,
        100
      ],
      [
        0.04000632092356682,
        51.66597034782171,
        100.20000000000005
      ],
      [
        0.04000816494226456,
        51.66597202420235,
        100.39999999999998
      ],
      [
        0.04000615328550339,
        51.6659777238965,
        100.39999999999998
      ],
      [
        0.040003806352615356,
        51.66598007082939,
        99.20000000000005
      ],
      [
        0.04004395566880703,
        51.6659639775753,
        103.20000000000005
      ],
      [
        0.04000958986580372,
        51.66594394482672,
        102.20000000000005
      ],
      [
        0.040020570158958435,
        51.66592441499233,
        101.20000000000005
      ],
      [
        0.040034735575318336,
        51.66590966284275,
        101
      ],
      [
        0.04004194401204586,
        51.665886947885156,
        101.20000000000005
      ],
      [
        0.04005300812423229,
        51.66586549021304,
        101
      ],
      [
        0.040064072236418724,
        51.665844870731235,
        101
      ],
      [
        0.04007337614893913,
        51.665760800242424,
        101.60000000000002
      ],
      [
        0.04006071947515011,
        51.66567815467715,
        101
      ],
      [
        0.040056779980659485,
        51.66566683910787,
        100.79999999999995
      ],
      [
        0.040052589029073715,
        51.66563054546714,
        100.20000000000005
      ],
      [
        0.040052253752946854,
        51.665619648993015,
        100
      ],
      [
        0.040004560723900795,
        51.66521186940372,
        97.60000000000002
      ],
      [
        0.03999190405011177,
        51.66504607535899,
        101.60000000000002
      ],
      [
        0.04005518741905689,
        51.66497675701976,
        103.60000000000002
      ],
      [
        0.04011168144643307,
        51.66492763906717,
        104
      ],
      [
        0.04009852185845375,
        51.66488581337035,
        103
      ],
      [
        0.040114112198352814,
        51.664819763973355,
        102.39999999999998
      ],
      [
        0.04020874388515949,
        51.66473007760942,
        102.60000000000002
      ],
      [
        0.04007220268249512,
        51.664681965485215,
        105
      ],
      [
        0.04008284769952297,
        51.66467735543847,
        107.20000000000005
      ],
      [
        0.04009257070720196,
        51.66467249393463,
        108.60000000000002
      ],
      [
        0.040086787194013596,
        51.66466956026852,
        106.60000000000002
      ],
      [
        0.040091732516884804,
        51.66467475704849,
        106.20000000000005
      ],
      [
        0.04009181633591652,
        51.66468163020909,
        105.79999999999995
      ],
      [
        0.04014763981103897,
        51.664664866402745,
        101.60000000000002
      ],
      [
        0.040233051404356956,
        51.664660926908255,
        105.60000000000002
      ],
      [
        0.04023338668048382,
        51.6646724101156,
        106
      ],
      [
        0.04023430868983269,
        51.664680456742644,
        106.39999999999998
      ],
      [
        0.040218885987997055,
        51.66471348144114,
        105.79999999999995
      ],
      [
        0.040034232661128044,
        51.66481255553663,
        102.20000000000005
      ],
      [
        0.0398287083953619,
        51.664858907461166,
        104.60000000000002
      ],
      [
        0.03982585854828358,
        51.66486393660307,
        104.60000000000002
      ],
      [
        0.03982594236731529,
        51.66488044895232,
        104.20000000000005
      ],
      [
        0.03982669673860073,
        51.66488975286484,
        104.20000000000005
      ],
      [
        0.03982619382441044,
        51.66490299627185,
        104
      ],
      [
        0.03982904367148876,
        51.66492227464914,
        103.79999999999995
      ],
      [
        0.03982854075729847,
        51.66493442840874,
        103.79999999999995
      ],
      [
        0.03982636146247387,
        51.66496108286083,
        103
      ],
      [
        0.039834072813391685,
        51.665001567453146,
        102.60000000000002
      ],
      [
        0.03983348608016968,
        51.665009781718254,
        102.79999999999995
      ],
      [
        0.039836335927248,
        51.665016654878855,
        102.60000000000002
      ],
      [
        0.039839018136262894,
        51.66504607535899,
        102.39999999999998
      ],
      [
        0.03983432427048683,
        51.66507910005748,
        102
      ],
      [
        0.03982719965279102,
        51.66521086357534,
        98.60000000000002
      ],
      [
        0.03984840586781502,
        51.665268279612064,
        97.20000000000005
      ],
      [
        0.03989425487816334,
        51.66541269980371,
        96.20000000000005
      ],
      [
        0.039962902665138245,
        51.66553859598935,
        96.20000000000005
      ],
      [
        0.040005482733249664,
        51.66559626348317,
        95.60000000000002
      ],
      [
        0.04005309194326401,
        51.66573674418032,
        94.20000000000005
      ],
      [
        0.04017353989183903,
        51.66594821959734,
        93.39999999999998
      ],
      [
        0.04026808775961399,
        51.66603757068515,
        95.79999999999995
      ],
      [
        0.04058064892888069,
        51.66635784320533,
        98.60000000000002
      ],
      [
        0.040683578699827194,
        51.66644317097962,
        97.79999999999995
      ],
      [
        0.0409025140106678,
        51.6667843144387,
        97
      ],
      [
        0.04107719287276268,
        51.66707650758326,
        92
      ],
      [
        0.041379863396286964,
        51.66748680174351,
        99.20000000000005
      ],
      [
        0.04169887863099575,
        51.667638095095754,
        101.60000000000002
      ],
      [
        0.04191412590444088,
        51.66769861243665,
        100.20000000000005
      ],
      [
        0.04202652722597122,
        51.66771160438657,
        97.79999999999995
      ],
      [
        0.04233347252011299,
        51.667793579399586,
        98
      ],
      [
        0.04287058487534523,
        51.66809348389506,
        95.20000000000005
      ],
      [
        0.0434405542910099,
        51.66838316246867,
        96.39999999999998
      ],
      [
        0.04389200359582901,
        51.6687445063144,
        96.79999999999995
      ],
      [
        0.044186292216181755,
        51.66914910078049,
        90.20000000000005
      ],
      [
        0.044178664684295654,
        51.669178269803524,
        90.39999999999998
      ],
      [
        0.04417656920850277,
        51.66918782517314,
        90.60000000000002
      ],
      [
        0.04418562166392803,
        51.669211965054274,
        90.20000000000005
      ],
      [
        0.04420490004122257,
        51.66925169527531,
        90.60000000000002
      ],
      [
        0.044205067679286,
        51.66926166974008,
        90.79999999999995
      ],
      [
        0.044204145669937134,
        51.66926946491003,
        91.20000000000005
      ],
      [
        0.04418930970132351,
        51.669275583699346,
        91.20000000000005
      ],
      [
        0.04418184980750084,
        51.66928161866963,
        90.60000000000002
      ],
      [
        0.04414379596710205,
        51.66929536499083,
        90.60000000000002
      ],
      [
        0.04412778653204441,
        51.669297963380814,
        89.79999999999995
      ],
      [
        0.04411672241985798,
        51.6693071834743,
        89.20000000000005
      ],
      [
        0.04409627057611942,
        51.66931397281587,
        88.79999999999995
      ],
      [
        0.04406634718179703,
        51.66931975632906,
        89.20000000000005
      ],
      [
        0.044070202857255936,
        51.66932512074709,
        89
      ],
      [
        0.044106077402830124,
        51.66935537941754,
        87.39999999999998
      ],
      [
        0.04410800524055958,
        51.669359235093,
        87.39999999999998
      ],
      [
        0.04411093890666962,
        51.669362587854266,
        87.20000000000005
      ],
      [
        0.04413524642586708,
        51.66937842965126,
        85.79999999999995
      ],
      [
        0.04413801245391369,
        51.66935043409467,
        86.60000000000002
      ],
      [
        0.04413851536810398,
        51.66933945380151,
        86.20000000000005
      ],
      [
        0.04413985647261143,
        51.66933408938348,
        86.60000000000002
      ],
      [
        0.04414128139615059,
        51.669335598126054,
        87
      ],
      [
        0.0441418681293726,
        51.66933459229767,
        87
      ],
      [
        0.044137341901659966,
        51.66933358646929,
        86.79999999999995
      ],
      [
        0.04413926973938942,
        51.66933434084058,
        87
      ],
      [
        0.04414413124322891,
        51.66932922787964,
        87.60000000000002
      ],
      [
        0.044173719361424446,
        51.669348841533065,
        86.20000000000005
      ],
      [
        0.04417933523654938,
        51.66937692090869,
        85
      ],
      [
        0.0441974401473999,
        51.66941028088331,
        85.20000000000005
      ],
      [
        0.044211773201823235,
        51.66944498196244,
        87.60000000000002
      ],
      [
        0.044234320521354675,
        51.66947524063289,
        89.39999999999998
      ],
      [
        0.044249240309000015,
        51.66953005827963,
        90
      ],
      [
        0.04424320533871651,
        51.669550593942404,
        91.60000000000002
      ],
      [
        0.04423700273036957,
        51.669609770178795,
        94
      ],
      [
        0.044234320521354675,
        51.6696232650429,
        94.39999999999998
      ],
      [
        0.044232308864593506,
        51.6696338262409,
        94.79999999999995
      ],
      [
        0.04423096776008606,
        51.66964405216277,
        95.20000000000005
      ],
      [
        0.044229039922356606,
        51.669657630845904,
        95.60000000000002
      ],
      [
        0.04422945901751518,
        51.669669365510345,
        95.39999999999998
      ],
      [
        0.044230883941054344,
        51.66969258338213,
        95.79999999999995
      ],
      [
        0.044261813163757324,
        51.669799787923694,
        98.20000000000005
      ],
      [
        0.04428486339747906,
        51.66985728777945,
        98.20000000000005
      ],
      [
        0.044279079884290695,
        51.67005308903754,
        97.79999999999995
      ],
      [
        0.044307075440883636,
        51.67010597884655,
        97.79999999999995
      ],
      [
        0.04436960443854332,
        51.670261127874255,
        98.20000000000005
      ],
      [
        0.044399360194802284,
        51.670419378206134,
        99
      ],
      [
        0.0443972647190094,
        51.67055742815137,
        97
      ],
      [
        0.04443531855940819,
        51.67072020471096,
        93
      ],
      [
        0.044479239732027054,
        51.670922711491585,
        95
      ],
      [
        0.04476388916373253,
        51.67133350856602,
        104.39999999999998
      ],
      [
        0.04499875009059906,
        51.671475833281875,
        106.60000000000002
      ],
      [
        0.045272503048181534,
        51.671565687283874,
        105.60000000000002
      ],
      [
        0.04528272897005081,
        51.67154951021075,
        104.20000000000005
      ],
      [
        0.04529446363449097,
        51.671538949012756,
        103.39999999999998
      ],
      [
        0.0453033484518528,
        51.67151992209256,
        103.20000000000005
      ],
      [
        0.04530041478574276,
        51.671510534361005,
        103
      ],
      [
        0.04530133679509163,
        51.67150869034231,
        102.79999999999995
      ],
      [
        0.045309048146009445,
        51.671508103609085,
        104
      ],
      [
        0.04532773979008198,
        51.671511959284544,
        106
      ],
      [
        0.04530569538474083,
        51.67150994762778,
        106.79999999999995
      ],
      [
        0.04531080834567547,
        51.67150936089456,
        108.60000000000002
      ],
      [
        0.04528197459876537,
        51.67149452492595,
        102.79999999999995
      ],
      [
        0.04528180696070194,
        51.671493016183376,
        102.79999999999995
      ],
      [
        0.04534098319709301,
        51.671501230448484,
        104
      ],
      [
        0.04545631818473339,
        51.67153475806117,
        103.20000000000005
      ],
      [
        0.0454950425773859,
        51.67154288850725,
        103.39999999999998
      ],
      [
        0.04556209780275822,
        51.671562837436795,
        103.20000000000005
      ],
      [
        0.045580873265862465,
        51.67156811803579,
        103
      ],
      [
        0.04566284827888012,
        51.671581864356995,
        101.60000000000002
      ],
      [
        0.045699141919612885,
        51.6715900786221,
        101.60000000000002
      ],
      [
        0.04574432037770748,
        51.67160030454397,
        101.79999999999995
      ],
      [
        0.04577969200909138,
        51.6716091055423,
        101.60000000000002
      ],
      [
        0.04584917798638344,
        51.67163483798504,
        102.60000000000002
      ],
      [
        0.0460205040872097,
        51.671683033928275,
        105
      ],
      [
        0.04604179412126541,
        51.6716904938221,
        105.79999999999995
      ],
      [
        0.04606367088854313,
        51.67169803753495,
        106.60000000000002
      ],
      [
        0.046296268701553345,
        51.67178135365248,
        108.79999999999995
      ],
      [
        0.04641118459403515,
        51.67181261815131,
        109.20000000000005
      ],
      [
        0.04704485647380352,
        51.67202954180539,
        100.79999999999995
      ],
      [
        0.04705189727246761,
        51.6720375046134,
        96.39999999999998
      ],
      [
        0.047086095437407494,
        51.67203012853861,
        98.20000000000005
      ],
      [
        0.047102440148591995,
        51.6720253508538,
        100.39999999999998
      ],
      [
        0.047102104872465134,
        51.67202677577734,
        101.39999999999998
      ],
      [
        0.04712163470685482,
        51.672028452157974,
        101.60000000000002
      ],
      [
        0.04713236354291439,
        51.67202811688185,
        102.79999999999995
      ],
      [
        0.047140493988990784,
        51.672029457986355,
        101.79999999999995
      ],
      [
        0.04712766967713833,
        51.67201889678836,
        102.79999999999995
      ],
      [
        0.04714870825409889,
        51.672018226236105,
        105
      ],
      [
        0.04725264385342598,
        51.67209165170789,
        105
      ],
      [
        0.04727628082036972,
        51.672111516818404,
        104.39999999999998
      ],
      [
        0.04728793166577816,
        51.67212316766381,
        104.60000000000002
      ],
      [
        0.04730083979666233,
        51.672133561223745,
        104.20000000000005
      ],
      [
        0.047332942485809326,
        51.67215225286782,
        103.60000000000002
      ],
      [
        0.04734073765575886,
        51.672166837379336,
        102.79999999999995
      ],
      [
        0.047364961355924606,
        51.67218477465212,
        101.60000000000002
      ],
      [
        0.04739178344607353,
        51.67222165502608,
        98.20000000000005
      ],
      [
        0.047415755689144135,
        51.67224420234561,
        96.20000000000005
      ],
      [
        0.04743335768580437,
        51.67226607911289,
        94.20000000000005
      ],
      [
        0.04755196161568165,
        51.67242927476764,
        88.60000000000002
      ],
      [
        0.0475604273378849,
        51.672445787116885,
        88.79999999999995
      ],
      [
        0.04787139594554901,
        51.672852812334895,
        89.79999999999995
      ],
      [
        0.04833298735320568,
        51.673221783712506,
        97.20000000000005
      ],
      [
        0.048761721700429916,
        51.67358782142401,
        94.60000000000002
      ],
      [
        0.04912298172712326,
        51.67398260906339,
        93.60000000000002
      ],
      [
        0.049162209033966064,
        51.674230797216296,
        89.60000000000002
      ],
      [
        0.049116360023617744,
        51.67423347942531,
        89.20000000000005
      ],
      [
        0.048864735290408134,
        51.67427580803633,
        90.39999999999998
      ],
      [
        0.048873284831643105,
        51.67426658794284,
        90.79999999999995
      ],
      [
        0.04886574111878872,
        51.674268851056695,
        92.20000000000005
      ],
      [
        0.04886632785201073,
        51.67426918633282,
        92.20000000000005
      ],
      [
        0.04889532923698425,
        51.6742530092597,
        94.60000000000002
      ],
      [
        0.04893430508673191,
        51.67424513027072,
        95.20000000000005
      ],
      [
        0.04910806193947792,
        51.67420640587807,
        97
      ],
      [
        0.049123819917440414,
        51.67420716024935,
        97
      ],
      [
        0.049169501289725304,
        51.67420322075486,
        97
      ],
      [
        0.04921451210975647,
        51.67420707643032,
        97.60000000000002
      ],
      [
        0.04922800697386265,
        51.67420548386872,
        97.60000000000002
      ],
      [
        0.049254829064011574,
        51.674202466383576,
        97.79999999999995
      ],
      [
        0.049264635890722275,
        51.67420171201229,
        98
      ],
      [
        0.049276286736130714,
        51.67420598678291,
        98
      ],
      [
        0.0492805615067482,
        51.6742064896971,
        98
      ],
      [
        0.049290284514427185,
        51.674213111400604,
        98
      ],
      [
        0.0493045337498188,
        51.674210261553526,
        97.60000000000002
      ],
      [
        0.04930981434881687,
        51.67420950718224,
        97.39999999999998
      ],
      [
        0.04931400530040264,
        51.67420523241162,
        97.20000000000005
      ],
      [
        0.049314508214592934,
        51.674205819144845,
        97
      ],
      [
        0.0493143405765295,
        51.67420699261129,
        97
      ],
      [
        0.04931400530040264,
        51.67420690879226,
        97
      ],
      [
        0.04931367002427578,
        51.674204813316464,
        96.79999999999995
      ],
      [
        0.04933621734380722,
        51.67419978417456,
        95.39999999999998
      ],
      [
        0.04941861145198345,
        51.6742099262774,
        93
      ],
      [
        0.049490947276353836,
        51.67422065511346,
        89.20000000000005
      ],
      [
        0.049612317234277725,
        51.67427186854184,
        84
      ],
      [
        0.049715666100382805,
        51.67429843917489,
        82.60000000000002
      ],
      [
        0.04981750622391701,
        51.67430439032614,
        81.79999999999995
      ],
      [
        0.049833767116069794,
        51.67430883273482,
        81.79999999999995
      ],
      [
        0.049881711602211,
        51.67431587353349,
        82.20000000000005
      ],
      [
        0.0499274767935276,
        51.6743185557425,
        82.79999999999995
      ],
      [
        0.0501185841858387,
        51.67432953603566,
        84.20000000000005
      ],
      [
        0.050341542810201645,
        51.6743428632617,
        86
      ],
      [
        0.0506538525223732,
        51.67432811111212,
        86.60000000000002
      ],
      [
        0.05079533904790878,
        51.67431998066604,
        87
      ],
      [
        0.05087815225124359,
        51.674307910725474,
        86.39999999999998
      ],
      [
        0.050916457548737526,
        51.67430631816387,
        85.60000000000002
      ],
      [
        0.051046041771769524,
        51.6742857825011,
        85.60000000000002
      ],
      [
        0.05116271786391735,
        51.674289386719465,
        85.39999999999998
      ],
      [
        0.05124771036207676,
        51.67428754270077,
        85.20000000000005
      ],
      [
        0.05134393461048603,
        51.67428821325302,
        86.60000000000002
      ],
      [
        0.05149128846824169,
        51.67429508641362,
        88.79999999999995
      ],
      [
        0.05180569365620613,
        51.67443363927305,
        91.20000000000005
      ],
      [
        0.051914239302277565,
        51.67456087656319,
        93.20000000000005
      ],
      [
        0.05205212160944939,
        51.674649976193905,
        94.79999999999995
      ],
      [
        0.05209662951529026,
        51.67472465895116,
        97.39999999999998
      ],
      [
        0.052133677527308464,
        51.674758018925786,
        101
      ],
      [
        0.05212261341512203,
        51.674776542931795,
        101
      ],
      [
        0.05212588235735893,
        51.67477327398956,
        99.39999999999998
      ],
      [
        0.052126217633485794,
        51.67477612383664,
        99.39999999999998
      ],
      [
        0.052125295624136925,
        51.67477528564632,
        99.39999999999998
      ],
      [
        0.05212906748056412,
        51.67480353266001,
        101
      ],
      [
        0.052134934812784195,
        51.674811160191894,
        103.20000000000005
      ],
      [
        0.05215974524617195,
        51.67481099255383,
        104.79999999999995
      ],
      [
        0.05217910744249821,
        51.6747831646353,
        106.60000000000002
      ],
      [
        0.0522356852889061,
        51.6747866012156,
        103.39999999999998
      ],
      [
        0.05230424925684929,
        51.674799006432295,
        99
      ],
      [
        0.05245654843747616,
        51.67487687431276,
        94
      ],
      [
        0.05262712016701698,
        51.67495373636484,
        91.60000000000002
      ],
      [
        0.052657462656497955,
        51.67496932670474,
        91.20000000000005
      ],
      [
        0.052667856216430664,
        51.674975948408246,
        91.20000000000005
      ],
      [
        0.052676741033792496,
        51.674983240664005,
        91.20000000000005
      ],
      [
        0.05270557478070259,
        51.67500268667936,
        91
      ],
      [
        0.05275980569422245,
        51.67502414435148,
        91.79999999999995
      ],
      [
        0.0527872983366251,
        51.67503856122494,
        92.79999999999995
      ],
      [
        0.05280381068587303,
        51.67504359036684,
        93
      ],
      [
        0.052852509543299675,
        51.67506814934313,
        94.20000000000005
      ],
      [
        0.05288486368954182,
        51.675094636157155,
        94.60000000000002
      ],
      [
        0.05294194445014,
        51.67514065280557,
        96.39999999999998
      ],
      [
        0.053019141778349876,
        51.67523067444563,
        96.60000000000002
      ],
      [
        0.0530296191573143,
        51.67527727782726,
        96.39999999999998
      ],
      [
        0.05303632467985153,
        51.67529228143394,
        96.39999999999998
      ],
      [
        0.053055016323924065,
        51.67533486150205,
        95.39999999999998
      ],
      [
        0.053073037415742874,
        51.67536662891507,
        95.20000000000005
      ],
      [
        0.05308887921273708,
        51.67539311572909,
        95
      ],
      [
        0.05309860222041607,
        51.675402922555804,
        95
      ],
      [
        0.053104888647794724,
        51.675415243953466,
        94.79999999999995
      ],
      [
        0.05311368964612484,
        51.67542773298919,
        94.79999999999995
      ],
      [
        0.05314227193593979,
        51.675474839285016,
        95.39999999999998
      ],
      [
        0.053163645789027214,
        51.67549545876682,
        95
      ],
      [
        0.053239837288856506,
        51.67563518509269,
        95
      ],
      [
        0.05323665216565132,
        51.67567944154143,
        95
      ],
      [
        0.05323338322341442,
        51.675701485946774,
        95.20000000000005
      ],
      [
        0.05322852171957493,
        51.675726883113384,
        94.39999999999998
      ],
      [
        0.05322483368217945,
        51.67574029415846,
        94
      ],
      [
        0.053219133988022804,
        51.675749430432916,
        93.39999999999998
      ],
      [
        0.0532828364521265,
        51.675932658836246,
        88.79999999999995
      ],
      [
        0.05325408652424812,
        51.67598320171237,
        89
      ],
      [
        0.05319046787917614,
        51.67602972127497,
        88
      ],
      [
        0.053048813715577126,
        51.67606928385794,
        84.39999999999998
      ],
      [
        0.05299374461174011,
        51.67609761469066,
        83.79999999999995
      ],
      [
        0.05296382121741772,
        51.67615259997547,
        83.20000000000005
      ],
      [
        0.0529364962130785,
        51.67620155028999,
        84
      ],
      [
        0.05288838408887386,
        51.67625150643289,
        83.39999999999998
      ],
      [
        0.052683865651488304,
        51.676445715129375,
        85.60000000000002
      ],
      [
        0.05245361477136612,
        51.676588878035545,
        86.79999999999995
      ],
      [
        0.05234322510659695,
        51.676651909947395,
        86
      ],
      [
        0.05233442410826683,
        51.676658783107996,
        86
      ],
      [
        0.05206058733165264,
        51.676894230768085,
        87
      ],
      [
        0.05183335393667221,
        51.67704988270998,
        86.20000000000005
      ],
      [
        0.05168960429728031,
        51.67718332260847,
        88
      ],
      [
        0.05152682773768902,
        51.67762102559209,
        90.20000000000005
      ],
      [
        0.05146161653101444,
        51.67807364836335,
        89.60000000000002
      ],
      [
        0.05149028263986111,
        51.67840381152928,
        91.60000000000002
      ],
      [
        0.051555242389440536,
        51.67885601520538,
        91.79999999999995
      ],
      [
        0.051598744466900826,
        51.679317355155945,
        91.20000000000005
      ],
      [
        0.05158726125955582,
        51.67956009507179,
        89.79999999999995
      ],
      [
        0.05153043195605278,
        51.68000894598663,
        91.60000000000002
      ],
      [
        0.051457760855555534,
        51.680460730567575,
        92.60000000000002
      ],
      [
        0.05141903646290302,
        51.680879574269056,
        94.60000000000002
      ],
      [
        0.05142456851899624,
        51.68088812381029,
        94.39999999999998
      ],
      [
        0.0514249037951231,
        51.68088812381029,
        94.39999999999998
      ],
      [
        0.05142532289028168,
        51.68088803999126,
        94.39999999999998
      ],
      [
        0.05142624489963055,
        51.680888375267386,
        94.39999999999998
      ],
      [
        0.05142649635672569,
        51.68088812381029,
        94.39999999999998
      ],
      [
        0.0514270830899477,
        51.68088812381029,
        94.39999999999998
      ],
      [
        0.05143747664988041,
        51.68095098808408,
        95
      ],
      [
        0.05149162374436855,
        51.68108099140227,
        96.60000000000002
      ],
      [
        0.051503442227840424,
        51.68110974133015,
        97
      ],
      [
        0.051518697291612625,
        51.68114913627505,
        97.20000000000005
      ],
      [
        0.05152498371899128,
        51.681164894253016,
        97
      ],
      [
        0.0515566673129797,
        51.68124326504767,
        97.39999999999998
      ],
      [
        0.051561277359724045,
        51.681257262825966,
        97.60000000000002
      ],
      [
        0.05159396678209305,
        51.68129405938089,
        98.60000000000002
      ],
      [
        0.051663536578416824,
        51.681435042992234,
        100.79999999999995
      ]
    ]
  }
}
