{
  "type": "Feature",
  "properties": {
    "id": "intervals-178055278",
    "activity": "walking",
    "name": "Ko Samui Walking",
    "date": "2024-06-17T06:01:44Z",
    "distanceKm": 9.14,
    "movingTimeSeconds": 5676,
    "elapsedTimeSeconds": 5771,
    "ascentM": null,
    "descentM": null
  },
  "geometry": {
    "type": "LineString",
    "coordinates": [
      [
        100.04730116575956,
        9.472206383943558
      ],
      [
        100.04729873500764,
        9.472218286246061
      ],
      [
        100.04733108915389,
        9.472351223230362
      ],
      [
        100.04737107083201,
        9.472442166879773
      ],
      [
        100.04743108525872,
        9.472618522122502
      ],
      [
        100.04747324623168,
        9.472729917615652
      ],
      [
        100.0475462526083,
        9.472875008359551
      ],
      [
        100.0475787743926,
        9.472936196252704
      ],
      [
        100.04765521734953,
        9.473106684163213
      ],
      [
        100.04767340607941,
        9.473147671669722
      ],
      [
        100.04770718514919,
        9.473210452124476
      ],
      [
        100.04780575633049,
        9.473367109894753
      ],
      [
        100.04787046462297,
        9.473525360226631
      ],
      [
        100.04781975410879,
        9.473567018285394
      ],
      [
        100.04775219596922,
        9.473614040762186
      ],
      [
        100.04758698865771,
        9.473705319687724
      ],
      [
        100.04740920849144,
        9.473784612491727
      ],
      [
        100.0473890081048,
        9.47379743680358
      ],
      [
        100.04733276553452,
        9.473831802606583
      ],
      [
        100.04716663621366,
        9.473918471485376
      ],
      [
        100.04714819602668,
        9.473932217806578
      ],
      [
        100.04711248911917,
        9.473950825631618
      ],
      [
        100.04693990573287,
        9.47402324527502
      ],
      [
        100.04675801843405,
        9.47409893386066
      ],
      [
        100.04658560268581,
        9.47416397742927
      ],
      [
        100.04654151387513,
        9.474190883338451
      ],
      [
        100.0464978441596,
        9.474208150058985
      ],
      [
        100.04645970650017,
        9.47422700934112
      ],
      [
        100.0463048927486,
        9.474290879443288
      ],
      [
        100.04615787416697,
        9.474364221096039
      ],
      [
        100.04605645313859,
        9.474408393725753
      ],
      [
        100.04597992636263,
        9.47445415891707
      ],
      [
        100.04581706598401,
        9.474545018747449
      ],
      [
        100.0456463266164,
        9.474610984325409
      ],
      [
        100.04555596970022,
        9.474635710939765
      ],
      [
        100.04549444653094,
        9.474648954346776
      ],
      [
        100.04532144404948,
        9.474707627668977
      ],
      [
        100.04514081403613,
        9.474778538569808
      ],
      [
        100.04503863863647,
        9.474806115031242
      ],
      [
        100.04485356621444,
        9.474823884665966
      ],
      [
        100.0446642190218,
        9.474875768646598
      ],
      [
        100.04461141303182,
        9.474896220490336
      ],
      [
        100.04455156624317,
        9.474923377856612
      ],
      [
        100.04443597979844,
        9.475013064220548
      ],
      [
        100.04432860761881,
        9.475110713392496
      ],
      [
        100.04413984715939,
        9.47511238977313
      ],
      [
        100.04410464316607,
        9.475110545754433
      ],
      [
        100.0440323073417,
        9.475116832181811
      ],
      [
        100.0438475701958,
        9.475097050890326
      ],
      [
        100.04366467706859,
        9.475076096132398
      ],
      [
        100.04347859881818,
        9.475093446671963
      ],
      [
        100.04340953193605,
        9.475104929879308
      ],
      [
        100.0433795247227,
        9.475111635401845
      ],
      [
        100.04334021359682,
        9.475121023133397
      ],
      [
        100.04332847893238,
        9.475125214084983
      ],
      [
        100.04330584779382,
        9.475131584331393
      ],
      [
        100.04314072430134,
        9.475216660648584
      ],
      [
        100.04296738654375,
        9.475280698388815
      ],
      [
        100.04280209541321,
        9.475358733907342
      ],
      [
        100.04263940267265,
        9.475448001176119
      ],
      [
        100.04264158196747,
        9.475559312850237
      ],
      [
        100.04261727444828,
        9.47562008164823
      ],
      [
        100.04251434467733,
        9.475700380280614
      ],
      [
        100.0424693338573,
        9.475761400535703
      ],
      [
        100.04244309850037,
        9.475799957290292
      ],
      [
        100.04232726059854,
        9.475950244814157
      ],
      [
        100.0422896258533,
        9.475997351109982
      ],
      [
        100.0422708503902,
        9.476013025268912
      ],
      [
        100.04222265444696,
        9.476040685549378
      ],
      [
        100.04206985235214,
        9.476140597835183
      ],
      [
        100.04192325286567,
        9.476250233128667
      ],
      [
        100.04188477993011,
        9.476306978613138
      ],
      [
        100.0418358296156,
        9.476341176778078
      ],
      [
        100.04166450351477,
        9.476431030780077
      ],
      [
        100.04148756153882,
        9.476480484008789
      ],
      [
        100.04129435867071,
        9.476490374654531
      ],
      [
        100.04120064899325,
        9.476486267521977
      ],
      [
        100.04102362319827,
        9.476552400738
      ],
      [
        100.0408905185759,
        9.476590203121305
      ],
      [
        100.040816757828,
        9.476573774591088
      ],
      [
        100.0408117286861,
        9.476561956107616
      ],
      [
        100.04080368205905,
        9.476532032713294
      ],
      [
        100.04078457131982,
        9.476466150954366
      ],
      [
        100.0407789554447,
        9.476443100720644
      ],
      [
        100.04078038036823,
        9.476419379934669
      ],
      [
        100.040777111426,
        9.47637889534235
      ],
      [
        100.04078147001565,
        9.476354671642184
      ],
      [
        100.04077652469277,
        9.476165575906634
      ],
      [
        100.04076093435287,
        9.476021407172084
      ],
      [
        100.0407633651048,
        9.475913364440203
      ],
      [
        100.04075540229678,
        9.475882351398468
      ],
      [
        100.04077040590346,
        9.47569384239614
      ],
      [
        100.04076059907675,
        9.475599462166429
      ],
      [
        100.04075607284904,
        9.475572723895311
      ],
      [
        100.04071952775121,
        9.475380191579461
      ],
      [
        100.04067786969244,
        9.475191263481975
      ],
      [
        100.04062254913151,
        9.475011890754104
      ],
      [
        100.04059379920363,
        9.47482505813241
      ],
      [
        100.04055264405906,
        9.474732857197523
      ],
      [
        100.04052582196891,
        9.474721709266305
      ],
      [
        100.04033412784338,
        9.474715171381831
      ],
      [
        100.04026975482702,
        9.474713997915387
      ],
      [
        100.04025634378195,
        9.474715171381831
      ],
      [
        100.0401555094868,
        9.474720703437924
      ],
      [
        100.04012315534055,
        9.474728498607874
      ],
      [
        100.04007034935057,
        9.47472631931305
      ],
      [
        100.0400188844651,
        9.474736712872982
      ],
      [
        100.03997437655926,
        9.474744088947773
      ],
      [
        100.0399583671242,
        9.474746603518724
      ],
      [
        100.03987932577729,
        9.474758338183165
      ],
      [
        100.03984143957496,
        9.474765211343765
      ],
      [
        100.03968846984208,
        9.47481231763959
      ],
      [
        100.0396007951349,
        9.474833104759455
      ],
      [
        100.03946081735194,
        9.47483042255044
      ],
      [
        100.03938370384276,
        9.474822208285332
      ],
      [
        100.03920366056263,
        9.47474928572774
      ],
      [
        100.03916183486581,
        9.474733360111713
      ],
      [
        100.03913308493793,
        9.474721122533083
      ],
      [
        100.03909603692591,
        9.474704526364803
      ],
      [
        100.0389168318361,
        9.474648283794522
      ],
      [
        100.0388290733099,
        9.474635878577828
      ],
      [
        100.03869102336466,
        9.474691031500697
      ],
      [
        100.03865003585815,
        9.474700251594186
      ],
      [
        100.03846328705549,
        9.474716177210212
      ],
      [
        100.03826849162579,
        9.474730174988508
      ],
      [
        100.03814226016402,
        9.474727744236588
      ],
      [
        100.03805542364717,
        9.474740400910378
      ],
      [
        100.03799985162914,
        9.47474249638617
      ],
      [
        100.03782575950027,
        9.474794548004866
      ],
      [
        100.03763800486922,
        9.474827153608203
      ],
      [
        100.03746064379811,
        9.47487878613174
      ],
      [
        100.03734958358109,
        9.474891358986497
      ],
      [
        100.03728085197508,
        9.474915750324726
      ],
      [
        100.03712855279446,
        9.47495455853641
      ],
      [
        100.03694783896208,
        9.47500392794609
      ],
      [
        100.03678816370666,
        9.475055392831564
      ],
      [
        100.03668221645057,
        9.475094201043248
      ],
      [
        100.0365839805454,
        9.47513242252171
      ],
      [
        100.03649186342955,
        9.47515631094575
      ],
      [
        100.03643126226962,
        9.475170811638236
      ],
      [
        100.03637082874775,
        9.47518615052104
      ],
      [
        100.0361936353147,
        9.47522521018982
      ],
      [
        100.03612984903157,
        9.475251697003841
      ],
      [
        100.03609355539083,
        9.475258234888315
      ],
      [
        100.0359311979264,
        9.47528094984591
      ],
      [
        100.03589901141822,
        9.475286062806845
      ],
      [
        100.03571142442524,
        9.475335935130715
      ],
      [
        100.03559625707567,
        9.47535278275609
      ],
      [
        100.03555878996849,
        9.47534498758614
      ],
      [
        100.03552132286131,
        9.475301401689649
      ],
      [
        100.03550045192242,
        9.475259240716696
      ],
      [
        100.03545351326466,
        9.475219426676631
      ],
      [
        100.03543096594512,
        9.475220013409853
      ],
      [
        100.03534479998052,
        9.475259156897664
      ],
      [
        100.03531630150974,
        9.475280363112688
      ],
      [
        100.03524631261826,
        9.475340461358428
      ],
      [
        100.03522468730807,
        9.475371222943068
      ],
      [
        100.03521429374814,
        9.4753747433424
      ],
      [
        100.03517196513712,
        9.475365774706006
      ],
      [
        100.03512661904097,
        9.475341802462935
      ],
      [
        100.03509292379022,
        9.47532344609499
      ],
      [
        100.0350088533014,
        9.475272819399834
      ],
      [
        100.03489653579891,
        9.475125884637237
      ],
      [
        100.03480173647404,
        9.474970484152436
      ],
      [
        100.03478648141026,
        9.474945925176144
      ],
      [
        100.03474549390376,
        9.474898567423224
      ],
      [
        100.03467651084065,
        9.474798068404198
      ],
      [
        100.03466770984232,
        9.474790608510375
      ],
      [
        100.03463032655418,
        9.474754901602864
      ],
      [
        100.03455396741629,
        9.474727576598525
      ],
      [
        100.03440418280661,
        9.474830171093345
      ],
      [
        100.03436252474785,
        9.474845761433244
      ],
      [
        100.03424601629376,
        9.474926814436913
      ],
      [
        100.03407703712583,
        9.475026978179812
      ],
      [
        100.0340647995472,
        9.475033935159445
      ],
      [
        100.03403051756322,
        9.475050698965788
      ],
      [
        100.03387092612684,
        9.475144324824214
      ],
      [
        100.03369431942701,
        9.475220264866948
      ],
      [
        100.03353162668645,
        9.475304586812854
      ],
      [
        100.03348217345774,
        9.475322859361768
      ],
      [
        100.03345811739564,
        9.475334761664271
      ],
      [
        100.03328125923872,
        9.475412210449576
      ],
      [
        100.03317690454423,
        9.47548228316009
      ],
      [
        100.03316349349916,
        9.475491251796484
      ],
      [
        100.03299082629383,
        9.475566186010838
      ],
      [
        100.03294061869383,
        9.475584961473942
      ],
      [
        100.03276686184108,
        9.475657381117344
      ],
      [
        100.03259033896029,
        9.475730555132031
      ],
      [
        100.03241146914661,
        9.475803226232529
      ],
      [
        100.03234717994928,
        9.47585410438478
      ],
      [
        100.03234315663576,
        9.475860139355063
      ],
      [
        100.03232966177166,
        9.475871622562408
      ],
      [
        100.0323168374598,
        9.475882770493627
      ],
      [
        100.03221030347049,
        9.475967176258564
      ],
      [
        100.03219647333026,
        9.475985784083605
      ],
      [
        100.03208021633327,
        9.476069770753384
      ],
      [
        100.03200829960406,
        9.476115787401795
      ],
      [
        100.0319304317236,
        9.476170856505632
      ],
      [
        100.03190981224179,
        9.476188374683261
      ],
      [
        100.03180839121342,
        9.476254926994443
      ],
      [
        100.03178182058036,
        9.476268673315644
      ],
      [
        100.03174276091158,
        9.476307230070233
      ],
      [
        100.0317179504782,
        9.476327011361718
      ],
      [
        100.03156707622111,
        9.476429941132665
      ],
      [
        100.0314291100949,
        9.47656162083149
      ],
      [
        100.03127848729491,
        9.47668131440878
      ],
      [
        100.03120061941445,
        9.476755494251847
      ],
      [
        100.03119030967355,
        9.47676194831729
      ],
      [
        100.03104723058641,
        9.476855657994747
      ],
      [
        100.03096441738307,
        9.476932352408767
      ],
      [
        100.03084388561547,
        9.477068725973368
      ],
      [
        100.0307215936482,
        9.477196130901575
      ],
      [
        100.03069083206356,
        9.477228401228786
      ],
      [
        100.03062947653234,
        9.477280955761671
      ],
      [
        100.03059703856707,
        9.477314399555326
      ],
      [
        100.0305778440088,
        9.477334683761
      ],
      [
        100.03050056286156,
        9.477425627410412
      ],
      [
        100.03045907244086,
        9.477474074810743
      ],
      [
        100.03033778630197,
        9.477617824450135
      ],
      [
        100.03029026091099,
        9.477668199688196
      ],
      [
        100.03016092814505,
        9.477802477777004
      ],
      [
        100.03009898588061,
        9.477887554094195
      ],
      [
        100.0300706550479,
        9.477926613762975
      ],
      [
        100.03004802390933,
        9.477948239073157
      ],
      [
        100.02995188347995,
        9.478045888245106
      ],
      [
        100.02993310801685,
        9.478071369230747
      ],
      [
        100.02992388792336,
        9.478083355352283
      ],
      [
        100.02984677441418,
        9.478164995089173
      ],
      [
        100.02970998175442,
        9.478273121640086
      ],
      [
        100.02961375750601,
        9.478379404172301
      ],
      [
        100.02956648357213,
        9.478424498811364
      ],
      [
        100.02947746776044,
        9.47855425067246
      ],
      [
        100.02942147664726,
        9.478620300069451
      ],
      [
        100.02933296374977,
        9.478746866807342
      ],
      [
        100.02917932346463,
        9.478856837376952
      ],
      [
        100.02912299707532,
        9.478928335011005
      ],
      [
        100.02902677282691,
        9.47908298112452
      ],
      [
        100.02892258577049,
        9.479235280305147
      ],
      [
        100.02881538122892,
        9.479383388534188
      ],
      [
        100.02871823497117,
        9.47954323142767
      ],
      [
        100.02861304208636,
        9.47962579317391
      ],
      [
        100.02859166823328,
        9.479633923619986
      ],
      [
        100.02852846868336,
        9.47966636158526
      ],
      [
        100.02835630439222,
        9.47974406182766
      ],
      [
        100.02830140292645,
        9.479759903624654
      ],
      [
        100.02812203019857,
        9.479822684079409
      ],
      [
        100.028086155653,
        9.479830814525485
      ],
      [
        100.02802010625601,
        9.479858055710793
      ],
      [
        100.02794835716486,
        9.479894768446684
      ],
      [
        100.02784375101328,
        9.479933492839336
      ],
      [
        100.02777175046504,
        9.479963583871722
      ],
      [
        100.02766714431345,
        9.480024268850684
      ],
      [
        100.02752364613116,
        9.48013692162931
      ],
      [
        100.02745022065938,
        9.480259213596582
      ],
      [
        100.02741929143667,
        9.480330040678382
      ],
      [
        100.027359360829,
        9.480507737025619
      ],
      [
        100.02728501334786,
        9.480688869953156
      ],
      [
        100.02725852653384,
        9.480748297646642
      ],
      [
        100.02723983488977,
        9.480779059231281
      ],
      [
        100.02723455429077,
        9.480794817209244
      ],
      [
        100.02723069861531,
        9.480808144435287
      ],
      [
        100.02722474746406,
        9.480834631249309
      ],
      [
        100.02722332254052,
        9.480842929333448
      ],
      [
        100.02722013741732,
        9.480853909626603
      ],
      [
        100.02721603028476,
        9.480869332328439
      ],
      [
        100.02719884738326,
        9.480900345370173
      ],
      [
        100.02718895673752,
        9.48091585189104
      ],
      [
        100.02716448158026,
        9.480962371453643
      ],
      [
        100.02714595757425,
        9.480983158573508
      ],
      [
        100.02711955457926,
        9.481011740863323
      ],
      [
        100.026970859617,
        9.481136463582516
      ],
      [
        100.02682333812118,
        9.481247272342443
      ],
      [
        100.02677363343537,
        9.481282895430923
      ],
      [
        100.02675955183804,
        9.481294127181172
      ],
      [
        100.02669065259397,
        9.481353722512722
      ],
      [
        100.02665201202035,
        9.481389680877328
      ],
      [
        100.02649929374456,
        9.481497136875987
      ],
      [
        100.02640910446644,
        9.481530161574483
      ],
      [
        100.0262210983783,
        9.48152706027031
      ],
      [
        100.02617524936795,
        9.481525970622897
      ],
      [
        100.02601683139801,
        9.481547344475985
      ],
      [
        100.02595941536129,
        9.481550445780158
      ],
      [
        100.02590996213257,
        9.481547931209207
      ],
      [
        100.02585254609585,
        9.481539633125067
      ],
      [
        100.02579261548817,
        9.481542399153113
      ],
      [
        100.02572472207248,
        9.481554888188839
      ],
      [
        100.02570217475295,
        9.481569807976484
      ],
      [
        100.0256808847189,
        9.481581039726734
      ],
      [
        100.025670574978,
        9.481588248163462
      ],
      [
        100.02563830465078,
        9.481611885130405
      ],
      [
        100.02557510510087,
        9.481668127700686
      ],
      [
        100.02546530216932,
        9.481819169595838
      ],
      [
        100.02541157417,
        9.481888320297003
      ],
      [
        100.02539665438235,
        9.481909861788154
      ],
      [
        100.02538642846048,
        9.481930313631892
      ],
      [
        100.02537402324378,
        9.481950178742409
      ],
      [
        100.0253420881927,
        9.481992591172457
      ],
      [
        100.0252905394882,
        9.482117900624871
      ],
      [
        100.02518358640373,
        9.482280425727367
      ],
      [
        100.0251470413059,
        9.482388887554407
      ],
      [
        100.02514251507819,
        9.482454350218177
      ],
      [
        100.02505450509489,
        9.48260748758912
      ],
      [
        100.02499197609723,
        9.482647217810154
      ],
      [
        100.02494839020073,
        9.482664987444878
      ],
      [
        100.02487999387085,
        9.482685858383775
      ],
      [
        100.02486784011126,
        9.482692228630185
      ],
      [
        100.02474152483046,
        9.482780741527677
      ],
      [
        100.02457606606185,
        9.482881911098957
      ],
      [
        100.02443516626954,
        9.482931783422828
      ],
      [
        100.0243526045233,
        9.482960533350706
      ],
      [
        100.02429091371596,
        9.482980649918318
      ],
      [
        100.0241953600198,
        9.483032785356045
      ],
      [
        100.02405085600913,
        9.483155077323318
      ],
      [
        100.02389268949628,
        9.48326119221747
      ],
      [
        100.02372697927058,
        9.483351884409785
      ],
      [
        100.02363863401115,
        9.483407707884908
      ],
      [
        100.02361172810197,
        9.483428578823805
      ],
      [
        100.02357912249863,
        9.48344299569726
      ],
      [
        100.02341408282518,
        9.483521115034819
      ],
      [
        100.02327997237444,
        9.48356126435101
      ],
      [
        100.02314938232303,
        9.483611304312944
      ],
      [
        100.0229693390429,
        9.483667127788067
      ],
      [
        100.02293706871569,
        9.483675761148334
      ],
      [
        100.02292457967997,
        9.483683975413442
      ],
      [
        100.02290488220751,
        9.48368875309825
      ],
      [
        100.02286967821419,
        9.483695877715945
      ],
      [
        100.02282734960318,
        9.483713898807764
      ],
      [
        100.0228105019778,
        9.483718676492572
      ],
      [
        100.02279558219016,
        9.483722364529967
      ],
      [
        100.02278870902956,
        9.483731919899583
      ],
      [
        100.02276591025293,
        9.48373418301344
      ],
      [
        100.02273732796311,
        9.483728315681219
      ],
      [
        100.02271922305226,
        9.483741894364357
      ],
      [
        100.0226897187531,
        9.483755808323622
      ],
      [
        100.02267538569868,
        9.483764693140984
      ],
      [
        100.0226619746536,
        9.48377139866352
      ],
      [
        100.02262274734676,
        9.483785899356008
      ],
      [
        100.02243499271572,
        9.483845997601748
      ],
      [
        100.0223981961608,
        9.483872232958674
      ],
      [
        100.02236693166196,
        9.483902407810092
      ],
      [
        100.02233591862023,
        9.483927469700575
      ],
      [
        100.02229258418083,
        9.483949514105916
      ],
      [
        100.02210843376815,
        9.483921770006418
      ],
      [
        100.0220007263124,
        9.483812972903252
      ],
      [
        100.02183426171541,
        9.483733680099249
      ],
      [
        100.02166846767068,
        9.483626894652843
      ],
      [
        100.0215170904994,
        9.483617255464196
      ],
      [
        100.02139664255083,
        9.483632259070873
      ],
      [
        100.02128968946636,
        9.48365069925785
      ],
      [
        100.02116714604199,
        9.48371130041778
      ],
      [
        100.02112129703164,
        9.483732506632805
      ],
      [
        100.02092474140227,
        9.483738457784057
      ],
      [
        100.0208970811218,
        9.483733847737312
      ],
      [
        100.02083094790578,
        9.48370836675167
      ],
      [
        100.02064428292215,
        9.483685567975044
      ],
      [
        100.02057496458292,
        9.483711551874876
      ],
      [
        100.02054420299828,
        9.483734518289566
      ],
      [
        100.02042434178293,
        9.483798136934638
      ],
      [
        100.0202997867018,
        9.483892265707254
      ],
      [
        100.02021001651883,
        9.483940964564681
      ],
      [
        100.02010398544371,
        9.483988238498569
      ],
      [
        100.0200632493943,
        9.484012546017766
      ],
      [
        100.01988094300032,
        9.48407725431025
      ],
      [
        100.01971196383238,
        9.484158223494887
      ],
      [
        100.01956519670784,
        9.48418722487986
      ],
      [
        100.01942890696228,
        9.48425461538136
      ],
      [
        100.0193618517369,
        9.484290406107903
      ],
      [
        100.01922832801938,
        9.484399119392037
      ],
      [
        100.01915222033858,
        9.484421666711569
      ],
      [
        100.01896999776363,
        9.484459804371
      ],
      [
        100.01887595281005,
        9.484465504065156
      ],
      [
        100.01883354038,
        9.484465587884188
      ],
      [
        100.01872583292425,
        9.484491152688861
      ],
      [
        100.01863740384579,
        9.484485872089863
      ],
      [
        100.01859046518803,
        9.484479166567326
      ],
      [
        100.01857973635197,
        9.484474724158645
      ],
      [
        100.01856875605881,
        9.484474137425423
      ],
      [
        100.01851150766015,
        9.4844735506922
      ],
      [
        100.01841519959271,
        9.484478747472167
      ],
      [
        100.0182930752635,
        9.484503557905555
      ],
      [
        100.018270611763,
        9.484519651159644
      ],
      [
        100.01824873499572,
        9.484539600089192
      ],
      [
        100.01813256181777,
        9.48468997143209
      ],
      [
        100.01809693872929,
        9.48474956676364
      ],
      [
        100.0180686917156,
        9.484800947830081
      ],
      [
        100.01804178580642,
        9.48482290841639
      ],
      [
        100.0180031452328,
        9.484834307804704
      ],
      [
        100.01796433702111,
        9.48484193533659
      ],
      [
        100.0179357547313,
        9.484839839860797
      ],
      [
        100.01786258071661,
        9.484839588403702
      ],
      [
        100.01778672449291,
        9.4848638959229
      ],
      [
        100.01760290935636,
        9.484871942549944
      ],
      [
        100.01751598902047,
        9.484879318624735
      ],
      [
        100.01739403232932,
        9.484914606437087
      ],
      [
        100.01729529350996,
        9.484948385506868
      ],
      [
        100.01721725799143,
        9.48496020399034
      ],
      [
        100.01710334792733,
        9.48498073965311
      ],
      [
        100.01699195243418,
        9.485020386055112
      ],
      [
        100.01693830825388,
        9.485071180388331
      ],
      [
        100.0169203709811,
        9.48508626781404
      ],
      [
        100.01690888777375,
        9.485104959458113
      ],
      [
        100.01686035655439,
        9.48518450371921
      ],
      [
        100.01680679619312,
        9.485267484560609
      ],
      [
        100.01671249978244,
        9.485434954985976
      ],
      [
        100.01669707708061,
        9.48548843152821
      ],
      [
        100.01669280230999,
        9.485641652718186
      ],
      [
        100.01668123528361,
        9.485825132578611
      ],
      [
        100.01666966825724,
        9.485899647697806
      ],
      [
        100.016616191715,
        9.48603761382401
      ],
      [
        100.01662666909397,
        9.486091928556561
      ],
      [
        100.01661761663854,
        9.486140375956893
      ],
      [
        100.01660672016442,
        9.486152026802301
      ],
      [
        100.01657210290432,
        9.486205503344536
      ],
      [
        100.01655869185925,
        9.486242216080427
      ],
      [
        100.01654435880482,
        9.486258309334517
      ],
      [
        100.01651275902987,
        9.486301308497787
      ],
      [
        100.01650337129831,
        9.486334417015314
      ],
      [
        100.01647789031267,
        9.486376494169235
      ],
      [
        100.01641787588596,
        9.486481854692101
      ],
      [
        100.01639164052904,
        9.486550251021981
      ],
      [
        100.01634771935642,
        9.486654354259372
      ],
      [
        100.01633204519749,
        9.48667287826538
      ],
      [
        100.01633455976844,
        9.48668209835887
      ],
      [
        100.01631276682019,
        9.48669576086104
      ],
      [
        100.01631611958146,
        9.486698191612959
      ],
      [
        100.0163106713444,
        9.486678913235664
      ],
      [
        100.01630974933505,
        9.486678410321474
      ],
      [
        100.01630371436477,
        9.486675895750523
      ],
      [
        100.01629684120417,
        9.486677823588252
      ],
      [
        100.0162918958813,
        9.486683942377567
      ],
      [
        100.01628099940717,
        9.486684864386916
      ],
      [
        100.01628116704524,
        9.486687630414963
      ],
      [
        100.01629206351936,
        9.48668846860528
      ],
      [
        100.01629038713872,
        9.486686456948519
      ],
      [
        100.01629466190934,
        9.486687714233994
      ],
      [
        100.01629650592804,
        9.486688217148185
      ],
      [
        100.01629927195609,
        9.486689809709787
      ],
      [
        100.01630899496377,
        9.486688384786248
      ],
      [
        100.01633070409298,
        9.486630717292428
      ],
      [
        100.01634227111936,
        9.48660146445036
      ],
      [
        100.01637496054173,
        9.486548490822315
      ],
      [
        100.01639625057578,
        9.48652284219861
      ],
      [
        100.01642684452236,
        9.48648914694786
      ],
      [
        100.01653354614973,
        9.486339278519154
      ],
      [
        100.01660378649831,
        9.4861676171422
      ],
      [
        100.01662289723754,
        9.486105591058731
      ],
      [
        100.0166384037584,
        9.486050605773926
      ],
      [
        100.01665650866926,
        9.48595941066742
      ],
      [
        100.01667276956141,
        9.485771907493472
      ],
      [
        100.01669037155807,
        9.485583147034049
      ],
      [
        100.01671358942986,
        9.485526401549578
      ],
      [
        100.01679162494838,
        9.485396230593324
      ],
      [
        100.01691768877208,
        9.485252732411027
      ],
      [
        100.01701517030597,
        9.485120298340917
      ],
      [
        100.01719135791063,
        9.485048800706863
      ],
      [
        100.01737140119076,
        9.48499582707882
      ],
      [
        100.01754733733833,
        9.484932543709874
      ],
      [
        100.01767231151462,
        9.484885605052114
      ],
      [
        100.01786392182112,
        9.484846126288176
      ],
      [
        100.01799317076802,
        9.484838163480163
      ],
      [
        100.01811470836401,
        9.484683014452457
      ],
      [
        100.01821621321142,
        9.48452283628285
      ],
      [
        100.01839156262577,
        9.484467264264822
      ],
      [
        100.01844277605414,
        9.484476987272501
      ],
      [
        100.01859482377768,
        9.484481764957309
      ],
      [
        100.01871929503977,
        9.484475813806057
      ],
      [
        100.01891450956464,
        9.484486375004053
      ],
      [
        100.01910762861371,
        9.484440023079515
      ],
      [
        100.01917535439134,
        9.48441487737
      ],
      [
        100.0193586666137,
        9.484328124672174
      ],
      [
        100.01953426748514,
        9.484256878495216
      ],
      [
        100.01970048062503,
        9.4841817766428
      ],
      [
        100.01989418640733,
        9.484110279008746
      ],
      [
        100.02008059993386,
        9.484039703384042
      ],
      [
        100.02024999819696,
        9.483957309275866
      ],
      [
        100.02039416693151,
        9.483827389776707
      ],
      [
        100.02053691074252,
        9.483713814988732
      ],
      [
        100.02065937034786,
        9.483688501641154
      ],
      [
        100.02082776278257,
        9.483757065609097
      ],
      [
        100.02100420184433,
        9.483805345371366
      ],
      [
        100.02119262702763,
        9.483776930719614
      ],
      [
        100.02121903002262,
        9.483773577958345
      ],
      [
        100.0214274879545,
        9.48375471867621
      ],
      [
        100.02162823453546,
        9.483756646513939
      ],
      [
        100.02182378433645,
        9.483824875205755
      ],
      [
        100.02198865637183,
        9.48391548357904
      ],
      [
        100.02215906046331,
        9.484004247933626
      ],
      [
        100.02235511317849,
        9.483951525762677
      ],
      [
        100.02250959165394,
        9.483819846063852
      ],
      [
        100.02269759774208,
        9.48376259766519
      ],
      [
        100.02287982031703,
        9.483719011768699
      ],
      [
        100.02307143062353,
        9.483664277940989
      ],
      [
        100.02325256355107,
        9.483585739508271
      ],
      [
        100.02342531457543,
        9.483533604070544
      ],
      [
        100.02346521243453,
        9.483511559665203
      ],
      [
        100.02358029596508,
        9.483457580208778
      ],
      [
        100.02375514246523,
        9.483369067311287
      ],
      [
        100.02393837086856,
        9.48327829129994
      ],
      [
        100.02401347272098,
        9.483242835849524
      ],
      [
        100.02406921237707,
        9.483215427026153
      ],
      [
        100.02421044744551,
        9.483129177242517
      ],
      [
        100.02437934279442,
        9.483012584969401
      ],
      [
        100.0244855415076,
        9.48294410482049
      ],
      [
        100.02463867887855,
        9.482832290232182
      ],
      [
        100.0248087476939,
        9.482743609696627
      ],
      [
        100.02497940324247,
        9.482642523944378
      ],
      [
        100.02506414428353,
        9.482557447627187
      ],
      [
        100.02508107572794,
        9.482509838417172
      ],
      [
        100.0250883679837,
        9.482501540333033
      ],
      [
        100.02512600272894,
        9.482465581968427
      ],
      [
        100.02513086423278,
        9.4824462197721
      ],
      [
        100.02518626861274,
        9.482401041314006
      ],
      [
        100.02528735436499,
        9.482235247269273
      ],
      [
        100.02536782063544,
        9.482095437124372
      ],
      [
        100.0254472810775,
        9.481966523453593
      ],
      [
        100.02552573569119,
        9.481793101876974
      ],
      [
        100.02557602711022,
        9.481710875406861
      ],
      [
        100.02563620917499,
        9.48160920292139
      ],
      [
        100.0256893504411,
        9.481553630903363
      ],
      [
        100.02587953582406,
        9.481558660045266
      ],
      [
        100.02589303068817,
        9.481563521549106
      ],
      [
        100.02594944089651,
        9.48157642967999
      ],
      [
        100.02598405815661,
        9.481582213193178
      ],
      [
        100.02602244727314,
        9.481577100232244
      ],
      [
        100.02603678032756,
        9.481576848775148
      ],
      [
        100.0260796956718,
        9.481583470478654
      ],
      [
        100.02626468427479,
        9.48160232976079
      ],
      [
        100.02629385329783,
        9.481601743027568
      ],
      [
        100.02632461488247,
        9.481599647551775
      ],
      [
        100.02650558017194,
        9.481535190716386
      ],
      [
        100.02651781775057,
        9.481524880975485
      ],
      [
        100.026561236009,
        9.481495041400194
      ],
      [
        100.02666265703738,
        9.481437290087342
      ],
      [
        100.02672979608178,
        9.481387753039598
      ],
      [
        100.02687312662601,
        9.481268478557467
      ],
      [
        100.02695920877159,
        9.481217432767153
      ],
      [
        100.0270866136998,
        9.481089860200882
      ],
      [
        100.0271519087255,
        9.480986762791872
      ],
      [
        100.0271918065846,
        9.480924904346466
      ],
      [
        100.02727227285504,
        9.480752823874354
      ],
      [
        100.02733974717557,
        9.480581330135465
      ],
      [
        100.02740604802966,
        9.480410842224956
      ],
      [
        100.02742256037891,
        9.48038561269641
      ],
      [
        100.02753647044301,
        9.480249155312777
      ],
      [
        100.02754577435553,
        9.480243287980556
      ],
      [
        100.02755834721029,
        9.480235744267702
      ],
      [
        100.02756932750344,
        9.480225183069706
      ],
      [
        100.02758726477623,
        9.480201546102762
      ],
      [
        100.02766320481896,
        9.480128288269043
      ],
      [
        100.02784048207104,
        9.480025609955192
      ],
      [
        100.02801750786602,
        9.479941539466381
      ],
      [
        100.02819051034749,
        9.479865934699774
      ],
      [
        100.02826686948538,
        9.479838525876403
      ],
      [
        100.02842562273145,
        9.479775158688426
      ],
      [
        100.02845345064998,
        9.479760741814971
      ],
      [
        100.0284987129271,
        9.479738529771566
      ],
      [
        100.02865947782993,
        9.479648591950536
      ],
      [
        100.02869476564229,
        9.479608358815312
      ],
      [
        100.02883893437684,
        9.479475589469075
      ],
      [
        100.0289461389184,
        9.47931163944304
      ],
      [
        100.02898159436882,
        9.47925011627376
      ],
      [
        100.02910061739385,
        9.479108965024352
      ],
      [
        100.02923355437815,
        9.47897787205875
      ],
      [
        100.02934059128165,
        9.478822387754917
      ],
      [
        100.02942139282823,
        9.478658437728882
      ],
      [
        100.02951057627797,
        9.478592136874795
      ],
      [
        100.02961861900985,
        9.478504797443748
      ],
      [
        100.02963932231069,
        9.478486524894834
      ],
      [
        100.02973915077746,
        9.47838133201003
      ],
      [
        100.02980285324156,
        9.478323077782989
      ],
      [
        100.02993185073137,
        9.478191314265132
      ],
      [
        100.03004760481417,
        9.478044463321567
      ],
      [
        100.03015950322151,
        9.477895768359303
      ],
      [
        100.03028003498912,
        9.477751851081848
      ],
      [
        100.03033569082618,
        9.47769577614963
      ],
      [
        100.03037424758077,
        9.477651184424758
      ],
      [
        100.03048949874938,
        9.477506261318922
      ],
      [
        100.03049503080547,
        9.477473152801394
      ],
      [
        100.03049628809094,
        9.477459071204066
      ],
      [
        100.03048807382584,
        9.477461082860827
      ],
      [
        100.03048681654036,
        9.477459155023098
      ],
      [
        100.03049368970096,
        9.477436440065503
      ],
      [
        100.03053098917007,
        9.477413892745972
      ],
      [
        100.03058698028326,
        9.477372989058495
      ],
      [
        100.03065043129027,
        9.477312806993723
      ],
      [
        100.03070935606956,
        9.477256815880537
      ],
      [
        100.03082410432398,
        9.477140307426453
      ],
      [
        100.03088269382715,
        9.477089429274201
      ],
      [
        100.03091890364885,
        9.477053135633469
      ],
      [
        100.03098612651229,
        9.476987002417445
      ],
      [
        100.03104446455836,
        9.476922461763024
      ],
      [
        100.03105452284217,
        9.476914079859853
      ],
      [
        100.03111445344985,
        9.476862866431475
      ],
      [
        100.03119617700577,
        9.476786842569709
      ],
      [
        100.03128552809358,
        9.476695396006107
      ],
      [
        100.03134772181511,
        9.47664326056838
      ],
      [
        100.03149189054966,
        9.476526081562042
      ],
      [
        100.03156003542244,
        9.476490123197436
      ],
      [
        100.0316386576742,
        9.476455841213465
      ],
      [
        100.03170504234731,
        9.47642776183784
      ],
      [
        100.03176002763212,
        9.47638132609427
      ],
      [
        100.0318506360054,
        9.476311588659883
      ],
      [
        100.03200042061508,
        9.476203126832843
      ],
      [
        100.03213318996131,
        9.47612525895238
      ],
      [
        100.0321926176548,
        9.476073291152716
      ],
      [
        100.03225598484278,
        9.475993243977427
      ],
      [
        100.03234248608351,
        9.475920824334025
      ],
      [
        100.03242613747716,
        9.47589609771967
      ],
      [
        100.03248145803809,
        9.475873550400138
      ],
      [
        100.03250878304243,
        9.4758634082973
      ],
      [
        100.03254289738834,
        9.475841447710991
      ],
      [
        100.03261565230787,
        9.475812446326017
      ],
      [
        100.03274330869317,
        9.47576466947794
      ],
      [
        100.0327848829329,
        9.475751845166087
      ],
      [
        100.03294707275927,
        9.475641455501318
      ],
      [
        100.03303365781903,
        9.475591666996479
      ],
      [
        100.03304463811219,
        9.475585464388132
      ],
      [
        100.03318402916193,
        9.475553780794144
      ],
      [
        100.033213282004,
        9.475545650348067
      ],
      [
        100.03330606967211,
        9.475479433313012
      ],
      [
        100.03339382819831,
        9.47542855516076
      ],
      [
        100.03348007798195,
        9.475392429158092
      ],
      [
        100.03358912654221,
        9.47533568367362
      ],
      [
        100.0336670782417,
        9.475295199081302
      ],
      [
        100.03367730416358,
        9.475293271243572
      ],
      [
        100.03379783593118,
        9.475212637335062
      ],
      [
        100.03397519700229,
        9.475133428350091
      ],
      [
        100.03411006182432,
        9.475106103345752
      ],
      [
        100.03415716812015,
        9.475086741149426
      ],
      [
        100.03418918699026,
        9.475067043676972
      ],
      [
        100.03433218225837,
        9.474949864670634
      ],
      [
        100.03439814783633,
        9.474898986518383
      ],
      [
        100.03452940844,
        9.4747703243047
      ],
      [
        100.03464474342763,
        9.47479085996747
      ],
      [
        100.03468070179224,
        9.47483235038817
      ],
      [
        100.03475915640593,
        9.474916756153107
      ],
      [
        100.03478706814349,
        9.474962018430233
      ],
      [
        100.03481967374682,
        9.475047262385488
      ],
      [
        100.03484750166535,
        9.47509721852839
      ],
      [
        100.03486200235784,
        9.475114904344082
      ],
      [
        100.03488496877253,
        9.47518321685493
      ],
      [
        100.03495747223496,
        9.475301317870617
      ],
      [
        100.03497909754515,
        9.475333169102669
      ],
      [
        100.03503441810608,
        9.475366109982133
      ],
      [
        100.03514497540891,
        9.47538547217846
      ],
      [
        100.03521387465298,
        9.475313890725374
      ],
      [
        100.03528621047735,
        9.475267706438899
      ],
      [
        100.0353545229882,
        9.475236525759101
      ],
      [
        100.03538997843862,
        9.475249601528049
      ],
      [
        100.03541914746165,
        9.475283212959766
      ],
      [
        100.03543046303093,
        9.475303078070283
      ],
      [
        100.03543993458152,
        9.47532537393272
      ],
      [
        100.03546357154846,
        9.475361835211515
      ],
      [
        100.0354789942503,
        9.475384717807174
      ],
      [
        100.03552727401257,
        9.475430231541395
      ],
      [
        100.0355965923518,
        9.475431153550744
      ],
      [
        100.03561260178685,
        9.475429141893983
      ],
      [
        100.03571469336748,
        9.475417323410511
      ],
      [
        100.0357462093234,
        9.475405421108007
      ],
      [
        100.03583430312574,
        9.475369630381465
      ],
      [
        100.03601711243391,
        9.475321434438229
      ],
      [
        100.03606363199651,
        9.475290672853589
      ],
      [
        100.03622774966061,
        9.475235855206847
      ],
      [
        100.0363057013601,
        9.475221186876297
      ],
      [
        100.0363754387945,
        9.475214397534728
      ],
      [
        100.03656160086393,
        9.475184809416533
      ],
      [
        100.03667140379548,
        9.475179444998503
      ],
      [
        100.0367190130055,
        9.475170141085982
      ],
      [
        100.0367568153888,
        9.475158238783479
      ],
      [
        100.03689285367727,
        9.475119011476636
      ],
      [
        100.03700844012201,
        9.475065870210528
      ],
      [
        100.03702218644321,
        9.475062685087323
      ],
      [
        100.0370364356786,
        9.475066792219877
      ],
      [
        100.0370433088392,
        9.475060505792499
      ],
      [
        100.03717859275639,
        9.47502781637013
      ],
      [
        100.03724254667759,
        9.475008537992835
      ],
      [
        100.03741739317775,
        9.47498775087297
      ],
      [
        100.03753742203116,
        9.474908458068967
      ],
      [
        100.0375663395971,
        9.474887754768133
      ],
      [
        100.03766566514969,
        9.474820448085666
      ],
      [
        100.03767815418541,
        9.474816005676985
      ],
      [
        100.03783011808991,
        9.474782394245267
      ],
      [
        100.03801938146353,
        9.474767474457622
      ],
      [
        100.03820311278105,
        9.47473713196814
      ],
      [
        100.03824091516435,
        9.474745262414217
      ],
      [
        100.03833571448922,
        9.474756410345435
      ],
      [
        100.03840679302812,
        9.474755739793181
      ],
      [
        100.0384994968772,
        9.474743250757456
      ],
      [
        100.03867660649121,
        9.474732438102365
      ],
      [
        100.03871801309288,
        9.4747029338032
      ],
      [
        100.03872857429087,
        9.474696144461632
      ],
      [
        100.03881834447384,
        9.474679548293352
      ],
      [
        100.0389585737139,
        9.474709136411548
      ],
      [
        100.03912126645446,
        9.4747962243855
      ],
      [
        100.03930231556296,
        9.474807037040591
      ],
      [
        100.03942360170186,
        9.474892364814878
      ],
      [
        100.03951630555093,
        9.474863028153777
      ],
      [
        100.03968075849116,
        9.474796475842595
      ],
      [
        100.03972006961703,
        9.474788177758455
      ],
      [
        100.0398946646601,
        9.474758841097355
      ],
      [
        100.03999533131719,
        9.474748447537422
      ],
      [
        100.0400479696691,
        9.474741239100695
      ],
      [
        100.04007479175925,
        9.474739981815219
      ],
      [
        100.04010848701,
        9.47473470121622
      ],
      [
        100.04030453972518,
        9.474715674296021
      ],
      [
        100.04045616835356,
        9.474709052592516
      ],
      [
        100.04048491828144,
        9.47475666180253
      ],
      [
        100.0404800567776,
        9.474776107817888
      ],
      [
        100.04048634320498,
        9.474847605451941
      ],
      [
        100.04049765877426,
        9.474875768646598
      ],
      [
        100.0405228883028,
        9.474909715354443
      ],
      [
        100.04052959382534,
        9.474918432533741
      ],
      [
        100.0405590981245,
        9.475001664832234
      ],
      [
        100.04062179476023,
        9.475178774446249
      ],
      [
        100.04063352942467,
        9.475216493010521
      ],
      [
        100.04067250527442,
        9.475360158830881
      ],
      [
        100.04066881723702,
        9.47540600784123
      ],
      [
        100.04068717360497,
        9.475515224039555
      ],
      [
        100.04072405397892,
        9.475696524605155
      ],
      [
        100.04071625880897,
        9.475885620340705
      ],
      [
        100.04070569761097,
        9.475970529019833
      ],
      [
        100.04069949500263,
        9.47603297419846
      ],
      [
        100.04069639369845,
        9.476061388850212
      ],
      [
        100.04069237038493,
        9.476077565923333
      ],
      [
        100.0406959746033,
        9.47620254009962
      ],
      [
        100.04066697321832,
        9.476296668872237
      ],
      [
        100.04070024937391,
        9.476478304713964
      ],
      [
        100.04077057354152,
        9.476595986634493
      ],
      [
        100.04087115637958,
        9.476594645529985
      ],
      [
        100.04104063846171,
        9.476540498435497
      ],
      [
        100.04121012054384,
        9.476489536464214
      ],
      [
        100.04123945720494,
        9.476480400189757
      ],
      [
        100.04126963205636,
        9.476476963609457
      ],
      [
        100.04128849133849,
        9.47647419758141
      ],
      [
        100.041488064453,
        9.476471599191427
      ],
      [
        100.04167414270341,
        9.476450141519308
      ],
      [
        100.04167900420725,
        9.476455170661211
      ],
      [
        100.04173935391009,
        9.476448213681579
      ],
      [
        100.04176835529506,
        9.476437903940678
      ],
      [
        100.04180984571576,
        9.47641359642148
      ],
      [
        100.04184303805232,
        9.476381661370397
      ],
      [
        100.04193666391075,
        9.47630312293768
      ],
      [
        100.0420044735074,
        9.476255346089602
      ],
      [
        100.04213623702526,
        9.476174293085933
      ],
      [
        100.04219247959554,
        9.476120481267571
      ],
      [
        100.0422586966306,
        9.476069016382098
      ],
      [
        100.0422983430326,
        9.476020988076925
      ],
      [
        100.04235978238285,
        9.475915543735027
      ],
      [
        100.04237403161824,
        9.475903725251555
      ],
      [
        100.04247905686498,
        9.47574413381517
      ],
      [
        100.04257678985596,
        9.475643886253238
      ],
      [
        100.04259254783392,
        9.475600132718682
      ],
      [
        100.04259254783392,
        9.475585045292974
      ],
      [
        100.0425967387855,
        9.475522097200155
      ],
      [
        100.0426178611815,
        9.475494772195816
      ],
      [
        100.04269111901522,
        9.475452192127705
      ],
      [
        100.04286546260118,
        9.475388992577791
      ],
      [
        100.04295866936445,
        9.475352615118027
      ],
      [
        100.04299035295844,
        9.47533761151135
      ],
      [
        100.04314357414842,
        9.47523065842688
      ],
      [
        100.04319168627262,
        9.47519889101386
      ],
      [
        100.04321322776377,
        9.475180869922042
      ],
      [
        100.04339377395809,
        9.475132171064615
      ],
      [
        100.04348454996943,
        9.475123537704349
      ],
      [
        100.04354481585324,
        9.475119095295668
      ],
      [
        100.04368395544589,
        9.475141977891326
      ],
      [
        100.04371471703053,
        9.475146252661943
      ],
      [
        100.04378822632134,
        9.475168799981475
      ],
      [
        100.04397388547659,
        9.47515731677413
      ],
      [
        100.04413766786456,
        9.475175337865949
      ],
      [
        100.0441496539861,
        9.4751812890172
      ],
      [
        100.04433053545654,
        9.475160082802176
      ],
      [
        100.04447436891496,
        9.475029911845922
      ],
      [
        100.04463639110327,
        9.474924299865961
      ],
      [
        100.04466405138373,
        9.474927820265293
      ],
      [
        100.0448473636061,
        9.474874846637249
      ],
      [
        100.0449108146131,
        9.474872667342424
      ],
      [
        100.04498273134232,
        9.474867889657617
      ],
      [
        100.04501139745116,
        9.474857747554779
      ],
      [
        100.04507786594331,
        9.474841319024563
      ],
      [
        100.04522798582911,
        9.474803684279323
      ],
      [
        100.04526687785983,
        9.47479572147131
      ],
      [
        100.0454478431493,
        9.474754314869642
      ],
      [
        100.04562956281006,
        9.474702849984169
      ],
      [
        100.04580046981573,
        9.474642416462302
      ],
      [
        100.04596458747983,
        9.474558094516397
      ],
      [
        100.04606525413692,
        9.47450210340321
      ],
      [
        100.04616768099368,
        9.47443027049303
      ],
      [
        100.04618855193257,
        9.47441853582859
      ],
      [
        100.04629852250218,
        9.474374111741781
      ],
      [
        100.04647605121136,
        9.474312337115407
      ],
      [
        100.04663388244808,
        9.474220722913742
      ],
      [
        100.0468189548701,
        9.47418057359755
      ],
      [
        100.04688223823905,
        9.474162887781858
      ],
      [
        100.04690813831985,
        9.474152075126767
      ],
      [
        100.0469761993736,
        9.474075296893716
      ],
      [
        100.04715314134955,
        9.473995249718428
      ],
      [
        100.0471849925816,
        9.473996507003903
      ],
      [
        100.04722053185105,
        9.473975049331784
      ],
      [
        100.04726311191916,
        9.473939090967178
      ],
      [
        100.04729370586574,
        9.473919309675694
      ],
      [
        100.04731323570013,
        9.473905395716429
      ],
      [
        100.04741155542433,
        9.47384680621326
      ],
      [
        100.04741800948977,
        9.473838256672025
      ],
      [
        100.04750266671181,
        9.473777152597904
      ],
      [
        100.0475705601275,
        9.473729375749826
      ],
      [
        100.04761783406138,
        9.473706241697073
      ],
      [
        100.04770576022565,
        9.473672630265355
      ],
      [
        100.04779620096087,
        9.473618566989899
      ],
      [
        100.0478050019592,
        9.473590487614274
      ],
      [
        100.0478050019592,
        9.473565090447664
      ],
      [
        100.0477896630764,
        9.473495772108436
      ],
      [
        100.04778974689543,
        9.473464507609606
      ],
      [
        100.04778563976288,
        9.473436260595918
      ],
      [
        100.04778170026839,
        9.47341832332313
      ],
      [
        100.04777658730745,
        9.47340851649642
      ],
      [
        100.04776434972882,
        9.473356632515788
      ],
      [
        100.04775269888341,
        9.47325948625803
      ],
      [
        100.04774624481797,
        9.47318815626204
      ],
      [
        100.04773844964802,
        9.473180277273059
      ],
      [
        100.04768832586706,
        9.473101235926151
      ],
      [
        100.04765823483467,
        9.473033929243684
      ],
      [
        100.04764339886606,
        9.472976429387927
      ],
      [
        100.04763468168676,
        9.472963605076075
      ],
      [
        100.04762864671648,
        9.472952373325825
      ],
      [
        100.04761749878526,
        9.472903506830335
      ],
      [
        100.04755379632115,
        9.47275816462934
      ],
      [
        100.04752278327942,
        9.472683481872082
      ],
      [
        100.04753485321999,
        9.47267853654921
      ],
      [
        100.04753795452416,
        9.472675435245037
      ],
      [
        100.04753795452416,
        9.472675435245037
      ]
    ]
  }
}
