{
  "type": "Feature",
  "properties": {
    "id": "intervals-178054704",
    "activity": "walking",
    "name": "West Midlands Other",
    "date": "2017-12-24T11:24:53Z",
    "distanceKm": 8.04,
    "movingTimeSeconds": 3699,
    "elapsedTimeSeconds": 11069,
    "ascentM": 263,
    "descentM": 278,
    "providers": [
      "Garmin"
    ]
  },
  "geometry": {
    "type": "LineString",
    "coordinates": [
      [
        -1.8147765845060349,
        52.44200700893998,
        115.60000000000002
      ],
      [
        -1.8147942703217268,
        52.44201044552028,
        115.79999999999995
      ],
      [
        -1.8149053305387497,
        52.44193458929658,
        113.79999999999995
      ],
      [
        -1.8149201665073633,
        52.441907515749335,
        113.39999999999998
      ],
      [
        -1.8151992000639439,
        52.44183828122914,
        124
      ],
      [
        -1.815185034647584,
        52.4418022390455,
        125.20000000000005
      ],
      [
        -1.815181514248252,
        52.44179771281779,
        125.60000000000002
      ],
      [
        -1.8151742219924927,
        52.44177516549826,
        125.39999999999998
      ],
      [
        -1.8151356652379036,
        52.441644575446844,
        123.39999999999998
      ],
      [
        -1.8151049874722958,
        52.441508285701275,
        121.39999999999998
      ],
      [
        -1.8151039816439152,
        52.44144843891263,
        121.39999999999998
      ],
      [
        -1.815104065462947,
        52.44141776114702,
        121.39999999999998
      ],
      [
        -1.8151163030415773,
        52.44135556742549,
        121.20000000000005
      ],
      [
        -1.8151327315717936,
        52.44124509394169,
        120.39999999999998
      ],
      [
        -1.8152665067464113,
        52.440799344331026,
        119.20000000000005
      ],
      [
        -1.815388798713684,
        52.440350241959095,
        118.60000000000002
      ],
      [
        -1.8155700992792845,
        52.43990298360586,
        115.60000000000002
      ],
      [
        -1.8158118333667517,
        52.4394693877548,
        114.79999999999995
      ],
      [
        -1.8160097301006317,
        52.439025146886706,
        113.20000000000005
      ],
      [
        -1.8161184433847666,
        52.4386543314904,
        109.39999999999998
      ],
      [
        -1.816093884408474,
        52.43819919414818,
        107.60000000000002
      ],
      [
        -1.8159809801727533,
        52.437755623832345,
        106.39999999999998
      ],
      [
        -1.8160310201346874,
        52.4372951220721,
        114.20000000000005
      ],
      [
        -1.816206956282258,
        52.43685046210885,
        111.39999999999998
      ],
      [
        -1.8163897655904293,
        52.436417201533914,
        113.39999999999998
      ],
      [
        -1.8164311721920967,
        52.43629490956664,
        111.39999999999998
      ],
      [
        -1.816514153033495,
        52.43589190766215,
        115.20000000000005
      ],
      [
        -1.8165594153106213,
        52.43573474697769,
        114.79999999999995
      ],
      [
        -1.8165921047329903,
        52.435623267665505,
        114
      ],
      [
        -1.8166734091937542,
        52.43525999598205,
        116.60000000000002
      ],
      [
        -1.8166728224605322,
        52.435033936053514,
        110.20000000000005
      ],
      [
        -1.816674917936325,
        52.43502060882747,
        110
      ],
      [
        -1.8166768457740545,
        52.43499571457505,
        109.20000000000005
      ],
      [
        -1.8166682962328196,
        52.434818521142006,
        108
      ],
      [
        -1.8166788574308157,
        52.43453722447157,
        106.20000000000005
      ],
      [
        -1.8166604172438383,
        52.43444250896573,
        108
      ],
      [
        -1.8166596628725529,
        52.43416825309396,
        111.60000000000002
      ],
      [
        -1.8166633509099483,
        52.43373457342386,
        111.60000000000002
      ],
      [
        -1.8166923522949219,
        52.433559726923704,
        112.79999999999995
      ],
      [
        -1.8167832121253014,
        52.43310349993408,
        116.39999999999998
      ],
      [
        -1.8167993053793907,
        52.43296871893108,
        116.79999999999995
      ],
      [
        -1.8167734052985907,
        52.432950446382165,
        116.79999999999995
      ],
      [
        -1.816521780565381,
        52.43293058127165,
        117
      ],
      [
        -1.8157871067523956,
        52.43298690766096,
        114.79999999999995
      ],
      [
        -1.815049834549427,
        52.433033091947436,
        116
      ],
      [
        -1.8143063597381115,
        52.43298523128033,
        116.60000000000002
      ],
      [
        -1.813938394188881,
        52.43294432759285,
        117
      ],
      [
        -1.813601776957512,
        52.432791441679,
        117.79999999999995
      ],
      [
        -1.813149405643344,
        52.4325393140316,
        108.39999999999998
      ],
      [
        -1.8129910714924335,
        52.43234334513545,
        111.79999999999995
      ],
      [
        -1.8128572963178158,
        52.432244857773185,
        118.39999999999998
      ],
      [
        -1.812725616618991,
        52.431915532797575,
        122.20000000000005
      ],
      [
        -1.812669625505805,
        52.43151697330177,
        116.79999999999995
      ],
      [
        -1.8125578947365284,
        52.43117147125304,
        119.20000000000005
      ],
      [
        -1.8125808611512184,
        52.431020848453045,
        119.60000000000002
      ],
      [
        -1.8124507740139961,
        52.43057149462402,
        116.79999999999995
      ],
      [
        -1.8123597465455532,
        52.430120296776295,
        123.79999999999995
      ],
      [
        -1.812201663851738,
        52.429772866889834,
        118.20000000000005
      ],
      [
        -1.812001084908843,
        52.42953364737332,
        115.79999999999995
      ],
      [
        -1.811531949788332,
        52.42917691357434,
        117.79999999999995
      ],
      [
        -1.811495739966631,
        52.42916098795831,
        118.20000000000005
      ],
      [
        -1.8112707696855068,
        52.42904406040907,
        119.79999999999995
      ],
      [
        -1.811253922060132,
        52.42903391830623,
        119.79999999999995
      ],
      [
        -1.8112392537295818,
        52.42902494966984,
        119.39999999999998
      ],
      [
        -1.8112219870090485,
        52.429016567766666,
        119.39999999999998
      ],
      [
        -1.811202708631754,
        52.42900692857802,
        119.39999999999998
      ],
      [
        -1.8111234158277512,
        52.42895144037902,
        119
      ],
      [
        -1.810721168294549,
        52.428692607209086,
        118.20000000000005
      ],
      [
        -1.8105340003967285,
        52.42859370075166,
        118
      ],
      [
        -1.8104794342070818,
        52.4285605084151,
        118.39999999999998
      ],
      [
        -1.8102233670651913,
        52.42842807434499,
        117.60000000000002
      ],
      [
        -1.8100648652762175,
        52.42834232747555,
        119.20000000000005
      ],
      [
        -1.8097085505723953,
        52.428129678592086,
        116
      ],
      [
        -1.8096333649009466,
        52.42770488373935,
        118.79999999999995
      ],
      [
        -1.809806702658534,
        52.42744588293135,
        117.20000000000005
      ],
      [
        -1.809838805347681,
        52.42740573361516,
        116.79999999999995
      ],
      [
        -1.8099509552121162,
        52.427203226834536,
        116.39999999999998
      ],
      [
        -1.8100494425743818,
        52.426996948197484,
        122
      ],
      [
        -1.8100501969456673,
        52.426935425028205,
        123.20000000000005
      ],
      [
        -1.810053801164031,
        52.42692067287862,
        123.60000000000002
      ],
      [
        -1.8100681342184544,
        52.426865603774786,
        124.39999999999998
      ],
      [
        -1.8101910967379808,
        52.4266457464546,
        128.60000000000002
      ],
      [
        -1.8103240337222815,
        52.426468804478645,
        130.39999999999998
      ],
      [
        -1.8105292227119207,
        52.42617594078183,
        135.60000000000002
      ],
      [
        -1.8107387702912092,
        52.42601274512708,
        135.39999999999998
      ],
      [
        -1.8110105954110622,
        52.425769586116076,
        130.60000000000002
      ],
      [
        -1.8111633975058794,
        52.42559113539755,
        131.20000000000005
      ],
      [
        -1.8113834224641323,
        52.42517380043864,
        131.39999999999998
      ],
      [
        -1.811389708891511,
        52.425048407167196,
        130.60000000000002
      ],
      [
        -1.8113964144140482,
        52.42503692395985,
        130.79999999999995
      ],
      [
        -1.8116359692066908,
        52.42481119930744,
        129.20000000000005
      ],
      [
        -1.8117240630090237,
        52.424674071371555,
        127.60000000000002
      ],
      [
        -1.8118647951632738,
        52.424486903473735,
        127.20000000000005
      ],
      [
        -1.8119497038424015,
        52.42436368949711,
        123.79999999999995
      ],
      [
        -1.8119698204100132,
        52.42432781495154,
        124
      ],
      [
        -1.8120191898196936,
        52.42419982329011,
        123.60000000000002
      ],
      [
        -1.81216511875391,
        52.42388516664505,
        128
      ],
      [
        -1.8121982272714376,
        52.423823308199644,
        127
      ],
      [
        -1.8122076150029898,
        52.423792630434036,
        126.79999999999995
      ],
      [
        -1.8122076150029898,
        52.423792630434036,
        126.79999999999995
      ],
      [
        -1.8122226186096668,
        52.423760779201984,
        126.39999999999998
      ],
      [
        -1.8122492730617523,
        52.423720713704824,
        125.20000000000005
      ],
      [
        -1.8123195972293615,
        52.42358509451151,
        126.20000000000005
      ],
      [
        -1.8124124687165022,
        52.423384599387646,
        126.79999999999995
      ],
      [
        -1.8124680407345295,
        52.423298517242074,
        126.39999999999998
      ],
      [
        -1.812528558075428,
        52.42317949421704,
        126
      ],
      [
        -1.8125953618437052,
        52.42303071543574,
        127.39999999999998
      ],
      [
        -1.812817482277751,
        52.422591084614396,
        129.60000000000002
      ],
      [
        -1.8130550254136324,
        52.422185903415084,
        127.79999999999995
      ],
      [
        -1.8133079074323177,
        52.421748619526625,
        127.79999999999995
      ],
      [
        -1.8133498169481754,
        52.42166195064783,
        127.60000000000002
      ],
      [
        -1.8134947400540113,
        52.4213735293597,
        132.79999999999995
      ],
      [
        -1.8136548344045877,
        52.4210693500936,
        133.60000000000002
      ],
      [
        -1.8131465557962656,
        52.4208624009043,
        131.79999999999995
      ],
      [
        -1.8129940889775753,
        52.42086189799011,
        131.20000000000005
      ],
      [
        -1.8126087728887796,
        52.420925851911306,
        130.39999999999998
      ],
      [
        -1.8118683993816376,
        52.4209208227694,
        135.39999999999998
      ],
      [
        -1.8117605242878199,
        52.42091964930296,
        136
      ],
      [
        -1.811492471024394,
        52.42090808227658,
        133.20000000000005
      ],
      [
        -1.8108453880995512,
        52.42088603787124,
        125.79999999999995
      ],
      [
        -1.8100833054631948,
        52.42087044753134,
        126.79999999999995
      ],
      [
        -1.809780215844512,
        52.42090791463852,
        127.39999999999998
      ],
      [
        -1.8097028508782387,
        52.42091755382717,
        126.60000000000002
      ],
      [
        -1.809602016583085,
        52.420933563262224,
        127
      ],
      [
        -1.8088617268949747,
        52.420987291261554,
        120.79999999999995
      ],
      [
        -1.8088057357817888,
        52.42098427377641,
        120.60000000000002
      ],
      [
        -1.8085074238479137,
        52.42095619440079,
        121.20000000000005
      ],
      [
        -1.8077748455107212,
        52.421001037582755,
        118.60000000000002
      ],
      [
        -1.8074501305818558,
        52.42101000621915,
        126.39999999999998
      ],
      [
        -1.80688108317554,
        52.420996092259884,
        128
      ],
      [
        -1.806775638833642,
        52.42097304202616,
        128.60000000000002
      ],
      [
        -1.8060743249952793,
        52.42093398235738,
        128.39999999999998
      ],
      [
        -1.8058601673692465,
        52.42095099762082,
        127
      ],
      [
        -1.805581385269761,
        52.42096122354269,
        127.79999999999995
      ],
      [
        -1.8048820830881596,
        52.42111503146589,
        128.20000000000005
      ],
      [
        -1.804501125589013,
        52.421190636232495,
        127.39999999999998
      ],
      [
        -1.8042551167309284,
        52.42118158377707,
        122.20000000000005
      ],
      [
        -1.8041011411696672,
        52.42125199176371,
        118.20000000000005
      ],
      [
        -1.803828477859497,
        52.421220894902945,
        120.79999999999995
      ],
      [
        -1.803549276664853,
        52.42115962319076,
        123.20000000000005
      ],
      [
        -1.8030560854822397,
        52.420814875513315,
        126.79999999999995
      ],
      [
        -1.8026317097246647,
        52.420433666557074,
        127
      ],
      [
        -1.8025790713727474,
        52.42035395465791,
        126.60000000000002
      ],
      [
        -1.8025918956845999,
        52.42016586475074,
        123.60000000000002
      ],
      [
        -1.802259050309658,
        52.42003292776644,
        125.20000000000005
      ],
      [
        -1.8016686290502548,
        52.42031095549464,
        125.20000000000005
      ],
      [
        -1.801531920209527,
        52.420387733727694,
        125.79999999999995
      ],
      [
        -1.801424128934741,
        52.42046266794205,
        127.60000000000002
      ],
      [
        -1.8013692274689674,
        52.420499548316,
        130.60000000000002
      ],
      [
        -1.801224136725068,
        52.42058294825256,
        132
      ],
      [
        -1.801108131185174,
        52.42064220830798,
        131.79999999999995
      ],
      [
        -1.8010731786489487,
        52.42066576145589,
        132.20000000000005
      ],
      [
        -1.8010563310235739,
        52.420678585767746,
        132.39999999999998
      ],
      [
        -1.8008606135845184,
        52.420795848593116,
        131.60000000000002
      ],
      [
        -1.8002970982342958,
        52.42109399288893,
        130.60000000000002
      ],
      [
        -1.7999923322349787,
        52.42127554491162,
        130.20000000000005
      ],
      [
        -1.7996908351778984,
        52.42140454240143,
        128.20000000000005
      ],
      [
        -1.7996330838650465,
        52.421419294551015,
        128.39999999999998
      ],
      [
        -1.799277188256383,
        52.42180938832462,
        131
      ],
      [
        -1.7991533037275076,
        52.42209378629923,
        134.79999999999995
      ],
      [
        -1.7992340214550495,
        52.42243107408285,
        140
      ],
      [
        -1.7993021663278341,
        52.422587648034096,
        138.20000000000005
      ],
      [
        -1.7993851471692324,
        52.422687811776996,
        137.39999999999998
      ],
      [
        -1.799527471885085,
        52.42289752699435,
        134.60000000000002
      ],
      [
        -1.7995783500373363,
        52.42300456389785,
        133.79999999999995
      ],
      [
        -1.7996448185294867,
        52.42311503738165,
        133.79999999999995
      ],
      [
        -1.7999167274683714,
        52.423547795042396,
        137.60000000000002
      ],
      [
        -1.8000539392232895,
        52.4238755274564,
        133.39999999999998
      ],
      [
        -1.8002034723758698,
        52.42423603311181,
        132.60000000000002
      ],
      [
        -1.8003066536039114,
        52.42441775277257,
        132.60000000000002
      ],
      [
        -1.800436656922102,
        52.42457424290478,
        131.39999999999998
      ],
      [
        -1.800571521744132,
        52.424827041104436,
        135.39999999999998
      ],
      [
        -1.8006662372499704,
        52.425278490409255,
        136.60000000000002
      ],
      [
        -1.80073413066566,
        52.425730526447296,
        136.60000000000002
      ],
      [
        -1.8007907085120678,
        52.425851644948125,
        133.60000000000002
      ],
      [
        -1.8008298519998789,
        52.42609220556915,
        132.20000000000005
      ],
      [
        -1.8008663970977068,
        52.426303680986166,
        131.79999999999995
      ],
      [
        -1.8009928800165653,
        52.42674959823489,
        131.39999999999998
      ],
      [
        -1.8011059518903494,
        52.427209513261914,
        132.60000000000002
      ],
      [
        -1.8014719896018505,
        52.427514027804136,
        129.60000000000002
      ],
      [
        -1.8018594849854708,
        52.42754311300814,
        129.60000000000002
      ],
      [
        -1.802534144371748,
        52.427496425807476,
        129.20000000000005
      ],
      [
        -1.8028724379837513,
        52.42749567143619,
        134.39999999999998
      ],
      [
        -1.8029524013400078,
        52.427928764373064,
        128.60000000000002
      ],
      [
        -1.802899930626154,
        52.428038315847516,
        128.39999999999998
      ],
      [
        -1.802839832380414,
        52.4280995875597,
        126.20000000000005
      ],
      [
        -1.8027619644999504,
        52.42815029807389,
        123.60000000000002
      ],
      [
        -1.8024644069373608,
        52.4283120688051,
        119.20000000000005
      ],
      [
        -1.8021925818175077,
        52.428442323580384,
        120.79999999999995
      ],
      [
        -1.802003150805831,
        52.42853561416268,
        119.20000000000005
      ],
      [
        -1.8013621866703033,
        52.42876494303346,
        127.79999999999995
      ],
      [
        -1.8007083144038916,
        52.42883920669556,
        129.39999999999998
      ],
      [
        -1.7999715451151133,
        52.42890668101609,
        125.39999999999998
      ],
      [
        -1.7993362806737423,
        52.42914053611457,
        120.20000000000005
      ],
      [
        -1.7986405827105045,
        52.42933725938201,
        127
      ],
      [
        -1.7983756307512522,
        52.42924924939871,
        129
      ],
      [
        -1.7983315419405699,
        52.429132740944624,
        130.20000000000005
      ],
      [
        -1.798323830589652,
        52.429119078442454,
        130.20000000000005
      ],
      [
        -1.7982535064220428,
        52.429057555273175,
        131
      ],
      [
        -1.7980080842971802,
        52.4289907515049,
        128.20000000000005
      ],
      [
        -1.7978862952440977,
        52.42898848839104,
        126.79999999999995
      ],
      [
        -1.7977986205369234,
        52.42878179065883,
        125.60000000000002
      ],
      [
        -1.7977733071893454,
        52.42866117507219,
        125.79999999999995
      ],
      [
        -1.7976767476648092,
        52.42859864607453,
        131.20000000000005
      ],
      [
        -1.8002214096486568,
        52.42887047119439,
        128.20000000000005
      ],
      [
        -1.8002577032893896,
        52.42887273430824,
        127.79999999999995
      ],
      [
        -1.800294416025281,
        52.428864100947976,
        128
      ],
      [
        -1.8003346491605043,
        52.428853288292885,
        125.39999999999998
      ],
      [
        -1.8005701806396246,
        52.42884272709489,
        125.60000000000002
      ],
      [
        -1.800626590847969,
        52.42882613092661,
        125.79999999999995
      ],
      [
        -1.8010681495070457,
        52.42880182340741,
        123.39999999999998
      ],
      [
        -1.801090445369482,
        52.428803415969014,
        123.39999999999998
      ],
      [
        -1.8011318519711494,
        52.42879453115165,
        123.20000000000005
      ],
      [
        -1.8012655433267355,
        52.4287645239383,
        122.79999999999995
      ],
      [
        -1.8013152480125427,
        52.42875245399773,
        122.20000000000005
      ],
      [
        -1.8013610132038593,
        52.42873443290591,
        122
      ],
      [
        -1.8015058524906635,
        52.42866989225149,
        121.20000000000005
      ],
      [
        -1.8021538574248552,
        52.42849546484649,
        117.79999999999995
      ],
      [
        -1.802735310047865,
        52.428206289187074,
        117.39999999999998
      ],
      [
        -1.8031428381800652,
        52.42802498862147,
        114.20000000000005
      ],
      [
        -1.8038527853786945,
        52.427914096042514,
        111.60000000000002
      ],
      [
        -1.8040304817259312,
        52.42792742326856,
        112.39999999999998
      ],
      [
        -1.804248746484518,
        52.427915604785085,
        113.39999999999998
      ],
      [
        -1.8048864416778088,
        52.42798316292465,
        114.39999999999998
      ],
      [
        -1.8051270861178637,
        52.42800923064351,
        115.39999999999998
      ],
      [
        -1.8053435906767845,
        52.42800663225353,
        115.79999999999995
      ],
      [
        -1.805421207100153,
        52.428014846518636,
        116
      ],
      [
        -1.805447693914175,
        52.42801928892732,
        116
      ],
      [
        -1.8054988235235214,
        52.42802926339209,
        116
      ],
      [
        -1.8055483605712652,
        52.42804334498942,
        116
      ],
      [
        -1.8062146380543709,
        52.42806304246187,
        116.79999999999995
      ],
      [
        -1.8063379358500242,
        52.42806228809059,
        117.20000000000005
      ],
      [
        -1.8067672569304705,
        52.42807234637439,
        118
      ],
      [
        -1.807497153058648,
        52.428035885095596,
        124.39999999999998
      ],
      [
        -1.8080630991607904,
        52.42800562642515,
        125
      ],
      [
        -1.8084582220762968,
        52.42798903025687,
        126.60000000000002
      ],
      [
        -1.8086314760148525,
        52.42797687649727,
        125.79999999999995
      ],
      [
        -1.8092891201376915,
        52.42794267833233,
        124.60000000000002
      ],
      [
        -1.8094186205416918,
        52.42791971191764,
        127
      ],
      [
        -1.8095524795353413,
        52.42789934389293,
        127.60000000000002
      ],
      [
        -1.810022033751011,
        52.42825708352029,
        126.79999999999995
      ],
      [
        -1.8101731594651937,
        52.42834928445518,
        125.39999999999998
      ],
      [
        -1.8104307353496552,
        52.428438970819116,
        127.60000000000002
      ],
      [
        -1.810759473592043,
        52.428621025756,
        127
      ],
      [
        -1.8112585321068764,
        52.428953535854816,
        124.39999999999998
      ],
      [
        -1.8115110788494349,
        52.42910508066416,
        124.39999999999998
      ],
      [
        -1.8116996716707945,
        52.429248578846455,
        121.60000000000002
      ],
      [
        -1.8121372908353806,
        52.42962417192757,
        124
      ],
      [
        -1.812336863949895,
        52.42991887964308,
        122.79999999999995
      ],
      [
        -1.8123499397188425,
        52.429969841614366,
        122
      ],
      [
        -1.8124177493155003,
        52.43015089072287,
        125.39999999999998
      ],
      [
        -1.8124821223318577,
        52.430337220430374,
        121.79999999999995
      ],
      [
        -1.8125112913548946,
        52.430398324504495,
        124.60000000000002
      ],
      [
        -1.8125894106924534,
        52.43069680407643,
        122.60000000000002
      ],
      [
        -1.8125930149108171,
        52.43071122094989,
        122
      ],
      [
        -1.8125984631478786,
        52.430741898715496,
        121.20000000000005
      ],
      [
        -1.8126558791846037,
        52.43088296614587,
        120
      ],
      [
        -1.8126570526510477,
        52.430898724123836,
        120.20000000000005
      ],
      [
        -1.8127093557268381,
        52.43137389421463,
        121.79999999999995
      ],
      [
        -1.8127734772861004,
        52.431675558909774,
        126.39999999999998
      ],
      [
        -1.8128273729234934,
        52.431922322139144,
        128.20000000000005
      ],
      [
        -1.812824858352542,
        52.432368574664,
        131
      ],
      [
        -1.8124903365969658,
        52.432777527719736,
        124.79999999999995
      ],
      [
        -1.8122797831892967,
        52.43321699090302,
        121.60000000000002
      ],
      [
        -1.8122757598757744,
        52.43323417380452,
        121.20000000000005
      ],
      [
        -1.8121929466724396,
        52.433690233156085,
        127
      ],
      [
        -1.8120528850704432,
        52.434130031615496,
        135
      ],
      [
        -1.812003431841731,
        52.43422977626324,
        134
      ],
      [
        -1.8116939719766378,
        52.434654654935,
        131.20000000000005
      ],
      [
        -1.8113801535218954,
        52.43505924940109,
        127.60000000000002
      ],
      [
        -1.8108362518250942,
        52.43537876754999,
        124
      ],
      [
        -1.8104633409529924,
        52.43570566177368,
        125.20000000000005
      ],
      [
        -1.811121990904212,
        52.435927195474505,
        116.79999999999995
      ],
      [
        -1.8117650505155325,
        52.436090391129255,
        120
      ],
      [
        -1.812092363834381,
        52.43603540584445,
        116.60000000000002
      ],
      [
        -1.81229118257761,
        52.436121152713895,
        121.20000000000005
      ],
      [
        -1.8123360257595778,
        52.436150908470154,
        120.79999999999995
      ],
      [
        -1.8128008861094713,
        52.436271188780665,
        119
      ],
      [
        -1.8129049893468618,
        52.43627965450287,
        120.60000000000002
      ],
      [
        -1.8134239967912436,
        52.436223244294524,
        120.20000000000005
      ],
      [
        -1.813440676778555,
        52.43622173555195,
        119.39999999999998
      ],
      [
        -1.8135077320039272,
        52.43620974943042,
        118.60000000000002
      ],
      [
        -1.8135760445147753,
        52.43619189597666,
        118.79999999999995
      ],
      [
        -1.814309125766158,
        52.4361951649189,
        116.79999999999995
      ],
      [
        -1.815044553950429,
        52.436289712786674,
        115
      ],
      [
        -1.8154511600732803,
        52.43637596257031,
        114.39999999999998
      ],
      [
        -1.8155493959784508,
        52.43639322929084,
        114.20000000000005
      ],
      [
        -1.8158698361366987,
        52.43645081296563,
        112.39999999999998
      ],
      [
        -1.8162818904966116,
        52.43672305718064,
        113.20000000000005
      ],
      [
        -1.816207878291607,
        52.43689840659499,
        113.60000000000002
      ],
      [
        -1.8160804733633995,
        52.437188755720854,
        112.20000000000005
      ],
      [
        -1.8159617856144905,
        52.43753266520798,
        107.79999999999995
      ],
      [
        -1.8159973248839378,
        52.43782477453351,
        110.20000000000005
      ],
      [
        -1.8160307686775923,
        52.43799366988242,
        111.79999999999995
      ],
      [
        -1.8160648830235004,
        52.43830170482397,
        115.39999999999998
      ],
      [
        -1.8159350473433733,
        52.43837848305702,
        115.60000000000002
      ],
      [
        -1.8154530879110098,
        52.438711328431964,
        114.20000000000005
      ],
      [
        -1.8153085000813007,
        52.438919031992555,
        116.20000000000005
      ],
      [
        -1.8152584601193666,
        52.43899882771075,
        116.60000000000002
      ],
      [
        -1.815209174528718,
        52.43907971307635,
        117.60000000000002
      ],
      [
        -1.815196182578802,
        52.4391361232847,
        117.79999999999995
      ],
      [
        -1.815109932795167,
        52.43931541219354,
        118.39999999999998
      ],
      [
        -1.8150921631604433,
        52.43934541940689,
        118.60000000000002
      ],
      [
        -1.8150067515671253,
        52.439485816285014,
        118.20000000000005
      ],
      [
        -1.8149989563971758,
        52.43950073607266,
        118.39999999999998
      ],
      [
        -1.814989484846592,
        52.43951498530805,
        118.39999999999998
      ],
      [
        -1.814945563673973,
        52.43961984291673,
        119.20000000000005
      ],
      [
        -1.8148097768425941,
        52.440018402412534,
        119.60000000000002
      ],
      [
        -1.8146776780486107,
        52.44031051173806,
        119.20000000000005
      ],
      [
        -1.8146491795778275,
        52.44044638238847,
        120.79999999999995
      ],
      [
        -1.8145390413701534,
        52.4406850989908,
        123
      ],
      [
        -1.8144202698022127,
        52.44078928604722,
        115.20000000000005
      ],
      [
        -1.8144214432686567,
        52.44080093689263,
        115
      ],
      [
        -1.8142875842750072,
        52.44124945253134,
        115.79999999999995
      ],
      [
        -1.8141270708292723,
        52.441572239622474,
        118
      ],
      [
        -1.8140780366957188,
        52.44171783328056,
        117.20000000000005
      ],
      [
        -1.8142843153327703,
        52.441802406683564,
        118.39999999999998
      ],
      [
        -1.8144218623638153,
        52.44184389710426,
        120.79999999999995
      ],
      [
        -1.8147926777601242,
        52.442043302580714,
        121
      ],
      [
        -1.8148532789200544,
        52.4420821107924,
        120.39999999999998
      ],
      [
        -1.814466118812561,
        52.44246365502477,
        120.20000000000005
      ],
      [
        -1.8142987322062254,
        52.442593490704894,
        121.39999999999998
      ],
      [
        -1.8143212795257568,
        52.442575888708234,
        120.60000000000002
      ],
      [
        -1.8144354410469532,
        52.442466923967004,
        120.60000000000002
      ],
      [
        -1.8146114610135555,
        52.44230858981609,
        119.20000000000005
      ],
      [
        -1.814782451838255,
        52.44213407859206,
        114.39999999999998
      ]
    ]
  }
}
