{
  "type": "Feature",
  "properties": {
    "id": "intervals-178055460",
    "activity": "walking",
    "name": "Ko Samui Walking",
    "date": "2024-07-07T00:32:45Z",
    "distanceKm": 5.87,
    "movingTimeSeconds": 4603,
    "elapsedTimeSeconds": 4992,
    "ascentM": null,
    "descentM": null,
    "providers": [
      "Garmin",
      "Strava"
    ]
  },
  "geometry": {
    "type": "LineString",
    "coordinates": [
      [
        100.04850815981627,
        9.47227779775858
      ],
      [
        100.0485529191792,
        9.472250891849399
      ],
      [
        100.04854520782828,
        9.47221577167511
      ],
      [
        100.04838913679123,
        9.472107058390975
      ],
      [
        100.04837815649807,
        9.472080152481794
      ],
      [
        100.04834747873247,
        9.47206674143672
      ],
      [
        100.04837731830776,
        9.471966242417693
      ],
      [
        100.04836767911911,
        9.471965655684471
      ],
      [
        100.04835778847337,
        9.471954675391316
      ],
      [
        100.048340940848,
        9.471870018169284
      ],
      [
        100.04834840074182,
        9.471788126975298
      ],
      [
        100.04834161140025,
        9.471766334027052
      ],
      [
        100.04833775572479,
        9.471752168610692
      ],
      [
        100.04830808378756,
        9.47165627963841
      ],
      [
        100.0482833571732,
        9.471546309068799
      ],
      [
        100.04828955978155,
        9.47147791273892
      ],
      [
        100.04828972741961,
        9.471449414268136
      ],
      [
        100.04829609766603,
        9.471420831978321
      ],
      [
        100.04820079542696,
        9.471274903044105
      ],
      [
        100.04816181957722,
        9.47124145925045
      ],
      [
        100.04814715124667,
        9.47121656499803
      ],
      [
        100.04810423590243,
        9.471051776781678
      ],
      [
        100.04808370023966,
        9.470959827303886
      ],
      [
        100.04807489924133,
        9.470933340489864
      ],
      [
        100.048066098243,
        9.47087299078703
      ],
      [
        100.04797540605068,
        9.470746256411076
      ],
      [
        100.04794204607606,
        9.470675345510244
      ],
      [
        100.04796819761395,
        9.47062631137669
      ],
      [
        100.0479796808213,
        9.470600746572018
      ],
      [
        100.04803265444934,
        9.470518771559
      ],
      [
        100.04807330667973,
        9.470484657213092
      ],
      [
        100.04810767248273,
        9.470458757132292
      ],
      [
        100.0481715425849,
        9.470415506511927
      ],
      [
        100.04831244237721,
        9.47028324007988
      ],
      [
        100.04831864498556,
        9.470274103805423
      ],
      [
        100.04842911846936,
        9.470157511532307
      ],
      [
        100.04846415482461,
        9.470108225941658
      ],
      [
        100.04853699356318,
        9.470023149624467
      ],
      [
        100.04859885200858,
        9.469973528757691
      ],
      [
        100.04860958084464,
        9.469965314492583
      ],
      [
        100.04869071766734,
        9.469872107729316
      ],
      [
        100.04872156307101,
        9.469826593995094
      ],
      [
        100.04872868768871,
        9.469803711399436
      ],
      [
        100.04872927442193,
        9.469792731106281
      ],
      [
        100.04872315563262,
        9.469749564304948
      ],
      [
        100.04874905571342,
        9.469679659232497
      ],
      [
        100.04879515618086,
        9.469609670341015
      ],
      [
        100.04887738265097,
        9.46950439363718
      ],
      [
        100.04894368350506,
        9.469422083348036
      ],
      [
        100.04892641678452,
        9.469408420845866
      ],
      [
        100.04892415367067,
        9.469407331198454
      ],
      [
        100.04892356693745,
        9.469408839941025
      ],
      [
        100.04894443787634,
        9.469389142468572
      ],
      [
        100.0489781331271,
        9.469329044222832
      ],
      [
        100.04898802377284,
        9.46929819881916
      ],
      [
        100.04900185391307,
        9.469265509396791
      ],
      [
        100.0491245649755,
        9.469171045348048
      ],
      [
        100.04920293577015,
        9.46909787133336
      ],
      [
        100.04930511116982,
        9.468979854136705
      ],
      [
        100.04944760352373,
        9.468847252428532
      ],
      [
        100.04947325214744,
        9.468839038163424
      ],
      [
        100.0495030079037,
        9.468833841383457
      ],
      [
        100.04952060990036,
        9.468808695673943
      ],
      [
        100.04954617470503,
        9.468792686238885
      ],
      [
        100.04962613806129,
        9.468742897734046
      ],
      [
        100.04963527433574,
        9.468710292130709
      ],
      [
        100.04966913722456,
        9.468636866658926
      ],
      [
        100.04965161904693,
        9.46860627271235
      ],
      [
        100.04963586106896,
        9.46853100322187
      ],
      [
        100.04962773062289,
        9.468510299921036
      ],
      [
        100.04956218414009,
        9.468347188085318
      ],
      [
        100.04948683083057,
        9.468227997422218
      ],
      [
        100.04946093074977,
        9.46817527525127
      ],
      [
        100.04943729378283,
        9.46816261857748
      ],
      [
        100.04943042062223,
        9.468156415969133
      ],
      [
        100.04940644837916,
        9.468128085136414
      ],
      [
        100.04935381002724,
        9.468052312731743
      ],
      [
        100.04933997988701,
        9.4680321123451
      ],
      [
        100.0493333581835,
        9.46802188642323
      ],
      [
        100.04929077811539,
        9.467956507578492
      ],
      [
        100.0492487847805,
        9.4678938947618
      ],
      [
        100.049197236076,
        9.467775458469987
      ],
      [
        100.0491383112967,
        9.467686275020242
      ],
      [
        100.04903253167868,
        9.467528611421585
      ],
      [
        100.0490104034543,
        9.467488881200552
      ],
      [
        100.04899741150439,
        9.467469602823257
      ],
      [
        100.04893337376416,
        9.467413695529103
      ],
      [
        100.04891585558653,
        9.467383353039622
      ],
      [
        100.04892155528069,
        9.467387376353145
      ],
      [
        100.04892214201391,
        9.467387711629272
      ],
      [
        100.048832539469,
        9.467288637533784
      ],
      [
        100.04877110011876,
        9.467220911756158
      ],
      [
        100.04875718615949,
        9.46720196865499
      ],
      [
        100.04875064827502,
        9.467192413285375
      ],
      [
        100.04872064106166,
        9.467154024168849
      ],
      [
        100.04862165078521,
        9.467042461037636
      ],
      [
        100.04861486144364,
        9.46703240275383
      ],
      [
        100.04859407432377,
        9.466989487409592
      ],
      [
        100.04856834188104,
        9.466959899291396
      ],
      [
        100.04854906350374,
        9.46694296784699
      ],
      [
        100.04844202660024,
        9.466826291754842
      ],
      [
        100.04829299636185,
        9.466705173254013
      ],
      [
        100.04817003384233,
        9.466572906821966
      ],
      [
        100.04804103635252,
        9.466429743915796
      ],
      [
        100.04792142659426,
        9.466291358694434
      ],
      [
        100.04789049737155,
        9.466254394501448
      ],
      [
        100.04775672219694,
        9.466115087270737
      ],
      [
        100.04772922955453,
        9.466077955439687
      ],
      [
        100.04759998060763,
        9.465947113931179
      ],
      [
        100.04749537445605,
        9.465795485302806
      ],
      [
        100.04739630036056,
        9.465689538046718
      ],
      [
        100.0473805423826,
        9.465670511126518
      ],
      [
        100.04731851629913,
        9.465581495314837
      ],
      [
        100.04720552824438,
        9.465437578037381
      ],
      [
        100.04712078720331,
        9.465334229171276
      ],
      [
        100.04699740558863,
        9.46519467048347
      ],
      [
        100.0469576753676,
        9.465136835351586
      ],
      [
        100.04686287604272,
        9.465005993843079
      ],
      [
        100.0468519795686,
        9.464951595291495
      ],
      [
        100.04674687050283,
        9.464808600023389
      ],
      [
        100.04663689993322,
        9.464655295014381
      ],
      [
        100.04653279669583,
        9.46450517512858
      ],
      [
        100.04648854024708,
        9.464431582018733
      ],
      [
        100.0464309565723,
        9.464328652247787
      ],
      [
        100.04639273509383,
        9.464260591194034
      ],
      [
        100.046332385391,
        9.464168809354305
      ],
      [
        100.04620891995728,
        9.464027658104897
      ],
      [
        100.04620196297765,
        9.464008379727602
      ],
      [
        100.04619911313057,
        9.46399999782443
      ],
      [
        100.04619106650352,
        9.463990861549973
      ],
      [
        100.04616810008883,
        9.463954651728272
      ],
      [
        100.04609132185578,
        9.46386898867786
      ],
      [
        100.0460696965456,
        9.463843004778028
      ],
      [
        100.04597816616297,
        9.46368777193129
      ],
      [
        100.04591722972691,
        9.463571095839143
      ],
      [
        100.04587766714394,
        9.463500184938312
      ],
      [
        100.04580164328218,
        9.46338426321745
      ],
      [
        100.0457485858351,
        9.463315280154347
      ],
      [
        100.04573492333293,
        9.463296923786402
      ],
      [
        100.0457258708775,
        9.463289631530643
      ],
      [
        100.04569276235998,
        9.46325090713799
      ],
      [
        100.04560131579638,
        9.463082011789083
      ],
      [
        100.04550249315798,
        9.462925605475903
      ],
      [
        100.04549218341708,
        9.462894508615136
      ],
      [
        100.04547005519271,
        9.462859891355038
      ],
      [
        100.0453511159867,
        9.462706753984094
      ],
      [
        100.04530887119472,
        9.462626036256552
      ],
      [
        100.04527785815299,
        9.462560825049877
      ],
      [
        100.04522882401943,
        9.46249502710998
      ],
      [
        100.04515866748989,
        9.462397294119
      ],
      [
        100.04508289508522,
        9.462286233901978
      ],
      [
        100.04499765112996,
        9.46212119422853
      ],
      [
        100.04489757120609,
        9.461952298879623
      ],
      [
        100.04480855539441,
        9.461785415187478
      ],
      [
        100.0448008440435,
        9.461764292791486
      ],
      [
        100.04478969611228,
        9.461744762957096
      ],
      [
        100.04475289955735,
        9.46168533526361
      ],
      [
        100.04469204694033,
        9.461570838466287
      ],
      [
        100.04459875635803,
        9.461410995572805
      ],
      [
        100.04456120543182,
        9.461336899548769
      ],
      [
        100.04452901892364,
        9.461295576766133
      ],
      [
        100.04451870918274,
        9.461286775767803
      ],
      [
        100.04441410303116,
        9.461136823520064
      ],
      [
        100.04434302449226,
        9.461017213761806
      ],
      [
        100.04426230676472,
        9.460842115804553
      ],
      [
        100.04421578720212,
        9.460739940404892
      ],
      [
        100.04416231065989,
        9.460671879351139
      ],
      [
        100.04413339309394,
        9.46062745526433
      ],
      [
        100.04407044500113,
        9.460509270429611
      ],
      [
        100.04406315274537,
        9.460498625412583
      ],
      [
        100.04397765733302,
        9.460327802225947
      ],
      [
        100.04387036897242,
        9.46017550304532
      ],
      [
        100.04379149526358,
        9.460004512220621
      ],
      [
        100.0436776690185,
        9.459853805601597
      ],
      [
        100.04359192214906,
        9.459684491157532
      ],
      [
        100.04357473924756,
        9.459653478115797
      ],
      [
        100.04347608424723,
        9.459494641050696
      ],
      [
        100.04338019527495,
        9.459333708509803
      ],
      [
        100.04334541037679,
        9.459268832579255
      ],
      [
        100.0433396268636,
        9.459257936105132
      ],
      [
        100.04324650391936,
        9.459090968593955
      ],
      [
        100.04314365796745,
        9.458936238661408
      ],
      [
        100.04303125664592,
        9.458788046613336
      ],
      [
        100.0429875869304,
        9.458698192611337
      ],
      [
        100.04297551698983,
        9.458655193448067
      ],
      [
        100.04293042235076,
        9.458586713299155
      ],
      [
        100.04289102740586,
        9.458534326404333
      ],
      [
        100.04285800270736,
        9.458480598405004
      ],
      [
        100.04284216091037,
        9.458462912589312
      ],
      [
        100.04278591834009,
        9.458386804908514
      ],
      [
        100.0427748542279,
        9.458364341408014
      ],
      [
        100.04275029525161,
        9.458338022232056
      ],
      [
        100.04265147261322,
        9.458202654495835
      ],
      [
        100.04253312014043,
        9.458063011988997
      ],
      [
        100.04250956699252,
        9.458038620650768
      ],
      [
        100.04243915900588,
        9.458007523790002
      ],
      [
        100.04239724949002,
        9.457977851852775
      ],
      [
        100.04238442517817,
        9.45796586573124
      ],
      [
        100.0423792283982,
        9.457958405837417
      ],
      [
        100.04234729334712,
        9.45787844248116
      ],
      [
        100.04234553314745,
        9.457869809120893
      ],
      [
        100.0423705112189,
        9.457682054489851
      ],
      [
        100.0423638895154,
        9.45764441974461
      ],
      [
        100.0423519872129,
        9.457618268206716
      ],
      [
        100.0423260871321,
        9.457554230466485
      ],
      [
        100.04230907186866,
        9.45752321742475
      ],
      [
        100.0422930624336,
        9.45750410668552
      ],
      [
        100.0422880332917,
        9.457495054230094
      ],
      [
        100.0422206427902,
        9.457400003448129
      ],
      [
        100.04218518733978,
        9.457364464178681
      ],
      [
        100.04217814654112,
        9.457358596846461
      ],
      [
        100.0421638134867,
        9.45734342560172
      ],
      [
        100.04211159422994,
        9.45728911086917
      ],
      [
        100.04198133945465,
        9.457150306552649
      ],
      [
        100.04190581850708,
        9.457027679309249
      ],
      [
        100.04188788123429,
        9.456962635740638
      ],
      [
        100.0418564490974,
        9.456865154206753
      ],
      [
        100.0418371707201,
        9.456795752048492
      ],
      [
        100.04181521013379,
        9.456742694601417
      ],
      [
        100.0418318901211,
        9.456717045977712
      ],
      [
        100.04192031919956,
        9.456564914435148
      ],
      [
        100.04191579297185,
        9.456522753462195
      ],
      [
        100.04188293591142,
        9.456463241949677
      ],
      [
        100.04186483100057,
        9.456447316333652
      ],
      [
        100.04182099364698,
        9.456395013257861
      ],
      [
        100.04178931005299,
        9.456343213096261
      ],
      [
        100.04178679548204,
        9.456332484260201
      ],
      [
        100.04174656234682,
        9.456289568915963
      ],
      [
        100.04165997728705,
        9.456140622496605
      ],
      [
        100.0416423752904,
        9.456111202016473
      ],
      [
        100.04163625650108,
        9.456103993579745
      ],
      [
        100.04159518517554,
        9.456012966111302
      ],
      [
        100.04154824651778,
        9.45593568496406
      ],
      [
        100.04144783131778,
        9.455780452117324
      ],
      [
        100.04135470837355,
        9.455653801560402
      ],
      [
        100.04126602783799,
        9.455486834049225
      ],
      [
        100.04125345498323,
        9.455459341406822
      ],
      [
        100.04117550328374,
        9.455304108560085
      ],
      [
        100.04112655296922,
        9.45520419627428
      ],
      [
        100.04105312749743,
        9.455036977306008
      ],
      [
        100.04096754826605,
        9.454870009794831
      ],
      [
        100.04087794572115,
        9.454723745584488
      ],
      [
        100.04086294211447,
        9.454692732542753
      ],
      [
        100.04076772369444,
        9.454538254067302
      ],
      [
        100.04067158326507,
        9.454382434487343
      ],
      [
        100.04054920747876,
        9.454242959618568
      ],
      [
        100.04052062518895,
        9.454194931313396
      ],
      [
        100.04052028991282,
        9.454182693734765
      ],
      [
        100.04050109535456,
        9.454149836674333
      ],
      [
        100.0403986684978,
        9.454009272158146
      ],
      [
        100.04039104096591,
        9.453987143933773
      ],
      [
        100.04037528298795,
        9.453957974910736
      ],
      [
        100.04031795077026,
        9.453907934948802
      ],
      [
        100.04031057469547,
        9.45389217697084
      ],
      [
        100.04029406234622,
        9.453860577195883
      ],
      [
        100.04024460911751,
        9.453808944672346
      ],
      [
        100.04019255749881,
        9.45372018031776
      ],
      [
        100.04015257582068,
        9.453645162284374
      ],
      [
        100.04006833769381,
        9.453545920550823
      ],
      [
        100.04005316644907,
        9.453527815639973
      ],
      [
        100.03996163606644,
        9.45336445234716
      ],
      [
        100.03994755446911,
        9.453267557546496
      ],
      [
        100.03995032049716,
        9.453261187300086
      ],
      [
        100.03996565937996,
        9.453202681615949
      ],
      [
        100.03995778039098,
        9.453146187588573
      ],
      [
        100.03995945677161,
        9.453123221173882
      ],
      [
        100.0399100035429,
        9.45312213152647
      ],
      [
        100.03985032439232,
        9.45299707353115
      ],
      [
        100.03982920199633,
        9.452931694686413
      ],
      [
        100.03983448259532,
        9.452919205650687
      ],
      [
        100.03984034992754,
        9.452881403267384
      ],
      [
        100.03982350230217,
        9.452857514843345
      ],
      [
        100.03982928581536,
        9.452838907018304
      ],
      [
        100.03983171656728,
        9.452799428254366
      ],
      [
        100.0397717859596,
        9.452863717451692
      ],
      [
        100.03975284285843,
        9.452869249507785
      ],
      [
        100.03975552506745,
        9.45286899805069
      ],
      [
        100.03975653089583,
        9.452873608097434
      ],
      [
        100.03969601355493,
        9.452867405489087
      ],
      [
        100.03959316760302,
        9.452852988615632
      ],
      [
        100.03957279957831,
        9.452838823199272
      ],
      [
        100.03955913707614,
        9.452836895361543
      ],
      [
        100.03955394029617,
        9.452836057171226
      ],
      [
        100.03954790532589,
        9.452836811542511
      ],
      [
        100.03952753730118,
        9.452830022200942
      ],
      [
        100.03950758837163,
        9.452825328335166
      ],
      [
        100.03949266858399,
        9.452824406325817
      ],
      [
        100.03948462195694,
        9.452826166525483
      ],
      [
        100.03941639326513,
        9.452838571742177
      ],
      [
        100.03939636051655,
        9.452846283093095
      ],
      [
        100.03935218788683,
        9.452862041071057
      ],
      [
        100.03932402469218,
        9.45287142880261
      ],
      [
        100.03924624063075,
        9.452889282256365
      ],
      [
        100.03919410519302,
        9.452947787940502
      ],
      [
        100.03913283348083,
        9.4529824052006
      ],
      [
        100.03910802304745,
        9.45300436578691
      ],
      [
        100.03904440440238,
        9.453066559508443
      ],
      [
        100.03899143077433,
        9.45308499969542
      ],
      [
        100.0389789417386,
        9.453091202303767
      ],
      [
        100.03893661312759,
        9.45307083427906
      ],
      [
        100.03894264809787,
        9.453046945855021
      ],
      [
        100.03896418958902,
        9.453009981662035
      ],
      [
        100.03898363560438,
        9.452978633344173
      ],
      [
        100.03901230171323,
        9.452928509563208
      ],
      [
        100.03909511491656,
        9.452784089371562
      ],
      [
        100.03915286622941,
        9.452693983912468
      ],
      [
        100.03921966999769,
        9.452557358890772
      ],
      [
        100.0392453186214,
        9.452517880126834
      ],
      [
        100.03938864916563,
        9.452389050275087
      ],
      [
        100.03944824449718,
        9.452334735542536
      ],
      [
        100.03946408629417,
        9.452315792441368
      ],
      [
        100.03948772326112,
        9.45229148492217
      ],
      [
        100.03951312042773,
        9.4522225856781
      ],
      [
        100.0395318120718,
        9.452194003388286
      ],
      [
        100.03954656422138,
        9.452178161591291
      ],
      [
        100.03954673185945,
        9.45208185352385
      ],
      [
        100.03956559114158,
        9.452037764713168
      ],
      [
        100.03956450149417,
        9.452029131352901
      ],
      [
        100.0395418703556,
        9.452017564326525
      ],
      [
        100.03953667357564,
        9.452015301212668
      ],
      [
        100.03951789811254,
        9.452001973986626
      ],
      [
        100.0395146291703,
        9.4520085118711
      ],
      [
        100.03951286897063,
        9.45200901478529
      ],
      [
        100.03952795639634,
        9.452019408345222
      ],
      [
        100.03952929750085,
        9.452017145231366
      ],
      [
        100.03952954895794,
        9.452013960108161
      ],
      [
        100.03952351398766,
        9.452007338404655
      ],
      [
        100.03949970938265,
        9.452001806348562
      ],
      [
        100.03948596306145,
        9.45199585519731
      ],
      [
        100.0394800119102,
        9.451995519921184
      ],
      [
        100.03948386758566,
        9.452005326747894
      ],
      [
        100.03948152065277,
        9.452008428052068
      ],
      [
        100.03946056589484,
        9.45201345719397
      ],
      [
        100.03945486620069,
        9.452015804126859
      ],
      [
        100.03944430500269,
        9.452009852975607
      ],
      [
        100.03942041657865,
        9.451940366998315
      ],
      [
        100.039431899786,
        9.451958052814007
      ],
      [
        100.03950079903007,
        9.452090486884117
      ],
      [
        100.03953751176596,
        9.452118063345551
      ],
      [
        100.03959090448916,
        9.4520930852741
      ],
      [
        100.03949099220335,
        9.451972804963589
      ],
      [
        100.03944313153625,
        9.451878508552909
      ],
      [
        100.03959509544075,
        9.451822936534882
      ],
      [
        100.0396510027349,
        9.451670804992318
      ],
      [
        100.03955435939133,
        9.451893428340554
      ],
      [
        100.03952141851187,
        9.4519929215312
      ],
      [
        100.03953834995627,
        9.452023766934872
      ],
      [
        100.0395439658314,
        9.452024940401316
      ],
      [
        100.03955092281103,
        9.452030807733536
      ],
      [
        100.03955100663006,
        9.452043799683452
      ],
      [
        100.03954891115427,
        9.452059557661414
      ],
      [
        100.0395418703556,
        9.45209065452218
      ],
      [
        100.03953969106078,
        9.452105071395636
      ],
      [
        100.03953667357564,
        9.452116889879107
      ],
      [
        100.0395437143743,
        9.452167600393295
      ],
      [
        100.03953759558499,
        9.452190147712827
      ],
      [
        100.03952535800636,
        9.452235326170921
      ],
      [
        100.03952577710152,
        9.452251587063074
      ],
      [
        100.03949476405978,
        9.452290646731853
      ],
      [
        100.03937389701605,
        9.45243313908577
      ],
      [
        100.03935478627682,
        9.452454764395952
      ],
      [
        100.0393005553633,
        9.45248058065772
      ],
      [
        100.03927876241505,
        9.452491058036685
      ],
      [
        100.03918228670955,
        9.452619384974241
      ],
      [
        100.03903987817466,
        9.45274150930345
      ],
      [
        100.03899746574461,
        9.452867405489087
      ],
      [
        100.0389950349927,
        9.452875787392259
      ],
      [
        100.03898170776665,
        9.452907554805279
      ],
      [
        100.03896318376064,
        9.452977208420634
      ],
      [
        100.0390690471977,
        9.453061865642667
      ],
      [
        100.03910609520972,
        9.453059351071715
      ],
      [
        100.03914766944945,
        9.4530532322824
      ],
      [
        100.0392299797386,
        9.453004701063037
      ],
      [
        100.03935319371521,
        9.452911829575896
      ],
      [
        100.03942192532122,
        9.45288710296154
      ],
      [
        100.03948403522372,
        9.45287243463099
      ],
      [
        100.03949526697397,
        9.452869920060039
      ],
      [
        100.03957430832088,
        9.452831530943513
      ],
      [
        100.03963993862271,
        9.452827423810959
      ],
      [
        100.03966508433223,
        9.452821053564548
      ],
      [
        100.03977413289249,
        9.452864052727818
      ],
      [
        100.03978100605309,
        9.452867321670055
      ],
      [
        100.03978746011853,
        9.452869920060039
      ],
      [
        100.03979274071753,
        9.452876122668386
      ],
      [
        100.03979835659266,
        9.452886851504445
      ],
      [
        100.03980305045843,
        9.452888695523143
      ],
      [
        100.03980858251452,
        9.452893557026982
      ],
      [
        100.03981034271419,
        9.452900514006615
      ],
      [
        100.03984370268881,
        9.452984584495425
      ],
      [
        100.03984403796494,
        9.453026158735156
      ],
      [
        100.03985015675426,
        9.453086340799928
      ],
      [
        100.03986440598965,
        9.453145684674382
      ],
      [
        100.03986700437963,
        9.453155742958188
      ],
      [
        100.03986583091319,
        9.453175691887736
      ],
      [
        100.03988443873823,
        9.453276442363858
      ],
      [
        100.03989089280367,
        9.453319106251001
      ],
      [
        100.039955182001,
        9.453386077657342
      ],
      [
        100.04001804627478,
        9.453506525605917
      ],
      [
        100.040034474805,
        9.453524462878704
      ],
      [
        100.04011829383671,
        9.453607443720102
      ],
      [
        100.04014251753688,
        9.453633595257998
      ],
      [
        100.04021619446576,
        9.45370702072978
      ],
      [
        100.04022558219731,
        9.453720431774855
      ],
      [
        100.04024997353554,
        9.453751193359494
      ],
      [
        100.0403500534594,
        9.453882202506065
      ],
      [
        100.04035642370582,
        9.453892428427935
      ],
      [
        100.04042766988277,
        9.453996531665325
      ],
      [
        100.0404314417392,
        9.454004494473338
      ],
      [
        100.04049430601299,
        9.454112956300378
      ],
      [
        100.04054895602167,
        9.45419224910438
      ],
      [
        100.04064870066941,
        9.454349996522069
      ],
      [
        100.04066236317158,
        9.454365335404873
      ],
      [
        100.04067108035088,
        9.454375728964806
      ],
      [
        100.04070293158293,
        9.45441646501422
      ],
      [
        100.04079018719494,
        9.45455283857882
      ],
      [
        100.04081751219928,
        9.454591060057282
      ],
      [
        100.04084249027073,
        9.454638166353106
      ],
      [
        100.04086612723768,
        9.454672113060951
      ],
      [
        100.04089521244168,
        9.454721566289663
      ],
      [
        100.04094801843166,
        9.454788705334067
      ],
      [
        100.04102471284568,
        9.45491787046194
      ],
      [
        100.04103577695787,
        9.454941172152758
      ],
      [
        100.0410686340183,
        9.454991715028882
      ],
      [
        100.04110626876354,
        9.455087771639228
      ],
      [
        100.04116016440094,
        9.455186007544398
      ],
      [
        100.04116452299058,
        9.455198161303997
      ],
      [
        100.04118187353015,
        9.455220205709338
      ],
      [
        100.04119411110878,
        9.455239735543728
      ],
      [
        100.04128044471145,
        9.455408714711666
      ],
      [
        100.04136241972446,
        9.455578867346048
      ],
      [
        100.04147155210376,
        9.455728819593787
      ],
      [
        100.04155327565968,
        9.455902324989438
      ],
      [
        100.0415623281151,
        9.45591171272099
      ],
      [
        100.0415728893131,
        9.455928895622492
      ],
      [
        100.04158336669207,
        9.455960327759385
      ],
      [
        100.04158705472946,
        9.455978013575077
      ],
      [
        100.04158998839557,
        9.455988323315978
      ],
      [
        100.04161848686635,
        9.456032747402787
      ],
      [
        100.04164044745266,
        9.45605194196105
      ],
      [
        100.04166198894382,
        9.45607046596706
      ],
      [
        100.04177522845566,
        9.45621371269226
      ],
      [
        100.04184370860457,
        9.456324018537998
      ],
      [
        100.04189735278487,
        9.456415632739663
      ],
      [
        100.04190196283162,
        9.456448489800096
      ],
      [
        100.04193582572043,
        9.456561394035816
      ],
      [
        100.04193456843495,
        9.45657187141478
      ],
      [
        100.04193079657853,
        9.456600788980722
      ],
      [
        100.04191495478153,
        9.456683434545994
      ],
      [
        100.04192434251308,
        9.456721236929297
      ],
      [
        100.04191445186734,
        9.456742443144321
      ],
      [
        100.04186986014247,
        9.456918379291892
      ],
      [
        100.04189316183329,
        9.456962887197733
      ],
      [
        100.04190699197352,
        9.456989793106914
      ],
      [
        100.04194906912744,
        9.457080401480198
      ],
      [
        100.04196583293378,
        9.457095069810748
      ],
      [
        100.04211352206767,
        9.457214931026101
      ],
      [
        100.04217336885631,
        9.457320710644126
      ],
      [
        100.04225349985063,
        9.457476446405053
      ],
      [
        100.04235995002091,
        9.457581723108888
      ],
      [
        100.04237017594278,
        9.457605862990022
      ],
      [
        100.04240236245096,
        9.457782050594687
      ],
      [
        100.04239867441356,
        9.457859247922897
      ],
      [
        100.04239942878485,
        9.457898726686835
      ],
      [
        100.04241711460054,
        9.45795463398099
      ],
      [
        100.04256304353476,
        9.458045912906528
      ],
      [
        100.04257226362824,
        9.45807290263474
      ],
      [
        100.04259690642357,
        9.458105005323887
      ],
      [
        100.04261618480086,
        9.458130905404687
      ],
      [
        100.0426247343421,
        9.458140209317207
      ],
      [
        100.04265323281288,
        9.458193685859442
      ],
      [
        100.0426934659481,
        9.458236685022712
      ],
      [
        100.04278910346329,
        9.458379512652755
      ],
      [
        100.04279681481421,
        9.458387894555926
      ],
      [
        100.04283755086362,
        9.458418991416693
      ],
      [
        100.04293654114008,
        9.458575481548905
      ],
      [
        100.04296294413507,
        9.458612445741892
      ],
      [
        100.0429852399975,
        9.458649158477783
      ],
      [
        100.04299186170101,
        9.45865678600967
      ],
      [
        100.04300368018448,
        9.458675142377615
      ],
      [
        100.04305397160351,
        9.458770109340549
      ],
      [
        100.0430946238339,
        9.458849988877773
      ],
      [
        100.04316461272538,
        9.458957025781274
      ],
      [
        100.04317877814174,
        9.459007568657398
      ],
      [
        100.04328472539783,
        9.459154084324837
      ],
      [
        100.04335270263255,
        9.459292888641357
      ],
      [
        100.04336938261986,
        9.459323650225997
      ],
      [
        100.04338916391134,
        9.459350388497114
      ],
      [
        100.04344808869064,
        9.459442337974906
      ],
      [
        100.04351279698312,
        9.459576196968555
      ],
      [
        100.04357096739113,
        9.459684658795595
      ],
      [
        100.04358538426459,
        9.459708044305444
      ],
      [
        100.04360466264188,
        9.459791108965874
      ],
      [
        100.04361438564956,
        9.45980753749609
      ],
      [
        100.04361715167761,
        9.459816589951515
      ],
      [
        100.04362385720015,
        9.459839640185237
      ],
      [
        100.04371354356408,
        9.459984479472041
      ],
      [
        100.04372854717076,
        9.460002584382892
      ],
      [
        100.04373533651233,
        9.460011553019285
      ],
      [
        100.04381035454571,
        9.460082380101085
      ],
      [
        100.04383306950331,
        9.460120853036642
      ],
      [
        100.04387212917209,
        9.460218669846654
      ],
      [
        100.04387430846691,
        9.46022336371243
      ],
      [
        100.04395578056574,
        9.460322689265013
      ],
      [
        100.0439873803407,
        9.460360407829285
      ],
      [
        100.0440820120275,
        9.46051798760891
      ],
      [
        100.04409424960613,
        9.460562914609909
      ],
      [
        100.04412258043885,
        9.460647739470005
      ],
      [
        100.04421344026923,
        9.460816299542785
      ],
      [
        100.04422877915204,
        9.46085418574512
      ],
      [
        100.04423967562616,
        9.460868770256639
      ],
      [
        100.04429851658642,
        9.46097144857049
      ],
      [
        100.04432743415236,
        9.461038084700704
      ],
      [
        100.0443602912128,
        9.46109022013843
      ],
      [
        100.044379318133,
        9.461133973672986
      ],
      [
        100.04447562620044,
        9.46129934862256
      ],
      [
        100.04450311884284,
        9.461330864578485
      ],
      [
        100.04456916823983,
        9.461354753002524
      ],
      [
        100.04456958733499,
        9.461351484060287
      ],
      [
        100.04455726593733,
        9.461358692497015
      ],
      [
        100.04455307498574,
        9.46136330254376
      ],
      [
        100.04461878910661,
        9.461535383015871
      ],
      [
        100.04470738582313,
        9.461697824299335
      ],
      [
        100.04472398199141,
        9.46171810850501
      ],
      [
        100.04483093507588,
        9.461868312209845
      ],
      [
        100.04483588039875,
        9.461879627779126
      ],
      [
        100.04484836943448,
        9.461898487061262
      ],
      [
        100.04486563615501,
        9.461929500102997
      ],
      [
        100.04490033723414,
        9.461976019665599
      ],
      [
        100.04494652152061,
        9.46206302382052
      ],
      [
        100.04497518762946,
        9.46211189031601
      ],
      [
        100.04509119316936,
        9.462266201153398
      ],
      [
        100.0451473519206,
        9.462389163672924
      ],
      [
        100.04521926864982,
        9.462562166154385
      ],
      [
        100.04529914818704,
        9.462657636031508
      ],
      [
        100.04532538354397,
        9.462697198614478
      ],
      [
        100.04535052925348,
        9.462749166414142
      ],
      [
        100.04535555839539,
        9.46275888942182
      ],
      [
        100.04541481845081,
        9.462845725938678
      ],
      [
        100.04544264636934,
        9.462871626019478
      ],
      [
        100.04547198303044,
        9.462914876639843
      ],
      [
        100.04549251869321,
        9.46294354274869
      ],
      [
        100.04559083841741,
        9.463096763938665
      ],
      [
        100.04568027332425,
        9.463260127231479
      ],
      [
        100.0457499269396,
        9.463361464440823
      ],
      [
        100.04579988308251,
        9.46342390961945
      ],
      [
        100.04582980647683,
        9.46346347220242
      ],
      [
        100.04593642428517,
        9.463623566552997
      ],
      [
        100.0459560379386,
        9.46366673335433
      ],
      [
        100.04598864354193,
        9.463714342564344
      ],
      [
        100.04602426663041,
        9.463766729459167
      ],
      [
        100.04613591358066,
        9.463901342824101
      ],
      [
        100.04614387638867,
        9.4639134965837
      ],
      [
        100.04618234932423,
        9.463979043066502
      ],
      [
        100.04623389802873,
        9.464077530428767
      ],
      [
        100.04632635042071,
        9.464209210127592
      ],
      [
        100.04643187858164,
        9.4643659517169
      ],
      [
        100.04652676172554,
        9.46452529169619
      ],
      [
        100.04664922133088,
        9.464653702452779
      ],
      [
        100.04673371091485,
        9.464807426556945
      ],
      [
        100.04678978584707,
        9.464883115142584
      ],
      [
        100.04681870341301,
        9.464912619441748
      ],
      [
        100.04684544168413,
        9.46494254283607
      ],
      [
        100.0468675699085,
        9.46497774682939
      ],
      [
        100.04697896540165,
        9.465130297467113
      ],
      [
        100.04700654186308,
        9.46516533382237
      ],
      [
        100.04704451188445,
        9.465236747637391
      ],
      [
        100.04706932231784,
        9.465263988822699
      ],
      [
        100.04711575806141,
        9.465334983542562
      ],
      [
        100.04714165814221,
        9.465364990755916
      ],
      [
        100.04726369865239,
        9.465504549443722
      ],
      [
        100.04727778024971,
        9.465526258572936
      ],
      [
        100.04739026539028,
        9.465668499469757
      ],
      [
        100.04744382575154,
        9.465741589665413
      ],
      [
        100.04749026149511,
        9.465818451717496
      ],
      [
        100.04756787791848,
        9.465881902724504
      ],
      [
        100.04765320569277,
        9.465974438935518
      ],
      [
        100.047661755234,
        9.465985167771578
      ],
      [
        100.0476998090744,
        9.46602975949645
      ],
      [
        100.04782143048942,
        9.466167977079749
      ],
      [
        100.04784204997122,
        9.46618708781898
      ],
      [
        100.04787130281329,
        9.46621935814619
      ],
      [
        100.04791405051947,
        9.466258250176907
      ],
      [
        100.04802972078323,
        9.466384733095765
      ],
      [
        100.04814019426703,
        9.466540468856692
      ],
      [
        100.04819283261895,
        9.466633340343833
      ],
      [
        100.04823323339224,
        9.466671897098422
      ],
      [
        100.04833557642996,
        9.466758901253343
      ],
      [
        100.04849483259022,
        9.466860154643655
      ],
      [
        100.04861762747169,
        9.46699376218021
      ],
      [
        100.04870295524597,
        9.467105157673359
      ],
      [
        100.04882583394647,
        9.467245051637292
      ],
      [
        100.04897243343294,
        9.46736516430974
      ],
      [
        100.048988442868,
        9.467391483485699
      ],
      [
        100.04908760078251,
        9.467511177062988
      ],
      [
        100.04909832961857,
        9.467530371621251
      ],
      [
        100.04911006428301,
        9.467543195933104
      ],
      [
        100.04918776452541,
        9.467666912823915
      ],
      [
        100.04930494353175,
        9.467824241146445
      ],
      [
        100.04942103289068,
        9.46797058917582
      ],
      [
        100.04952027462423,
        9.468011492863297
      ],
      [
        100.04955061711371,
        9.46805901825428
      ],
      [
        100.04957090131938,
        9.468102604150772
      ],
      [
        100.04958171397448,
        9.46819874458015
      ],
      [
        100.04956536926329,
        9.468263536691666
      ],
      [
        100.04958800040185,
        9.468409130349755
      ],
      [
        100.0496066082269,
        9.468444753438234
      ],
      [
        100.04959931597114,
        9.468614989891648
      ],
      [
        100.04956796765327,
        9.468688499182463
      ],
      [
        100.04950912669301,
        9.468805762007833
      ],
      [
        100.04945883527398,
        9.468885138630867
      ],
      [
        100.04945497959852,
        9.46888823993504
      ],
      [
        100.04945355467498,
        9.468891425058246
      ],
      [
        100.04942203871906,
        9.46893760934472
      ],
      [
        100.0493748486042,
        9.468982703983784
      ],
      [
        100.0493592582643,
        9.469008687883615
      ],
      [
        100.04933302290738,
        9.46903626434505
      ],
      [
        100.04920310340822,
        9.469167608767748
      ],
      [
        100.04914660938084,
        9.469284787774086
      ],
      [
        100.04912029020488,
        9.46931621991098
      ],
      [
        100.04900277592242,
        9.469461226835847
      ],
      [
        100.04892691969872,
        9.46955761872232
      ],
      [
        100.04891258664429,
        9.469576645642519
      ],
      [
        100.04887822084129,
        9.469605898484588
      ],
      [
        100.04884662106633,
        9.469631547108293
      ],
      [
        100.04872449673712,
        9.469776889309287
      ],
      [
        100.04871561191976,
        9.46978384628892
      ],
      [
        100.04870027303696,
        9.469803627580404
      ],
      [
        100.04867806099355,
        9.469828186556697
      ],
      [
        100.04865090362728,
        9.469864815473557
      ],
      [
        100.04863305017352,
        9.469880908727646
      ],
      [
        100.04852458834648,
        9.470037734135985
      ],
      [
        100.04843850620091,
        9.470209814608097
      ],
      [
        100.04837220534682,
        9.470292795449495
      ],
      [
        100.0482418667525,
        9.470429755747318
      ],
      [
        100.04821110516787,
        9.470462948083878
      ],
      [
        100.04819626919925,
        9.470481472089887
      ],
      [
        100.04817028529942,
        9.470522291958332
      ],
      [
        100.04815695807338,
        9.4705377984792
      ],
      [
        100.04810633137822,
        9.470589514821768
      ],
      [
        100.04808202385902,
        9.470614241436124
      ],
      [
        100.04798663780093,
        9.470692109316587
      ],
      [
        100.04793223924935,
        9.470758745446801
      ],
      [
        100.04788110964,
        9.470816496759653
      ],
      [
        100.04787222482264,
        9.470826471224427
      ],
      [
        100.04782972857356,
        9.470880115404725
      ],
      [
        100.04774440079927,
        9.470956390723586
      ],
      [
        100.04770726896822,
        9.47101372294128
      ],
      [
        100.04764817655087,
        9.471078095957637
      ],
      [
        100.0476255454123,
        9.47110709734261
      ],
      [
        100.04758120514452,
        9.471172979101539
      ],
      [
        100.04748967476189,
        9.47129175066948
      ],
      [
        100.04747291095555,
        9.471308598294854
      ],
      [
        100.04733913578093,
        9.471430638805032
      ],
      [
        100.047323461622,
        9.471442122012377
      ],
      [
        100.04724643193185,
        9.471530802547932
      ],
      [
        100.04721684381366,
        9.471588637679815
      ],
      [
        100.04724785685539,
        9.471724759787321
      ],
      [
        100.0472595077008,
        9.471816206350923
      ],
      [
        100.04725347273052,
        9.471939085051417
      ],
      [
        100.0472650397569,
        9.472004882991314
      ]
    ]
  }
}
