{
  "type": "Feature",
  "properties": {
    "id": "intervals-178055332",
    "activity": "walking",
    "name": "Ko Samui Walking",
    "date": "2024-06-24T01:00:04Z",
    "distanceKm": 1.73,
    "movingTimeSeconds": 949,
    "elapsedTimeSeconds": 989,
    "ascentM": null,
    "descentM": null,
    "providers": [
      "Garmin",
      "Strava"
    ]
  },
  "geometry": {
    "type": "LineString",
    "coordinates": [
      [
        100.04727836698294,
        9.472181154415011
      ],
      [
        100.0472161732614,
        9.472218370065093
      ],
      [
        100.0472526345402,
        9.472262877970934
      ],
      [
        100.04726277664304,
        9.472289280965924
      ],
      [
        100.04727400839329,
        9.472338315099478
      ],
      [
        100.04728641360998,
        9.472415847703815
      ],
      [
        100.04729839973152,
        9.472443843260407
      ],
      [
        100.04731491208076,
        9.47250159457326
      ],
      [
        100.04735061898828,
        9.472597064450383
      ],
      [
        100.04738481715322,
        9.472689516842365
      ],
      [
        100.04739076830447,
        9.4727239664644
      ],
      [
        100.04742186516523,
        9.472803343087435
      ],
      [
        100.04742907360196,
        9.472838379442692
      ],
      [
        100.04745279438794,
        9.472891185432673
      ],
      [
        100.04753761924803,
        9.47307139635086
      ],
      [
        100.04756779409945,
        9.473119676113129
      ],
      [
        100.04757659509778,
        9.473138200119138
      ],
      [
        100.0475895870477,
        9.473172901198268
      ],
      [
        100.0475980527699,
        9.473189916461706
      ],
      [
        100.0476104579866,
        9.4732213485986
      ],
      [
        100.0476239528507,
        9.47325018234551
      ],
      [
        100.04764599725604,
        9.473302736878395
      ],
      [
        100.04766318015754,
        9.473351519554853
      ],
      [
        100.0477204285562,
        9.473469452932477
      ],
      [
        100.04778714850545,
        9.473576825112104
      ],
      [
        100.04776979796588,
        9.47360591031611
      ],
      [
        100.04767935723066,
        9.473655028268695
      ],
      [
        100.04750769585371,
        9.473759215325117
      ],
      [
        100.04734626039863,
        9.473866419866681
      ],
      [
        100.04718356765807,
        9.47395384311676
      ],
      [
        100.0470092240721,
        9.474044619128108
      ],
      [
        100.04697930067778,
        9.474069010466337
      ],
      [
        100.04696069285274,
        9.47408334352076
      ],
      [
        100.04694719798863,
        9.474089378491044
      ],
      [
        100.04693261347711,
        9.47409407235682
      ],
      [
        100.04691216163337,
        9.474121145904064
      ],
      [
        100.04684125073254,
        9.474150901660323
      ],
      [
        100.04676933400333,
        9.474177053198218
      ],
      [
        100.04675005562603,
        9.47418694384396
      ],
      [
        100.04657152108848,
        9.474251316860318
      ],
      [
        100.04640446975827,
        9.474324574694037
      ],
      [
        100.04636926576495,
        9.4743368960917
      ],
      [
        100.04622794687748,
        9.474391294643283
      ],
      [
        100.04610322415829,
        9.474448543041945
      ],
      [
        100.04592443816364,
        9.474507216364145
      ],
      [
        100.04578739404678,
        9.47461886331439
      ],
      [
        100.04575219005346,
        9.474644847214222
      ],
      [
        100.04563040100038,
        9.474681559950113
      ],
      [
        100.04542797803879,
        9.474722379818559
      ],
      [
        100.04523251205683,
        9.474773593246937
      ],
      [
        100.04515347070992,
        9.474819609895349
      ],
      [
        100.04516520537436,
        9.474933100864291
      ],
      [
        100.0452374573797,
        9.475102163851261
      ],
      [
        100.04533477127552,
        9.475265443325043
      ],
      [
        100.0453738309443,
        9.475315399467945
      ],
      [
        100.04539528861642,
        9.47537180967629
      ],
      [
        100.04543300718069,
        9.475460909307003
      ],
      [
        100.04545488394797,
        9.475508853793144
      ],
      [
        100.04551841877401,
        9.47568453848362
      ],
      [
        100.04563827998936,
        9.475850416347384
      ],
      [
        100.04571564495564,
        9.476018054410815
      ],
      [
        100.04589778371155,
        9.476065747439861
      ],
      [
        100.04605209454894,
        9.476044625043869
      ],
      [
        100.04609257914126,
        9.476048396900296
      ],
      [
        100.04626767709851,
        9.475989723578095
      ],
      [
        100.04629969596863,
        9.475973546504974
      ],
      [
        100.04636909812689,
        9.475935325026512
      ],
      [
        100.04638745449483,
        9.475923087447882
      ],
      [
        100.04655609838665,
        9.475820241495967
      ],
      [
        100.04656984470785,
        9.475809428840876
      ],
      [
        100.04673823714256,
        9.475737428292632
      ],
      [
        100.04689891822636,
        9.475644305348396
      ],
      [
        100.04705959931016,
        9.47555453516543
      ],
      [
        100.04723402671516,
        9.475511703640223
      ],
      [
        100.04735849797726,
        9.475619243457913
      ],
      [
        100.04748925566673,
        9.475755617022514
      ],
      [
        100.04757659509778,
        9.47582283988595
      ],
      [
        100.04759998060763,
        9.475869946181774
      ],
      [
        100.04765639081597,
        9.476008582860231
      ],
      [
        100.04765236750245,
        9.476060634478927
      ],
      [
        100.04765253514051,
        9.476071950048208
      ],
      [
        100.04765756428242,
        9.476081253960729
      ],
      [
        100.0476620066911,
        9.47609986178577
      ],
      [
        100.0476739089936,
        9.476136742159724
      ],
      [
        100.04767608828843,
        9.476146213710308
      ],
      [
        100.04769226536155,
        9.476191978901625
      ],
      [
        100.0477082747966,
        9.476221147924662
      ],
      [
        100.04777139052749,
        9.476312678307295
      ],
      [
        100.04784590564668,
        9.476422313600779
      ],
      [
        100.0478377752006,
        9.476447207853198
      ],
      [
        100.04784288816154,
        9.47645852342248
      ],
      [
        100.04785009659827,
        9.476523315533996
      ],
      [
        100.0479257851839,
        9.476670250296593
      ],
      [
        100.04793643020093,
        9.476839983835816
      ],
      [
        100.04795520566404,
        9.476877870038152
      ],
      [
        100.04799334332347,
        9.47693394497037
      ],
      [
        100.04807766526937,
        9.477100493386388
      ],
      [
        100.04810406826437,
        9.477150617167354
      ],
      [
        100.04812544211745,
        9.477217923849821
      ],
      [
        100.04818964749575,
        9.477389920502901
      ],
      [
        100.0483351573348,
        9.47732051834464
      ],
      [
        100.04840020090342,
        9.47725254110992
      ],
      [
        100.04847622476518,
        9.477206189185381
      ],
      [
        100.04854185506701,
        9.477172577753663
      ],
      [
        100.04864369519055,
        9.477104265242815
      ],
      [
        100.0487984251231,
        9.476983565837145
      ],
      [
        100.04888718947768,
        9.476917684078217
      ],
      [
        100.04894846118987,
        9.476866973564029
      ],
      [
        100.04901560023427,
        9.476804444566369
      ],
      [
        100.04909254610538,
        9.476712914183736
      ],
      [
        100.04902641288936,
        9.476546198129654
      ],
      [
        100.04897377453744,
        9.476367579773068
      ],
      [
        100.04891937598586,
        9.476183261722326
      ],
      [
        100.04887226969004,
        9.47612525895238
      ],
      [
        100.04880144260824,
        9.475954519584775
      ],
      [
        100.04878819920123,
        9.475911688059568
      ],
      [
        100.04876757971942,
        9.4758565351367
      ],
      [
        100.04863548092544,
        9.475716389715672
      ],
      [
        100.048562977463,
        9.47555118240416
      ],
      [
        100.04854244180024,
        9.475486557930708
      ],
      [
        100.04847873933613,
        9.475336521863937
      ],
      [
        100.04846088588238,
        9.475302072241902
      ],
      [
        100.04841662943363,
        9.4752262160182
      ],
      [
        100.04834186285734,
        9.475034018978477
      ],
      [
        100.04832250066102,
        9.474973836913705
      ],
      [
        100.04829777404666,
        9.474879456683993
      ],
      [
        100.04828419536352,
        9.474817598238587
      ],
      [
        100.04827262833714,
        9.474764876067638
      ],
      [
        100.04824153147638,
        9.4745734333992
      ],
      [
        100.04821051843464,
        9.474436221644282
      ],
      [
        100.04822275601327,
        9.474392551928759
      ],
      [
        100.04820884205401,
        9.474351899698377
      ],
      [
        100.04817279987037,
        9.47417227551341
      ],
      [
        100.04814488813281,
        9.474089294672012
      ],
      [
        100.04808085039258,
        9.47393087670207
      ],
      [
        100.04804765805602,
        9.473868180066347
      ],
      [
        100.04796811379492,
        9.473702972754836
      ],
      [
        100.04792846739292,
        9.473636001348495
      ],
      [
        100.0478208437562,
        9.473487054929137
      ],
      [
        100.04771280102432,
        9.473330900073051
      ],
      [
        100.04767592065036,
        9.473245069384575
      ],
      [
        100.04761070944369,
        9.473077347502112
      ],
      [
        100.04759796895087,
        9.473043316975236
      ],
      [
        100.04757751710713,
        9.472974753007293
      ],
      [
        100.04755094647408,
        9.472948098555207
      ],
      [
        100.04751683212817,
        9.472871823236346
      ],
      [
        100.04743510857224,
        9.47270929813385
      ],
      [
        100.04738003946841,
        9.472536547109485
      ],
      [
        100.04732471890748,
        9.472349043935537
      ],
      [
        100.04731273278594,
        9.47231207974255
      ]
    ]
  }
}
