{
  "type": "Feature",
  "properties": {
    "id": "intervals-178055040",
    "activity": "hiking",
    "name": "Dartford Hiking",
    "date": "2019-04-22T10:06:23Z",
    "distanceKm": 13.37,
    "movingTimeSeconds": 9828,
    "elapsedTimeSeconds": 10517,
    "ascentM": 48,
    "descentM": 537,
    "providers": [
      "Garmin",
      "Strava"
    ]
  },
  "geometry": {
    "type": "LineString",
    "coordinates": [
      [
        0.2179394569247961,
        51.44437864422798,
        7
      ],
      [
        0.2179824560880661,
        51.444373866543174,
        7.800000000000011
      ],
      [
        0.21805152297019958,
        51.44436238333583,
        8.399999999999977
      ],
      [
        0.2181000541895628,
        51.44435601308942,
        11.199999999999989
      ],
      [
        0.21819887682795525,
        51.444346625357866,
        12.200000000000045
      ],
      [
        0.21842921152710915,
        51.444311840459704,
        13.399999999999977
      ],
      [
        0.2186271082609892,
        51.444265488535166,
        13.200000000000045
      ],
      [
        0.21868041716516018,
        51.444206899032,
        11
      ],
      [
        0.21875551901757717,
        51.44400958903134,
        6.399999999999977
      ],
      [
        0.2188427746295929,
        51.44381923601031,
        5.199999999999989
      ],
      [
        0.21882768720388412,
        51.443619914352894,
        5.199999999999989
      ],
      [
        0.21863725036382675,
        51.44347792491317,
        4.199999999999989
      ],
      [
        0.2186195645481348,
        51.44339838065207,
        3.8000000000000114
      ],
      [
        0.21882659755647182,
        51.44332956522703,
        2.3999999999999773
      ],
      [
        0.2188265137374401,
        51.4433104544878,
        2
      ],
      [
        0.2188259270042181,
        51.443277010694146,
        1.3999999999999773
      ],
      [
        0.21875090897083282,
        51.44310275092721,
        0.8000000000000114
      ],
      [
        0.21867639385163784,
        51.44296335987747,
        0.19999999999998863
      ],
      [
        0.21865158341825008,
        51.4428820554167,
        0.8000000000000114
      ],
      [
        0.21863666363060474,
        51.44285732880235,
        1.1999999999999886
      ],
      [
        0.21856491453945637,
        51.442734617739916,
        -0.19999999999998863
      ],
      [
        0.21855728700757027,
        51.44271567463875,
        -0.6000000000000227
      ],
      [
        0.21846458315849304,
        51.442540073767304,
        -1.1999999999999886
      ],
      [
        0.21839400753378868,
        51.442433120682836,
        -2
      ],
      [
        0.21836626343429089,
        51.44239758141339,
        -2.1999999999999886
      ],
      [
        0.21836232393980026,
        51.442364221438766,
        -2
      ],
      [
        0.21828948520123959,
        51.442184932529926,
        -1.8000000000000114
      ],
      [
        0.21823927760124207,
        51.44208594225347,
        -1.6000000000000227
      ],
      [
        0.21816241554915905,
        51.441968847066164,
        -1.6000000000000227
      ],
      [
        0.21810843609273434,
        51.44181663170457,
        -2.3999999999999773
      ],
      [
        0.2181174885481596,
        51.441804729402065,
        -2.1999999999999886
      ],
      [
        0.21819602698087692,
        51.44179601222277,
        -2.3999999999999773
      ],
      [
        0.2182143833488226,
        51.44175795838237,
        -2.6000000000000227
      ],
      [
        0.21812846884131432,
        51.441580429673195,
        -3
      ],
      [
        0.21815855987370014,
        51.44153122790158,
        -3
      ],
      [
        0.21840146742761135,
        51.441433830186725,
        -2.6000000000000227
      ],
      [
        0.21844019182026386,
        51.44125512801111,
        -2
      ],
      [
        0.21845930255949497,
        51.441098134964705,
        -1.1999999999999886
      ],
      [
        0.21865040995180607,
        51.44095564261079,
        -0.8000000000000114
      ],
      [
        0.2188095822930336,
        51.44079311750829,
        0
      ],
      [
        0.21893120370805264,
        51.44063662737608,
        2.1999999999999886
      ],
      [
        0.21892533637583256,
        51.440448705106974,
        1.3999999999999773
      ],
      [
        0.21893036551773548,
        51.44043487496674,
        1.3999999999999773
      ],
      [
        0.2189370710402727,
        51.440292382612824,
        -0.19999999999998863
      ],
      [
        0.2189005259424448,
        51.44010513089597,
        0
      ],
      [
        0.21889440715312958,
        51.43992634490132,
        -2.8000000000000114
      ],
      [
        0.21888753399252892,
        51.439911257475615,
        -3.3999999999999773
      ],
      [
        0.21885819733142853,
        51.439867839217186,
        -2.3999999999999773
      ],
      [
        0.21885660476982594,
        51.43967689946294,
        -2.1999999999999886
      ],
      [
        0.21887579932808876,
        51.43948679789901,
        -1.6000000000000227
      ],
      [
        0.21886599250137806,
        51.43936819396913,
        -1.1999999999999886
      ],
      [
        0.21887856535613537,
        51.43934698775411,
        -1.1999999999999886
      ],
      [
        0.21903681568801403,
        51.43926937133074,
        -0.39999999999997726
      ],
      [
        0.2190840896219015,
        51.439265348017216,
        0
      ],
      [
        0.2193524781614542,
        51.43919016234577,
        1.6000000000000227
      ],
      [
        0.21964450366795063,
        51.43917214125395,
        2
      ],
      [
        0.2199007384479046,
        51.43917063251138,
        2
      ],
      [
        0.22019821219146252,
        51.43918731249869,
        4
      ],
      [
        0.220493758097291,
        51.43916300497949,
        1.8000000000000114
      ],
      [
        0.22078050300478935,
        51.43917314708233,
        2.3999999999999773
      ],
      [
        0.2208232507109642,
        51.43917021341622,
        3
      ],
      [
        0.22111536003649235,
        51.43919820897281,
        0.19999999999998863
      ],
      [
        0.22142247296869755,
        51.43921262584627,
        -1.8000000000000114
      ],
      [
        0.22172078490257263,
        51.43918672576547,
        1.3999999999999773
      ],
      [
        0.22187425754964352,
        51.43916040658951,
        2.1999999999999886
      ],
      [
        0.22191532887518406,
        51.439125537872314,
        1.8000000000000114
      ],
      [
        0.22210811264812946,
        51.43898447044194,
        2.6000000000000227
      ],
      [
        0.22214742377400398,
        51.43894608132541,
        2.6000000000000227
      ],
      [
        0.2222673688083887,
        51.43877366557717,
        2.8000000000000114
      ],
      [
        0.2223407942801714,
        51.43859873525798,
        2
      ],
      [
        0.22238479927182198,
        51.438415087759495,
        0.6000000000000227
      ],
      [
        0.22253349423408508,
        51.43824828788638,
        -0.19999999999998863
      ],
      [
        0.22255788557231426,
        51.43822540529072,
        0.19999999999998863
      ],
      [
        0.2228467259556055,
        51.43817997537553,
        1
      ],
      [
        0.22291788831353188,
        51.4381645526737,
        2.3999999999999773
      ],
      [
        0.22295325994491577,
        51.4381436817348,
        1.8000000000000114
      ],
      [
        0.22309491410851479,
        51.43796380609274,
        2.1999999999999886
      ],
      [
        0.22316238842904568,
        51.43756901845336,
        0.39999999999997726
      ],
      [
        0.22295476868748665,
        51.437444211915135,
        0.6000000000000227
      ],
      [
        0.22295644506812096,
        51.43726618029177,
        -1
      ],
      [
        0.22297555580735207,
        51.4372025616467,
        -2
      ],
      [
        0.2229773998260498,
        51.43717280589044,
        -0.8000000000000114
      ],
      [
        0.22307789884507656,
        51.43716576509178,
        4.600000000000023
      ],
      [
        0.223348718136549,
        51.437088986858726,
        4.399999999999977
      ],
      [
        0.22335324436426163,
        51.4369055069983,
        2.3999999999999773
      ],
      [
        0.22330068983137608,
        51.436714148148894,
        3.1999999999999886
      ],
      [
        0.22322424687445164,
        51.43652932718396,
        3.1999999999999886
      ],
      [
        0.22329038009047508,
        51.43634500913322,
        0
      ],
      [
        0.2233988419175148,
        51.43617041409016,
        -1
      ],
      [
        0.22350185550749302,
        51.436000848188996,
        -1.6000000000000227
      ],
      [
        0.22363529540598392,
        51.435833126306534,
        -1
      ],
      [
        0.2237429190427065,
        51.43565936945379,
        -1.8000000000000114
      ],
      [
        0.2238731738179922,
        51.4354878757149,
        -0.8000000000000114
      ],
      [
        0.22397090680897236,
        51.43530263565481,
        -0.6000000000000227
      ],
      [
        0.22400066256523132,
        51.43511865288019,
        -2.1999999999999886
      ],
      [
        0.22402899339795113,
        51.43504179082811,
        -1.3999999999999773
      ],
      [
        0.22400074638426304,
        51.43496761098504,
        4.399999999999977
      ],
      [
        0.2237189467996359,
        51.43490650691092,
        0.19999999999998863
      ],
      [
        0.22350051440298557,
        51.43485462293029,
        -1.1999999999999886
      ],
      [
        0.2233476284891367,
        51.434813383966684,
        -2.3999999999999773
      ],
      [
        0.22305049002170563,
        51.43478094600141,
        -1
      ],
      [
        0.22275838069617748,
        51.4347312413156,
        -0.39999999999997726
      ],
      [
        0.22245981730520725,
        51.43470584414899,
        -1
      ],
      [
        0.22217399440705776,
        51.434678016230464,
        2.6000000000000227
      ],
      [
        0.22188708186149597,
        51.434641471132636,
        4.399999999999977
      ],
      [
        0.22159011103212833,
        51.43463375978172,
        4.199999999999989
      ],
      [
        0.22135390900075436,
        51.434620851650834,
        6
      ],
      [
        0.2210633922368288,
        51.43463040702045,
        11.399999999999977
      ],
      [
        0.22098887711763382,
        51.43460316583514,
        8.600000000000023
      ],
      [
        0.22095786407589912,
        51.434588665142655,
        6.600000000000023
      ],
      [
        0.22096339613199234,
        51.434577852487564,
        7.199999999999989
      ],
      [
        0.22104788571596146,
        51.43458992242813,
        5.199999999999989
      ],
      [
        0.22133211605250835,
        51.43462755717337,
        4.800000000000011
      ],
      [
        0.22145558148622513,
        51.434638453647494,
        4.600000000000023
      ],
      [
        0.22161081433296204,
        51.43465429544449,
        3.3999999999999773
      ],
      [
        0.22168549709022045,
        51.43465479835868,
        3.8000000000000114
      ],
      [
        0.2217364590615034,
        51.43466720357537,
        3.6000000000000227
      ],
      [
        0.22181114181876183,
        51.43466611392796,
        3
      ],
      [
        0.22202622145414352,
        51.43468522466719,
        2.8000000000000114
      ],
      [
        0.22231606766581535,
        51.43471975810826,
        1.3999999999999773
      ],
      [
        0.22259962745010853,
        51.43477222882211,
        6
      ],
      [
        0.22268143482506275,
        51.4347727317363,
        4.399999999999977
      ],
      [
        0.2229915652424097,
        51.4347920101136,
        -2
      ],
      [
        0.2230639848858118,
        51.43479938618839,
        -3
      ],
      [
        0.2233542501926422,
        51.4348419662565,
        -3.3999999999999773
      ],
      [
        0.22359824739396572,
        51.43493810668588,
        -0.39999999999997726
      ],
      [
        0.22386998869478703,
        51.43502066843212,
        5
      ],
      [
        0.22409487515687943,
        51.43497632816434,
        -2
      ],
      [
        0.2241246309131384,
        51.43493223935366,
        -0.8000000000000114
      ],
      [
        0.22418338805437088,
        51.434882786124945,
        -1.6000000000000227
      ],
      [
        0.22427483461797237,
        51.4348797686398,
        1
      ],
      [
        0.224550012499094,
        51.43496417440474,
        8.800000000000011
      ],
      [
        0.2248119469732046,
        51.435057800263166,
        10.800000000000011
      ],
      [
        0.22482669912278652,
        51.4350578840822,
        11.399999999999977
      ],
      [
        0.22485100664198399,
        51.43503843806684,
        11.399999999999977
      ],
      [
        0.22486165165901184,
        51.435004910454154,
        11.399999999999977
      ],
      [
        0.2248778287321329,
        51.434981944039464,
        10
      ],
      [
        0.2250906452536583,
        51.43485018052161,
        6.199999999999989
      ],
      [
        0.22526959888637066,
        51.43470165319741,
        6.399999999999977
      ],
      [
        0.22540312260389328,
        51.43458103761077,
        5.800000000000011
      ],
      [
        0.22546498104929924,
        51.43451574258506,
        6.600000000000023
      ],
      [
        0.22560043260455132,
        51.43435296602547,
        7.399999999999977
      ],
      [
        0.22577393800020218,
        51.43422841094434,
        9.600000000000023
      ],
      [
        0.22579874843358994,
        51.4340491220355,
        12.600000000000023
      ],
      [
        0.22580645978450775,
        51.433866396546364,
        9.800000000000011
      ],
      [
        0.2258394006639719,
        51.43368207849562,
        7.399999999999977
      ],
      [
        0.22587242536246777,
        51.43349968828261,
        6.800000000000011
      ],
      [
        0.22596445865929127,
        51.43332333303988,
        9.800000000000011
      ],
      [
        0.2260424941778183,
        51.433167178183794,
        7.199999999999989
      ],
      [
        0.2260353695601225,
        51.43315519206226,
        7.600000000000023
      ],
      [
        0.22602858021855354,
        51.43313608132303,
        7.199999999999989
      ],
      [
        0.22602262906730175,
        51.43304530531168,
        6.600000000000023
      ],
      [
        0.22604618221521378,
        51.43286308273673,
        9.199999999999989
      ],
      [
        0.22614735178649426,
        51.43268270418048,
        7.800000000000011
      ],
      [
        0.22622119635343552,
        51.43249821849167,
        6.600000000000023
      ],
      [
        0.22627031430602074,
        51.43234181217849,
        5
      ],
      [
        0.22618230432271957,
        51.432160595431924,
        3
      ],
      [
        0.22615615278482437,
        51.432069735601544,
        2.3999999999999773
      ],
      [
        0.22606671787798405,
        51.431898241862655,
        3.8000000000000114
      ],
      [
        0.2260528039187193,
        51.43187317997217,
        3.6000000000000227
      ],
      [
        0.22596697323024273,
        51.43169028684497,
        4.600000000000023
      ],
      [
        0.22593067958950996,
        51.431637313216925,
        4.399999999999977
      ],
      [
        0.22587175481021404,
        51.431483421474695,
        4.600000000000023
      ],
      [
        0.2258127462118864,
        51.43141904845834,
        5.800000000000011
      ],
      [
        0.22579019889235497,
        51.43123095855117,
        5.600000000000023
      ],
      [
        0.22574996575713158,
        51.43112509511411,
        5.600000000000023
      ],
      [
        0.22579187527298927,
        51.43093993887305,
        3.8000000000000114
      ],
      [
        0.22580419667065144,
        51.43092510290444,
        4
      ],
      [
        0.2258932963013649,
        51.430742125958204,
        3
      ],
      [
        0.2258856687694788,
        51.43055093474686,
        -0.19999999999998863
      ],
      [
        0.2258813101798296,
        51.43052453175187,
        -0.19999999999998863
      ],
      [
        0.22590829990804195,
        51.43042344599962,
        1.1999999999999886
      ],
      [
        0.2259570825845003,
        51.430402575060725,
        5
      ],
      [
        0.22598080337047577,
        51.43035454675555,
        6
      ],
      [
        0.22606722079217434,
        51.430169977247715,
        9.199999999999989
      ],
      [
        0.22608842700719833,
        51.4299878384918,
        5.399999999999977
      ],
      [
        0.22608691826462746,
        51.429961938411,
        4.399999999999977
      ],
      [
        0.22608046419918537,
        51.429915335029364,
        3.1999999999999886
      ],
      [
        0.2260457631200552,
        51.429735543206334,
        2.3999999999999773
      ],
      [
        0.22595498710870743,
        51.42954686656594,
        2.8000000000000114
      ],
      [
        0.2258192840963602,
        51.429388448596,
        8.199999999999989
      ],
      [
        0.22571182809770107,
        51.42922022379935,
        7.399999999999977
      ],
      [
        0.2258552424609661,
        51.42906163819134,
        5
      ],
      [
        0.22608733735978603,
        51.42894772812724,
        4.199999999999989
      ],
      [
        0.22632102482020855,
        51.42880925908685,
        4.399999999999977
      ],
      [
        0.22639763541519642,
        51.42877036705613,
        6.800000000000011
      ],
      [
        0.22661925293505192,
        51.42864723689854,
        6.600000000000023
      ],
      [
        0.22683349438011646,
        51.42852444201708,
        6.600000000000023
      ],
      [
        0.22707028314471245,
        51.42840776592493,
        5.399999999999977
      ],
      [
        0.2273380011320114,
        51.42834565602243,
        6.399999999999977
      ],
      [
        0.22762583568692207,
        51.428332747891545,
        6.199999999999989
      ],
      [
        0.22770965471863747,
        51.42826493829489,
        6.800000000000011
      ],
      [
        0.22769205272197723,
        51.42822906374931,
        6
      ],
      [
        0.2275959961116314,
        51.428071316331625,
        3.1999999999999886
      ],
      [
        0.22776338271796703,
        51.42792354337871,
        3.1999999999999886
      ],
      [
        0.22794870659708977,
        51.42778163775802,
        4
      ],
      [
        0.2281476091593504,
        51.427640402689576,
        3
      ],
      [
        0.2282429952174425,
        51.427556835114956,
        2.6000000000000227
      ],
      [
        0.228419853374362,
        51.427404871210456,
        1
      ],
      [
        0.22858019918203354,
        51.42725550569594,
        2
      ],
      [
        0.2288561314344406,
        51.427211752161384,
        2.8000000000000114
      ],
      [
        0.22912745364010334,
        51.42713530920446,
        4.199999999999989
      ],
      [
        0.22938712500035763,
        51.42704637721181,
        5
      ],
      [
        0.2296515740454197,
        51.42694621346891,
        5.399999999999977
      ],
      [
        0.22981426678597927,
        51.426801877096295,
        7
      ],
      [
        0.22984972223639488,
        51.42677136696875,
        7
      ],
      [
        0.22989364340901375,
        51.42676290124655,
        6.199999999999989
      ],
      [
        0.2301399875432253,
        51.426851162686944,
        5.399999999999977
      ],
      [
        0.2301749400794506,
        51.42687136307359,
        4.800000000000011
      ],
      [
        0.23023294284939766,
        51.42689349129796,
        4.800000000000011
      ],
      [
        0.2302358765155077,
        51.42689634114504,
        5.399999999999977
      ],
      [
        0.23028583265841007,
        51.42693657428026,
        4.399999999999977
      ],
      [
        0.23023470304906368,
        51.42690572887659,
        5.199999999999989
      ],
      [
        0.23011676967144012,
        51.42685677856207,
        3.3999999999999773
      ],
      [
        0.22986405529081821,
        51.42675418406725,
        4
      ],
      [
        0.22971661761403084,
        51.42669660039246,
        3.8000000000000114
      ],
      [
        0.22945099510252476,
        51.42660029232502,
        3.1999999999999886
      ],
      [
        0.22935569286346436,
        51.42656659707427,
        2.6000000000000227
      ],
      [
        0.22908235900104046,
        51.42648319713771,
        3.6000000000000227
      ],
      [
        0.2289220131933689,
        51.42645226791501,
        4.399999999999977
      ],
      [
        0.22885621525347233,
        51.42646207474172,
        4.399999999999977
      ],
      [
        0.22881866432726383,
        51.426451932638884,
        4.600000000000023
      ],
      [
        0.22858824580907822,
        51.42653818242252,
        5.600000000000023
      ],
      [
        0.22842161357402802,
        51.42662342637777,
        5.600000000000023
      ],
      [
        0.22858338430523872,
        51.42646593041718,
        6
      ],
      [
        0.22878228686749935,
        51.42631631344557,
        8.800000000000011
      ],
      [
        0.22896149195730686,
        51.42617566511035,
        10.399999999999977
      ],
      [
        0.2291179820895195,
        51.42601598985493,
        8.600000000000023
      ],
      [
        0.22922753356397152,
        51.42585815861821,
        9.600000000000023
      ],
      [
        0.22927598096430302,
        51.42568054609001,
        12.200000000000045
      ],
      [
        0.22954504005610943,
        51.42559664323926,
        7.800000000000011
      ],
      [
        0.2296292781829834,
        51.425535287708044,
        4.399999999999977
      ],
      [
        0.2296722773462534,
        51.42547829076648,
        5.399999999999977
      ],
      [
        0.22982055321335793,
        51.42533336766064,
        5.800000000000011
      ],
      [
        0.23001677356660366,
        51.42520076595247,
        6.600000000000023
      ],
      [
        0.23015817627310753,
        51.42502726055682,
        7
      ],
      [
        0.23028030060231686,
        51.424850737676024,
        6.399999999999977
      ],
      [
        0.2304336056113243,
        51.42466742545366,
        4.600000000000023
      ],
      [
        0.23056771606206894,
        51.42450548708439,
        4.399999999999977
      ],
      [
        0.23057316429913044,
        51.42450054176152,
        4.600000000000023
      ],
      [
        0.2305816300213337,
        51.4244790840894,
        5.199999999999989
      ],
      [
        0.23060769774019718,
        51.42443625256419,
        5.800000000000011
      ],
      [
        0.2307009045034647,
        51.424345057457685,
        5.600000000000023
      ],
      [
        0.23081380873918533,
        51.42417121678591,
        6.199999999999989
      ],
      [
        0.2308480069041252,
        51.424062084406614,
        5.600000000000023
      ],
      [
        0.23091992363333702,
        51.423876928165555,
        6.199999999999989
      ],
      [
        0.23099209181964397,
        51.423685904592276,
        4.199999999999989
      ],
      [
        0.231005335226655,
        51.42361734062433,
        4.600000000000023
      ],
      [
        0.23105286061763763,
        51.42343461513519,
        5.399999999999977
      ],
      [
        0.23105747066438198,
        51.42342086881399,
        5.399999999999977
      ],
      [
        0.23105193860828876,
        51.42329312860966,
        4.800000000000011
      ],
      [
        0.2310674451291561,
        51.42329212278128,
        5.199999999999989
      ],
      [
        0.23110918700695038,
        51.423302264884114,
        4.800000000000011
      ],
      [
        0.23137480951845646,
        51.4233807194978,
        3
      ],
      [
        0.23152283392846584,
        51.42340963706374,
        3.3999999999999773
      ],
      [
        0.23158226162195206,
        51.423427909612656,
        4
      ],
      [
        0.2318308688700199,
        51.423514829948545,
        3
      ],
      [
        0.2318689227104187,
        51.42351231537759,
        3
      ],
      [
        0.23195508867502213,
        51.42348716966808,
        3.6000000000000227
      ],
      [
        0.23224309086799622,
        51.42343151383102,
        4.800000000000011
      ],
      [
        0.23230821825563908,
        51.42344559542835,
        5.399999999999977
      ],
      [
        0.23235155269503593,
        51.423455737531185,
        6.199999999999989
      ],
      [
        0.23258088156580925,
        51.42345347441733,
        9.600000000000023
      ],
      [
        0.2327390480786562,
        51.42330385744572,
        11.199999999999989
      ],
      [
        0.23294742219150066,
        51.42317360267043,
        14.200000000000045
      ],
      [
        0.23312972858548164,
        51.423003282397985,
        15
      ],
      [
        0.23326911963522434,
        51.42283991910517,
        13
      ],
      [
        0.2333974465727806,
        51.42266624607146,
        8.399999999999977
      ],
      [
        0.23353943601250648,
        51.42250179313123,
        6
      ],
      [
        0.2336739655584097,
        51.42244244925678,
        9.399999999999977
      ],
      [
        0.23395484313368797,
        51.422392996028066,
        11.600000000000023
      ],
      [
        0.23412063717842102,
        51.42236935906112,
        14.600000000000023
      ],
      [
        0.23432590998709202,
        51.4222445525229,
        12.600000000000023
      ],
      [
        0.2345326915383339,
        51.42209937795997,
        14.600000000000023
      ],
      [
        0.23475615307688713,
        51.421984042972326,
        14.200000000000045
      ],
      [
        0.23474936373531818,
        51.422001561149955,
        12.600000000000023
      ],
      [
        0.23471918888390064,
        51.422038692981005,
        11.600000000000023
      ],
      [
        0.23468909785151482,
        51.42202033661306,
        12.600000000000023
      ],
      [
        0.23469521664083004,
        51.42202000133693,
        14.600000000000023
      ],
      [
        0.23469580337405205,
        51.422010865062475,
        16.399999999999977
      ],
      [
        0.23473394103348255,
        51.42196778208017,
        23
      ],
      [
        0.23477920331060886,
        51.42197390086949,
        27.600000000000023
      ],
      [
        0.23503619246184826,
        51.421808609738946,
        29
      ],
      [
        0.23510701954364777,
        51.42174524255097,
        16.399999999999977
      ],
      [
        0.23524808697402477,
        51.421698136255145,
        9.600000000000023
      ],
      [
        0.23531346581876278,
        51.42167332582176,
        10.199999999999989
      ],
      [
        0.23542108945548534,
        51.42160660587251,
        9.399999999999977
      ],
      [
        0.23553097620606422,
        51.42142849043012,
        6.600000000000023
      ],
      [
        0.23554639890789986,
        51.421247608959675,
        4
      ],
      [
        0.23555603809654713,
        51.421238388866186,
        4
      ],
      [
        0.2357067447155714,
        51.42108357511461,
        5.800000000000011
      ],
      [
        0.23583482019603252,
        51.420913422480226,
        7.399999999999977
      ],
      [
        0.23594948463141918,
        51.42075089737773,
        4.600000000000023
      ],
      [
        0.23617579601705074,
        51.42061276361346,
        1.8000000000000114
      ],
      [
        0.23640001192688942,
        51.42048804089427,
        5
      ],
      [
        0.2365038637071848,
        51.42031269147992,
        5
      ],
      [
        0.23660813458263874,
        51.42014312557876,
        3.3999999999999773
      ],
      [
        0.23677962832152843,
        51.41999451443553,
        2.8000000000000114
      ],
      [
        0.23691684007644653,
        51.41982679255307,
        5
      ],
      [
        0.23692136630415916,
        51.41962562687695,
        4.399999999999977
      ],
      [
        0.23689471185207367,
        51.41943275928497,
        4.399999999999977
      ],
      [
        0.236866045743227,
        51.419335613027215,
        4
      ],
      [
        0.23685389198362827,
        51.419245675206184,
        3.1999999999999886
      ],
      [
        0.23700091056525707,
        51.41907627694309,
        4.800000000000011
      ],
      [
        0.23708347231149673,
        51.41890017315745,
        5.199999999999989
      ],
      [
        0.2371202688664198,
        51.41871275380254,
        4.199999999999989
      ],
      [
        0.23726058192551136,
        51.41855710186064,
        5.399999999999977
      ],
      [
        0.23744221776723862,
        51.41840069554746,
        11.199999999999989
      ],
      [
        0.23758454248309135,
        51.41834990121424,
        14
      ],
      [
        0.23759594187140465,
        51.41835568472743,
        14
      ],
      [
        0.23764765821397305,
        51.41837236471474,
        12.799999999999955
      ],
      [
        0.2376861311495304,
        51.41839566640556,
        12.799999999999955
      ],
      [
        0.23794077336788177,
        51.418480994179845,
        10.199999999999989
      ],
      [
        0.23814487271010876,
        51.41853145323694,
        11.199999999999989
      ],
      [
        0.23836707696318626,
        51.418411675840616,
        11.399999999999977
      ],
      [
        0.23857243359088898,
        51.418268010020256,
        10.399999999999977
      ],
      [
        0.23879371583461761,
        51.418139431625605,
        11.800000000000011
      ],
      [
        0.23892363533377647,
        51.418052511289716,
        10.800000000000011
      ],
      [
        0.23892640136182308,
        51.4180516730994,
        10.600000000000023
      ],
      [
        0.23902421817183495,
        51.41800641082227,
        9.600000000000023
      ],
      [
        0.23908305913209915,
        51.417903900146484,
        8.399999999999977
      ],
      [
        0.23909521289169788,
        51.41789107583463,
        7.800000000000011
      ],
      [
        0.23911306634545326,
        51.417873557657,
        7.600000000000023
      ],
      [
        0.23913200944662094,
        51.417830139398575,
        6.800000000000011
      ],
      [
        0.23914290592074394,
        51.41780834645033,
        7.199999999999989
      ],
      [
        0.23917249403893948,
        51.417740201577544,
        8.199999999999989
      ],
      [
        0.23919286206364632,
        51.41771296039224,
        9
      ],
      [
        0.2391976397484541,
        51.417686054483056,
        8.800000000000011
      ],
      [
        0.23919906467199326,
        51.41765403561294,
        8
      ],
      [
        0.23928405717015266,
        51.41747139394283,
        6.800000000000011
      ],
      [
        0.23938254453241825,
        51.41729445196688,
        7.199999999999989
      ],
      [
        0.23944079875946045,
        51.41709940508008,
        6.600000000000023
      ],
      [
        0.23949905298650265,
        51.416906705126166,
        6.199999999999989
      ],
      [
        0.23956040851771832,
        51.416721381247044,
        3
      ],
      [
        0.23959603160619736,
        51.41667134128511,
        3.3999999999999773
      ],
      [
        0.23967993445694447,
        51.41648576594889,
        1.8000000000000114
      ],
      [
        0.2397562935948372,
        51.4163108356297,
        3.6000000000000227
      ],
      [
        0.23983734659850597,
        51.416129702702165,
        6.199999999999989
      ],
      [
        0.23992267437279224,
        51.415957286953926,
        5.600000000000023
      ],
      [
        0.24002409540116787,
        51.41578512266278,
        2.6000000000000227
      ],
      [
        0.24009802378714085,
        51.41559703275561,
        3.6000000000000227
      ],
      [
        0.24016130715608597,
        51.41541950404644,
        5.399999999999977
      ],
      [
        0.2402311284095049,
        51.41522051766515,
        4
      ],
      [
        0.2403439488261938,
        51.415034187957644,
        4.399999999999977
      ],
      [
        0.24035233072936535,
        51.414996050298214,
        4.800000000000011
      ],
      [
        0.2403602097183466,
        51.41497635282576,
        4.399999999999977
      ],
      [
        0.24036934599280357,
        51.4149587508291,
        4.800000000000011
      ],
      [
        0.2403847686946392,
        51.41490996815264,
        5.399999999999977
      ],
      [
        0.24043799377977848,
        51.41472623683512,
        4.800000000000011
      ],
      [
        0.2405018638819456,
        51.41452205367386,
        4.600000000000023
      ],
      [
        0.24058601818978786,
        51.41434980556369,
        5.600000000000023
      ],
      [
        0.24068023078143597,
        51.4141748752445,
        4
      ],
      [
        0.2407631278038025,
        51.413982259109616,
        2.8000000000000114
      ],
      [
        0.2408318594098091,
        51.41379425302148,
        1
      ],
      [
        0.24088600650429726,
        51.41361446119845,
        0.8000000000000114
      ],
      [
        0.24095943197607994,
        51.4134409558028,
        3
      ],
      [
        0.2410484477877617,
        51.413258565589786,
        4.199999999999989
      ],
      [
        0.24111784994602203,
        51.413072906434536,
        4.600000000000023
      ],
      [
        0.24114467203617096,
        51.41292261891067,
        6.800000000000011
      ],
      [
        0.24109706282615662,
        51.41289998777211,
        5.600000000000023
      ],
      [
        0.2409585937857628,
        51.41283402219415,
        1.1999999999999886
      ],
      [
        0.24093872867524624,
        51.41281323507428,
        0.6000000000000227
      ],
      [
        0.24091643281280994,
        51.41278523951769,
        1
      ],
      [
        0.24090847000479698,
        51.41273704357445,
        2.6000000000000227
      ],
      [
        0.24085541255772114,
        51.41262883320451,
        4.199999999999989
      ],
      [
        0.24082507006824017,
        51.412580385804176,
        4
      ],
      [
        0.24079036898911,
        51.41255557537079,
        4.600000000000023
      ],
      [
        0.24074058048427105,
        51.41251953318715,
        5.199999999999989
      ],
      [
        0.24056196212768555,
        51.41237176023424,
        5.399999999999977
      ],
      [
        0.24048501625657082,
        51.41229439526796,
        4.399999999999977
      ],
      [
        0.24048476479947567,
        51.41230151988566,
        4
      ],
      [
        0.2404876984655857,
        51.41230210661888,
        3.3999999999999773
      ],
      [
        0.2404942363500595,
        51.41230545938015,
        2.1999999999999886
      ],
      [
        0.24049323052167892,
        51.41230856068432,
        2
      ],
      [
        0.24048300459980965,
        51.41231769695878,
        3.8000000000000114
      ],
      [
        0.24047118611633778,
        51.412316942587495,
        4.199999999999989
      ],
      [
        0.2403966709971428,
        51.41226849518716,
        3.8000000000000114
      ],
      [
        0.24036113172769547,
        51.4122405834496,
        1.8000000000000114
      ],
      [
        0.24032726883888245,
        51.41221661120653,
        1.6000000000000227
      ],
      [
        0.24029240012168884,
        51.4121700078249,
        3.1999999999999886
      ],
      [
        0.24023129604756832,
        51.41213673166931,
        3.3999999999999773
      ],
      [
        0.24020430631935596,
        51.41212625429034,
        3.3999999999999773
      ],
      [
        0.24019600823521614,
        51.41212214715779,
        3.6000000000000227
      ],
      [
        0.24019273929297924,
        51.41211988404393,
        3.6000000000000227
      ],
      [
        0.24014228023588657,
        51.41209348104894,
        3.8000000000000114
      ],
      [
        0.2401266060769558,
        51.412084344774485,
        4
      ],
      [
        0.24009735323488712,
        51.41201754100621,
        5.600000000000023
      ],
      [
        0.24015367962419987,
        51.411904050037265,
        7
      ],
      [
        0.24025434628129005,
        51.41173540614545,
        7.199999999999989
      ],
      [
        0.2402970939874649,
        51.41167279332876,
        7.600000000000023
      ],
      [
        0.24041150696575642,
        51.411600122228265,
        8.399999999999977
      ],
      [
        0.24042868986725807,
        51.41160624101758,
        10.600000000000023
      ],
      [
        0.24042424745857716,
        51.41161068342626,
        10.800000000000011
      ],
      [
        0.2403782308101654,
        51.41157531179488,
        9.800000000000011
      ],
      [
        0.2402147836983204,
        51.41158880665898,
        11
      ],
      [
        0.24014269933104515,
        51.41159727238119,
        12
      ],
      [
        0.23994329385459423,
        51.4116086717695,
        12
      ],
      [
        0.2397656813263893,
        51.41161504201591,
        12.600000000000023
      ],
      [
        0.2394645195454359,
        51.411638678982854,
        9.600000000000023
      ],
      [
        0.23931683041155338,
        51.41165368258953,
        10.399999999999977
      ],
      [
        0.2392417285591364,
        51.41165502369404,
        10.800000000000011
      ],
      [
        0.23909722454845905,
        51.41166340559721,
        9.199999999999989
      ],
      [
        0.23907325230538845,
        51.41166156157851,
        7
      ],
      [
        0.2390729170292616,
        51.41166684217751,
        8
      ],
      [
        0.23907098919153214,
        51.41167170368135,
        9.199999999999989
      ],
      [
        0.23907392285764217,
        51.41168184578419,
        12.399999999999977
      ],
      [
        0.2390702348202467,
        51.411682767793536,
        12.399999999999977
      ],
      [
        0.23877762258052826,
        51.41166885383427,
        6.800000000000011
      ],
      [
        0.23856949992477894,
        51.41165904700756,
        4.199999999999989
      ],
      [
        0.238530021160841,
        51.411654436960816,
        4.600000000000023
      ],
      [
        0.2384527400135994,
        51.411647060886025,
        7.199999999999989
      ],
      [
        0.2383939828723669,
        51.4116432890296,
        7.800000000000011
      ],
      [
        0.238302955403924,
        51.411636332049966,
        7.800000000000011
      ],
      [
        0.23810514248907566,
        51.411601128056645,
        11.399999999999977
      ],
      [
        0.2378113567829132,
        51.41154949553311,
        13.600000000000023
      ],
      [
        0.2375265397131443,
        51.411524349823594,
        16.799999999999955
      ],
      [
        0.2372423093765974,
        51.41146299429238,
        14
      ],
      [
        0.2369460929185152,
        51.41141328960657,
        14.200000000000045
      ],
      [
        0.23667829111218452,
        51.41134480945766,
        16.200000000000045
      ],
      [
        0.23664568550884724,
        51.411333410069346,
        17.200000000000045
      ],
      [
        0.23661324754357338,
        51.41132762655616,
        17.799999999999955
      ],
      [
        0.236325915902853,
        51.411274150013924,
        15.799999999999955
      ],
      [
        0.23604713380336761,
        51.411211704835296,
        16.799999999999955
      ],
      [
        0.2359594590961933,
        51.41105127520859,
        14.399999999999977
      ],
      [
        0.2359707746654749,
        51.41102386638522,
        13
      ],
      [
        0.23601788096129894,
        51.41086746007204,
        12
      ],
      [
        0.23603715933859348,
        51.41082722693682,
        12.200000000000045
      ],
      [
        0.23608854040503502,
        51.41062865965068,
        7.399999999999977
      ],
      [
        0.2361576072871685,
        51.41045305877924,
        7.600000000000023
      ],
      [
        0.23625550791621208,
        51.410298412665725,
        13.799999999999955
      ],
      [
        0.23637251928448677,
        51.41011191532016,
        17.399999999999977
      ],
      [
        0.23648668080568314,
        51.40993413515389,
        17
      ],
      [
        0.23657385259866714,
        51.40976021066308,
        11.800000000000011
      ],
      [
        0.23666261695325375,
        51.40966096892953,
        11
      ],
      [
        0.2368360385298729,
        51.40951721929014,
        7.399999999999977
      ],
      [
        0.23697140626609325,
        51.40934597700834,
        10.800000000000011
      ],
      [
        0.23707584477961063,
        51.40916811302304,
        13
      ],
      [
        0.2372264675796032,
        51.408990332856774,
        13.799999999999955
      ],
      [
        0.2373365219682455,
        51.408819342032075,
        19.799999999999955
      ],
      [
        0.23734213784337044,
        51.40881020575762,
        20.600000000000023
      ],
      [
        0.23737926967442036,
        51.408781288191676,
        19.399999999999977
      ],
      [
        0.23739678785204887,
        51.408753376454115,
        19
      ],
      [
        0.237406762316823,
        51.4087422285229,
        19
      ],
      [
        0.23747021332383156,
        51.408563358709216,
        19
      ],
      [
        0.23747348226606846,
        51.40855237841606,
        19
      ],
      [
        0.23750483058393002,
        51.40845405869186,
        18.799999999999955
      ],
      [
        0.23751849308609962,
        51.4083933737129,
        20
      ],
      [
        0.237535173073411,
        51.40834953635931,
        20.600000000000023
      ],
      [
        0.2375521883368492,
        51.40828340314329,
        19.799999999999955
      ],
      [
        0.23758839815855026,
        51.40819354914129,
        18.799999999999955
      ],
      [
        0.23767095990478992,
        51.40800956636667,
        17
      ],
      [
        0.23767758160829544,
        51.407994478940964,
        17.799999999999955
      ],
      [
        0.23773910477757454,
        51.40780672430992,
        19.200000000000045
      ],
      [
        0.2378090936690569,
        51.407629027962685,
        20.799999999999955
      ],
      [
        0.237806998193264,
        51.40754763968289,
        20
      ],
      [
        0.23788872174918652,
        51.40755224972963,
        21
      ],
      [
        0.23797388188540936,
        51.40756758861244,
        19
      ],
      [
        0.23826180025935173,
        51.40759273432195,
        18.799999999999955
      ],
      [
        0.23856027983129025,
        51.40762374736369,
        19
      ],
      [
        0.23875507526099682,
        51.40747983008623,
        14.799999999999955
      ],
      [
        0.23893444798886776,
        51.40736776404083,
        15
      ],
      [
        0.23911457508802414,
        51.40721898525953,
        17.200000000000045
      ],
      [
        0.23925933055579662,
        51.407055873423815,
        15.799999999999955
      ],
      [
        0.2394345123320818,
        51.406897120177746,
        14.600000000000023
      ],
      [
        0.2396033238619566,
        51.40674817375839,
        13.600000000000023
      ],
      [
        0.23980901576578617,
        51.406620517373085,
        14.200000000000045
      ],
      [
        0.2400047332048416,
        51.40648925676942,
        11.399999999999977
      ],
      [
        0.24008695967495441,
        51.406430415809155,
        12.799999999999955
      ],
      [
        0.24013842456042767,
        51.406404599547386,
        14.399999999999977
      ],
      [
        0.24032584391534328,
        51.406267303973436,
        13.200000000000045
      ],
      [
        0.2405812405049801,
        51.40616445802152,
        13
      ],
      [
        0.24083060212433338,
        51.40605934895575,
        14.799999999999955
      ],
      [
        0.24108205921947956,
        51.40596832148731,
        19.200000000000045
      ],
      [
        0.2413268107920885,
        51.405870001763105,
        16.600000000000023
      ],
      [
        0.24157709442079067,
        51.4057700894773,
        17.799999999999955
      ],
      [
        0.24181505665183067,
        51.405665315687656,
        20.799999999999955
      ],
      [
        0.24205938912928104,
        51.40555308200419,
        23.799999999999955
      ],
      [
        0.24227656424045563,
        51.405436573550105,
        20
      ],
      [
        0.2425377443432808,
        51.40535669401288,
        22
      ],
      [
        0.24277822114527225,
        51.40524689108133,
        22.799999999999955
      ],
      [
        0.24302741512656212,
        51.40514672733843,
        23.200000000000045
      ],
      [
        0.24327049031853676,
        51.40503893606365,
        22
      ],
      [
        0.24351985193789005,
        51.404930893331766,
        22.200000000000045
      ],
      [
        0.2437407150864601,
        51.40480223111808,
        19.600000000000023
      ],
      [
        0.24393676780164242,
        51.404681699350476,
        18.600000000000023
      ],
      [
        0.244164252653718,
        51.404563346877694,
        14.600000000000023
      ],
      [
        0.24436701089143753,
        51.40442781150341,
        14.200000000000045
      ],
      [
        0.2444087527692318,
        51.404373832046986,
        14.200000000000045
      ],
      [
        0.24440648965537548,
        51.40437173657119,
        14.399999999999977
      ],
      [
        0.24466205388307571,
        51.40445966273546,
        15
      ],
      [
        0.24494829587638378,
        51.40452562831342,
        16.200000000000045
      ],
      [
        0.24501400999724865,
        51.40453736297786,
        16.600000000000023
      ],
      [
        0.2452909480780363,
        51.40452252700925,
        17.399999999999977
      ],
      [
        0.24558297358453274,
        51.40452554449439,
        18.799999999999955
      ],
      [
        0.24568975903093815,
        51.40451967716217,
        19.399999999999977
      ],
      [
        0.24588623084127903,
        51.40438397414982,
        19.399999999999977
      ],
      [
        0.2460990473628044,
        51.40426310710609,
        17.200000000000045
      ],
      [
        0.2463472355157137,
        51.40416445210576,
        17
      ],
      [
        0.2466010395437479,
        51.404058588668704,
        18.799999999999955
      ],
      [
        0.24672324769198895,
        51.403949707746506,
        20.399999999999977
      ],
      [
        0.24688510224223137,
        51.40379740856588,
        21.200000000000045
      ],
      [
        0.24692810140550137,
        51.40371392481029,
        20
      ],
      [
        0.24684897623956203,
        51.403525583446026,
        12.799999999999955
      ],
      [
        0.24675576947629452,
        51.403348138555884,
        14
      ],
      [
        0.2467066515237093,
        51.40324076637626,
        13.600000000000023
      ],
      [
        0.24668402038514614,
        51.40319709666073,
        13.399999999999977
      ],
      [
        0.24663574062287807,
        51.40320883132517,
        13.399999999999977
      ],
      [
        0.24651629850268364,
        51.4032350666821,
        12.799999999999955
      ],
      [
        0.24643516167998314,
        51.40324428677559,
        12.600000000000023
      ],
      [
        0.2464163862168789,
        51.40322785824537,
        11.199999999999989
      ],
      [
        0.24640188552439213,
        51.40323062427342,
        11
      ],
      [
        0.24636399932205677,
        51.40325023792684,
        11.199999999999989
      ],
      [
        0.24619669653475285,
        51.40328720211983,
        13.399999999999977
      ],
      [
        0.24608907289803028,
        51.40334386378527,
        14.600000000000023
      ],
      [
        0.2460407093167305,
        51.40334755182266,
        14.399999999999977
      ],
      [
        0.2460004761815071,
        51.403358448296785,
        14
      ],
      [
        0.24599251337349415,
        51.403433633968234,
        10.199999999999989
      ],
      [
        0.2459982130676508,
        51.40343044884503,
        10.199999999999989
      ],
      [
        0.24601313285529613,
        51.40346582047641,
        15.799999999999955
      ],
      [
        0.24598471820354462,
        51.40350932255387,
        19.200000000000045
      ],
      [
        0.2460288070142269,
        51.40347361564636,
        4.399999999999977
      ],
      [
        0.2461354248225689,
        51.403420474380255,
        19.399999999999977
      ],
      [
        0.24609200656414032,
        51.403431203216314,
        22
      ],
      [
        0.24610675871372223,
        51.40344662591815,
        22.600000000000023
      ],
      [
        0.24616241455078125,
        51.40341544523835,
        21.600000000000023
      ],
      [
        0.24614707566797733,
        51.4033592864871,
        16
      ],
      [
        0.24622024968266487,
        51.40331385657191,
        18.799999999999955
      ],
      [
        0.2465007919818163,
        51.40325199812651,
        20.399999999999977
      ],
      [
        0.24659961462020874,
        51.403203047811985,
        22.200000000000045
      ],
      [
        0.2465906459838152,
        51.40302459709346,
        18.600000000000023
      ],
      [
        0.24658813141286373,
        51.40301973558962,
        18.200000000000045
      ],
      [
        0.24655519053339958,
        51.40287891961634,
        12.200000000000045
      ],
      [
        0.24652057327330112,
        51.40278068371117,
        11.199999999999989
      ],
      [
        0.24654412642121315,
        51.402706168591976,
        11.800000000000011
      ],
      [
        0.24648369289934635,
        51.40252796933055,
        10.800000000000011
      ],
      [
        0.24641412310302258,
        51.40233929269016,
        9
      ],
      [
        0.2463239338248968,
        51.40216595493257,
        8.600000000000023
      ],
      [
        0.2462236024439335,
        51.401994209736586,
        9.399999999999977
      ],
      [
        0.24612192995846272,
        51.40182355418801,
        6.199999999999989
      ],
      [
        0.24594624526798725,
        51.40166622586548,
        10.199999999999989
      ],
      [
        0.24578011594712734,
        51.401516776531935,
        10
      ],
      [
        0.2457450795918703,
        51.40132793225348,
        10.399999999999977
      ],
      [
        0.24570652283728123,
        51.401136573404074,
        14.200000000000045
      ],
      [
        0.2456524595618248,
        51.40101034194231,
        16
      ],
      [
        0.24562186561524868,
        51.40100698918104,
        16.200000000000045
      ],
      [
        0.2455969713628292,
        51.40099760144949,
        16.200000000000045
      ],
      [
        0.2455582469701767,
        51.40099533833563,
        16
      ],
      [
        0.24546252563595772,
        51.40100304968655,
        15.600000000000023
      ],
      [
        0.24533730000257492,
        51.40106356702745,
        14.799999999999955
      ],
      [
        0.2450497169047594,
        51.40106122009456,
        17.399999999999977
      ],
      [
        0.24483757093548775,
        51.40105560421944,
        16.399999999999977
      ],
      [
        0.24471561424434185,
        51.401004642248154,
        15.399999999999977
      ],
      [
        0.2446809969842434,
        51.40100137330592,
        14.399999999999977
      ],
      [
        0.24462810717523098,
        51.40097999945283,
        14.600000000000023
      ],
      [
        0.2445613034069538,
        51.400802386924624,
        14.600000000000023
      ],
      [
        0.24444102309644222,
        51.40062586404383,
        12.200000000000045
      ],
      [
        0.24427447468042374,
        51.400477001443505,
        10
      ],
      [
        0.24410566315054893,
        51.40032461844385,
        10.399999999999977
      ],
      [
        0.24396258406341076,
        51.400169217959046,
        7.600000000000023
      ],
      [
        0.24379150941967964,
        51.40001884661615,
        7.800000000000011
      ],
      [
        0.24360140785574913,
        51.3998762704432,
        10.800000000000011
      ],
      [
        0.24338582530617714,
        51.399748949334025,
        13
      ],
      [
        0.24322581477463245,
        51.39959463849664,
        15
      ],
      [
        0.24311182089149952,
        51.399423982948065,
        16.399999999999977
      ],
      [
        0.24299363605678082,
        51.399253495037556,
        15.399999999999977
      ],
      [
        0.24293571710586548,
        51.39916900545359,
        14.200000000000045
      ],
      [
        0.24290009401738644,
        51.399142518639565,
        13.399999999999977
      ],
      [
        0.24288601242005825,
        51.3991270121187,
        12.799999999999955
      ],
      [
        0.24285826832056046,
        51.39907479286194,
        13.399999999999977
      ],
      [
        0.24284033104777336,
        51.399039421230555,
        15.399999999999977
      ],
      [
        0.24276087060570717,
        51.39893791638315,
        17
      ],
      [
        0.24264209903776646,
        51.39875929802656,
        12.600000000000023
      ],
      [
        0.24256565608084202,
        51.398579590022564,
        14.799999999999955
      ],
      [
        0.2425519935786724,
        51.398385716602206,
        19.600000000000023
      ],
      [
        0.24258535355329514,
        51.398195615038276,
        23.200000000000045
      ],
      [
        0.24259893223643303,
        51.39817281626165,
        23.799999999999955
      ],
      [
        0.24262776598334312,
        51.39813828282058,
        22.799999999999955
      ],
      [
        0.24262030608952045,
        51.398143814876676,
        20.799999999999955
      ],
      [
        0.24262189865112305,
        51.398083213716745,
        17.799999999999955
      ],
      [
        0.24276833049952984,
        51.39791926369071,
        16.399999999999977
      ],
      [
        0.24297310039401054,
        51.397784650325775,
        16.200000000000045
      ],
      [
        0.24314400739967823,
        51.39762371778488,
        16.200000000000045
      ],
      [
        0.24333234876394272,
        51.39748374000192,
        16.399999999999977
      ],
      [
        0.24340208619832993,
        51.39733236283064,
        19.600000000000023
      ],
      [
        0.24345413781702518,
        51.39714611694217,
        15.399999999999977
      ],
      [
        0.243375264108181,
        51.396963726729155,
        14.399999999999977
      ],
      [
        0.24320444092154503,
        51.39680136926472,
        15.600000000000023
      ],
      [
        0.24302012287080288,
        51.39665158465505,
        16.399999999999977
      ],
      [
        0.2428568433970213,
        51.396502051502466,
        21.600000000000023
      ],
      [
        0.24268409237265587,
        51.39635805040598,
        16.799999999999955
      ],
      [
        0.24252408184111118,
        51.39620415866375,
        18.799999999999955
      ],
      [
        0.2423493191599846,
        51.3960581459105,
        17
      ],
      [
        0.24223809130489826,
        51.395931243896484,
        19.200000000000045
      ],
      [
        0.2422132808715105,
        51.39590936712921,
        18
      ],
      [
        0.24202284403145313,
        51.395758241415024,
        12
      ],
      [
        0.24201077409088612,
        51.395750027149916,
        11.800000000000011
      ],
      [
        0.2417710516601801,
        51.39563603326678,
        8.399999999999977
      ],
      [
        0.2416397910565138,
        51.39548339881003,
        2.1999999999999886
      ],
      [
        0.24153652600944042,
        51.39536378905177,
        8.199999999999989
      ],
      [
        0.2414210233837366,
        51.39518994837999,
        16
      ],
      [
        0.2412842307239771,
        51.395024908706546,
        18.799999999999955
      ],
      [
        0.24117032065987587,
        51.394853834062815,
        15.200000000000045
      ],
      [
        0.2411678060889244,
        51.39482416212559,
        15.399999999999977
      ],
      [
        0.24111952632665634,
        51.39477336779237,
        15.200000000000045
      ],
      [
        0.24110477417707443,
        51.39467764645815,
        13.399999999999977
      ],
      [
        0.24108046665787697,
        51.394519647583365,
        13.200000000000045
      ],
      [
        0.24105691350996494,
        51.394336335361004,
        14.200000000000045
      ],
      [
        0.2410583384335041,
        51.39429182745516,
        14.799999999999955
      ],
      [
        0.24103847332298756,
        51.39410340227187,
        16
      ],
      [
        0.24105414748191833,
        51.39401396736503,
        18.600000000000023
      ],
      [
        0.24103176780045033,
        51.39394666068256,
        18.600000000000023
      ],
      [
        0.2408432587981224,
        51.39380198903382,
        18.399999999999977
      ],
      [
        0.24059833958745003,
        51.393710961565375,
        16.200000000000045
      ],
      [
        0.24054385721683502,
        51.393710961565375,
        16.399999999999977
      ],
      [
        0.24051896296441555,
        51.39369470067322,
        17.200000000000045
      ],
      [
        0.2403564378619194,
        51.39359571039677,
        18.799999999999955
      ],
      [
        0.24020489305257797,
        51.393443243578076,
        17.600000000000023
      ],
      [
        0.2402001991868019,
        51.393428575247526,
        16.600000000000023
      ],
      [
        0.2401522547006607,
        51.39340032823384,
        15.799999999999955
      ],
      [
        0.23992208763957024,
        51.39327292330563,
        16.799999999999955
      ],
      [
        0.23975210264325142,
        51.39312129467726,
        15.399999999999977
      ],
      [
        0.2395619172602892,
        51.39298416674137,
        16.399999999999977
      ],
      [
        0.2393615059554577,
        51.392847541719675,
        17.200000000000045
      ],
      [
        0.23916796781122684,
        51.39270597137511,
        16.200000000000045
      ],
      [
        0.23896210826933384,
        51.39256498776376,
        15.200000000000045
      ],
      [
        0.23878357373178005,
        51.3924178853631,
        15.399999999999977
      ],
      [
        0.23858039639890194,
        51.39227799139917,
        15
      ],
      [
        0.23849322460591793,
        51.39219341799617,
        15.399999999999977
      ],
      [
        0.23829038254916668,
        51.39204941689968,
        15.399999999999977
      ],
      [
        0.23813992738723755,
        51.39194682240486,
        15.399999999999977
      ],
      [
        0.2379240933805704,
        51.39185101725161,
        15.200000000000045
      ],
      [
        0.23788939230144024,
        51.391820339486,
        15.799999999999955
      ],
      [
        0.23770658299326897,
        51.39167214743793,
        18
      ],
      [
        0.2374834567308426,
        51.39154591597617,
        19.600000000000023
      ],
      [
        0.23728815838694572,
        51.39140627346933,
        18.600000000000023
      ],
      [
        0.2370223682373762,
        51.391324549913406,
        16.600000000000023
      ],
      [
        0.23674869909882545,
        51.39124995097518,
        17.200000000000045
      ],
      [
        0.23661316372454166,
        51.39119823463261,
        19
      ],
      [
        0.2365871798247099,
        51.39118113555014,
        19.600000000000023
      ],
      [
        0.236400431022048,
        51.39104316942394,
        21.200000000000045
      ],
      [
        0.2362986747175455,
        51.390953566879034,
        23.600000000000023
      ],
      [
        0.23614411242306232,
        51.390802608802915,
        19
      ],
      [
        0.2361232414841652,
        51.390769332647324,
        19.600000000000023
      ],
      [
        0.2360971737653017,
        51.39073949307203,
        20.399999999999977
      ],
      [
        0.2360503189265728,
        51.390561796724796,
        21.399999999999977
      ],
      [
        0.2360954973846674,
        51.39037932269275,
        24.399999999999977
      ],
      [
        0.23607730865478516,
        51.39019240625203,
        24.200000000000045
      ],
      [
        0.23609365336596966,
        51.39000657945871,
        24.799999999999955
      ],
      [
        0.2360792364925146,
        51.389822009950876,
        25.600000000000023
      ],
      [
        0.23603271692991257,
        51.38964464887977,
        25.200000000000045
      ],
      [
        0.2360203117132187,
        51.38946468941867,
        24.600000000000023
      ],
      [
        0.23594168946146965,
        51.38928950764239,
        25.399999999999977
      ],
      [
        0.23581495508551598,
        51.3891143258661,
        23
      ],
      [
        0.2356746420264244,
        51.38894576579332,
        23.399999999999977
      ],
      [
        0.23546098731458187,
        51.38882355764508,
        23
      ],
      [
        0.23519570007920265,
        51.38875901699066,
        18.200000000000045
      ],
      [
        0.23522956296801567,
        51.38870118185878,
        24.600000000000023
      ],
      [
        0.2352635096758604,
        51.38867503032088,
        24.799999999999955
      ],
      [
        0.23530634120106697,
        51.38865625485778,
        25
      ],
      [
        0.2352591510862112,
        51.38868902809918,
        26.600000000000023
      ],
      [
        0.2352744061499834,
        51.38867595233023,
        26
      ],
      [
        0.2352744061499834,
        51.38867595233023,
        26
      ],
      [
        0.23531966842710972,
        51.38865742832422,
        25
      ],
      [
        0.23554346524178982,
        51.38854444026947,
        22.200000000000045
      ],
      [
        0.23561504669487476,
        51.388514852151275,
        22.399999999999977
      ],
      [
        0.23563239723443985,
        51.388509068638086,
        22.399999999999977
      ],
      [
        0.2356746420264244,
        51.38848685659468,
        22
      ],
      [
        0.23572510108351707,
        51.38846045359969,
        22.200000000000045
      ],
      [
        0.2358128596097231,
        51.38841301202774,
        24
      ],
      [
        0.23594504222273827,
        51.38833866454661,
        22.399999999999977
      ],
      [
        0.23619608022272587,
        51.388229951262474,
        22
      ],
      [
        0.23646044544875622,
        51.388128362596035,
        21.399999999999977
      ],
      [
        0.23671718314290047,
        51.38802761211991,
        22
      ],
      [
        0.23696922697126865,
        51.38792535290122,
        24.200000000000045
      ],
      [
        0.2371698897331953,
        51.387786297127604,
        22.600000000000023
      ],
      [
        0.23735211230814457,
        51.387645062059164,
        23.200000000000045
      ],
      [
        0.23756258189678192,
        51.387510281056166,
        21.600000000000023
      ],
      [
        0.2375728078186512,
        51.38750013895333,
        21.399999999999977
      ],
      [
        0.23757481947541237,
        51.38749376870692,
        21.200000000000045
      ],
      [
        0.23755445145070553,
        51.38746275566518,
        21
      ],
      [
        0.23737491108477116,
        51.387305930256844,
        21.600000000000023
      ],
      [
        0.23718900047242641,
        51.38715379871428,
        22.200000000000045
      ],
      [
        0.23699244484305382,
        51.387010384351015,
        22.200000000000045
      ],
      [
        0.23680200800299644,
        51.386868646368384,
        22.399999999999977
      ],
      [
        0.23662347346544266,
        51.386723555624485,
        21.799999999999955
      ],
      [
        0.23641979321837425,
        51.38657804578543,
        21.200000000000045
      ],
      [
        0.2362348884344101,
        51.38643463142216,
        21.799999999999955
      ],
      [
        0.23605450987815857,
        51.38629247434437,
        21.600000000000023
      ],
      [
        0.2358864527195692,
        51.386161213740706,
        21.600000000000023
      ],
      [
        0.23570096120238304,
        51.38601025566459,
        22.600000000000023
      ],
      [
        0.23550708778202534,
        51.385864997282624,
        22.399999999999977
      ],
      [
        0.23531229235231876,
        51.38572711497545,
        22.399999999999977
      ],
      [
        0.23511841893196106,
        51.385580096393824,
        22.399999999999977
      ],
      [
        0.23492672480642796,
        51.385433077812195,
        23
      ],
      [
        0.23472430184483528,
        51.38528723269701,
        24
      ],
      [
        0.2345332782715559,
        51.385147757828236,
        24.600000000000023
      ],
      [
        0.23449262604117393,
        51.38510894961655,
        25
      ],
      [
        0.23444241844117641,
        51.38507533818483,
        24.200000000000045
      ],
      [
        0.2342414204031229,
        51.38493636623025,
        24.200000000000045
      ],
      [
        0.23403204046189785,
        51.38480259105563,
        24.600000000000023
      ],
      [
        0.23401401937007904,
        51.384798316285014,
        24.600000000000023
      ],
      [
        0.23398736491799355,
        51.3847818877548,
        24.600000000000023
      ],
      [
        0.23395199328660965,
        51.38475213199854,
        24.200000000000045
      ],
      [
        0.2337584551423788,
        51.38461190275848,
        21
      ],
      [
        0.23356357589364052,
        51.384473433718085,
        15.399999999999977
      ],
      [
        0.2333811018615961,
        51.384322559461,
        12
      ],
      [
        0.233199130743742,
        51.38417202048004,
        12.799999999999955
      ],
      [
        0.23298589512705803,
        51.384047884494066,
        17.600000000000023
      ],
      [
        0.2327799517661333,
        51.38392014428973,
        19.399999999999977
      ],
      [
        0.23263276554644108,
        51.38375384733081,
        19.600000000000023
      ],
      [
        0.2325485274195671,
        51.38373088091612,
        21
      ],
      [
        0.23228206671774387,
        51.3838146161288,
        23.799999999999955
      ],
      [
        0.23203186690807343,
        51.38390824198723,
        27.600000000000023
      ],
      [
        0.23200102150440216,
        51.38389650732279,
        28
      ],
      [
        0.23173028603196144,
        51.3838164601475,
        26.600000000000023
      ],
      [
        0.2314561139792204,
        51.38375292532146,
        23.200000000000045
      ],
      [
        0.23117967881262302,
        51.3836816791445,
        23.399999999999977
      ],
      [
        0.23091137409210205,
        51.38361118733883,
        24.399999999999977
      ],
      [
        0.23064223118126392,
        51.3835365884006,
        24.799999999999955
      ],
      [
        0.23038222454488277,
        51.38343927450478,
        23.600000000000023
      ],
      [
        0.23011299781501293,
        51.38336970470846,
        20.799999999999955
      ],
      [
        0.2300382312387228,
        51.38336258009076,
        20.399999999999977
      ],
      [
        0.22975517436861992,
        51.383398957550526,
        18.399999999999977
      ],
      [
        0.22948787547647953,
        51.38346911408007,
        11
      ],
      [
        0.22918428294360638,
        51.38352049514651,
        10.800000000000011
      ],
      [
        0.2289159782230854,
        51.38359257951379,
        12
      ],
      [
        0.22865303792059422,
        51.383684780448675,
        14.200000000000045
      ],
      [
        0.22836394608020782,
        51.38367220759392,
        15.799999999999955
      ],
      [
        0.22807870991528034,
        51.38362878933549,
        16.399999999999977
      ],
      [
        0.22784669883549213,
        51.38350524008274,
        21.399999999999977
      ],
      [
        0.2276596985757351,
        51.38337238691747,
        29
      ],
      [
        0.2275078184902668,
        51.38320969417691,
        30.799999999999955
      ],
      [
        0.2272703591734171,
        51.38309360481799,
        23.399999999999977
      ],
      [
        0.22698931396007538,
        51.38300157152116,
        30.399999999999977
      ],
      [
        0.226734085008502,
        51.38291557319462,
        34
      ],
      [
        0.22670994512736797,
        51.382913729175925,
        33.799999999999955
      ],
      [
        0.22642814554274082,
        51.382857486605644,
        32.200000000000045
      ],
      [
        0.2261307556182146,
        51.38281021267176,
        30.200000000000045
      ],
      [
        0.22583462297916412,
        51.38277953490615,
        28.799999999999955
      ],
      [
        0.22554083727300167,
        51.38276947662234,
        29.200000000000045
      ],
      [
        0.2254995983093977,
        51.3827683031559,
        29.200000000000045
      ],
      [
        0.22520296275615692,
        51.382743744179606,
        22.799999999999955
      ],
      [
        0.22490045987069607,
        51.3827442470938,
        21
      ],
      [
        0.2246212586760521,
        51.3826834782958,
        26.200000000000045
      ],
      [
        0.22434708662331104,
        51.38260334730148,
        24.799999999999955
      ],
      [
        0.22431624121963978,
        51.382607370615005,
        25.200000000000045
      ],
      [
        0.22401491180062294,
        51.38264324516058,
        21.799999999999955
      ],
      [
        0.22367234341800213,
        51.382613740861416,
        14.399999999999977
      ],
      [
        0.2236362174153328,
        51.3825920317322,
        16.399999999999977
      ],
      [
        0.2235828246921301,
        51.382578955963254,
        19.799999999999955
      ],
      [
        0.22351384162902832,
        51.38261198066175,
        21.200000000000045
      ],
      [
        0.22345089353621006,
        51.38260795734823,
        25
      ],
      [
        0.22336581721901894,
        51.38260066509247,
        31.200000000000045
      ],
      [
        0.22313439287245274,
        51.382485246285796,
        35.60000000000002
      ],
      [
        0.22289433516561985,
        51.38238122686744,
        39
      ],
      [
        0.2226293832063675,
        51.382289696484804,
        36.60000000000002
      ],
      [
        0.22237775847315788,
        51.38219464570284,
        33.200000000000045
      ],
      [
        0.2221361082047224,
        51.38207386247814,
        32.39999999999998
      ],
      [
        0.221878532320261,
        51.38197529129684,
        31.200000000000045
      ],
      [
        0.22167116403579712,
        51.381839755922556,
        29
      ],
      [
        0.22141434252262115,
        51.38173833489418,
        29.799999999999955
      ],
      [
        0.22117529064416885,
        51.381648229435086,
        27.200000000000045
      ],
      [
        0.2209103386849165,
        51.38156197965145,
        24.200000000000045
      ],
      [
        0.22062468342483044,
        51.381547562777996,
        22.799999999999955
      ],
      [
        0.22045394405722618,
        51.38152183033526,
        26.200000000000045
      ],
      [
        0.22040801122784615,
        51.38153146952391,
        27.600000000000023
      ],
      [
        0.22036056965589523,
        51.38151931576431,
        29.200000000000045
      ],
      [
        0.22008664906024933,
        51.381518645212054,
        38
      ],
      [
        0.22006711922585964,
        51.381540186703205,
        41.799999999999955
      ],
      [
        0.22009712643921375,
        51.381557285785675,
        45.799999999999955
      ],
      [
        0.22011464461684227,
        51.381565080955625,
        45.799999999999955
      ],
      [
        0.22010819055140018,
        51.381609085947275,
        47
      ],
      [
        0.22029032930731773,
        51.38157916255295,
        52.60000000000002
      ],
      [
        0.22029460407793522,
        51.38157203793526,
        52.799999999999955
      ],
      [
        0.2202879823744297,
        51.38155493885279,
        54
      ],
      [
        0.220287898555398,
        51.381518142297864,
        53.39999999999998
      ],
      [
        0.2203086018562317,
        51.38146139681339,
        54.200000000000045
      ],
      [
        0.22020148113369942,
        51.38141915202141,
        42.200000000000045
      ],
      [
        0.2202046662569046,
        51.38141831383109,
        32.200000000000045
      ],
      [
        0.22023660130798817,
        51.38138612732291,
        31.799999999999955
      ],
      [
        0.22025445476174355,
        51.381372045725584,
        31
      ],
      [
        0.22031337954103947,
        51.38133700937033,
        31.600000000000023
      ],
      [
        0.2203827816992998,
        51.38129920698702,
        31.399999999999977
      ],
      [
        0.22052066400647163,
        51.38122636824846,
        31.200000000000045
      ],
      [
        0.22053231485188007,
        51.38122125528753,
        31.200000000000045
      ],
      [
        0.22051923908293247,
        51.3812190759927,
        29
      ],
      [
        0.22051806561648846,
        51.38121882453561,
        29
      ],
      [
        0.2205172274261713,
        51.381218656897545,
        29
      ],
      [
        0.22051731124520302,
        51.381218656897545,
        29
      ],
      [
        0.22045268677175045,
        51.38124204240739,
        28.600000000000023
      ],
      [
        0.2204376831650734,
        51.381251430138946,
        28.799999999999955
      ],
      [
        0.2202694583684206,
        51.38133516535163,
        28.600000000000023
      ],
      [
        0.2201039157807827,
        51.3814437109977,
        26.600000000000023
      ],
      [
        0.22008740343153477,
        51.38145502656698,
        26.600000000000023
      ],
      [
        0.22004549391567707,
        51.38147799298167,
        26.399999999999977
      ],
      [
        0.21998807787895203,
        51.381510850042105,
        24.799999999999955
      ],
      [
        0.2199590764939785,
        51.38155032880604,
        25.200000000000045
      ],
      [
        0.21991808898746967,
        51.38160313479602,
        25
      ],
      [
        0.21985036320984364,
        51.381674045696855,
        26.799999999999955
      ],
      [
        0.21964014507830143,
        51.381798684597015,
        28.799999999999955
      ],
      [
        0.21940779872238636,
        51.381908571347594,
        29.399999999999977
      ],
      [
        0.21913941018283367,
        51.381996497511864,
        32
      ],
      [
        0.21913488395512104,
        51.382006807252765,
        32.799999999999955
      ],
      [
        0.21915709599852562,
        51.38197638094425,
        29.799999999999955
      ],
      [
        0.21891016513109207,
        51.38208140619099,
        30.600000000000023
      ],
      [
        0.21881268359720707,
        51.38209976255894,
        29.799999999999955
      ],
      [
        0.21853985264897346,
        51.38215692713857,
        30.399999999999977
      ],
      [
        0.21825444884598255,
        51.382129937410355,
        30.399999999999977
      ],
      [
        0.21811120212078094,
        51.38199565932155,
        27.600000000000023
      ],
      [
        0.21788790822029114,
        51.38188342563808,
        41.39999999999998
      ],
      [
        0.21768540143966675,
        51.38175208121538,
        48.60000000000002
      ],
      [
        0.21751063875854015,
        51.38160682283342,
        48.200000000000045
      ],
      [
        0.21733738481998444,
        51.381460977718234,
        50
      ],
      [
        0.2171934675425291,
        51.38129401020706,
        50
      ],
      [
        0.2171008475124836,
        51.38113282620907,
        51.39999999999998
      ],
      [
        0.2170524001121521,
        51.38095060363412,
        50
      ],
      [
        0.21702490746974945,
        51.3808564748615,
        48.200000000000045
      ],
      [
        0.21699263714253902,
        51.380676347762346,
        46
      ],
      [
        0.21698861382901669,
        51.38066545128822,
        47
      ],
      [
        0.2169832494109869,
        51.3806371204555,
        47.39999999999998
      ],
      [
        0.21696330048143864,
        51.38044601306319,
        45.200000000000045
      ],
      [
        0.21692625246942043,
        51.38026211410761,
        46.60000000000002
      ],
      [
        0.2168782241642475,
        51.38006949797273,
        46.39999999999998
      ],
      [
        0.21684863604605198,
        51.37988107278943,
        45.799999999999955
      ],
      [
        0.21680647507309914,
        51.379703460261226,
        45.39999999999998
      ],
      [
        0.21672533825039864,
        51.379522578790784,
        41.39999999999998
      ],
      [
        0.21666775457561016,
        51.379336416721344,
        41.60000000000002
      ],
      [
        0.21662316285073757,
        51.379143968224525,
        42
      ],
      [
        0.21657605655491352,
        51.378961158916354,
        42
      ],
      [
        0.21650263108313084,
        51.37878547422588,
        44
      ],
      [
        0.2163902297616005,
        51.378614734858274,
        45
      ],
      [
        0.21628931164741516,
        51.378445755690336,
        47.60000000000002
      ],
      [
        0.2162415347993374,
        51.378378281369805,
        47
      ],
      [
        0.21610692143440247,
        51.37820804491639,
        50
      ],
      [
        0.21599351428449154,
        51.37803629972041,
        52.200000000000045
      ],
      [
        0.2158441487699747,
        51.37786991894245,
        52
      ],
      [
        0.21576284430921078,
        51.37769448570907,
        51.200000000000045
      ],
      [
        0.2156666200608015,
        51.37752441689372,
        50
      ],
      [
        0.21554977633059025,
        51.37738125398755,
        52
      ],
      [
        0.21542580798268318,
        51.37720816768706,
        48.799999999999955
      ],
      [
        0.21530913189053535,
        51.37704069726169,
        48.60000000000002
      ],
      [
        0.21520553156733513,
        51.376861995086074,
        50.60000000000002
      ],
      [
        0.21510151214897633,
        51.37667952105403,
        52.200000000000045
      ],
      [
        0.21500679664313793,
        51.37650651857257,
        52
      ],
      [
        0.21488391794264317,
        51.37634005397558,
        52.200000000000045
      ],
      [
        0.2147250808775425,
        51.37618423439562,
        51.39999999999998
      ],
      [
        0.2145780622959137,
        51.37602237984538,
        51.200000000000045
      ],
      [
        0.21444009616971016,
        51.37585683725774,
        52.60000000000002
      ],
      [
        0.21429886110126972,
        51.37569649145007,
        51
      ],
      [
        0.21414547227323055,
        51.37554259970784,
        49.39999999999998
      ],
      [
        0.21396727301180363,
        51.37539038434625,
        47.799999999999955
      ],
      [
        0.2137945219874382,
        51.37524311430752,
        48.200000000000045
      ],
      [
        0.21372436545789242,
        51.37518770992756,
        51.39999999999998
      ],
      [
        0.2137361839413643,
        51.37518435716629,
        51
      ],
      [
        0.21373392082750797,
        51.37510037049651,
        49.200000000000045
      ],
      [
        0.21368438377976418,
        51.37508234940469,
        49.60000000000002
      ],
      [
        0.2135042566806078,
        51.37494639493525,
        44.799999999999955
      ],
      [
        0.21332932636141777,
        51.3747937604785,
        43.799999999999955
      ],
      [
        0.21312170661985874,
        51.37467373162508,
        45.799999999999955
      ],
      [
        0.2130801323801279,
        51.37465923093259,
        48
      ],
      [
        0.213076863437891,
        51.37465696781874,
        48.39999999999998
      ],
      [
        0.213075689971447,
        51.37465068139136,
        48.200000000000045
      ],
      [
        0.21306286565959454,
        51.3746018987149,
        48
      ],
      [
        0.21296018734574318,
        51.37443979270756,
        50.799999999999955
      ],
      [
        0.21290025673806667,
        51.37437558732927,
        50.799999999999955
      ],
      [
        0.212729936465621,
        51.374221025034785,
        53
      ],
      [
        0.2125442773103714,
        51.37407610192895,
        51.60000000000002
      ],
      [
        0.2123672515153885,
        51.37392522767186,
        51.60000000000002
      ],
      [
        0.21219751797616482,
        51.37379757128656,
        50.60000000000002
      ],
      [
        0.21201588213443756,
        51.37365382164717,
        49.60000000000002
      ],
      [
        0.21185084246098995,
        51.37350110337138,
        50
      ],
      [
        0.21168177947402,
        51.37335215695202,
        49.799999999999955
      ],
      [
        0.21154875867068768,
        51.3731858599931,
        51.39999999999998
      ],
      [
        0.21140970289707184,
        51.37301738373935,
        51.39999999999998
      ],
      [
        0.21125178784132004,
        51.3728560321033,
        49.799999999999955
      ],
      [
        0.21106780506670475,
        51.37270842678845,
        49
      ],
      [
        0.21089698188006878,
        51.37255780398846,
        48.60000000000002
      ],
      [
        0.21074124611914158,
        51.372401313856244,
        48.60000000000002
      ],
      [
        0.21064292639493942,
        51.37229545041919,
        48.60000000000002
      ],
      [
        0.2104897890239954,
        51.372134601697326,
        48.200000000000045
      ],
      [
        0.21044578403234482,
        51.372081292793155,
        49.60000000000002
      ],
      [
        0.2103182952851057,
        51.371916169300675,
        45.60000000000002
      ],
      [
        0.21019818261265755,
        51.371741658076644,
        46.60000000000002
      ],
      [
        0.21019332110881805,
        51.37172782793641,
        46.799999999999955
      ],
      [
        0.2100682631134987,
        51.37156010605395,
        47.200000000000045
      ],
      [
        0.20993457175791264,
        51.37139020487666,
        47.39999999999998
      ],
      [
        0.2097851224243641,
        51.37123220600188,
        47.39999999999998
      ],
      [
        0.20964371971786022,
        51.3710652384907,
        47.200000000000045
      ],
      [
        0.20950575359165668,
        51.37090489268303,
        47.60000000000002
      ],
      [
        0.2093588188290596,
        51.37074471451342,
        47.799999999999955
      ],
      [
        0.20914625376462936,
        51.37061915360391,
        48.60000000000002
      ],
      [
        0.208977609872818,
        51.37047188356519,
        48.200000000000045
      ],
      [
        0.20880267955362797,
        51.37032235041261,
        50
      ],
      [
        0.2086134161800146,
        51.3701724819839,
        47.60000000000002
      ],
      [
        0.20842574536800385,
        51.370029570534825,
        43.200000000000045
      ],
      [
        0.2082550898194313,
        51.369883893057704,
        40
      ],
      [
        0.20816724747419357,
        51.36980887502432,
        38.799999999999955
      ],
      [
        0.20797773264348507,
        51.369660599157214,
        39.200000000000045
      ],
      [
        0.20778159610927105,
        51.369526321068406,
        36.39999999999998
      ],
      [
        0.20775385200977325,
        51.369503857567906,
        36.39999999999998
      ],
      [
        0.20771697163581848,
        51.36946697719395,
        36.60000000000002
      ],
      [
        0.20750616677105427,
        51.3693368062377,
        35.200000000000045
      ],
      [
        0.20737172104418278,
        51.369247790426016,
        35.799999999999955
      ],
      [
        0.2073604054749012,
        51.36925298720598,
        36
      ],
      [
        0.20735017955303192,
        51.3692176155746,
        35.60000000000002
      ],
      [
        0.20745528861880302,
        51.36905752122402,
        29.399999999999977
      ],
      [
        0.20748747512698174,
        51.36903212405741,
        28.200000000000045
      ],
      [
        0.207712696865201,
        51.368913017213345,
        21.600000000000023
      ],
      [
        0.20784898661077023,
        51.36885677464306,
        23
      ],
      [
        0.20802559331059456,
        51.36884042993188,
        25.200000000000045
      ],
      [
        0.20810983143746853,
        51.368827018886805,
        26.200000000000045
      ],
      [
        0.20815392024815083,
        51.368820229545236,
        26.799999999999955
      ],
      [
        0.20819121971726418,
        51.36881645768881,
        26.799999999999955
      ],
      [
        0.20822910591959953,
        51.368811680004,
        27
      ],
      [
        0.20850679837167263,
        51.36875443160534,
        28.399999999999977
      ],
      [
        0.20876454189419746,
        51.36865317821503,
        31.399999999999977
      ],
      [
        0.20896612666547298,
        51.368515798822045,
        29
      ],
      [
        0.20922613330185413,
        51.368429716676474,
        30.200000000000045
      ],
      [
        0.2094295620918274,
        51.368367271497846,
        28.399999999999977
      ],
      [
        0.2095711324363947,
        51.368324188515544,
        30.600000000000023
      ],
      [
        0.20965277217328548,
        51.368319829925895,
        31.399999999999977
      ],
      [
        0.20970230922102928,
        51.36833852156997,
        32.200000000000045
      ],
      [
        0.20975494757294655,
        51.368373557925224,
        33.39999999999998
      ],
      [
        0.2096888143569231,
        51.36847363784909,
        37.799999999999955
      ],
      [
        0.2097579650580883,
        51.36847883462906,
        38.60000000000002
      ],
      [
        0.20977028645575047,
        51.368474308401346,
        39.60000000000002
      ],
      [
        0.2097181510180235,
        51.36842669919133,
        36.799999999999955
      ],
      [
        0.20980020985007286,
        51.368274819105864,
        29.399999999999977
      ],
      [
        0.21009542047977448,
        51.36824095621705,
        30
      ],
      [
        0.21037780679762363,
        51.368227042257786,
        27.600000000000023
      ],
      [
        0.21062792278826237,
        51.36816375888884,
        28
      ],
      [
        0.21065742708742619,
        51.36814665980637,
        27.799999999999955
      ],
      [
        0.2108104806393385,
        51.368077006191015,
        30.600000000000023
      ],
      [
        0.21099597215652466,
        51.367931412532926,
        30
      ],
      [
        0.21119076758623123,
        51.367799481377006,
        29.600000000000023
      ],
      [
        0.21121591329574585,
        51.367804342880845,
        31.200000000000045
      ],
      [
        0.21119152195751667,
        51.36784365400672,
        32.60000000000002
      ],
      [
        0.21118196658790112,
        51.36785572394729,
        33.39999999999998
      ],
      [
        0.211194958537817,
        51.3678584061563,
        33.39999999999998
      ],
      [
        0.2111666277050972,
        51.36785848997533,
        28.200000000000045
      ]
    ]
  }
}
