{
  "type": "Feature",
  "properties": {
    "id": "intervals-178056873",
    "activity": "walking",
    "name": "Mialet long",
    "date": "2025-02-16T14:32:47Z",
    "distanceKm": 7.81,
    "movingTimeSeconds": 2631,
    "elapsedTimeSeconds": 2674,
    "ascentM": 35,
    "descentM": 29,
    "providers": [
      "Garmin"
    ]
  },
  "geometry": {
    "type": "LineString",
    "coordinates": [
      [
        0.9178052376955748,
        45.549284471198916,
        294.79999999999995
      ],
      [
        0.917815463617444,
        45.54928556084633,
        294.79999999999995
      ],
      [
        0.9179340675473213,
        45.549717396497726,
        296.79999999999995
      ],
      [
        0.9179380908608437,
        45.54972477257252,
        296.79999999999995
      ],
      [
        0.9179447963833809,
        45.549725694581866,
        296.79999999999995
      ],
      [
        0.9179699420928955,
        45.54973030462861,
        296.79999999999995
      ],
      [
        0.9180101752281189,
        45.549762323498726,
        297.20000000000005
      ],
      [
        0.9180447924882174,
        45.54980054497719,
        297.6
      ],
      [
        0.9180739615112543,
        45.54980884306133,
        297.79999999999995
      ],
      [
        0.9180813375860453,
        45.54982309229672,
        298
      ],
      [
        0.9181420225650072,
        45.549869276583195,
        298.6
      ],
      [
        0.9181531704962254,
        45.549878580495715,
        298.79999999999995
      ],
      [
        0.9181724488735199,
        45.54988696239889,
        299
      ],
      [
        0.9182529151439667,
        45.54993255995214,
        299.4
      ],
      [
        0.9182615485042334,
        45.54997840896249,
        299.4
      ],
      [
        0.918310834094882,
        45.55008955299854,
        300.20000000000005
      ],
      [
        0.9183682501316071,
        45.55017488077283,
        300.6
      ],
      [
        0.9183788113296032,
        45.55020279251039,
        301.20000000000005
      ],
      [
        0.9183971676975489,
        45.55021536536515,
        301.6
      ],
      [
        0.918420385569334,
        45.55024294182658,
        301.6
      ],
      [
        0.9184554219245911,
        45.55024101398885,
        302.20000000000005
      ],
      [
        0.9184698387980461,
        45.550233805552125,
        302.4
      ],
      [
        0.9185364749282598,
        45.55022617802024,
        302.4
      ],
      [
        0.9185553342103958,
        45.550209917128086,
        302.4
      ],
      [
        0.91868014074862,
        45.55013372562826,
        302.20000000000005
      ],
      [
        0.918752895668149,
        45.55005577392876,
        302.20000000000005
      ],
      [
        0.9187646303325891,
        45.55003180168569,
        302.20000000000005
      ],
      [
        0.9188528079539537,
        45.549981677904725,
        302
      ],
      [
        0.9188981540501118,
        45.54993976838887,
        302
      ],
      [
        0.9190246369689703,
        45.54978461936116,
        302
      ],
      [
        0.9191308356821537,
        45.54967766627669,
        302
      ],
      [
        0.9191941190510988,
        45.549642546102405,
        302.20000000000005
      ],
      [
        0.9192250482738018,
        45.549597619101405,
        302.4
      ],
      [
        0.9193295706063509,
        45.54947046563029,
        302.6
      ],
      [
        0.919465608894825,
        45.54935395717621,
        302.79999999999995
      ],
      [
        0.9195094462484121,
        45.54930819198489,
        302.79999999999995
      ],
      [
        0.919524785131216,
        45.54928254336119,
        302.79999999999995
      ],
      [
        0.9195480868220329,
        45.54925546981394,
        302.79999999999995
      ],
      [
        0.9196545369923115,
        45.54916301742196,
        303.20000000000005
      ],
      [
        0.9196722228080034,
        45.54914005100727,
        303.20000000000005
      ],
      [
        0.9197089355438948,
        45.54909789003432,
        303.4
      ],
      [
        0.9197367634624243,
        45.54907064884901,
        303.4
      ],
      [
        0.9198136255145073,
        45.54899638518691,
        303.6
      ],
      [
        0.9198964387178421,
        45.548910135403275,
        303.79999999999995
      ],
      [
        0.919913537800312,
        45.54888918064535,
        303.79999999999995
      ],
      [
        0.9200893901288509,
        45.54876957088709,
        303.79999999999995
      ],
      [
        0.9202193096280098,
        45.5486480332911,
        303.6
      ],
      [
        0.9203210659325123,
        45.54853789508343,
        303.6
      ],
      [
        0.9203501511365175,
        45.54851601831615,
        303.6
      ],
      [
        0.9203695971518755,
        45.548491878435016,
        303.6
      ],
      [
        0.9204057231545448,
        45.548444436863065,
        303.79999999999995
      ],
      [
        0.920447800308466,
        45.54838567972183,
        304.4
      ],
      [
        0.9204929787665606,
        45.548333460465074,
        304.4
      ],
      [
        0.9205140173435211,
        45.54830655455589,
        304.4
      ],
      [
        0.9205380734056234,
        45.548277888447046,
        304.4
      ],
      [
        0.9205572679638863,
        45.548253413289785,
        304.4
      ],
      [
        0.9205755405128002,
        45.54823212325573,
        304.4
      ],
      [
        0.9206275921314955,
        45.548184933140874,
        304.4
      ],
      [
        0.920654246583581,
        45.54816171526909,
        304.4
      ],
      [
        0.9207278396934271,
        45.54808158427477,
        304.20000000000005
      ],
      [
        0.920828003436327,
        45.54800488986075,
        304.20000000000005
      ],
      [
        0.9209880977869034,
        45.54798091761768,
        304
      ],
      [
        0.9211481083184481,
        45.54795183241367,
        304.4
      ],
      [
        0.9212808776646852,
        45.54794252850115,
        305
      ],
      [
        0.9214072767645121,
        45.54796926677227,
        305.4
      ],
      [
        0.9214415587484837,
        45.54797471500933,
        305.4
      ],
      [
        0.9216310735791922,
        45.547967003658414,
        305.6
      ],
      [
        0.9217291418462992,
        45.5479437019676,
        305.20000000000005
      ],
      [
        0.9217634238302708,
        45.547929871827364,
        305
      ],
      [
        0.9217921737581491,
        45.54791746661067,
        304.79999999999995
      ],
      [
        0.9218339156359434,
        45.54789483547211,
        304
      ],
      [
        0.9218903258442879,
        45.54787639528513,
        303.4
      ],
      [
        0.9219264518469572,
        45.547866420820355,
        303.20000000000005
      ],
      [
        0.9220749791711569,
        45.54788368754089,
        303
      ],
      [
        0.922105573117733,
        45.54790145717561,
        303
      ],
      [
        0.9221418667584658,
        45.54795811884105,
        303
      ],
      [
        0.9221696946769953,
        45.548007655888796,
        302.79999999999995
      ],
      [
        0.9222211595624685,
        45.54814369417727,
        303
      ],
      [
        0.9222261048853397,
        45.54823698475957,
        303.20000000000005
      ],
      [
        0.9222181420773268,
        45.54826732724905,
        303.20000000000005
      ],
      [
        0.9222418628633022,
        45.548289539292455,
        303.20000000000005
      ],
      [
        0.9223187249153852,
        45.548316361382604,
        303.20000000000005
      ],
      [
        0.9224121831357479,
        45.54834100417793,
        303.20000000000005
      ],
      [
        0.9224740415811539,
        45.54836070165038,
        303.4
      ],
      [
        0.9225232433527708,
        45.54837469942868,
        303.4
      ],
      [
        0.9226065594702959,
        45.54842071607709,
        303.4
      ],
      [
        0.9226432722061872,
        45.548475701361895,
        303.20000000000005
      ],
      [
        0.9226741176098585,
        45.548506043851376,
        303.20000000000005
      ],
      [
        0.9227275103330612,
        45.54855423979461,
        303.20000000000005
      ],
      [
        0.922761457040906,
        45.54859019815922,
        303
      ],
      [
        0.9228772111237049,
        45.54869840852916,
        302.79999999999995
      ],
      [
        0.9229606948792934,
        45.548749789595604,
        302.79999999999995
      ],
      [
        0.9229812305420637,
        45.54876965470612,
        302.79999999999995
      ],
      [
        0.9230133332312107,
        45.548803601413965,
        302.79999999999995
      ],
      [
        0.9230419993400574,
        45.54883109405637,
        303.20000000000005
      ],
      [
        0.923099247738719,
        45.54886135272682,
        303.6
      ],
      [
        0.9231194481253624,
        45.548869986087084,
        304
      ],
      [
        0.923151969909668,
        45.54888398386538,
        304.20000000000005
      ],
      [
        0.9232419915497303,
        45.54890946485102,
        305
      ],
      [
        0.9232899360358715,
        45.54893628694117,
        305.4
      ],
      [
        0.923432931303978,
        45.548989260569215,
        306.20000000000005
      ],
      [
        0.9235030878335238,
        45.549020608887076,
        306.20000000000005
      ],
      [
        0.9235466737300158,
        45.54904407821596,
        306.20000000000005
      ],
      [
        0.923747755587101,
        45.549090849235654,
        305.79999999999995
      ],
      [
        0.9237786009907722,
        45.549096716567874,
        305.6
      ],
      [
        0.923880273476243,
        45.549127981066704,
        305.20000000000005
      ],
      [
        0.9240236040204763,
        45.54918388836086,
        304.79999999999995
      ],
      [
        0.9240687824785709,
        45.54920006543398,
        304.79999999999995
      ],
      [
        0.9241535235196352,
        45.54923250339925,
        304.6
      ],
      [
        0.9242179803550243,
        45.54925572127104,
        304.6
      ],
      [
        0.9242809284478426,
        45.54929436184466,
        304.6
      ],
      [
        0.9243619814515114,
        45.5493473354727,
        304.4
      ],
      [
        0.9244193974882364,
        45.54938027635217,
        304.4
      ],
      [
        0.9244629833847284,
        45.54941422306001,
        304.4
      ],
      [
        0.9245130233466625,
        45.54944498464465,
        304.6
      ],
      [
        0.9246157016605139,
        45.549481278285384,
        304.79999999999995
      ],
      [
        0.9247335512191057,
        45.54954648949206,
        305.4
      ],
      [
        0.9248500596731901,
        45.54961941204965,
        305.79999999999995
      ],
      [
        0.9249477088451385,
        45.549640115350485,
        305.79999999999995
      ],
      [
        0.9249950665980577,
        45.549698201939464,
        305.4
      ],
      [
        0.9250174462795258,
        45.54970574565232,
        305.4
      ],
      [
        0.9250423405319452,
        45.5497170612216,
        305.4
      ],
      [
        0.9251082222908735,
        45.54974782280624,
        305.20000000000005
      ],
      [
        0.925202015787363,
        45.549749080091715,
        304.79999999999995
      ],
      [
        0.9253038559108973,
        45.549724688753486,
        304.6
      ],
      [
        0.9253700729459524,
        45.54969660937786,
        304.4
      ],
      [
        0.9254053607583046,
        45.54966417141259,
        304.4
      ],
      [
        0.9254394751042128,
        45.54964036680758,
        304.20000000000005
      ],
      [
        0.9254631120711565,
        45.54962226189673,
        304.20000000000005
      ],
      [
        0.9255843982100487,
        45.54954271763563,
        304
      ],
      [
        0.9257337637245655,
        45.5494958627969,
        304
      ],
      [
        0.9257915150374174,
        45.54943450726569,
        304
      ],
      [
        0.9259950276464224,
        45.54931087419391,
        303.79999999999995
      ],
      [
        0.9260386973619461,
        45.549300564453006,
        303.79999999999995
      ],
      [
        0.9261508472263813,
        45.549291260540485,
        303.6
      ],
      [
        0.9262129571288824,
        45.5493042524904,
        303.6
      ],
      [
        0.926266685128212,
        45.54931992664933,
        303.6
      ],
      [
        0.9263182338327169,
        45.54934381507337,
        303.79999999999995
      ],
      [
        0.9263598918914795,
        45.549381114542484,
        304
      ],
      [
        0.9264509193599224,
        45.54946116171777,
        304
      ],
      [
        0.9265495743602514,
        45.54952209815383,
        303.79999999999995
      ],
      [
        0.9265866223722696,
        45.549527714028955,
        303.79999999999995
      ],
      [
        0.9266602154821157,
        45.54952503181994,
        303.79999999999995
      ],
      [
        0.9267427772283554,
        45.54950810037553,
        303.79999999999995
      ],
      [
        0.9268777258694172,
        45.549457892775536,
        303.79999999999995
      ],
      [
        0.927050644531846,
        45.54942201822996,
        303.79999999999995
      ],
      [
        0.927229430526495,
        45.54940986447036,
        304
      ],
      [
        0.9272687416523695,
        45.54941380396485,
        303.79999999999995
      ],
      [
        0.927336048334837,
        45.54945311509073,
        303.79999999999995
      ],
      [
        0.9273994993418455,
        45.54952587001026,
        303.79999999999995
      ],
      [
        0.9274175204336643,
        45.54960616864264,
        303.79999999999995
      ],
      [
        0.9274178557097912,
        45.54975503124297,
        303.79999999999995
      ],
      [
        0.9274316020309925,
        45.549873216077685,
        303.79999999999995
      ],
      [
        0.9274000022560358,
        45.54996809922159,
        303.79999999999995
      ],
      [
        0.927405534312129,
        45.550125846639276,
        304
      ],
      [
        0.9273846633732319,
        45.5501798260957,
        304.20000000000005
      ],
      [
        0.9273860044777393,
        45.550234727561474,
        304.20000000000005
      ],
      [
        0.9273932129144669,
        45.55037981830537,
        304.20000000000005
      ],
      [
        0.9273850824683905,
        45.550482496619225,
        304.20000000000005
      ],
      [
        0.9274613577872515,
        45.55056866258383,
        304.4
      ],
      [
        0.9274767804890871,
        45.550588108599186,
        304.4
      ],
      [
        0.9275233000516891,
        45.55067276582122,
        304.4
      ],
      [
        0.9275811351835728,
        45.55070159956813,
        304.4
      ],
      [
        0.9276846516877413,
        45.550788855180144,
        304.4
      ],
      [
        0.9278105478733778,
        45.55087233893573,
        304.4
      ],
      [
        0.9278501104563475,
        45.55088725872338,
        304.6
      ],
      [
        0.9279186744242907,
        45.55090393871069,
        304.79999999999995
      ],
      [
        0.9279440715909004,
        45.550924306735396,
        305
      ],
      [
        0.9279984701424837,
        45.55095967836678,
        305.20000000000005
      ],
      [
        0.9281599055975676,
        45.55102799087763,
        305.4
      ],
      [
        0.9282924234867096,
        45.55107342079282,
        305
      ],
      [
        0.9283713810145855,
        45.551084065809846,
        305
      ],
      [
        0.9285300504416227,
        45.551114827394485,
        304.20000000000005
      ],
      [
        0.928567685186863,
        45.55113175883889,
        304
      ],
      [
        0.928666340187192,
        45.55116847157478,
        303.79999999999995
      ],
      [
        0.9287023823708296,
        45.551187079399824,
        303.79999999999995
      ],
      [
        0.9287877939641476,
        45.551213482394814,
        303.79999999999995
      ],
      [
        0.9289007820188999,
        45.55125078186393,
        303.79999999999995
      ],
      [
        0.9290567692369223,
        45.5512832198292,
        303.79999999999995
      ],
      [
        0.9290857706218958,
        45.55128699168563,
        303.79999999999995
      ],
      [
        0.9291262552142143,
        45.55128707550466,
        303.79999999999995
      ],
      [
        0.9291758760809898,
        45.551281459629536,
        303.79999999999995
      ],
      [
        0.9292093198746443,
        45.55126712657511,
        303.79999999999995
      ],
      [
        0.9292557556182146,
        45.55127517320216,
        303.79999999999995
      ],
      [
        0.9293134231120348,
        45.55128271691501,
        303.6
      ],
      [
        0.9294130839407444,
        45.55130375549197,
        303.6
      ],
      [
        0.9295239765197039,
        45.55130015127361,
        303.4
      ],
      [
        0.9295601863414049,
        45.55129042826593,
        303.4
      ],
      [
        0.9296831488609314,
        45.55127592757344,
        303.4
      ],
      [
        0.9297200292348862,
        45.55126645602286,
        303.4
      ],
      [
        0.9299042634665966,
        45.55126737803221,
        303.4
      ],
      [
        0.92998749576509,
        45.5512834712863,
        303.4
      ],
      [
        0.9299997333437204,
        45.55129864253104,
        303.4
      ],
      [
        0.9300864860415459,
        45.551316076889634,
        303.4
      ],
      [
        0.9301533736288548,
        45.55134021677077,
        303.4
      ],
      [
        0.9302178304642439,
        45.551368463784456,
        303.4
      ],
      [
        0.9302557166665792,
        45.55136720649898,
        303.4
      ],
      [
        0.9303224366158247,
        45.55136712267995,
        303.4
      ],
      [
        0.9303563833236694,
        45.55137215182185,
        303.4
      ],
      [
        0.9304618276655674,
        45.55138221010566,
        303.4
      ],
      [
        0.9305140469223261,
        45.5513833835721,
        303.4
      ],
      [
        0.9307205770164728,
        45.551400147378445,
        303.4
      ],
      [
        0.9308657515794039,
        45.55141347460449,
        303.4
      ],
      [
        0.9310642350465059,
        45.551463682204485,
        303.4
      ],
      [
        0.9310888778418303,
        45.55148455314338,
        303.6
      ],
      [
        0.9311470482498407,
        45.55151808075607,
        303.6
      ],
      [
        0.931262718513608,
        45.551539454609156,
        303.79999999999995
      ],
      [
        0.9312915522605181,
        45.55154708214104,
        303.79999999999995
      ],
      [
        0.9313230682164431,
        45.55154616013169,
        303.79999999999995
      ],
      [
        0.9313804004341364,
        45.55156736634672,
        304.20000000000005
      ],
      [
        0.9314088989049196,
        45.55157298222184,
        304.4
      ],
      [
        0.931473271921277,
        45.5515649355948,
        304.6
      ],
      [
        0.9315681550651789,
        45.5515596549958,
        305
      ],
      [
        0.9316031914204359,
        45.551548674702644,
        305.4
      ],
      [
        0.9316973201930523,
        45.55149368941784,
        305.6
      ],
      [
        0.931826401501894,
        45.55141665972769,
        306
      ],
      [
        0.9319574106484652,
        45.55133384652436,
        305.79999999999995
      ],
      [
        0.9320890065282583,
        45.551244746893644,
        305.6
      ],
      [
        0.9322133101522923,
        45.55118934251368,
        304.20000000000005
      ],
      [
        0.9322335943579674,
        45.55117752403021,
        304
      ],
      [
        0.9323423076421022,
        45.55108381435275,
        303.79999999999995
      ],
      [
        0.9325302299112082,
        45.55095146410167,
        304.6
      ],
      [
        0.9325991291552782,
        45.55090150795877,
        305
      ],
      [
        0.9326295554637909,
        45.55088197812438,
        305.20000000000005
      ],
      [
        0.9327330719679594,
        45.550820622593164,
        305.20000000000005
      ],
      [
        0.9327682759612799,
        45.55078617297113,
        305.20000000000005
      ],
      [
        0.9328446350991726,
        45.550702856853604,
        305
      ],
      [
        0.9329736325889826,
        45.55057696066797,
        304.6
      ],
      [
        0.9330443758517504,
        45.55050630122423,
        304.4
      ],
      [
        0.9331076592206955,
        45.55047009140253,
        304.4
      ],
      [
        0.933266244828701,
        45.55042558349669,
        304.6
      ],
      [
        0.9332933183759451,
        45.55042231455445,
        304.6
      ],
      [
        0.9333281870931387,
        45.550429690629244,
        304.6
      ],
      [
        0.9334233216941357,
        45.55046087130904,
        304.6
      ],
      [
        0.9334996808320284,
        45.550579307600856,
        304.4
      ],
      [
        0.9335439372807741,
        45.55068215355277,
        304.4
      ],
      [
        0.9335573483258486,
        45.55076370947063,
        304.20000000000005
      ],
      [
        0.9335649758577347,
        45.55078877136111,
        304.20000000000005
      ],
      [
        0.9335918817669153,
        45.550826573744416,
        304.20000000000005
      ],
      [
        0.9336196258664131,
        45.550836045295,
        304.4
      ],
      [
        0.9336814004927874,
        45.550863202661276,
        304.4
      ],
      [
        0.9337181132286787,
        45.55085884407163,
        304.4
      ],
      [
        0.9337498806416988,
        45.55086152628064,
        304.4
      ],
      [
        0.9339105617254972,
        45.550831435248256,
        304.4
      ],
      [
        0.9340192750096321,
        45.55079597979784,
        304.4
      ],
      [
        0.9340906888246536,
        45.55077385157347,
        304.4
      ],
      [
        0.934236366301775,
        45.55075256153941,
        304.4
      ],
      [
        0.9343703929334879,
        45.5507342889905,
        304.6
      ],
      [
        0.9345242008566856,
        45.55067293345928,
        304.6
      ],
      [
        0.9347298927605152,
        45.550642842426896,
        304.4
      ],
      [
        0.9348240215331316,
        45.55066027678549,
        304.20000000000005
      ],
      [
        0.9348488319665194,
        45.55067678913474,
        304.20000000000005
      ],
      [
        0.9349250234663486,
        45.55073261260986,
        304.20000000000005
      ],
      [
        0.9349557850509882,
        45.550752729177475,
        304.20000000000005
      ],
      [
        0.9350697789341211,
        45.550827914848924,
        304.20000000000005
      ],
      [
        0.9350886382162571,
        45.55084761232138,
        304.20000000000005
      ],
      [
        0.9352030511945486,
        45.55092464201152,
        304.4
      ],
      [
        0.9352904744446278,
        45.55092732422054,
        304.4
      ],
      [
        0.9353382512927055,
        45.550927240401506,
        304.4
      ],
      [
        0.9354851860553026,
        45.55094014853239,
        304.4
      ],
      [
        0.9355150256305933,
        45.550941824913025,
        304.4
      ],
      [
        0.9355991799384356,
        45.55095858871937,
        304.6
      ],
      [
        0.9356608707457781,
        45.550955990329385,
        304.79999999999995
      ],
      [
        0.9357617888599634,
        45.55092874914408,
        305.20000000000005
      ],
      [
        0.9357814863324165,
        45.55091894231737,
        305.20000000000005
      ],
      [
        0.9359333664178848,
        45.55086286738515,
        305.20000000000005
      ],
      [
        0.9360074624419212,
        45.55083587765694,
        304.79999999999995
      ],
      [
        0.936021963134408,
        45.550777120515704,
        304.79999999999995
      ],
      [
        0.9360236395150423,
        45.55069975554943,
        304.6
      ],
      [
        0.9360876772552729,
        45.55056002922356,
        304.79999999999995
      ],
      [
        0.9362217038869858,
        45.550547037273645,
        305
      ],
      [
        0.936270821839571,
        45.55054829455912,
        305
      ],
      [
        0.9363125637173653,
        45.55054594762623,
        305.20000000000005
      ],
      [
        0.9363843966275454,
        45.55055030621588,
        305.20000000000005
      ],
      [
        0.9363993164151907,
        45.55054519325495,
        305.20000000000005
      ],
      [
        0.9364926908165216,
        45.55052951909602,
        305.4
      ],
      [
        0.936656054109335,
        45.550470259040594,
        305.4
      ],
      [
        0.9367516916245222,
        45.55044796317816,
        305.4
      ],
      [
        0.9367931820452213,
        45.55044519715011,
        305.20000000000005
      ],
      [
        0.9368309006094933,
        45.550443939864635,
        305.20000000000005
      ],
      [
        0.9368817787617445,
        45.55043966509402,
        305
      ],
      [
        0.9370215050876141,
        45.550493309274316,
        304.79999999999995
      ],
      [
        0.9371042344719172,
        45.550584085285664,
        304.20000000000005
      ],
      [
        0.9371224232017994,
        45.55059531703591,
        304.20000000000005
      ],
      [
        0.937153771519661,
        45.55062264204025,
        304.20000000000005
      ],
      [
        0.9371924120932817,
        45.550658935680985,
        304.20000000000005
      ],
      [
        0.9372188989073038,
        45.55067041888833,
        304.20000000000005
      ],
      [
        0.9372898936271667,
        45.55073001421988,
        304.20000000000005
      ],
      [
        0.9373135305941105,
        45.55074694566429,
        304.20000000000005
      ],
      [
        0.9373827651143074,
        45.55078902281821,
        304.4
      ],
      [
        0.9374525863677263,
        45.55080134421587,
        304.4
      ],
      [
        0.9376331325620413,
        45.55087317712605,
        304.79999999999995
      ],
      [
        0.9377343859523535,
        45.55090745911002,
        305.20000000000005
      ],
      [
        0.9378016088157892,
        45.55092581547797,
        305.20000000000005
      ],
      [
        0.9378713462501764,
        45.55093067698181,
        305.4
      ],
      [
        0.937933037057519,
        45.55094534531236,
        305.6
      ],
      [
        0.9380819834768772,
        45.55097049102187,
        305.79999999999995
      ],
      [
        0.9382160101085901,
        45.55099010467529,
        306
      ],
      [
        0.9382454305887222,
        45.55100670084357,
        306.20000000000005
      ],
      [
        0.938360346481204,
        45.55103578604758,
        306.20000000000005
      ],
      [
        0.9385090414434671,
        45.55106428451836,
        306
      ],
      [
        0.9387734904885292,
        45.55106503888965,
        305.4
      ],
      [
        0.9389291424304247,
        45.55105925537646,
        305.79999999999995
      ],
      [
        0.9391008038073778,
        45.55108272470534,
        306.20000000000005
      ],
      [
        0.9391329064965248,
        45.551098650321364,
        306.6
      ],
      [
        0.9391998779028654,
        45.55113888345659,
        307.4
      ],
      [
        0.939230052754283,
        45.551152965053916,
        307.6
      ],
      [
        0.9392650052905083,
        45.55115690454841,
        308
      ],
      [
        0.939319571480155,
        45.55116377770901,
        308.4
      ],
      [
        0.9393795859068632,
        45.55118892341852,
        308.79999999999995
      ],
      [
        0.9395259339362383,
        45.551230162382126,
        309.20000000000005
      ],
      [
        0.9396899677813053,
        45.5513006541878,
        309
      ],
      [
        0.9397975075989962,
        45.55136192589998,
        307.79999999999995
      ],
      [
        0.9398313704878092,
        45.55137047544122,
        307.6
      ],
      [
        0.9398560971021652,
        45.55139360949397,
        307.20000000000005
      ],
      [
        0.9399223979562521,
        45.551430908963084,
        306.6
      ],
      [
        0.9399599488824606,
        45.551436273381114,
        306
      ],
      [
        0.9400762896984816,
        45.55145320482552,
        305.20000000000005
      ],
      [
        0.940112080425024,
        45.5514576472342,
        305
      ],
      [
        0.9403131622821093,
        45.55151958949864,
        305
      ],
      [
        0.9404003340750933,
        45.55153476074338,
        305.20000000000005
      ],
      [
        0.9404213726520538,
        45.551551189273596,
        305.20000000000005
      ],
      [
        0.940500246360898,
        45.55156946182251,
        305.4
      ],
      [
        0.9405485261231661,
        45.55161640048027,
        305.6
      ],
      [
        0.9405684750527143,
        45.55163685232401,
        305.6
      ],
      [
        0.940589178353548,
        45.55164439603686,
        305.79999999999995
      ],
      [
        0.9406513720750809,
        45.551686557009816,
        305.79999999999995
      ],
      [
        0.9407216124236584,
        45.551712457090616,
        305.79999999999995
      ],
      [
        0.940794451162219,
        45.55173810571432,
        305.79999999999995
      ],
      [
        0.9409386198967695,
        45.55180792696774,
        305.79999999999995
      ],
      [
        0.9410516917705536,
        45.55189744569361,
        305.79999999999995
      ],
      [
        0.941080441698432,
        45.551923932507634,
        306
      ],
      [
        0.9411398693919182,
        45.551965003833175,
        306
      ],
      [
        0.9411752410233021,
        45.551975229755044,
        306
      ],
      [
        0.9413180686533451,
        45.552062233909965,
        305.79999999999995
      ],
      [
        0.9414625726640224,
        45.55216650478542,
        305.6
      ],
      [
        0.9415795002132654,
        45.552244037389755,
        305.20000000000005
      ],
      [
        0.9416794963181019,
        45.552328526973724,
        305
      ],
      [
        0.9418027941137552,
        45.552369095385075,
        305
      ],
      [
        0.9418547619134188,
        45.55238367989659,
        305
      ],
      [
        0.9419659897685051,
        45.5524125136435,
        305
      ],
      [
        0.9420242439955473,
        45.55242902599275,
        305.20000000000005
      ],
      [
        0.9421596955507994,
        45.55250043980777,
        305.6
      ],
      [
        0.942294392734766,
        45.552528435364366,
        306.20000000000005
      ],
      [
        0.9424393996596336,
        45.55257570929825,
        306
      ],
      [
        0.9425193630158901,
        45.55259171873331,
        305.6
      ],
      [
        0.9426041040569544,
        45.552612422034144,
        305.4
      ],
      [
        0.9427403938025236,
        45.552683332934976,
        305.20000000000005
      ],
      [
        0.9428789466619492,
        45.552727757021785,
        305.20000000000005
      ],
      [
        0.9429183416068554,
        45.55273521691561,
        305.20000000000005
      ],
      [
        0.9430877398699522,
        45.55276111699641,
        305.20000000000005
      ],
      [
        0.9432116243988276,
        45.55276572704315,
        305.4
      ],
      [
        0.9433308988809586,
        45.55277310311794,
        305.6
      ],
      [
        0.943475067615509,
        45.55279581807554,
        305.79999999999995
      ],
      [
        0.943649411201477,
        45.552832363173366,
        306.20000000000005
      ],
      [
        0.943731302395463,
        45.552841667085886,
        306.20000000000005
      ],
      [
        0.9438015427440405,
        45.55284854024649,
        306.20000000000005
      ],
      [
        0.9438444580882788,
        45.55285700596869,
        306.20000000000005
      ],
      [
        0.9439246729016304,
        45.552858766168356,
        306.20000000000005
      ],
      [
        0.9439641516655684,
        45.55285558104515,
        306.20000000000005
      ],
      [
        0.9439960028976202,
        45.552858263254166,
        306
      ],
      [
        0.9440709371119738,
        45.552867064252496,
        306
      ],
      [
        0.94415333122015,
        45.552869914099574,
        306
      ],
      [
        0.9442548360675573,
        45.55287159048021,
        306
      ],
      [
        0.944287022575736,
        45.55287687107921,
        306
      ],
      [
        0.9443968255072832,
        45.55288919247687,
        306
      ],
      [
        0.9444333706051111,
        45.552894892171025,
        306
      ],
      [
        0.9445610269904137,
        45.55290386080742,
        305.79999999999995
      ],
      [
        0.9448099695146084,
        45.55289547890425,
        305.6
      ],
      [
        0.9449565690010786,
        45.55287175811827,
        305.4
      ],
      [
        0.9450488537549973,
        45.5528425052762,
        305.6
      ],
      [
        0.9452175814658403,
        45.55278022773564,
        305.79999999999995
      ],
      [
        0.9454036597162485,
        45.55274770595133,
        306.4
      ],
      [
        0.9454879816621542,
        45.5527423415333,
        306.4
      ],
      [
        0.9455930907279253,
        45.552747370675206,
        306.4
      ],
      [
        0.9457104373723269,
        45.55277779698372,
        306.4
      ],
      [
        0.9457261953502893,
        45.55279833264649,
        306.4
      ],
      [
        0.9458054881542921,
        45.55284954607487,
        306.4
      ],
      [
        0.9458417817950249,
        45.55287427268922,
        306.4
      ],
      [
        0.945962481200695,
        45.55295532569289,
        306.4
      ],
      [
        0.9459937456995249,
        45.552969574928284,
        306.4
      ],
      [
        0.9460986033082008,
        45.55300251580775,
        306.4
      ],
      [
        0.9462575241923332,
        45.55307594127953,
        306.4
      ],
      [
        0.9463916346430779,
        45.55312983691692,
        306.20000000000005
      ],
      [
        0.9464032016694546,
        45.55314735509455,
        306.20000000000005
      ],
      [
        0.9464430157095194,
        45.55323519743979,
        306
      ],
      [
        0.9464431833475828,
        45.5532917752862,
        306
      ],
      [
        0.9464334603399038,
        45.55333435535431,
        305.79999999999995
      ],
      [
        0.9464102424681187,
        45.55336796678603,
        305.6
      ],
      [
        0.9463888686150312,
        45.553403589874506,
        305.6
      ],
      [
        0.9463653154671192,
        45.553434770554304,
        305.4
      ],
      [
        0.9463037922978401,
        45.55348916910589,
        305
      ],
      [
        0.9462493937462568,
        45.553544238209724,
        305
      ],
      [
        0.9461787343025208,
        45.553627386689186,
        304.79999999999995
      ],
      [
        0.9461159538477659,
        45.553687904030085,
        304.79999999999995
      ],
      [
        0.946058789268136,
        45.553725035861135,
        304.79999999999995
      ],
      [
        0.9460372477769852,
        45.55375713855028,
        304.79999999999995
      ],
      [
        0.9460172988474369,
        45.553776919841766,
        304.79999999999995
      ],
      [
        0.945957200601697,
        45.553811537101865,
        305
      ],
      [
        0.9459338989108801,
        45.55383441969752,
        305
      ],
      [
        0.9458501636981964,
        45.553908348083496,
        305.20000000000005
      ],
      [
        0.9458168875426054,
        45.55392821319401,
        305.20000000000005
      ],
      [
        0.9457940049469471,
        45.553942462429404,
        305.20000000000005
      ],
      [
        0.9457456413656473,
        45.55398638360202,
        305.20000000000005
      ],
      [
        0.9457156341522932,
        45.55400440469384,
        305.20000000000005
      ],
      [
        0.9456967748701572,
        45.55402100086212,
        305.20000000000005
      ],
      [
        0.9456722158938646,
        45.5540479067713,
        305.20000000000005
      ],
      [
        0.9456394426524639,
        45.55406525731087,
        305.20000000000005
      ],
      [
        0.9455909114331007,
        45.554108591750264,
        305.20000000000005
      ],
      [
        0.9455485828220844,
        45.55415201000869,
        305
      ],
      [
        0.9455115348100662,
        45.55419861339033,
        305
      ],
      [
        0.9454998001456261,
        45.55423985235393,
        305
      ],
      [
        0.9454746544361115,
        45.55432375520468,
        305
      ],
      [
        0.9454662725329399,
        45.554349990561604,
        305
      ],
      [
        0.9454187471419573,
        45.55447404272854,
        305
      ],
      [
        0.9453809447586536,
        45.55463019758463,
        305.20000000000005
      ],
      [
        0.9453942719846964,
        45.55472516454756,
        305.4
      ],
      [
        0.9454682841897011,
        45.55482851341367,
        305.4
      ],
      [
        0.9455023985356092,
        45.55483697913587,
        305.4
      ],
      [
        0.9455577190965414,
        45.55488006211817,
        305.4
      ],
      [
        0.9456816874444485,
        45.55496362969279,
        305.4
      ],
      [
        0.9457618184387684,
        45.55504602380097,
        305.4
      ],
      [
        0.9457627404481173,
        45.55509187281132,
        305.20000000000005
      ],
      [
        0.9456670191138983,
        45.55526688694954,
        305
      ],
      [
        0.9455795120447874,
        45.55534081533551,
        304.79999999999995
      ],
      [
        0.9454294759780169,
        45.55544315837324,
        304.6
      ],
      [
        0.9453142248094082,
        45.555538376793265,
        304.4
      ],
      [
        0.9451563935726881,
        45.555686485022306,
        304.20000000000005
      ],
      [
        0.945066288113594,
        45.55580492131412,
        304
      ],
      [
        0.9449477680027485,
        45.55588698014617,
        304
      ],
      [
        0.944922287017107,
        45.55590298958123,
        303.79999999999995
      ],
      [
        0.9447599295526743,
        45.555969290435314,
        304
      ],
      [
        0.9445654693990946,
        45.55602779611945,
        304
      ],
      [
        0.9443899523466825,
        45.55606132373214,
        304.20000000000005
      ],
      [
        0.94423639588058,
        45.556064089760184,
        304.4
      ],
      [
        0.9441506490111351,
        45.55605763569474,
        304.6
      ],
      [
        0.9441074822098017,
        45.55604632012546,
        304.79999999999995
      ],
      [
        0.9440550114959478,
        45.55600491352379,
        304.79999999999995
      ],
      [
        0.9440485574305058,
        45.555980522185564,
        304.79999999999995
      ],
      [
        0.9440507367253304,
        45.555958561599255,
        304.79999999999995
      ],
      [
        0.9440840128809214,
        45.55592402815819,
        304.79999999999995
      ],
      [
        0.9441104996949434,
        45.55590994656086,
        304.79999999999995
      ],
      [
        0.9441621322184801,
        45.55587273091078,
        304.79999999999995
      ],
      [
        0.9441982582211494,
        45.55584104731679,
        304.6
      ],
      [
        0.9442275110632181,
        45.55579511448741,
        304.4
      ],
      [
        0.9442530758678913,
        45.55578354746103,
        304.4
      ],
      [
        0.9442679118365049,
        45.55566628463566,
        304.20000000000005
      ],
      [
        0.9442635532468557,
        45.55557877756655,
        304.20000000000005
      ],
      [
        0.9442643914371729,
        45.55554826743901,
        304.20000000000005
      ],
      [
        0.944244023412466,
        45.555424466729164,
        304.20000000000005
      ],
      [
        0.9442441072314978,
        45.55539060384035,
        304.20000000000005
      ],
      [
        0.944196917116642,
        45.55524786002934,
        303.79999999999995
      ],
      [
        0.944187780842185,
        45.55521810427308,
        303.79999999999995
      ],
      [
        0.9441763814538717,
        45.55512716062367,
        303.79999999999995
      ],
      [
        0.944164814427495,
        45.55509396828711,
        303.6
      ],
      [
        0.9441187139600515,
        45.55494401603937,
        303.79999999999995
      ],
      [
        0.9441044647246599,
        45.55489053949714,
        303.79999999999995
      ],
      [
        0.944092059507966,
        45.554862543940544,
        303.79999999999995
      ],
      [
        0.9440809953957796,
        45.554750142619014,
        303.6
      ],
      [
        0.944011677056551,
        45.55462676100433,
        303.4
      ],
      [
        0.9439857769757509,
        45.55451679043472,
        303.6
      ],
      [
        0.9439234994351864,
        45.554374381899834,
        303.6
      ],
      [
        0.9438642393797636,
        45.554301207885146,
        303.6
      ],
      [
        0.9438077453523874,
        45.55427195504308,
        303.6
      ],
      [
        0.9437785763293505,
        45.55425988510251,
        303.6
      ],
      [
        0.9436574578285217,
        45.554255777969956,
        303.4
      ],
      [
        0.9435241017490625,
        45.554275810718536,
        303.20000000000005
      ],
      [
        0.943343136459589,
        45.55427857674658,
        303
      ],
      [
        0.9432706329971552,
        45.554278744384646,
        302.79999999999995
      ],
      [
        0.9431599918752909,
        45.554260136559606,
        302.6
      ],
      [
        0.9429906774312258,
        45.55423842743039,
        302.6
      ],
      [
        0.9428095445036888,
        45.55419961921871,
        302.79999999999995
      ],
      [
        0.9427279885858297,
        45.55417958647013,
        302.6
      ],
      [
        0.9426197782158852,
        45.55416466668248,
        302.4
      ],
      [
        0.942402184009552,
        45.55416307412088,
        302.4
      ],
      [
        0.9422081429511309,
        45.55416810326278,
        302.20000000000005
      ],
      [
        0.9419892076402903,
        45.55412292480469,
        302.20000000000005
      ],
      [
        0.9417687635868788,
        45.55407648906112,
        302.20000000000005
      ],
      [
        0.94151571393013,
        45.553973810747266,
        302.20000000000005
      ],
      [
        0.941378753632307,
        45.55390709079802,
        302
      ],
      [
        0.9413458127528429,
        45.55389870889485,
        302
      ],
      [
        0.9412806853652,
        45.553862834349275,
        302
      ],
      [
        0.941147580742836,
        45.55381027981639,
        302
      ],
      [
        0.9409999754279852,
        45.553705506026745,
        301.79999999999995
      ],
      [
        0.9408325050026178,
        45.55363107472658,
        301.6
      ],
      [
        0.940696382895112,
        45.553610287606716,
        301.4
      ],
      [
        0.940513489767909,
        45.55359092541039,
        301.20000000000005
      ],
      [
        0.9403463546186686,
        45.5535835493356,
        301.20000000000005
      ],
      [
        0.9401895292103291,
        45.553619507700205,
        301.4
      ],
      [
        0.9400737751275301,
        45.55370232090354,
        302
      ],
      [
        0.9400040376931429,
        45.55376535281539,
        302
      ],
      [
        0.9398994315415621,
        45.55389577522874,
        301.6
      ],
      [
        0.9398119244724512,
        45.55400524288416,
        301.20000000000005
      ],
      [
        0.9397546760737896,
        45.55412267334759,
        301.20000000000005
      ],
      [
        0.9396613854914904,
        45.55424169637263,
        301.4
      ],
      [
        0.9396231640130281,
        45.554317804053426,
        301.4
      ],
      [
        0.9395258501172066,
        45.55447982624173,
        301.6
      ],
      [
        0.9393942542374134,
        45.55457345210016,
        301.4
      ],
      [
        0.9392606467008591,
        45.554615864530206,
        301.20000000000005
      ],
      [
        0.9391227643936872,
        45.55458024144173,
        301.20000000000005
      ],
      [
        0.9390941821038723,
        45.554556185379624,
        301
      ],
      [
        0.9390422981232405,
        45.55447328835726,
        300.79999999999995
      ],
      [
        0.9390407893806696,
        45.554357785731554,
        300.79999999999995
      ],
      [
        0.9390451479703188,
        45.55421973578632,
        300.79999999999995
      ],
      [
        0.9390328265726566,
        45.5541377607733,
        300.79999999999995
      ],
      [
        0.9390407055616379,
        45.55398621596396,
        300.79999999999995
      ],
      [
        0.9390334133058786,
        45.55388085544109,
        300.79999999999995
      ],
      [
        0.9390098601579666,
        45.55370290763676,
        301
      ],
      [
        0.9389645140618086,
        45.553568629547954,
        300.79999999999995
      ],
      [
        0.9388961177319288,
        45.553493024781346,
        301
      ],
      [
        0.938815651461482,
        45.55340878665447,
        301
      ],
      [
        0.9387038368731737,
        45.553333684802055,
        301.20000000000005
      ],
      [
        0.9385522920638323,
        45.55323880165815,
        301.4
      ],
      [
        0.9383300878107548,
        45.55321600288153,
        301.4
      ],
      [
        0.9381098952144384,
        45.553195383399725,
        301.20000000000005
      ],
      [
        0.9378828294575214,
        45.55315020494163,
        301.20000000000005
      ],
      [
        0.9377710986882448,
        45.55311407893896,
        301.20000000000005
      ],
      [
        0.9377481322735548,
        45.55308868177235,
        301.20000000000005
      ],
      [
        0.9376485552638769,
        45.5529516376555,
        301.4
      ],
      [
        0.9376118425279856,
        45.552829932421446,
        301.4
      ],
      [
        0.9375455416738987,
        45.55273437872529,
        301.6
      ],
      [
        0.93743029050529,
        45.55263019166887,
        301.79999999999995
      ],
      [
        0.9374081622809172,
        45.55261032655835,
        301.79999999999995
      ],
      [
        0.9373046457767487,
        45.55250572040677,
        302
      ],
      [
        0.9371784143149853,
        45.55240270681679,
        301.79999999999995
      ],
      [
        0.9371484071016312,
        45.552383763715625,
        301.79999999999995
      ],
      [
        0.9369727224111557,
        45.55231612175703,
        301.79999999999995
      ],
      [
        0.9368279669433832,
        45.552264070138335,
        301.6
      ],
      [
        0.9366254601627588,
        45.55223263800144,
        301.4
      ],
      [
        0.9365755040198565,
        45.552245965227485,
        301.4
      ],
      [
        0.9365112148225307,
        45.55228712037206,
        301.4
      ],
      [
        0.9363812953233719,
        45.55237429216504,
        301.79999999999995
      ],
      [
        0.9361963905394077,
        45.552497589960694,
        302
      ],
      [
        0.936008132994175,
        45.552607057616115,
        301.20000000000005
      ],
      [
        0.935911824926734,
        45.55264251306653,
        300.6
      ],
      [
        0.9358763694763184,
        45.55265760049224,
        300.4
      ],
      [
        0.9357494674623013,
        45.55270445533097,
        300.20000000000005
      ],
      [
        0.9356141835451126,
        45.55276111699641,
        299.79999999999995
      ],
      [
        0.9354375768452883,
        45.55282440036535,
        300
      ],
      [
        0.9352587908506393,
        45.55290109477937,
        300.4
      ],
      [
        0.9351805876940489,
        45.55298835039139,
        301.20000000000005
      ],
      [
        0.9351214114576578,
        45.55311349220574,
        301.20000000000005
      ],
      [
        0.9350751433521509,
        45.553243244066834,
        301.20000000000005
      ],
      [
        0.9350617323070765,
        45.5532759334892,
        301.20000000000005
      ],
      [
        0.9350346587598324,
        45.55333678610623,
        301
      ],
      [
        0.9349792543798685,
        45.55347257293761,
        300.79999999999995
      ],
      [
        0.934947906062007,
        45.553567204624414,
        300.6
      ],
      [
        0.9349129535257816,
        45.5536596570164,
        300.4
      ],
      [
        0.9348808508366346,
        45.553768118843436,
        300.4
      ],
      [
        0.9347832854837179,
        45.55384900420904,
        300.4
      ],
      [
        0.9346491750329733,
        45.55387834087014,
        300.6
      ],
      [
        0.9345141425728798,
        45.55386308580637,
        300.6
      ],
      [
        0.9343066066503525,
        45.55383123457432,
        300.6
      ],
      [
        0.9341906011104584,
        45.553771471604705,
        300.6
      ],
      [
        0.9340338595211506,
        45.55370659567416,
        300.79999999999995
      ],
      [
        0.9338548220694065,
        45.553682539612055,
        301
      ],
      [
        0.9336515609174967,
        45.553700141608715,
        301.4
      ],
      [
        0.9335778839886189,
        45.55370282381773,
        301.6
      ],
      [
        0.9334726072847843,
        45.55371003225446,
        301.6
      ],
      [
        0.9332854393869638,
        45.553734339773655,
        301.4
      ],
      [
        0.9330888837575912,
        45.55376627482474,
        301
      ],
      [
        0.9330310486257076,
        45.553788151592016,
        300.4
      ],
      [
        0.9329602215439081,
        45.55381371639669,
        300
      ],
      [
        0.9329281188547611,
        45.55383760482073,
        299.79999999999995
      ],
      [
        0.9329126961529255,
        45.55395050905645,
        299.4
      ],
      [
        0.9328950103372335,
        45.55401127785444,
        299.4
      ],
      [
        0.9328972734510899,
        45.55402276106179,
        299.6
      ],
      [
        0.9328976087272167,
        45.55403994396329,
        299.6
      ],
      [
        0.9329085890203714,
        45.554103814065456,
        299.79999999999995
      ],
      [
        0.932922838255763,
        45.55419333279133,
        300
      ],
      [
        0.932908421382308,
        45.55427170358598,
        300.20000000000005
      ],
      [
        0.9328913222998381,
        45.55435518734157,
        300.6
      ],
      [
        0.9328764025121927,
        45.55439097806811,
        300.6
      ],
      [
        0.9328482393175364,
        45.554475048556924,
        300.79999999999995
      ],
      [
        0.9328197408467531,
        45.554578145965934,
        300.79999999999995
      ],
      [
        0.932764420285821,
        45.5546850990504,
        300.79999999999995
      ],
      [
        0.9326700400561094,
        45.554807391017675,
        300.6
      ],
      [
        0.9326168987900019,
        45.554830357432365,
        300.79999999999995
      ],
      [
        0.9325900766998529,
        45.55482650175691,
        301
      ],
      [
        0.9325672779232264,
        45.554817197844386,
        301.20000000000005
      ],
      [
        0.9325605724006891,
        45.55480118840933,
        301.4
      ],
      [
        0.9325479157269001,
        45.55477771908045,
        301.6
      ],
      [
        0.9325446467846632,
        45.55470496416092,
        301.79999999999995
      ],
      [
        0.9325054194778204,
        45.55456724949181,
        301.79999999999995
      ],
      [
        0.9324644319713116,
        45.554459961131215,
        301.6
      ],
      [
        0.9324203431606293,
        45.55437714792788,
        301.6
      ],
      [
        0.9323487617075443,
        45.55424463003874,
        301.20000000000005
      ],
      [
        0.9322652779519558,
        45.55410834029317,
        301
      ],
      [
        0.9321573190391064,
        45.55402871221304,
        300.6
      ],
      [
        0.9320024214684963,
        45.55399744771421,
        300.4
      ],
      [
        0.9319411497563124,
        45.55399878881872,
        300.4
      ],
      [
        0.9318483620882034,
        45.5539926700294,
        300.20000000000005
      ],
      [
        0.93167619779706,
        45.553982108831406,
        300.20000000000005
      ],
      [
        0.9314908739179373,
        45.554022593423724,
        300.4
      ],
      [
        0.9313245769590139,
        45.554060814902186,
        300.4
      ],
      [
        0.9312828350812197,
        45.554069112986326,
        300.4
      ],
      [
        0.9311680868268013,
        45.55409367196262,
        300.6
      ],
      [
        0.9310058131814003,
        45.554117392748594,
        300.79999999999995
      ],
      [
        0.9308515023440123,
        45.554136503487825,
        300.79999999999995
      ],
      [
        0.9308181423693895,
        45.55414781905711,
        300.79999999999995
      ],
      [
        0.930785033851862,
        45.5541618168354,
        300.6
      ],
      [
        0.9307688567787409,
        45.5541877169162,
        300.6
      ],
      [
        0.930759385228157,
        45.554224429652095,
        300.79999999999995
      ],
      [
        0.9307235106825829,
        45.55428871884942,
        300.79999999999995
      ],
      [
        0.9306093491613865,
        45.55438737384975,
        301.20000000000005
      ],
      [
        0.9305561240762472,
        45.554475048556924,
        301.20000000000005
      ],
      [
        0.9305532742291689,
        45.554490806534886,
        301
      ],
      [
        0.9305427130311728,
        45.55451243184507,
        300.4
      ],
      [
        0.9305910766124725,
        45.554539086297154,
        300.20000000000005
      ],
      [
        0.9306702855974436,
        45.5545714404434,
        299.79999999999995
      ],
      [
        0.9307194873690605,
        45.55459423922002,
        299.6
      ],
      [
        0.9307736344635487,
        45.5546195525676,
        299.4
      ],
      [
        0.9308110177516937,
        45.554636819288135,
        299.4
      ],
      [
        0.9308546874672174,
        45.55467453785241,
        299.4
      ],
      [
        0.9308789949864149,
        45.55472055450082,
        299.20000000000005
      ],
      [
        0.9308721218258142,
        45.55475207045674,
        299.20000000000005
      ],
      [
        0.9308651648461819,
        45.554802529513836,
        299.20000000000005
      ],
      [
        0.930885449051857,
        45.5548753682524,
        299.20000000000005
      ],
      [
        0.9308794140815735,
        45.55491769686341,
        299.20000000000005
      ],
      [
        0.9308476466685534,
        45.555035043507814,
        299.4
      ],
      [
        0.9308297093957663,
        45.5550632905215,
        299.4
      ],
      [
        0.9307945892214775,
        45.55513881146908,
        299.4
      ],
      [
        0.9307551104575396,
        45.55519346147776,
        299.6
      ],
      [
        0.9306695312261581,
        45.55529521778226,
        299.79999999999995
      ],
      [
        0.930625107139349,
        45.555341402068734,
        299.79999999999995
      ],
      [
        0.930580934509635,
        45.55539345368743,
        299.79999999999995
      ],
      [
        0.9305540286004543,
        45.55541465990245,
        299.79999999999995
      ],
      [
        0.930493175983429,
        45.55546319112182,
        300.20000000000005
      ],
      [
        0.9303973708301783,
        45.55554407648742,
        300.20000000000005
      ],
      [
        0.9303086902946234,
        45.555614149197936,
        300.20000000000005
      ],
      [
        0.9301782678812742,
        45.555699644610286,
        300.4
      ],
      [
        0.9300504438579082,
        45.555799724534154,
        300.20000000000005
      ],
      [
        0.9299092926084995,
        45.5558889079839,
        300.20000000000005
      ],
      [
        0.9298680536448956,
        45.5559510178864,
        300.20000000000005
      ],
      [
        0.9298502840101719,
        45.55596711114049,
        300.20000000000005
      ],
      [
        0.9298164211213589,
        45.5560303106904,
        300.6
      ],
      [
        0.9297466836869717,
        45.55613726377487,
        301.20000000000005
      ],
      [
        0.9297032654285431,
        45.556222172454,
        301.20000000000005
      ],
      [
        0.9296516329050064,
        45.55632543750107,
        301.20000000000005
      ],
      [
        0.9296231344342232,
        45.55634672753513,
        301
      ],
      [
        0.9295208752155304,
        45.556406658142805,
        300.6
      ],
      [
        0.9293834958225489,
        45.55647253990173,
        300.20000000000005
      ],
      [
        0.9292901214212179,
        45.55655644275248,
        300
      ],
      [
        0.9292363934218884,
        45.55660690180957,
        300
      ],
      [
        0.929131368175149,
        45.55670639500022,
        300
      ],
      [
        0.9290244989097118,
        45.556792644783854,
        300
      ],
      [
        0.9289264306426048,
        45.55689490400255,
        300
      ],
      [
        0.9288956690579653,
        45.55691736750305,
        300
      ],
      [
        0.9288586210459471,
        45.556981321424246,
        299.79999999999995
      ],
      [
        0.9287653304636478,
        45.55712465196848,
        299.79999999999995
      ],
      [
        0.9286975208669901,
        45.55725281126797,
        299.6
      ],
      [
        0.9286525938659906,
        45.55733000859618,
        299.4
      ],
      [
        0.9286362491548061,
        45.557361440733075,
        299.4
      ],
      [
        0.9286024700850248,
        45.5575052741915,
        299.4
      ],
      [
        0.9286069124937057,
        45.55752991698682,
        299.6
      ],
      [
        0.928601548075676,
        45.55761348456144,
        299.79999999999995
      ],
      [
        0.9285903163254261,
        45.55770610459149,
        300.4
      ],
      [
        0.9285800904035568,
        45.55777559056878,
        301.20000000000005
      ],
      [
        0.9285722952336073,
        45.55786577984691,
        302
      ],
      [
        0.9285781625658274,
        45.55792512372136,
        302.20000000000005
      ],
      [
        0.9285657573491335,
        45.55796267464757,
        302.20000000000005
      ],
      [
        0.9285550285130739,
        45.55805152282119,
        302.6
      ],
      [
        0.9285388514399529,
        45.55814892053604,
        302.6
      ],
      [
        0.9285670984536409,
        45.55819099768996,
        302.6
      ],
      [
        0.9285917412489653,
        45.55824757553637,
        302.4
      ],
      [
        0.9286058228462934,
        45.55826752446592,
        302.20000000000005
      ],
      [
        0.9286738839000463,
        45.558376740664244,
        302
      ],
      [
        0.9287554398179054,
        45.558483777567744,
        301.6
      ],
      [
        0.9288388397544622,
        45.558534152805805,
        301.4
      ],
      [
        0.92886071652174,
        45.55855443701148,
        301.20000000000005
      ],
      [
        0.9288825932890177,
        45.558582013472915,
        301.20000000000005
      ],
      [
        0.9289687592536211,
        45.55869039148092,
        301
      ],
      [
        0.9289698489010334,
        45.55875577032566,
        301
      ],
      [
        0.9289373271167278,
        45.55883741006255,
        301
      ],
      [
        0.9288250096142292,
        45.558866914361715,
        301.6
      ],
      [
        0.9286088403314352,
        45.55892592296004,
        301.4
      ],
      [
        0.9284229297190905,
        45.55894109420478,
        301.20000000000005
      ],
      [
        0.9282108675688505,
        45.55894629098475,
        301.20000000000005
      ],
      [
        0.9280521981418133,
        45.5589540861547,
        301.4
      ],
      [
        0.9279011562466621,
        45.558951403945684,
        301.4
      ],
      [
        0.9277108870446682,
        45.55894788354635,
        301.20000000000005
      ],
      [
        0.9275326877832413,
        45.558951990678906,
        301
      ],
      [
        0.9273705817759037,
        45.55894788354635,
        300.79999999999995
      ],
      [
        0.9272176958620548,
        45.558946039527655,
        300.79999999999995
      ],
      [
        0.9270519856363535,
        45.5589369032532,
        301
      ],
      [
        0.9268802404403687,
        45.55893883109093,
        301
      ],
      [
        0.9267308749258518,
        45.55893396958709,
        301
      ],
      [
        0.9265670087188482,
        45.55892332457006,
        301
      ],
      [
        0.9265012107789516,
        45.55892047472298,
        300.79999999999995
      ],
      [
        0.9264369215816259,
        45.55892039090395,
        300.79999999999995
      ],
      [
        0.9262590575963259,
        45.55892776697874,
        301.6
      ],
      [
        0.9261753223836422,
        45.55893556214869,
        302.20000000000005
      ],
      [
        0.9261107817292213,
        45.55893296375871,
        302.79999999999995
      ],
      [
        0.926007516682148,
        45.55890345945954,
        303.4
      ],
      [
        0.925972480326891,
        45.55888074450195,
        303.79999999999995
      ],
      [
        0.9258977137506008,
        45.55878787301481,
        303.79999999999995
      ],
      [
        0.9259001445025206,
        45.55876306258142,
        303.79999999999995
      ],
      [
        0.92588203959167,
        45.55870631709695,
        303.4
      ],
      [
        0.9258213546127081,
        45.55858503095806,
        302.20000000000005
      ],
      [
        0.925794867798686,
        45.55853666737676,
        300.79999999999995
      ],
      [
        0.925780450925231,
        45.55847086943686,
        300.4
      ],
      [
        0.9257532935589552,
        45.558363078162074,
        299.79999999999995
      ],
      [
        0.9257688838988543,
        45.55826257914305,
        300
      ],
      [
        0.925818420946598,
        45.55809787474573,
        300.20000000000005
      ],
      [
        0.9258649405092001,
        45.557936523109674,
        300
      ],
      [
        0.9258941933512688,
        45.557843651622534,
        299.79999999999995
      ],
      [
        0.9258901700377464,
        45.55781171657145,
        299.6
      ],
      [
        0.9259532857686281,
        45.557666877284646,
        299.6
      ],
      [
        0.9260361827909946,
        45.55752530694008,
        300
      ],
      [
        0.9260994661599398,
        45.5573998298496,
        300.20000000000005
      ],
      [
        0.9261177387088537,
        45.5572840757668,
        300.20000000000005
      ],
      [
        0.9261219296604395,
        45.55715071968734,
        300.20000000000005
      ],
      [
        0.9261120390146971,
        45.55702658370137,
        300.6
      ],
      [
        0.9261274617165327,
        45.55690512992442,
        300.79999999999995
      ],
      [
        0.926142381504178,
        45.55678769946098,
        301.20000000000005
      ],
      [
        0.926150931045413,
        45.556642692536116,
        301.4
      ],
      [
        0.9261548705399036,
        45.55652308277786,
        301.20000000000005
      ],
      [
        0.9261282160878181,
        45.5564190633595,
        300.6
      ],
      [
        0.9260786790400743,
        45.55638872087002,
        300.4
      ],
      [
        0.9259843826293945,
        45.55638000369072,
        300
      ],
      [
        0.9259059280157089,
        45.556385619565845,
        299.79999999999995
      ],
      [
        0.9257806185632944,
        45.55639676749706,
        299.79999999999995
      ],
      [
        0.9256319236010313,
        45.55643951520324,
        300
      ],
      [
        0.9254837315529585,
        45.556465750560164,
        300.20000000000005
      ],
      [
        0.925313076004386,
        45.55649257265031,
        300.4
      ],
      [
        0.9251502156257629,
        45.556541522964835,
        300
      ],
      [
        0.9250704199075699,
        45.55654210969806,
        300
      ],
      [
        0.9249765425920486,
        45.55656407028437,
        300
      ],
      [
        0.9248199686408043,
        45.55660740472376,
        299.79999999999995
      ],
      [
        0.9246120136231184,
        45.55662525817752,
        299.6
      ],
      [
        0.9244557749480009,
        45.55661151185632,
        300
      ],
      [
        0.9244229178875685,
        45.55659156292677,
        300.20000000000005
      ],
      [
        0.9243621490895748,
        45.5565467197448,
        300.4
      ],
      [
        0.9243356622755527,
        45.55650271475315,
        300.4
      ],
      [
        0.9243168868124485,
        45.55642199702561,
        300.6
      ],
      [
        0.9243173059076071,
        45.556386122480035,
        301
      ],
      [
        0.924331471323967,
        45.55629895068705,
        301.20000000000005
      ],
      [
        0.9243765659630299,
        45.556197948753834,
        301.20000000000005
      ],
      [
        0.9243827685713768,
        45.55609652772546,
        301
      ],
      [
        0.9243589639663696,
        45.55603701621294,
        300.6
      ],
      [
        0.9243363328278065,
        45.55598312057555,
        300.6
      ],
      [
        0.9243045654147863,
        45.55586761794984,
        300.79999999999995
      ],
      [
        0.9243225865066051,
        45.55584733374417,
        300.79999999999995
      ],
      [
        0.9243820142000914,
        45.555804669857025,
        300.79999999999995
      ],
      [
        0.9245125204324722,
        45.55574683472514,
        300.79999999999995
      ],
      [
        0.9246563538908958,
        45.555728394538164,
        300.79999999999995
      ],
      [
        0.924801779910922,
        45.55563644506037,
        300.6
      ],
      [
        0.9250011015683413,
        45.555489510297775,
        300.79999999999995
      ],
      [
        0.9251275844871998,
        45.55538163520396,
        300.4
      ],
      [
        0.9252689871937037,
        45.55529446341097,
        300.6
      ],
      [
        0.9254305902868509,
        45.55515993386507,
        300.6
      ],
      [
        0.9255358669906855,
        45.55506664328277,
        301.20000000000005
      ],
      [
        0.92568414285779,
        45.55495843291283,
        301.6
      ],
      [
        0.9258618392050266,
        45.554844522848725,
        301.79999999999995
      ],
      [
        0.9260335844010115,
        45.55473539046943,
        301.6
      ],
      [
        0.9260933473706245,
        45.55465173907578,
        301.20000000000005
      ],
      [
        0.9261057525873184,
        45.554624581709504,
        301.20000000000005
      ],
      [
        0.9261170681566,
        45.554493740200996,
        301
      ],
      [
        0.9261196665465832,
        45.554470773786306,
        301
      ],
      [
        0.926077589392662,
        45.55434747599065,
        301
      ],
      [
        0.9260662738233805,
        45.554328951984644,
        301
      ],
      [
        0.9259749948978424,
        45.55420188233256,
        301
      ],
      [
        0.9258941933512688,
        45.554108088836074,
        300.79999999999995
      ],
      [
        0.9258127212524414,
        45.55396760813892,
        300.6
      ],
      [
        0.9256957937031984,
        45.553843304514885,
        300.6
      ],
      [
        0.925604933872819,
        45.55371221154928,
        300.4
      ],
      [
        0.925432350486517,
        45.55360106751323,
        300.4
      ],
      [
        0.925281560048461,
        45.55352982133627,
        300.4
      ],
      [
        0.9251221362501383,
        45.55347609333694,
        300.79999999999995
      ],
      [
        0.9249258320778608,
        45.55341063067317,
        300.79999999999995
      ],
      [
        0.9247563499957323,
        45.55338967591524,
        300.6
      ],
      [
        0.9245910588651896,
        45.55342622101307,
        300.4
      ],
      [
        0.924410093575716,
        45.553484642878175,
        300.79999999999995
      ],
      [
        0.9242607280611992,
        45.55353585630655,
        301.4
      ],
      [
        0.9240748174488544,
        45.55362856015563,
        302
      ],
      [
        0.9240362606942654,
        45.55364607833326,
        302
      ],
      [
        0.9239210933446884,
        45.55369603447616,
        302.20000000000005
      ],
      [
        0.9238397050648928,
        45.55370039306581,
        302.20000000000005
      ],
      [
        0.923774242401123,
        45.553695699200034,
        302.20000000000005
      ],
      [
        0.9236673731356859,
        45.55366753600538,
        302.20000000000005
      ],
      [
        0.9236294031143188,
        45.55364306084812,
        302
      ],
      [
        0.9235106315463781,
        45.553538370877504,
        301.79999999999995
      ],
      [
        0.9234476834535599,
        45.55342521518469,
        301.4
      ],
      [
        0.9234573226422071,
        45.55333083495498,
        301.20000000000005
      ],
      [
        0.9234201908111572,
        45.55321030318737,
        301
      ],
      [
        0.9233985655009747,
        45.55310972034931,
        301
      ],
      [
        0.9233774431049824,
        45.55300947278738,
        301.4
      ],
      [
        0.9233442507684231,
        45.55290134623647,
        301.6
      ],
      [
        0.9232684783637524,
        45.55276405066252,
        301.79999999999995
      ],
      [
        0.9231979865580797,
        45.552620720118284,
        301.6
      ],
      [
        0.9231538139283657,
        45.552499601617455,
        301.4
      ],
      [
        0.9231143351644278,
        45.5523937381804,
        301.4
      ],
      [
        0.9230463579297066,
        45.55230078287423,
        301.4
      ],
      [
        0.9229289274662733,
        45.55219751782715,
        301.4
      ],
      [
        0.9228030312806368,
        45.55210833437741,
        301.6
      ],
      [
        0.9226806554943323,
        45.55202451534569,
        301.6
      ],
      [
        0.9225437790155411,
        45.551947904750705,
        301.6
      ],
      [
        0.9224132727831602,
        45.55188478901982,
        301.4
      ],
      [
        0.9223390091210604,
        45.55186903104186,
        301.20000000000005
      ],
      [
        0.9222749713808298,
        45.55187623947859,
        301.20000000000005
      ],
      [
        0.9221590496599674,
        45.551933739334345,
        301
      ],
      [
        0.9220537729561329,
        45.55200825445354,
        300.79999999999995
      ],
      [
        0.9219404496252537,
        45.55210598744452,
        300.79999999999995
      ],
      [
        0.9218438901007175,
        45.552199529483914,
        300.6
      ],
      [
        0.9216902498155832,
        45.55230421945453,
        300.4
      ],
      [
        0.9215791057795286,
        45.55238544009626,
        300.20000000000005
      ],
      [
        0.9214121382683516,
        45.55243296548724,
        300.20000000000005
      ],
      [
        0.9212332684546709,
        45.55246422998607,
        300.20000000000005
      ],
      [
        0.9210728388279676,
        45.55248434655368,
        300.20000000000005
      ],
      [
        0.9208923764526844,
        45.552507815882564,
        300.20000000000005
      ],
      [
        0.9207819029688835,
        45.55253396742046,
        300.4
      ],
      [
        0.9206078108400106,
        45.55255911312997,
        300.4
      ],
      [
        0.920485770329833,
        45.55259356275201,
        300.4
      ],
      [
        0.9202788211405277,
        45.552569925785065,
        300.4
      ],
      [
        0.920248981565237,
        45.552546037361026,
        300.4
      ],
      [
        0.9202178008854389,
        45.5524886213243,
        300.20000000000005
      ],
      [
        0.9202531725168228,
        45.552443861961365,
        300.20000000000005
      ],
      [
        0.9202680923044682,
        45.55238510482013,
        300.4
      ],
      [
        0.9202869515866041,
        45.55235174484551,
        300.4
      ],
      [
        0.9203198086470366,
        45.55228586308658,
        300.4
      ],
      [
        0.9202691819518805,
        45.55218511261046,
        300.4
      ],
      [
        0.9202457964420319,
        45.55216130800545,
        300.20000000000005
      ],
      [
        0.9202178847044706,
        45.552121829241514,
        300.20000000000005
      ],
      [
        0.9201827645301819,
        45.55208411067724,
        300.20000000000005
      ],
      [
        0.9201351553201675,
        45.55203365162015,
        300.20000000000005
      ],
      [
        0.9201147872954607,
        45.55200976319611,
        300
      ],
      [
        0.920094670727849,
        45.55195402354002,
        299.79999999999995
      ],
      [
        0.9201451297849417,
        45.5518791731447,
        299.79999999999995
      ],
      [
        0.9202623087912798,
        45.551794935017824,
        299.4
      ],
      [
        0.9203919768333435,
        45.55167457088828,
        299.79999999999995
      ],
      [
        0.9204461239278316,
        45.551580525934696,
        300.6
      ],
      [
        0.9204831719398499,
        45.55149771273136,
        300.79999999999995
      ],
      [
        0.9204992651939392,
        45.55135454982519,
        300.6
      ],
      [
        0.9204664919525385,
        45.551258912310004,
        300.4
      ],
      [
        0.9204500634223223,
        45.551243741065264,
        300.4
      ],
      [
        0.9203614667057991,
        45.55117316544056,
        300.20000000000005
      ],
      [
        0.9202949982136488,
        45.55112471804023,
        300.20000000000005
      ],
      [
        0.9202616382390261,
        45.5511071998626,
        300
      ],
      [
        0.9201630670577288,
        45.55106084793806,
        300
      ],
      [
        0.9201025497168303,
        45.551044838503,
        300
      ],
      [
        0.919972462579608,
        45.551030337810516,
        300.20000000000005
      ],
      [
        0.9197744820266962,
        45.551016088575125,
        300.6
      ],
      [
        0.9195927623659372,
        45.550991613417864,
        300.79999999999995
      ],
      [
        0.9195239469408989,
        45.55098759010434,
        301
      ],
      [
        0.9194058459252119,
        45.55097141303122,
        301
      ],
      [
        0.9191643632948399,
        45.550928581506014,
        300.6
      ],
      [
        0.9189782850444317,
        45.55082724429667,
        300.20000000000005
      ],
      [
        0.9188314341008663,
        45.55072498507798,
        300.20000000000005
      ],
      [
        0.9186867624521255,
        45.550635466352105,
        300.79999999999995
      ],
      [
        0.9185282606631517,
        45.550536811351776,
        302
      ],
      [
        0.918496074154973,
        45.55051585659385,
        302.20000000000005
      ],
      [
        0.918474281206727,
        45.55045492015779,
        302.6
      ],
      [
        0.9184642229229212,
        45.55041971616447,
        302.6
      ],
      [
        0.9185693319886923,
        45.55029608309269,
        302.6
      ],
      [
        0.9186452720314264,
        45.55019801482558,
        302.6
      ],
      [
        0.9187567513436079,
        45.55007086135447,
        302.4
      ],
      [
        0.9188387263566256,
        45.549987964332104,
        302.4
      ],
      [
        0.9189886786043644,
        45.549823427572846,
        302.4
      ],
      [
        0.9190898481756449,
        45.549720246344805,
        302.79999999999995
      ],
      [
        0.919156651943922,
        45.54964958690107,
        302.4
      ]
    ]
  }
}
