{
  "type": "Feature",
  "properties": {
    "id": "intervals-178050634",
    "activity": "walking",
    "name": "Test walk",
    "date": "2014-07-20T12:00:33Z",
    "distanceKm": 2.17,
    "movingTimeSeconds": 1393,
    "elapsedTimeSeconds": 19891,
    "ascentM": 22,
    "descentM": 251,
    "providers": [
      "Garmin"
    ]
  },
  "geometry": {
    "type": "LineString",
    "coordinates": [
      [
        -0.04541868343949318,
        51.51620878838003,
        19
      ],
      [
        -0.04541776143014431,
        51.51615866459906,
        19
      ],
      [
        -0.04543192684650421,
        51.51603293605149,
        19
      ],
      [
        -0.04539462737739086,
        51.51578675955534,
        20
      ],
      [
        -0.04551088437438011,
        51.51576429605484,
        20.600000000000023
      ],
      [
        -0.04548456519842148,
        51.51565524749458,
        20.799999999999955
      ],
      [
        -0.045472243800759315,
        51.51563437655568,
        21
      ],
      [
        -0.04546503536403179,
        51.515629934147,
        21.200000000000045
      ],
      [
        -0.04543829709291458,
        51.515538319945335,
        21.799999999999955
      ],
      [
        -0.045434776693582535,
        51.51551426388323,
        22.200000000000045
      ],
      [
        -0.045437877997756004,
        51.51543891057372,
        22.600000000000023
      ],
      [
        -0.04544475115835667,
        51.515349727123976,
        22.799999999999955
      ],
      [
        -0.04543754272162914,
        51.51533707045019,
        23
      ],
      [
        -0.045444248244166374,
        51.51522961445153,
        23
      ],
      [
        -0.045435111969709396,
        51.51519105769694,
        23
      ],
      [
        -0.04542957991361618,
        51.515121487900615,
        23.200000000000045
      ],
      [
        -0.04515029489994049,
        51.51487799361348,
        23.200000000000045
      ],
      [
        -0.04508642479777336,
        51.51488377712667,
        23.200000000000045
      ],
      [
        -0.045039402320981026,
        51.514888890087605,
        23.200000000000045
      ],
      [
        -0.044966982677578926,
        51.51489861309528,
        23.200000000000045
      ],
      [
        -0.0447659008204937,
        51.51488084346056,
        23.200000000000045
      ],
      [
        -0.04457009956240654,
        51.51487237773836,
        23.200000000000045
      ],
      [
        -0.044475384056568146,
        51.514860140159726,
        23.200000000000045
      ],
      [
        -0.044384775683283806,
        51.51487019844353,
        23.200000000000045
      ],
      [
        -0.04429752007126808,
        51.514859134331346,
        23.200000000000045
      ],
      [
        -0.044243959710001945,
        51.51484094560146,
        23.200000000000045
      ],
      [
        -0.044001974165439606,
        51.51482476852834,
        23.200000000000045
      ],
      [
        -0.04382704384624958,
        51.51480699889362,
        23.200000000000045
      ],
      [
        -0.043655214831233025,
        51.514759473502636,
        23.200000000000045
      ],
      [
        -0.04352906718850136,
        51.51471823453903,
        23.200000000000045
      ],
      [
        -0.043422868475317955,
        51.514712534844875,
        23.200000000000045
      ],
      [
        -0.0432434119284153,
        51.51471270248294,
        23.200000000000045
      ],
      [
        -0.043101171031594276,
        51.51470750570297,
        23.200000000000045
      ],
      [
        -0.04307493567466736,
        51.51470063254237,
        23.200000000000045
      ],
      [
        -0.042981142178177834,
        51.514732064679265,
        23
      ],
      [
        -0.04286454990506172,
        51.51474388316274,
        22
      ],
      [
        -0.04285206086933613,
        51.51474120095372,
        22
      ],
      [
        -0.042839907109737396,
        51.5146161429584,
        20
      ],
      [
        -0.042805373668670654,
        51.51447247713804,
        19.399999999999977
      ],
      [
        -0.04278156906366348,
        51.5143605787307,
        19.200000000000045
      ],
      [
        -0.04278198815882206,
        51.51427064090967,
        19
      ],
      [
        -0.04276773892343044,
        51.51417575776577,
        19
      ],
      [
        -0.04275449551641941,
        51.51407559402287,
        19
      ],
      [
        -0.042742425575852394,
        51.5139168407768,
        18.799999999999955
      ],
      [
        -0.042738569900393486,
        51.513749454170465,
        18.799999999999955
      ],
      [
        -0.04273303784430027,
        51.51361718773842,
        18.799999999999955
      ],
      [
        -0.04273261874914169,
        51.51359220966697,
        18.799999999999955
      ],
      [
        -0.042735468596220016,
        51.513537308201194,
        18.799999999999955
      ],
      [
        -0.04275198094546795,
        51.51345734484494,
        18.799999999999955
      ],
      [
        -0.04276162013411522,
        51.513324324041605,
        18.799999999999955
      ],
      [
        -0.04276237450540066,
        51.51329624466598,
        18.799999999999955
      ],
      [
        -0.042813001200556755,
        51.5132590290159,
        18.799999999999955
      ],
      [
        -0.04282456822693348,
        51.51324595324695,
        18.799999999999955
      ],
      [
        -0.04283051937818527,
        51.513239331543446,
        18.799999999999955
      ],
      [
        -0.042819706723093987,
        51.51321074925363,
        18.799999999999955
      ],
      [
        -0.04279816523194313,
        51.51319105178118,
        18.799999999999955
      ],
      [
        -0.04272507503628731,
        51.51316196657717,
        18
      ],
      [
        -0.0426994264125824,
        51.51314922608435,
        18
      ],
      [
        -0.042593227699398994,
        51.51312466710806,
        17.399999999999977
      ],
      [
        -0.042357947677373886,
        51.513076638802886,
        17
      ],
      [
        -0.04219827242195606,
        51.5130449552089,
        16
      ],
      [
        -0.042061060667037964,
        51.51300589554012,
        15.399999999999977
      ],
      [
        -0.041892752051353455,
        51.51296834461391,
        15.200000000000045
      ],
      [
        -0.04172377288341522,
        51.51293716393411,
        15
      ],
      [
        -0.04156057722866535,
        51.51288527995348,
        14.799999999999955
      ],
      [
        -0.04154582507908344,
        51.51287832297385,
        14.799999999999955
      ],
      [
        -0.04144465550780296,
        51.51283951476216,
        14.799999999999955
      ],
      [
        -0.04138262942433357,
        51.51278897188604,
        14.799999999999955
      ],
      [
        -0.04135027527809143,
        51.51275007985532,
        14.799999999999955
      ],
      [
        -0.04134834744036198,
        51.51274245232344,
        14.799999999999955
      ],
      [
        -0.04138086922466755,
        51.51271755807102,
        14.799999999999955
      ],
      [
        -0.04136469215154648,
        51.512709176167846,
        14.799999999999955
      ],
      [
        -0.04132320173084736,
        51.51262586005032,
        14.799999999999955
      ],
      [
        -0.04132202826440334,
        51.512612449005246,
        14.600000000000023
      ],
      [
        -0.04131842404603958,
        51.51258286088705,
        14.200000000000045
      ],
      [
        -0.04136335104703903,
        51.51252309791744,
        13.600000000000023
      ],
      [
        -0.04139889031648636,
        51.512500969693065,
        13.399999999999977
      ],
      [
        -0.04144138656556606,
        51.512386640533805,
        13.200000000000045
      ],
      [
        -0.04150525666773319,
        51.51234447956085,
        13
      ],
      [
        -0.04152973182499409,
        51.51231162250042,
        12.799999999999955
      ],
      [
        -0.04153165966272354,
        51.51228186674416,
        12.799999999999955
      ],
      [
        -0.041579604148864746,
        51.51212202385068,
        12.799999999999955
      ],
      [
        -0.04158823750913143,
        51.51211456395686,
        12.799999999999955
      ],
      [
        -0.041595613583922386,
        51.512099392712116,
        12.799999999999955
      ],
      [
        -0.04165017977356911,
        51.51199017651379,
        11.800000000000011
      ],
      [
        -0.041660238057374954,
        51.51197701692581,
        11.600000000000023
      ],
      [
        -0.04168672487139702,
        51.51194826699793,
        11.399999999999977
      ],
      [
        -0.04174397327005863,
        51.51188523508608,
        11
      ],
      [
        -0.04177657887339592,
        51.511854473501444,
        10.399999999999977
      ],
      [
        -0.04181044176220894,
        51.51177425868809,
        9.600000000000023
      ],
      [
        -0.04185444675385952,
        51.51171617209911,
        9.199999999999989
      ],
      [
        -0.041931476444005966,
        51.51161190122366,
        9
      ],
      [
        -0.04194069653749466,
        51.511552054435015,
        8.800000000000011
      ],
      [
        -0.04196198657155037,
        51.51147946715355,
        8.600000000000023
      ],
      [
        -0.04198629409074783,
        51.51144300587475,
        8.600000000000023
      ],
      [
        -0.04203088581562042,
        51.51137787848711,
        8.600000000000023
      ],
      [
        -0.04202493466436863,
        51.51135943830013,
        8.600000000000023
      ],
      [
        -0.04206365905702114,
        51.51125273667276,
        9.600000000000023
      ],
      [
        -0.04206516779959202,
        51.51124334894121,
        9.600000000000023
      ],
      [
        -0.0420269463211298,
        51.5112108271569,
        10.600000000000023
      ],
      [
        -0.04197003319859505,
        51.511182244867086,
        11.199999999999989
      ],
      [
        -0.041854530572891235,
        51.51117134839296,
        12
      ],
      [
        -0.041763754561543465,
        51.511167576536536,
        13
      ],
      [
        -0.041653113439679146,
        51.51116807945073,
        13.799999999999955
      ],
      [
        -0.0416376069188118,
        51.511179730296135,
        13.799999999999955
      ],
      [
        -0.0415466632694006,
        51.511203702539206,
        14.200000000000045
      ],
      [
        -0.04152755253016949,
        51.51120864786208,
        14.200000000000045
      ],
      [
        -0.04148907959461212,
        51.51121568866074,
        14.399999999999977
      ],
      [
        -0.04142923280596733,
        51.5112264174968,
        14.399999999999977
      ],
      [
        -0.0413381215184927,
        51.51123899035156,
        14.600000000000023
      ],
      [
        -0.04128045402467251,
        51.51126396842301,
        14.600000000000023
      ],
      [
        -0.041197389364242554,
        51.511290622875094,
        14.799999999999955
      ],
      [
        -0.041078366339206696,
        51.51132113300264,
        14.799999999999955
      ],
      [
        -0.04087929613888264,
        51.51132272556424,
        14.799999999999955
      ],
      [
        -0.0407587643712759,
        51.51130520738661,
        14.799999999999955
      ],
      [
        -0.04067360423505306,
        51.51127863675356,
        14.799999999999955
      ],
      [
        -0.040636640042066574,
        51.51126405224204,
        14.799999999999955
      ],
      [
        -0.04062557592988014,
        51.511256927624345,
        14.799999999999955
      ],
      [
        -0.0405616220086813,
        51.5112436003983,
        14.799999999999955
      ],
      [
        -0.0404047966003418,
        51.511239325627685,
        14.799999999999955
      ],
      [
        -0.04037084989249706,
        51.51122742332518,
        14.799999999999955
      ],
      [
        -0.04031762480735779,
        51.511163134127855,
        14.799999999999955
      ],
      [
        -0.04023238085210323,
        51.51110261678696,
        14.799999999999955
      ],
      [
        -0.04017362371087074,
        51.511054588481784,
        14.799999999999955
      ],
      [
        -0.04006784409284592,
        51.51102500036359,
        14.799999999999955
      ],
      [
        -0.03989987075328827,
        51.51096012443304,
        13.600000000000023
      ],
      [
        -0.03978881053626537,
        51.510895416140556,
        12.799999999999955
      ],
      [
        -0.03972644917666912,
        51.5108395088464,
        12
      ],
      [
        -0.03971186466515064,
        51.510825427249074,
        11.800000000000011
      ],
      [
        -0.03964380361139774,
        51.51079106144607,
        11.600000000000023
      ],
      [
        -0.039551351219415665,
        51.51074764318764,
        11.199999999999989
      ],
      [
        -0.039528971537947655,
        51.5107359085232,
        11
      ],
      [
        -0.03943861462175846,
        51.510725347325206,
        10.399999999999977
      ],
      [
        -0.03937290050089359,
        51.51070598512888,
        9.800000000000011
      ],
      [
        -0.039327386766672134,
        51.510705314576626,
        9.600000000000023
      ],
      [
        -0.03917969763278961,
        51.510668601840734,
        9
      ],
      [
        -0.03915371373295784,
        51.51066927239299,
        9
      ],
      [
        -0.03909529186785221,
        51.51066365651786,
        8.800000000000011
      ],
      [
        -0.038929497823119164,
        51.51063088327646,
        8.600000000000023
      ],
      [
        -0.038902340456843376,
        51.510626105591655,
        8.600000000000023
      ],
      [
        -0.03880854696035385,
        51.51060816831887,
        8.600000000000023
      ],
      [
        -0.03868851810693741,
        51.510607078671455,
        8.600000000000023
      ],
      [
        -0.03866337239742279,
        51.510603139176965,
        8.600000000000023
      ],
      [
        -0.03863805904984474,
        51.51059811003506,
        8.600000000000023
      ],
      [
        -0.038428762927651405,
        51.510611940175295,
        8.600000000000023
      ],
      [
        -0.03837721422314644,
        51.51060531847179,
        8.600000000000023
      ],
      [
        -0.03825383260846138,
        51.51059785857797,
        8.600000000000023
      ],
      [
        -0.038229525089263916,
        51.51059559546411,
        8.600000000000023
      ],
      [
        -0.038170432671904564,
        51.51060238480568,
        8.600000000000023
      ],
      [
        -0.03811863251030445,
        51.51062635704875,
        8.600000000000023
      ],
      [
        -0.03793775103986263,
        51.51057262904942,
        8.399999999999977
      ],
      [
        -0.03791704773902893,
        51.51057313196361,
        8.399999999999977
      ],
      [
        -0.03786994144320488,
        51.510548489168286,
        8.399999999999977
      ],
      [
        -0.03786834888160229,
        51.51053306646645,
        8.399999999999977
      ],
      [
        -0.0378717016428709,
        51.51047497987747,
        8.399999999999977
      ],
      [
        -0.03789098002016544,
        51.5104319807142,
        8.399999999999977
      ],
      [
        -0.03791738301515579,
        51.51034992188215,
        8.399999999999977
      ],
      [
        -0.03792635165154934,
        51.51025210507214,
        8.399999999999977
      ],
      [
        -0.0379343144595623,
        51.51015537790954,
        8.399999999999977
      ],
      [
        -0.03793121315538883,
        51.51013190858066,
        8.399999999999977
      ],
      [
        -0.037910593673586845,
        51.51009050197899,
        8.399999999999977
      ],
      [
        -0.037927357479929924,
        51.50996871292591,
        9
      ],
      [
        -0.037940097972750664,
        51.50992680341005,
        9.399999999999977
      ],
      [
        -0.03790833055973053,
        51.509899059310555,
        10
      ],
      [
        -0.037821829319000244,
        51.50986125692725,
        11.199999999999989
      ],
      [
        -0.03779374994337559,
        51.50985589250922,
        11.399999999999977
      ],
      [
        -0.037541454657912254,
        51.509833512827754,
        12.200000000000045
      ],
      [
        -0.037394603714346886,
        51.50982311926782,
        12.600000000000023
      ],
      [
        -0.03737230785191059,
        51.509817503392696,
        12.600000000000023
      ],
      [
        -0.03728731535375118,
        51.509803757071495,
        12.600000000000023
      ],
      [
        -0.03716049715876579,
        51.50979964993894,
        12.799999999999955
      ],
      [
        -0.03706553019583225,
        51.50980258360505,
        12.799999999999955
      ],
      [
        -0.03692789934575558,
        51.50980073958635,
        12.799999999999955
      ],
      [
        -0.03683930262923241,
        51.50978917255998,
        12.799999999999955
      ],
      [
        -0.0367662962526083,
        51.509768553078175,
        12.799999999999955
      ],
      [
        -0.03664492629468441,
        51.509724631905556,
        12.799999999999955
      ],
      [
        -0.036561693996191025,
        51.50969051755965,
        12.799999999999955
      ],
      [
        -0.03639707341790199,
        51.509632682427764,
        12.799999999999955
      ],
      [
        -0.03631828352808952,
        51.509621534496546,
        13.399999999999977
      ],
      [
        -0.036208732053637505,
        51.5095947124064,
        14
      ],
      [
        -0.03615626133978367,
        51.50958079844713,
        14.200000000000045
      ],
      [
        -0.03608711063861847,
        51.50956654921174,
        14.399999999999977
      ],
      [
        -0.0359664112329483,
        51.509539391845465,
        14.600000000000023
      ],
      [
        -0.03594989888370037,
        51.509533608332276,
        14.600000000000023
      ],
      [
        -0.03587580285966396,
        51.509496895596385,
        14.600000000000023
      ],
      [
        -0.035841772332787514,
        51.50947091169655,
        14.600000000000023
      ],
      [
        -0.03569961525499821,
        51.50938658975065,
        14.399999999999977
      ],
      [
        -0.03564773127436638,
        51.50935892947018,
        14
      ],
      [
        -0.03554848954081535,
        51.50936705991626,
        13.600000000000023
      ],
      [
        -0.035423850640654564,
        51.509352307766676,
        12.399999999999977
      ],
      [
        -0.0353995431214571,
        51.50934325531125,
        12.200000000000045
      ],
      [
        -0.035293176770210266,
        51.5093148406595,
        11
      ],
      [
        -0.13328583911061287,
        51.519295424222946,
        234.79999999999995
      ],
      [
        -0.13354316353797913,
        51.51958476752043,
        220.79999999999995
      ],
      [
        -0.1336329337209463,
        51.51964243501425,
        208.39999999999998
      ],
      [
        -0.1336889248341322,
        51.519710496068,
        197.39999999999998
      ],
      [
        -0.13371256180107594,
        51.51972122490406,
        195.20000000000005
      ],
      [
        -0.13378950767219067,
        51.51977679692209,
        183.79999999999995
      ],
      [
        -0.1338337641209364,
        51.51980973780155,
        176.79999999999995
      ],
      [
        -0.13389386236667633,
        51.519915433600545,
        163.39999999999998
      ],
      [
        -0.13394742272794247,
        51.52000864036381,
        152.20000000000005
      ],
      [
        -0.1339949481189251,
        51.52008977718651,
        141.79999999999995
      ],
      [
        -0.1340151485055685,
        51.52012246660888,
        134.60000000000002
      ],
      [
        -0.13402151875197887,
        51.5201320219785,
        132.79999999999995
      ],
      [
        -0.13406979851424694,
        51.52017259038985,
        126
      ],
      [
        -0.13409662060439587,
        51.52019899338484,
        123.79999999999995
      ],
      [
        -0.1341479178518057,
        51.5202253125608,
        120.79999999999995
      ],
      [
        -0.134280351921916,
        51.520321536809206,
        114
      ],
      [
        -0.13429032638669014,
        51.52033478021622,
        113.39999999999998
      ],
      [
        -0.1343467365950346,
        51.52039806358516,
        111.20000000000005
      ],
      [
        -0.13439929112792015,
        51.52044533751905,
        109.79999999999995
      ],
      [
        -0.13443566858768463,
        51.520469561219215,
        108.60000000000002
      ],
      [
        -0.1344987004995346,
        51.520510548725724,
        105.79999999999995
      ],
      [
        -0.1345297135412693,
        51.52056469582021,
        104.20000000000005
      ],
      [
        -0.13453315012156963,
        51.52062613517046,
        103.39999999999998
      ],
      [
        -0.13460297137498856,
        51.52072663418949,
        102
      ],
      [
        -0.13460942544043064,
        51.52074230834842,
        101.60000000000002
      ],
      [
        -0.134614035487175,
        51.5207882411778,
        101
      ],
      [
        -0.13475216925144196,
        51.520908856764436,
        99
      ],
      [
        -0.056492770090699196,
        51.519139520823956,
        23
      ],
      [
        -0.0563201867043972,
        51.519162906333804,
        23
      ],
      [
        -0.05628540180623531,
        51.51917262934148,
        23
      ],
      [
        -0.05618741735816002,
        51.519192326813936,
        23
      ],
      [
        -0.056167636066675186,
        51.51919442228973,
        23
      ],
      [
        -0.05611902102828026,
        51.51920515112579,
        23
      ],
      [
        -0.05609538406133652,
        51.51921805925667,
        23
      ],
      [
        -0.05600594915449619,
        51.51925250887871,
        23
      ],
      [
        -0.05596739239990711,
        51.51926583610475,
        23
      ],
      [
        -0.05588424392044544,
        51.51925561018288,
        23.600000000000023
      ],
      [
        -0.05582079291343689,
        51.51920615695417,
        24.200000000000045
      ],
      [
        -0.05579640157520771,
        51.519125271588564,
        24.600000000000023
      ],
      [
        -0.05577888339757919,
        51.519028041511774,
        24.799999999999955
      ],
      [
        -0.05575784482061863,
        51.51895855553448,
        25
      ],
      [
        -0.05575692281126976,
        51.51894782669842,
        24.799999999999955
      ],
      [
        -0.05576731637120247,
        51.51886903680861,
        24
      ],
      [
        -0.055794473737478256,
        51.5188333299011,
        22.600000000000023
      ],
      [
        -0.055746277794241905,
        51.518811620771885,
        22.200000000000045
      ],
      [
        -0.05571048706769943,
        51.51872863993049,
        21.799999999999955
      ],
      [
        -0.05568726919591427,
        51.5186863951385,
        21.399999999999977
      ],
      [
        -0.055680060759186745,
        51.51865345425904,
        21.200000000000045
      ],
      [
        -0.05563261918723583,
        51.51857390999794,
        21.200000000000045
      ],
      [
        -0.05555802024900913,
        51.518471566960216,
        21
      ],
      [
        -0.055552320554852486,
        51.5184620115906,
        21
      ],
      [
        -0.055503202602267265,
        51.51839227415621,
        21
      ],
      [
        -0.05540085956454277,
        51.51832463219762,
        21
      ],
      [
        -0.055308910086750984,
        51.51823142543435,
        22
      ],
      [
        -0.05526222288608551,
        51.51812790893018,
        22.600000000000023
      ],
      [
        -0.05525861866772175,
        51.5181131567806,
        22.600000000000023
      ],
      [
        -0.05522056482732296,
        51.518013663589954,
        22.799999999999955
      ],
      [
        -0.05520832724869251,
        51.5179215464741,
        23
      ],
      [
        -0.05519667640328407,
        51.51786454953253,
        23
      ],
      [
        -0.05518510937690735,
        51.51779749430716,
        23
      ],
      [
        -0.05514940246939659,
        51.51770026423037,
        24.200000000000045
      ],
      [
        -0.0551380030810833,
        51.517687775194645,
        24.200000000000045
      ],
      [
        -0.05501747131347656,
        51.51765768416226,
        24.600000000000023
      ],
      [
        -0.0548864621669054,
        51.517641842365265,
        25
      ],
      [
        -0.054769618436694145,
        51.5176260843873,
        25
      ],
      [
        -0.054633161053061485,
        51.51760194450617,
        25
      ],
      [
        -0.05445471033453941,
        51.517574954777956,
        25.200000000000045
      ],
      [
        -0.05428682081401348,
        51.51754888705909,
        25.200000000000045
      ],
      [
        -0.05419696681201458,
        51.51754637248814,
        25.200000000000045
      ],
      [
        -0.053995465859770775,
        51.51751443743706,
        26.399999999999977
      ],
      [
        -0.05381232127547264,
        51.51749809272587,
        28
      ],
      [
        -0.05362599156796932,
        51.517480658367276,
        29.799999999999955
      ],
      [
        -0.05353647284209728,
        51.51746280491352,
        30.399999999999977
      ],
      [
        -0.05341225303709507,
        51.51743623428047,
        30.799999999999955
      ],
      [
        -0.0532828364521265,
        51.5173982642591,
        31.200000000000045
      ],
      [
        -0.053262971341609955,
        51.51739424094558,
        31.200000000000045
      ],
      [
        -0.053126681596040726,
        51.51736951433122,
        31.200000000000045
      ],
      [
        -0.05298829637467861,
        51.51739390566945,
        31.399999999999977
      ],
      [
        -0.05290213041007519,
        51.517394660040736,
        30.799999999999955
      ],
      [
        -0.05286692641675472,
        51.517333472147584,
        30.200000000000045
      ],
      [
        -0.052861059084534645,
        51.51730204001069,
        30
      ],
      [
        -0.052775731310248375,
        51.51726432144642,
        29.799999999999955
      ],
      [
        -0.05264773964881897,
        51.51723833754659,
        28.799999999999955
      ],
      [
        -0.052583953365683556,
        51.51714890263975,
        28
      ],
      [
        -0.05253961309790611,
        51.51711453683674,
        27.399999999999977
      ],
      [
        -0.05245051346719265,
        51.51710213162005,
        26.399999999999977
      ],
      [
        -0.052410950884222984,
        51.51709877885878,
        26.200000000000045
      ],
      [
        -0.052341967821121216,
        51.51710154488683,
        25.399999999999977
      ],
      [
        -0.05216049961745739,
        51.51708888821304,
        24
      ],
      [
        -0.05201364867389202,
        51.51707522571087,
        22.799999999999955
      ],
      [
        -0.05186872556805611,
        51.51707908138633,
        21.799999999999955
      ],
      [
        -0.05172313190996647,
        51.51707882992923,
        21.399999999999977
      ],
      [
        -0.051534874364733696,
        51.51708126068115,
        21.200000000000045
      ],
      [
        -0.05140302702784538,
        51.51708838529885,
        21.600000000000023
      ],
      [
        -0.05138282664120197,
        51.517085786908865,
        21.799999999999955
      ],
      [
        -0.05122382193803787,
        51.517089726403356,
        22.600000000000023
      ],
      [
        -0.05108744837343693,
        51.51708494871855,
        23.799999999999955
      ],
      [
        -0.05106523633003235,
        51.51708276942372,
        24
      ],
      [
        -0.05104386247694492,
        51.51707924902439,
        24
      ],
      [
        -0.050908830016851425,
        51.517076985910535,
        25.399999999999977
      ],
      [
        -0.05082107149064541,
        51.51705318130553,
        26.200000000000045
      ],
      [
        -0.05069919861853123,
        51.51703331619501,
        26.600000000000023
      ],
      [
        -0.05063742399215698,
        51.51703138835728,
        26.799999999999955
      ],
      [
        -0.05058612674474716,
        51.51704144664109,
        27
      ],
      [
        -0.05047875456511974,
        51.51704044081271,
        27
      ],
      [
        -0.0504365935921669,
        51.51704111136496,
        27
      ],
      [
        -0.05041035823523998,
        51.517042368650436,
        27
      ],
      [
        -0.050389403477311134,
        51.51703365147114,
        27.200000000000045
      ],
      [
        -0.050384458154439926,
        51.51702837087214,
        27.200000000000045
      ]
    ]
  }
}
