{
  "type": "Feature",
  "properties": {
    "id": "intervals-178055466",
    "activity": "walking",
    "name": "Ko Samui Walking",
    "date": "2024-07-08T06:00:28Z",
    "distanceKm": 8.15,
    "movingTimeSeconds": 5574,
    "elapsedTimeSeconds": 5797,
    "ascentM": null,
    "descentM": null,
    "providers": [
      "Garmin",
      "Strava"
    ]
  },
  "geometry": {
    "type": "LineString",
    "coordinates": [
      [
        100.04743276163936,
        9.472622713074088
      ],
      [
        100.04743544384837,
        9.472634615376592
      ],
      [
        100.04743460565805,
        9.47266043163836
      ],
      [
        100.04743569530547,
        9.472668059170246
      ],
      [
        100.04743083380163,
        9.47270192205906
      ],
      [
        100.04743410274386,
        9.472714494913816
      ],
      [
        100.04745463840663,
        9.472756907343864
      ],
      [
        100.04746285267174,
        9.472834188491106
      ],
      [
        100.04747156985104,
        9.472870398312807
      ],
      [
        100.04748674109578,
        9.47291985154152
      ],
      [
        100.04749705083668,
        9.472943069413304
      ],
      [
        100.04753552377224,
        9.473023535683751
      ],
      [
        100.04755672998726,
        9.473068211227655
      ],
      [
        100.04761104471982,
        9.473135434091091
      ],
      [
        100.0476569775492,
        9.473214978352189
      ],
      [
        100.04769125953317,
        9.473305754363537
      ],
      [
        100.04774507135153,
        9.473397117108107
      ],
      [
        100.04776854068041,
        9.473437685519457
      ],
      [
        100.04779133945704,
        9.47353801690042
      ],
      [
        100.04771254956722,
        9.473588559776545
      ],
      [
        100.04770039580762,
        9.473595349118114
      ],
      [
        100.04759972915053,
        9.473650250583887
      ],
      [
        100.04755195230246,
        9.473675899207592
      ],
      [
        100.04740761592984,
        9.47376323863864
      ],
      [
        100.0472404807806,
        9.473864659667015
      ],
      [
        100.04712179303169,
        9.473980329930782
      ],
      [
        100.04698164761066,
        9.474029699340463
      ],
      [
        100.04686421714723,
        9.47407303377986
      ],
      [
        100.04684099927545,
        9.474085019901395
      ],
      [
        100.04682364873588,
        9.474092982709408
      ],
      [
        100.04680210724473,
        9.474100358784199
      ],
      [
        100.04676204174757,
        9.474118715152144
      ],
      [
        100.04674980416894,
        9.474124582484365
      ],
      [
        100.04660177975893,
        9.474174287170172
      ],
      [
        100.04658501595259,
        9.474174873903394
      ],
      [
        100.04655567929149,
        9.474194403737783
      ],
      [
        100.046456605196,
        9.474248047918081
      ],
      [
        100.04644746892154,
        9.47425240650773
      ],
      [
        100.04643581807613,
        9.474257938563824
      ],
      [
        100.04638468846679,
        9.474292555823922
      ],
      [
        100.04624554887414,
        9.474358689039946
      ],
      [
        100.04610305652022,
        9.474411914125085
      ],
      [
        100.04606190137565,
        9.474435802549124
      ],
      [
        100.04598470404744,
        9.474484333768487
      ],
      [
        100.04591756500304,
        9.474514927715063
      ],
      [
        100.04589426331222,
        9.474521968513727
      ],
      [
        100.04576107487082,
        9.474583324044943
      ],
      [
        100.04574758000672,
        9.474586341530085
      ],
      [
        100.04573475569487,
        9.474594052881002
      ],
      [
        100.04566661082208,
        9.474633699283004
      ],
      [
        100.04552721977234,
        9.474664879962802
      ],
      [
        100.04551280289888,
        9.474665550515056
      ],
      [
        100.04549997858703,
        9.474666304886341
      ],
      [
        100.04541926085949,
        9.474695390090346
      ],
      [
        100.04523594863713,
        9.474739143624902
      ],
      [
        100.04515456035733,
        9.474776107817888
      ],
      [
        100.04502070136368,
        9.474784824997187
      ],
      [
        100.04500611685216,
        9.474786836653948
      ],
      [
        100.04490670748055,
        9.474811227992177
      ],
      [
        100.04472540691495,
        9.474847940728068
      ],
      [
        100.04461761564016,
        9.474921869114041
      ],
      [
        100.04459599032998,
        9.474939806386828
      ],
      [
        100.0445693358779,
        9.474953720346093
      ],
      [
        100.04448727704585,
        9.475005185231566
      ],
      [
        100.044334391132,
        9.475127309560776
      ],
      [
        100.04426280967891,
        9.47514608502388
      ],
      [
        100.04415166564286,
        9.475137535482645
      ],
      [
        100.04412308335304,
        9.475134015083313
      ],
      [
        100.04393767565489,
        9.47515144944191
      ],
      [
        100.04384513944387,
        9.47513091377914
      ],
      [
        100.043816389516,
        9.475087746977806
      ],
      [
        100.04370952025056,
        9.47504986077547
      ],
      [
        100.0435174908489,
        9.475062601268291
      ],
      [
        100.04333719611168,
        9.475115742534399
      ],
      [
        100.0431651994586,
        9.47518321685493
      ],
      [
        100.04301189444959,
        9.475262928754091
      ],
      [
        100.04296420142055,
        9.47528782300651
      ],
      [
        100.04286160692573,
        9.475328978151083
      ],
      [
        100.04284878261387,
        9.47533275000751
      ],
      [
        100.04283361136913,
        9.475336605682969
      ],
      [
        100.04274015314877,
        9.475357225164771
      ],
      [
        100.0426971539855,
        9.475394021719694
      ],
      [
        100.04268734715879,
        9.475410114973783
      ],
      [
        100.04268424585462,
        9.475540285930037
      ],
      [
        100.0426646322012,
        9.4755888171494
      ],
      [
        100.04259707406163,
        9.475694429129362
      ],
      [
        100.04258207045496,
        9.47570658288896
      ],
      [
        100.04255332052708,
        9.475728794932365
      ],
      [
        100.04254158586264,
        9.475740697234869
      ],
      [
        100.04253253340721,
        9.475741786882281
      ],
      [
        100.04252901300788,
        9.475746480748057
      ],
      [
        100.04250562749803,
        9.475791240110993
      ],
      [
        100.04249087534845,
        9.475813368335366
      ],
      [
        100.04243278875947,
        9.475899366661906
      ],
      [
        100.04238207824528,
        9.4759825989604
      ],
      [
        100.0422859378159,
        9.476049235090613
      ],
      [
        100.04221293143928,
        9.47608863003552
      ],
      [
        100.04219700582325,
        9.476093910634518
      ],
      [
        100.0420374982059,
        9.476197175681591
      ],
      [
        100.04188419319689,
        9.476302787661552
      ],
      [
        100.04186592064798,
        9.476316198706627
      ],
      [
        100.0418493244797,
        9.476328017190099
      ],
      [
        100.04179601557553,
        9.47634763084352
      ],
      [
        100.0417436286807,
        9.476377805694938
      ],
      [
        100.04172837361693,
        9.4763901270926
      ],
      [
        100.04163441248238,
        9.476428097113967
      ],
      [
        100.04160842858255,
        9.476430444046855
      ],
      [
        100.0415940117091,
        9.47643413208425
      ],
      [
        100.04146878607571,
        9.476444022729993
      ],
      [
        100.04143877886236,
        9.476443687453866
      ],
      [
        100.04139569588006,
        9.476446453481913
      ],
      [
        100.0413672812283,
        9.4764419272542
      ],
      [
        100.0411706417799,
        9.47645760141313
      ],
      [
        100.0410152412951,
        9.476508647203445
      ],
      [
        100.04099931567907,
        9.47651132941246
      ],
      [
        100.04092949442565,
        9.476548209786415
      ],
      [
        100.04085280001163,
        9.476580647751689
      ],
      [
        100.04082480445504,
        9.47658995166421
      ],
      [
        100.04080359824002,
        9.476579306647182
      ],
      [
        100.04079077392817,
        9.476551730185747
      ],
      [
        100.04077970981598,
        9.476532032713294
      ],
      [
        100.0407633651048,
        9.476474365219474
      ],
      [
        100.04076713696122,
        9.476444777101278
      ],
      [
        100.04075925797224,
        9.476256435737014
      ],
      [
        100.04076118580997,
        9.476242689415812
      ],
      [
        100.04077015444636,
        9.476220225915313
      ],
      [
        100.04077283665538,
        9.47616289369762
      ],
      [
        100.0407736748457,
        9.476070525124669
      ],
      [
        100.04077862016857,
        9.47603926062584
      ],
      [
        100.04077862016857,
        9.475850751623511
      ],
      [
        100.04076118580997,
        9.47576961480081
      ],
      [
        100.04073754884303,
        9.475580267608166
      ],
      [
        100.04074802622199,
        9.475399889051914
      ],
      [
        100.04074308089912,
        9.475355464965105
      ],
      [
        100.04073897376657,
        9.475242728367448
      ],
      [
        100.04071441479027,
        9.475170811638236
      ],
      [
        100.04068407230079,
        9.475045334547758
      ],
      [
        100.04064828157425,
        9.474912900477648
      ],
      [
        100.04064199514687,
        9.474871074780822
      ],
      [
        100.04059178754687,
        9.474728917703032
      ],
      [
        100.04058734513819,
        9.474659096449614
      ],
      [
        100.04046941176057,
        9.474647277966142
      ],
      [
        100.04035432823002,
        9.474667143076658
      ],
      [
        100.04016850143671,
        9.47469069622457
      ],
      [
        100.04013187251985,
        9.47469161823392
      ],
      [
        100.04007747396827,
        9.474683487787843
      ],
      [
        100.0400463771075,
        9.474688936024904
      ],
      [
        100.03997295163572,
        9.474703688174486
      ],
      [
        100.03993917256594,
        9.474708214402199
      ],
      [
        100.039754351601,
        9.474740400910378
      ],
      [
        100.03964899107814,
        9.474757499992847
      ],
      [
        100.03963432274759,
        9.474760349839926
      ],
      [
        100.03944095224142,
        9.474785747006536
      ],
      [
        100.03939652815461,
        9.474782478064299
      ],
      [
        100.03933047875762,
        9.474770491942763
      ],
      [
        100.03930759616196,
        9.47476546280086
      ],
      [
        100.03929586149752,
        9.474761104211211
      ],
      [
        100.03919561393559,
        9.474715506657958
      ],
      [
        100.03918262198567,
        9.474713411182165
      ],
      [
        100.03900065086782,
        9.474679715931416
      ],
      [
        100.03880870528519,
        9.474653899669647
      ],
      [
        100.03874894231558,
        9.47467552497983
      ],
      [
        100.0387325976044,
        9.474680637940764
      ],
      [
        100.03867459483445,
        9.474708968773484
      ],
      [
        100.03863126039505,
        9.474707040935755
      ],
      [
        100.03853210248053,
        9.47472590021789
      ],
      [
        100.03839447163045,
        9.474761858582497
      ],
      [
        100.03834946081042,
        9.474780466407537
      ],
      [
        100.03828927874565,
        9.47478549554944
      ],
      [
        100.03823295235634,
        9.47477962821722
      ],
      [
        100.038189785555,
        9.474739395081997
      ],
      [
        100.03807151690125,
        9.474722128361464
      ],
      [
        100.0380275119096,
        9.474717769771814
      ],
      [
        100.03789373673499,
        9.474748028442264
      ],
      [
        100.03786599263549,
        9.474749872460961
      ],
      [
        100.03779566846788,
        9.474781975150108
      ],
      [
        100.0377534236759,
        9.474790608510375
      ],
      [
        100.03757866099477,
        9.474843246862292
      ],
      [
        100.03751168958843,
        9.474863866344094
      ],
      [
        100.03733206540346,
        9.4749066978693
      ],
      [
        100.03716878592968,
        9.474985655397177
      ],
      [
        100.03709938377142,
        9.474987834692001
      ],
      [
        100.03706870600581,
        9.475001078099012
      ],
      [
        100.03689838573337,
        9.475084310397506
      ],
      [
        100.03670912235975,
        9.475091686472297
      ],
      [
        100.03655221313238,
        9.475176427513361
      ],
      [
        100.03643620759249,
        9.47520911693573
      ],
      [
        100.03626781515777,
        9.475271897390485
      ],
      [
        100.03608676604927,
        9.47532830759883
      ],
      [
        100.03590865060687,
        9.475374575704336
      ],
      [
        100.03577814437449,
        9.475383292883635
      ],
      [
        100.03559055738151,
        9.475420759990811
      ],
      [
        100.03554680384696,
        9.475425370037556
      ],
      [
        100.03554102033377,
        9.47541824541986
      ],
      [
        100.0355395115912,
        9.475408857688308
      ],
      [
        100.03553942777216,
        9.475399889051914
      ],
      [
        100.03553129732609,
        9.475387651473284
      ],
      [
        100.0355085823685,
        9.475284805521369
      ],
      [
        100.03544370643795,
        9.475220600143075
      ],
      [
        100.03543398343027,
        9.475226970389485
      ],
      [
        100.0354060716927,
        9.47524775750935
      ],
      [
        100.03524295985699,
        9.47534741833806
      ],
      [
        100.03518411889672,
        9.475404499098659
      ],
      [
        100.03509585745633,
        9.47546417824924
      ],
      [
        100.03511060960591,
        9.475421849638224
      ],
      [
        100.03512980416417,
        9.475406846031547
      ],
      [
        100.03513072617352,
        9.47540215216577
      ],
      [
        100.03513575531542,
        9.475399050861597
      ],
      [
        100.03512527793646,
        9.47540994733572
      ],
      [
        100.03512335009873,
        9.475410701707006
      ],
      [
        100.0351148005575,
        9.47536887601018
      ],
      [
        100.0349662732333,
        9.47526385076344
      ],
      [
        100.03495118580759,
        9.475231496617198
      ],
      [
        100.03493844531476,
        9.475216995924711
      ],
      [
        100.03493173979223,
        9.475193191319704
      ],
      [
        100.03492738120258,
        9.475183468312025
      ],
      [
        100.03492411226034,
        9.475173158571124
      ],
      [
        100.03492176532745,
        9.475162262097001
      ],
      [
        100.03491589799523,
        9.47513242252171
      ],
      [
        100.03491153940558,
        9.475097805261612
      ],
      [
        100.03489284776151,
        9.475074838846922
      ],
      [
        100.03488253802061,
        9.475057320669293
      ],
      [
        100.03485521301627,
        9.475008705630898
      ],
      [
        100.03482528962195,
        9.47495749220252
      ],
      [
        100.03471992909908,
        9.474801253527403
      ],
      [
        100.03467827104032,
        9.474748782813549
      ],
      [
        100.03463996574283,
        9.474733024835587
      ],
      [
        100.03446721471846,
        9.474783819168806
      ],
      [
        100.03441751003265,
        9.474818604066968
      ],
      [
        100.03439848311245,
        9.474836457520723
      ],
      [
        100.03437928855419,
        9.474856071174145
      ],
      [
        100.03434685058892,
        9.474886832758784
      ],
      [
        100.03426319919527,
        9.474953971803188
      ],
      [
        100.0342426635325,
        9.474971489980817
      ],
      [
        100.03407083451748,
        9.475026223808527
      ],
      [
        100.03391928970814,
        9.475103756412864
      ],
      [
        100.03384460695088,
        9.475137200206518
      ],
      [
        100.03370303660631,
        9.475238537415862
      ],
      [
        100.03359750844538,
        9.475294444710016
      ],
      [
        100.03354302607477,
        9.475323194637895
      ],
      [
        100.03352919593453,
        9.4753263797611
      ],
      [
        100.03351368941367,
        9.475332498550415
      ],
      [
        100.03342936746776,
        9.475371222943068
      ],
      [
        100.03337915986776,
        9.475390501320362
      ],
      [
        100.03329902887344,
        9.475415898486972
      ],
      [
        100.0332664232701,
        9.475428136065602
      ],
      [
        100.03325376659632,
        9.475434254854918
      ],
      [
        100.03312761895359,
        9.475489994511008
      ],
      [
        100.03305503167212,
        9.475520169362426
      ],
      [
        100.03296886570752,
        9.475557804107666
      ],
      [
        100.03280617296696,
        9.47564640082419
      ],
      [
        100.03264373168349,
        9.475731393322349
      ],
      [
        100.03258556127548,
        9.475759053602815
      ],
      [
        100.03241096623242,
        9.475836921483278
      ],
      [
        100.03227165900171,
        9.47592937387526
      ],
      [
        100.03225548192859,
        9.475951753556728
      ],
      [
        100.03224592655897,
        9.475959297269583
      ],
      [
        100.03215339034796,
        9.476034063845873
      ],
      [
        100.03212430514395,
        9.476064909249544
      ],
      [
        100.0319888535887,
        9.476166246458888
      ],
      [
        100.03191903233528,
        9.476228775456548
      ],
      [
        100.03186446614563,
        9.476263979449868
      ],
      [
        100.03183496184647,
        9.476282000541687
      ],
      [
        100.03174971789122,
        9.476352743804455
      ],
      [
        100.03171577118337,
        9.47639406658709
      ],
      [
        100.03169934265316,
        9.476398760452867
      ],
      [
        100.03167109563947,
        9.476410914212465
      ],
      [
        100.03164980560541,
        9.476423570886254
      ],
      [
        100.03147328272462,
        9.47651476599276
      ],
      [
        100.0313759688288,
        9.476590286940336
      ],
      [
        100.03131587058306,
        9.476642506197095
      ],
      [
        100.03117840737104,
        9.47676731273532
      ],
      [
        100.03116901963949,
        9.476778041571379
      ],
      [
        100.03114663995802,
        9.476791452616453
      ],
      [
        100.03100196830928,
        9.476917600259185
      ],
      [
        100.03086249344051,
        9.477036790922284
      ],
      [
        100.03083307296038,
        9.477064115926623
      ],
      [
        100.03080373629928,
        9.47710745036602
      ],
      [
        100.03079384565353,
        9.477118430659175
      ],
      [
        100.03075679764152,
        9.477156568318605
      ],
      [
        100.03073751926422,
        9.477199986577034
      ],
      [
        100.0307279638946,
        9.47722035460174
      ],
      [
        100.0307091884315,
        9.477239800617099
      ],
      [
        100.0306899100542,
        9.477256564423442
      ],
      [
        100.0306262075901,
        9.477302497252822
      ],
      [
        100.03049184568226,
        9.477405175566673
      ],
      [
        100.0304522830993,
        9.477446414530277
      ],
      [
        100.03035387955606,
        9.477583542466164
      ],
      [
        100.03033116459846,
        9.477615812793374
      ],
      [
        100.03031029365957,
        9.477651184424758
      ],
      [
        100.03029671497643,
        9.477672893553972
      ],
      [
        100.03020476549864,
        9.477789821103215
      ],
      [
        100.03016662783921,
        9.477850254625082
      ],
      [
        100.030118515715,
        9.477960392832756
      ],
      [
        100.03009781241417,
        9.477979503571987
      ],
      [
        100.03002329729497,
        9.47804412804544
      ],
      [
        100.02998750656843,
        9.478068938478827
      ],
      [
        100.02991324290633,
        9.478147309273481
      ],
      [
        100.02978424541652,
        9.478297010064125
      ],
      [
        100.02973889932036,
        9.478338668122888
      ],
      [
        100.02972892485559,
        9.478353168815374
      ],
      [
        100.02971987240016,
        9.478360461071134
      ],
      [
        100.02966061234474,
        9.47840471751988
      ],
      [
        100.02957360818982,
        9.478531200438738
      ],
      [
        100.0294728577137,
        9.47868232615292
      ],
      [
        100.02933866344392,
        9.478814089670777
      ],
      [
        100.02923296764493,
        9.47889338247478
      ],
      [
        100.029201451689,
        9.47891634888947
      ],
      [
        100.02909106202424,
        9.479064540937543
      ],
      [
        100.02903129905462,
        9.47913821786642
      ],
      [
        100.0290079973638,
        9.479182977229357
      ],
      [
        100.0289929099381,
        9.479200998321176
      ],
      [
        100.02884924411774,
        9.479324128478765
      ],
      [
        100.02883818000555,
        9.47934977710247
      ],
      [
        100.0287320651114,
        9.479494197294116
      ],
      [
        100.02872820943594,
        9.479507105425
      ],
      [
        100.02866299822927,
        9.479637360200286
      ],
      [
        100.02861706539989,
        9.479671809822321
      ],
      [
        100.02856945618987,
        9.479697039350867
      ],
      [
        100.0283744931221,
        9.479747163131833
      ],
      [
        100.02829117700458,
        9.47977440431714
      ],
      [
        100.02811750397086,
        9.479844979941845
      ],
      [
        100.02806989476085,
        9.479863839223981
      ],
      [
        100.02803452312946,
        9.479877082630992
      ],
      [
        100.02800275571644,
        9.479885380715132
      ],
      [
        100.02796067856252,
        9.479915974661708
      ],
      [
        100.02782841213048,
        9.479990992695093
      ],
      [
        100.02779555507004,
        9.480023179203272
      ],
      [
        100.02777158282697,
        9.480026364326477
      ],
      [
        100.02770880237222,
        9.480027202516794
      ],
      [
        100.02767737023532,
        9.480053605511785
      ],
      [
        100.0275351293385,
        9.480171455070376
      ],
      [
        100.02744502387941,
        9.480252172797918
      ],
      [
        100.02740227617323,
        9.480291567742825
      ],
      [
        100.0273265875876,
        9.480455769225955
      ],
      [
        100.02728023566306,
        9.480634639039636
      ],
      [
        100.02720312215388,
        9.480781992897391
      ],
      [
        100.02717043273151,
        9.480877378955483
      ],
      [
        100.02712584100664,
        9.481004364788532
      ],
      [
        100.02711905166507,
        9.481012914329767
      ],
      [
        100.02704126760364,
        9.481066977605224
      ],
      [
        100.02697764895856,
        9.481110060587525
      ],
      [
        100.02694521099329,
        9.481148030608892
      ],
      [
        100.02687354572117,
        9.481227155774832
      ],
      [
        100.02685133367777,
        9.481258923187852
      ],
      [
        100.02681612968445,
        9.481297060847282
      ],
      [
        100.02676030620933,
        9.481334360316396
      ],
      [
        100.02669895067811,
        9.481385741382837
      ],
      [
        100.02661161124706,
        9.481455646455288
      ],
      [
        100.02644296735525,
        9.481537789106369
      ],
      [
        100.0262985471636,
        9.481584895402193
      ],
      [
        100.0261951982975,
        9.481601994484663
      ],
      [
        100.02602999098599,
        9.481587493792176
      ],
      [
        100.02598263323307,
        9.481580201536417
      ],
      [
        100.02579672262073,
        9.481563102453947
      ],
      [
        100.02565389499068,
        9.481646670028567
      ],
      [
        100.02556881867349,
        9.481801567599177
      ],
      [
        100.02547988668084,
        9.481921680271626
      ],
      [
        100.02541190944612,
        9.482026621699333
      ],
      [
        100.02539288252592,
        9.482093844562769
      ],
      [
        100.02539087086916,
        9.48210851289332
      ],
      [
        100.02538810484111,
        9.482134999707341
      ],
      [
        100.02535717561841,
        9.482194678857923
      ],
      [
        100.02523773349822,
        9.482334489002824
      ],
      [
        100.02523102797568,
        9.482344212010503
      ],
      [
        100.02519263885915,
        9.482388133183122
      ],
      [
        100.02518727444112,
        9.482402633875608
      ],
      [
        100.02518232911825,
        9.482429958879948
      ],
      [
        100.02515743486583,
        9.482514867559075
      ],
      [
        100.02513363026083,
        9.48257370851934
      ],
      [
        100.0251213926822,
        9.482582928612828
      ],
      [
        100.0249916408211,
        9.482678398489952
      ],
      [
        100.02498560585082,
        9.482689294964075
      ],
      [
        100.0249760504812,
        9.482698598876595
      ],
      [
        100.02492089755833,
        9.482759200036526
      ],
      [
        100.02474571578205,
        9.48282491415739
      ],
      [
        100.02463490702212,
        9.482873445376754
      ],
      [
        100.02462317235768,
        9.48287864215672
      ],
      [
        100.02456382848322,
        9.48290797881782
      ],
      [
        100.0243906583637,
        9.482996072620153
      ],
      [
        100.02431404776871,
        9.483024571090937
      ],
      [
        100.02423064783216,
        9.48309799656272
      ],
      [
        100.02416686154902,
        9.483133368194103
      ],
      [
        100.02404373139143,
        9.483172511681914
      ],
      [
        100.0239535421133,
        9.4832734297961
      ],
      [
        100.0239297375083,
        9.483290947973728
      ],
      [
        100.02380618825555,
        9.483343502506614
      ],
      [
        100.02370602451265,
        9.483424806967378
      ],
      [
        100.02368481829762,
        9.48343905620277
      ],
      [
        100.02364684827626,
        9.483463363721967
      ],
      [
        100.02362698316574,
        9.483475517481565
      ],
      [
        100.02358029596508,
        9.483499489724636
      ],
      [
        100.02353310585022,
        9.483528072014451
      ],
      [
        100.02345523796976,
        9.483562437817454
      ],
      [
        100.0233248155564,
        9.48360962793231
      ],
      [
        100.02327913418412,
        9.483632007613778
      ],
      [
        100.02323353663087,
        9.483647346496582
      ],
      [
        100.02319280058146,
        9.483666121959686
      ],
      [
        100.02302206121385,
        9.483702080324292
      ],
      [
        100.02288887277246,
        9.483717670664191
      ],
      [
        100.02270271070302,
        9.48374742642045
      ],
      [
        100.02261034213006,
        9.483819594606757
      ],
      [
        100.02246768213809,
        9.48388908058405
      ],
      [
        100.0223979447037,
        9.483924033120275
      ],
      [
        100.02228361554444,
        9.483993351459503
      ],
      [
        100.02226861193776,
        9.483996955677867
      ],
      [
        100.02225838601589,
        9.48399368673563
      ],
      [
        100.02209451980889,
        9.483909280970693
      ],
      [
        100.02199393697083,
        9.483863851055503
      ],
      [
        100.02195244655013,
        9.483851781114936
      ],
      [
        100.02191497944295,
        9.483850440010428
      ],
      [
        100.02186653204262,
        9.483831245452166
      ],
      [
        100.02183954231441,
        9.483815152198076
      ],
      [
        100.02178598195314,
        9.483797466382384
      ],
      [
        100.02167416736484,
        9.4837914314121
      ],
      [
        100.0215911027044,
        9.48378941975534
      ],
      [
        100.02153754234314,
        9.483788162469864
      ],
      [
        100.0214362051338,
        9.483778607100248
      ],
      [
        100.02126010134816,
        9.48382655158639
      ],
      [
        100.02107293345034,
        9.483801908791065
      ],
      [
        100.02087176777422,
        9.483778271824121
      ],
      [
        100.02085181884468,
        9.483771901577711
      ],
      [
        100.02077755518258,
        9.483758741989732
      ],
      [
        100.02059558406472,
        9.483786821365356
      ],
      [
        100.02044714055955,
        9.483862677589059
      ],
      [
        100.02029718831182,
        9.48398974724114
      ],
      [
        100.0202030595392,
        9.484016820788383
      ],
      [
        100.02015033736825,
        9.4840435590595
      ],
      [
        100.01997507177293,
        9.484125534072518
      ],
      [
        100.01989494077861,
        9.484161157160997
      ],
      [
        100.01992218196392,
        9.48415294289589
      ],
      [
        100.0199718028307,
        9.484110865741968
      ],
      [
        100.02000918611884,
        9.484094940125942
      ],
      [
        100.02012837678194,
        9.484063005074859
      ],
      [
        100.02021990716457,
        9.484031153842807
      ],
      [
        100.02035519108176,
        9.483977761119604
      ],
      [
        100.02042677253485,
        9.483914477750659
      ],
      [
        100.02050061710179,
        9.483872065320611
      ],
      [
        100.02055141143501,
        9.48384272865951
      ],
      [
        100.02058041281998,
        9.483828144147992
      ],
      [
        100.02059650607407,
        9.483821103349328
      ],
      [
        100.02076380886137,
        9.483736110851169
      ],
      [
        100.02078702673316,
        9.483725046738982
      ],
      [
        100.02081837505102,
        9.48372395709157
      ],
      [
        100.02082340419292,
        9.483725382015109
      ],
      [
        100.02083530649543,
        9.483733093366027
      ],
      [
        100.02085810527205,
        9.483753209933639
      ],
      [
        100.02096212469041,
        9.483810374513268
      ],
      [
        100.02103814855218,
        9.483831161633134
      ],
      [
        100.02104954794049,
        9.483834095299244
      ],
      [
        100.02108542248607,
        9.483841136097908
      ],
      [
        100.02114543691278,
        9.483835520222783
      ],
      [
        100.02109799534082,
        9.48385689407587
      ],
      [
        100.0210820697248,
        9.483830323442817
      ],
      [
        100.02118139527738,
        9.48382169008255
      ],
      [
        100.02125213854015,
        9.483801405876875
      ],
      [
        100.02132195979357,
        9.483798807486892
      ],
      [
        100.02150116488338,
        9.483767794445157
      ],
      [
        100.02152639441192,
        9.483776846900582
      ],
      [
        100.02156319096684,
        9.483779361471534
      ],
      [
        100.0216413103044,
        9.483776930719614
      ],
      [
        100.02166042104363,
        9.483778439462185
      ],
      [
        100.0217850599438,
        9.483823282644153
      ],
      [
        100.02179813571274,
        9.483833760023117
      ],
      [
        100.02180844545364,
        9.483868209645152
      ],
      [
        100.02181716263294,
        9.483880111947656
      ],
      [
        100.02190592698753,
        9.483963595703244
      ],
      [
        100.02197365276515,
        9.483979856595397
      ],
      [
        100.02203123643994,
        9.483975917100906
      ],
      [
        100.02218504436314,
        9.484045738354325
      ],
      [
        100.02220960333943,
        9.484060909599066
      ],
      [
        100.02236600965261,
        9.484042804688215
      ],
      [
        100.02247162163258,
        9.483985975384712
      ],
      [
        100.02248788252473,
        9.483972480520606
      ],
      [
        100.02249634824693,
        9.483959404751658
      ],
      [
        100.02249877899885,
        9.483953034505248
      ],
      [
        100.0226794090122,
        9.48389008641243
      ],
      [
        100.02274738624692,
        9.483825964853168
      ],
      [
        100.02278711646795,
        9.483799980953336
      ],
      [
        100.02294519916177,
        9.4837102945894
      ],
      [
        100.02297269180417,
        9.483707277104259
      ],
      [
        100.02299716696143,
        9.483708534389734
      ],
      [
        100.02308643423021,
        9.483697218820453
      ],
      [
        100.02326094545424,
        9.48363360017538
      ],
      [
        100.0233911164105,
        9.483595630154014
      ],
      [
        100.02349195070565,
        9.483554558828473
      ],
      [
        100.02352396957576,
        9.483550116419792
      ],
      [
        100.0236258096993,
        9.483489179983735
      ],
      [
        100.02368372865021,
        9.48345766402781
      ],
      [
        100.02385647967458,
        9.483373258262873
      ],
      [
        100.02400936558843,
        9.483268735930324
      ],
      [
        100.02405839972198,
        9.483250211924314
      ],
      [
        100.0240748282522,
        9.48324459604919
      ],
      [
        100.02410508692265,
        9.483221210539341
      ],
      [
        100.0241935160011,
        9.483138732612133
      ],
      [
        100.02420097589493,
        9.483132278546691
      ],
      [
        100.0242371018976,
        9.483107551932335
      ],
      [
        100.02440197393298,
        9.483008394017816
      ],
      [
        100.0245111901313,
        9.482949385419488
      ],
      [
        100.02456307411194,
        9.482917366549373
      ],
      [
        100.02461227588356,
        9.48288886807859
      ],
      [
        100.02471688203514,
        9.482822651043534
      ],
      [
        100.02485996112227,
        9.482757691293955
      ],
      [
        100.0249224063009,
        9.482722152024508
      ],
      [
        100.02496230416,
        9.48270220309496
      ],
      [
        100.02507671713829,
        9.482650738209486
      ],
      [
        100.02518610097468,
        9.48257320560515
      ],
      [
        100.02519615925848,
        9.482553256675601
      ],
      [
        100.02521074377,
        9.482477735728025
      ],
      [
        100.02521451562643,
        9.482427528128028
      ],
      [
        100.02522407099605,
        9.482366004958749
      ],
      [
        100.02525147981942,
        9.482214376330376
      ],
      [
        100.02537033520639,
        9.482059394940734
      ],
      [
        100.02546329051256,
        9.481895193457603
      ],
      [
        100.02550452947617,
        9.481832329183817
      ],
      [
        100.02552330493927,
        9.481803076341748
      ],
      [
        100.02557912841439,
        9.481748258695006
      ],
      [
        100.025638891384,
        9.4816864002496
      ],
      [
        100.02573779784143,
        9.481614734977484
      ],
      [
        100.02593100070953,
        9.481631414964795
      ],
      [
        100.02612051554024,
        9.481655722483993
      ],
      [
        100.02623056992888,
        9.481661757454276
      ],
      [
        100.02625035122037,
        9.481659913435578
      ],
      [
        100.0264404527843,
        9.48159545660019
      ],
      [
        100.02645746804774,
        9.481591181829572
      ],
      [
        100.02647012472153,
        9.481588331982493
      ],
      [
        100.02649812027812,
        9.481577686965466
      ],
      [
        100.02653022296727,
        9.481562934815884
      ],
      [
        100.02661546692252,
        9.481528401374817
      ],
      [
        100.0267705321312,
        9.481412898749113
      ],
      [
        100.02688435837626,
        9.48130963370204
      ],
      [
        100.02701092511415,
        9.481202512979507
      ],
      [
        100.02704369835556,
        9.48117719963193
      ],
      [
        100.02714092843235,
        9.481079801917076
      ],
      [
        100.02716967836022,
        9.481036718934774
      ],
      [
        100.02719742245972,
        9.480997575446963
      ],
      [
        100.02722742967308,
        9.480963125824928
      ],
      [
        100.02724645659328,
        9.480932364240289
      ],
      [
        100.02733237110078,
        9.48077218607068
      ],
      [
        100.02736430615187,
        9.480717200785875
      ],
      [
        100.02736900001764,
        9.480704879388213
      ],
      [
        100.02740998752415,
        9.480584263801575
      ],
      [
        100.02746162004769,
        9.480460966005921
      ],
      [
        100.02752859145403,
        9.480292405933142
      ],
      [
        100.02757200971246,
        9.480238845571876
      ],
      [
        100.02760034054518,
        9.480213699862361
      ],
      [
        100.02765138633549,
        9.480180256068707
      ],
      [
        100.02778516151011,
        9.480108842253685
      ],
      [
        100.02794416621327,
        9.480002811178565
      ],
      [
        100.02809780649841,
        9.479898875579238
      ],
      [
        100.02821314148605,
        9.479834921658039
      ],
      [
        100.02836401574314,
        9.479797538369894
      ],
      [
        100.02855277620256,
        9.479785887524486
      ],
      [
        100.0287323165685,
        9.479724867269397
      ],
      [
        100.02888302318752,
        9.479621183127165
      ],
      [
        100.02888352610171,
        9.47961020283401
      ],
      [
        100.02888897433877,
        9.479592768475413
      ],
      [
        100.0288943387568,
        9.479587906971574
      ],
      [
        100.0289894733578,
        9.479425884783268
      ],
      [
        100.02900774590671,
        9.479377605021
      ],
      [
        100.02911729738116,
        9.479231759905815
      ],
      [
        100.02913976088166,
        9.479180965572596
      ],
      [
        100.02918661572039,
        9.479097984731197
      ],
      [
        100.02928325906396,
        9.4789735134691
      ],
      [
        100.02929281443357,
        9.478961108252406
      ],
      [
        100.0293089915067,
        9.478936297819018
      ],
      [
        100.02933137118816,
        9.478896651417017
      ],
      [
        100.029460452497,
        9.478759439662099
      ],
      [
        100.02947235479951,
        9.478752063587308
      ],
      [
        100.02949255518615,
        9.478736808523536
      ],
      [
        100.02951283939183,
        9.478720212355256
      ],
      [
        100.0295521505177,
        9.478674363344908
      ],
      [
        100.02960009500384,
        9.478646451607347
      ],
      [
        100.02961836755276,
        9.478630442172289
      ],
      [
        100.02965315245092,
        9.478587610647082
      ],
      [
        100.02969413995743,
        9.478514436632395
      ],
      [
        100.02971819601953,
        9.478481998667121
      ],
      [
        100.02974392846227,
        9.478455428034067
      ],
      [
        100.02985574305058,
        9.478298518806696
      ],
      [
        100.02988625317812,
        9.478267589583993
      ],
      [
        100.02999505028129,
        9.478119816631079
      ],
      [
        100.03002170473337,
        9.478074721992016
      ],
      [
        100.03013578243554,
        9.47792585939169
      ],
      [
        100.03017366863787,
        9.477888559922576
      ],
      [
        100.03028003498912,
        9.477736847475171
      ],
      [
        100.030422443524,
        9.477606508880854
      ],
      [
        100.03053744323552,
        9.477474493905902
      ],
      [
        100.03054775297642,
        9.477440966293216
      ],
      [
        100.0305902492255,
        9.477399727329612
      ],
      [
        100.03063894808292,
        9.477374497801065
      ],
      [
        100.03068806603551,
        9.477313477545977
      ],
      [
        100.03078018315136,
        9.477233178913593
      ],
      [
        100.03091244958341,
        9.477104181423783
      ],
      [
        100.03099526278675,
        9.47702530771494
      ],
      [
        100.03101227805018,
        9.476998401805758
      ],
      [
        100.03104027360678,
        9.476963533088565
      ],
      [
        100.0311064068228,
        9.476899160072207
      ],
      [
        100.03119844011962,
        9.476821795105934
      ],
      [
        100.0312758050859,
        9.476773347705603
      ],
      [
        100.0312858633697,
        9.476769240573049
      ],
      [
        100.03135275095701,
        9.4767199549824
      ],
      [
        100.03136834129691,
        9.476704113185406
      ],
      [
        100.03147965297103,
        9.47659975849092
      ],
      [
        100.0316397473216,
        9.47649909183383
      ],
      [
        100.03167084418237,
        9.476469000801444
      ],
      [
        100.03181803040206,
        9.476361460983753
      ],
      [
        100.0319388974458,
        9.4762450363487
      ],
      [
        100.03210016526282,
        9.476161133497953
      ],
      [
        100.03211273811758,
        9.47614923119545
      ],
      [
        100.03215104341507,
        9.47610086761415
      ],
      [
        100.03218934871256,
        9.476060885936022
      ],
      [
        100.0322118960321,
        9.476015958935022
      ],
      [
        100.03222455270588,
        9.476007912307978
      ],
      [
        100.0322357006371,
        9.475997183471918
      ],
      [
        100.03224575892091,
        9.475986454635859
      ],
      [
        100.03237794153392,
        9.47591470554471
      ],
      [
        100.03245337866247,
        9.475862821564078
      ],
      [
        100.03254893235862,
        9.475807081907988
      ],
      [
        100.03267348743975,
        9.475756539031863
      ],
      [
        100.032758731395,
        9.475702727213502
      ],
      [
        100.03292393870652,
        9.47564841248095
      ],
      [
        100.03303575329483,
        9.475607760250568
      ],
      [
        100.03310129977763,
        9.475572388619184
      ],
      [
        100.03314094617963,
        9.475536094978452
      ],
      [
        100.03318444825709,
        9.475504579022527
      ],
      [
        100.03323499113321,
        9.475487228482962
      ],
      [
        100.03330422565341,
        9.475446408614516
      ],
      [
        100.03332953900099,
        9.475439200177789
      ],
      [
        100.03335325978696,
        9.475429058074951
      ],
      [
        100.03344738855958,
        9.475383460521698
      ],
      [
        100.03355174325407,
        9.475351944565773
      ],
      [
        100.03361167386174,
        9.475330738350749
      ],
      [
        100.03374251537025,
        9.475259492173791
      ],
      [
        100.03376824781299,
        9.475251194089651
      ],
      [
        100.03381258808076,
        9.475229568779469
      ],
      [
        100.03388182260096,
        9.475196124985814
      ],
      [
        100.03404065966606,
        9.475095374509692
      ],
      [
        100.0340872630477,
        9.475078359246254
      ],
      [
        100.03418499603868,
        9.475019937381148
      ],
      [
        100.03420142456889,
        9.475014740601182
      ],
      [
        100.03424366936088,
        9.474997473880649
      ],
      [
        100.03434115089476,
        9.474937375634909
      ],
      [
        100.03441725857556,
        9.474920276552439
      ],
      [
        100.03443838097155,
        9.474908206611872
      ],
      [
        100.0345719885081,
        9.47481038980186
      ],
      [
        100.0345756765455,
        9.474790440872312
      ],
      [
        100.03458028659225,
        9.47478256188333
      ],
      [
        100.03453711979091,
        9.474769234657288
      ],
      [
        100.03453385084867,
        9.4747703243047
      ],
      [
        100.03456897102296,
        9.47476596571505
      ],
      [
        100.034558493644,
        9.474756494164467
      ],
      [
        100.03456804901361,
        9.474750626832247
      ],
      [
        100.03459990024567,
        9.474740233272314
      ],
      [
        100.03460719250143,
        9.47473855689168
      ],
      [
        100.0346050132066,
        9.474732857197523
      ],
      [
        100.03460668958724,
        9.474745513871312
      ],
      [
        100.03459964878857,
        9.474753309041262
      ],
      [
        100.03460459411144,
        9.474755320698023
      ],
      [
        100.0345999840647,
        9.474757499992847
      ],
      [
        100.03459864296019,
        9.474758841097355
      ],
      [
        100.03460073843598,
        9.474759679287672
      ],
      [
        100.03460300154984,
        9.474762277677655
      ],
      [
        100.03472646698356,
        9.474840564653277
      ],
      [
        100.03473560325801,
        9.474864201620221
      ],
      [
        100.03476980142295,
        9.474900998175144
      ],
      [
        100.03477952443063,
        9.47492279112339
      ],
      [
        100.03483761101961,
        9.475030330941081
      ],
      [
        100.03484808839858,
        9.4750517886132
      ],
      [
        100.03488195128739,
        9.475125716999173
      ],
      [
        100.03492855466902,
        9.475225880742073
      ],
      [
        100.03503827378154,
        9.475302575156093
      ],
      [
        100.0350971147418,
        9.47533710859716
      ],
      [
        100.03512628376484,
        9.475350268185139
      ],
      [
        100.03526366315782,
        9.475399386137724
      ],
      [
        100.03535158932209,
        9.475332498550415
      ],
      [
        100.03541889600456,
        9.475289834663272
      ],
      [
        100.03548343665898,
        9.475274663418531
      ],
      [
        100.0355167966336,
        9.475317159667611
      ],
      [
        100.03553523682058,
        9.475346580147743
      ],
      [
        100.03563489764929,
        9.475389663130045
      ],
      [
        100.03567605279386,
        9.475396620109677
      ],
      [
        100.03570756874979,
        9.475400475785136
      ],
      [
        100.03575031645596,
        9.47539871558547
      ],
      [
        100.03578862175345,
        9.475413048639894
      ],
      [
        100.03583229146898,
        9.475395865738392
      ],
      [
        100.03588543273509,
        9.475379856303334
      ],
      [
        100.0359454471618,
        9.475370049476624
      ],
      [
        100.03596874885261,
        9.475366864353418
      ],
      [
        100.03597335889935,
        9.475363763049245
      ],
      [
        100.03610000945628,
        9.4753557164222
      ],
      [
        100.0362821482122,
        9.475302826613188
      ],
      [
        100.03636362031102,
        9.47530291043222
      ],
      [
        100.03641793504357,
        9.475277261808515
      ],
      [
        100.03643595613539,
        9.47527659125626
      ],
      [
        100.03661549650133,
        9.475248595699668
      ],
      [
        100.03673267550766,
        9.475192856043577
      ],
      [
        100.03674826584756,
        9.475185396149755
      ],
      [
        100.03680241294205,
        9.475144995376468
      ],
      [
        100.03696812316775,
        9.475093362852931
      ],
      [
        100.03709242679179,
        9.475052375346422
      ],
      [
        100.03712017089128,
        9.475052878260612
      ],
      [
        100.03717515617609,
        9.475028654560447
      ],
      [
        100.03732644952834,
        9.474973669275641
      ],
      [
        100.03750833682716,
        9.474946344271302
      ],
      [
        100.03768988884985,
        9.47488658130169
      ],
      [
        100.0377634819597,
        9.4748704880476
      ],
      [
        100.03793246112764,
        9.474828410893679
      ],
      [
        100.03811459988356,
        9.474818268790841
      ],
      [
        100.03820135258138,
        9.474801002070308
      ],
      [
        100.03831417299807,
        9.474802678450942
      ],
      [
        100.03833780996501,
        9.474802762269974
      ],
      [
        100.03845817409456,
        9.474802929908037
      ],
      [
        100.03847284242511,
        9.474803768098354
      ],
      [
        100.03852749243379,
        9.474806366488338
      ],
      [
        100.03870996646583,
        9.474778454750776
      ],
      [
        100.03876294009387,
        9.474760266020894
      ],
      [
        100.03895446658134,
        9.474724223837256
      ],
      [
        100.03902512602508,
        9.474724475294352
      ],
      [
        100.03906108438969,
        9.474730929359794
      ],
      [
        100.03918857313693,
        9.474769234657288
      ],
      [
        100.03936199471354,
        9.474845929071307
      ],
      [
        100.0394298043102,
        9.474849868565798
      ],
      [
        100.03944925032556,
        9.47486118413508
      ],
      [
        100.0395423732698,
        9.474889598786831
      ],
      [
        100.03955645486712,
        9.474886329844594
      ],
      [
        100.03973205573857,
        9.47482313029468
      ],
      [
        100.039786035195,
        9.474802426993847
      ],
      [
        100.03979994915426,
        9.47480259463191
      ],
      [
        100.03994914703071,
        9.474794128909707
      ],
      [
        100.04003807902336,
        9.474786669015884
      ],
      [
        100.0400910526514,
        9.474776778370142
      ],
      [
        100.04012315534055,
        9.474769569933414
      ],
      [
        100.04025902599096,
        9.4747409876436
      ],
      [
        100.0403140950948,
        9.474723301827908
      ],
      [
        100.04033882170916,
        9.474721793085337
      ],
      [
        100.04040344618261,
        9.47470972314477
      ],
      [
        100.04041668958962,
        9.47470628656447
      ],
      [
        100.04044510424137,
        9.474705699831247
      ],
      [
        100.04052028991282,
        9.474748196080327
      ],
      [
        100.04051383584738,
        9.474776778370142
      ],
      [
        100.0405162665993,
        9.474849198013544
      ],
      [
        100.04051668569446,
        9.47491591796279
      ],
      [
        100.04055884666741,
        9.475068133324385
      ],
      [
        100.04060913808644,
        9.475242896005511
      ],
      [
        100.04067317582667,
        9.475410617887974
      ],
      [
        100.04066630266607,
        9.475425034761429
      ],
      [
        100.04066697321832,
        9.475438361987472
      ],
      [
        100.04068088717759,
        9.47548421099782
      ],
      [
        100.04068834707141,
        9.47551161982119
      ],
      [
        100.04070712253451,
        9.47567816823721
      ],
      [
        100.04070745781064,
        9.47569283656776
      ],
      [
        100.04071349278092,
        9.47578713297844
      ],
      [
        100.04068960435688,
        9.475836083292961
      ],
      [
        100.04069589078426,
        9.475848320871592
      ],
      [
        100.04069346003234,
        9.475871957838535
      ],
      [
        100.04069522023201,
        9.475882099941373
      ],
      [
        100.04069522023201,
        9.475892996415496
      ],
      [
        100.0406989082694,
        9.475923422724009
      ],
      [
        100.0407062843442,
        9.475956950336695
      ],
      [
        100.04072313196957,
        9.476027358323336
      ],
      [
        100.04072271287441,
        9.47607982903719
      ],
      [
        100.04072497598827,
        9.476093826815486
      ],
      [
        100.04070720635355,
        9.476221483200788
      ],
      [
        100.0407319329679,
        9.476400939747691
      ],
      [
        100.04072338342667,
        9.476443016901612
      ],
      [
        100.04069622606039,
        9.476481154561043
      ],
      [
        100.04069463349879,
        9.476498169824481
      ],
      [
        100.04069765098393,
        9.476506970822811
      ],
      [
        100.04070460796356,
        9.476533960551023
      ],
      [
        100.0407197792083,
        9.476600848138332
      ],
      [
        100.04076143726707,
        9.47661878541112
      ],
      [
        100.04086679778993,
        9.476604703813791
      ],
      [
        100.0410461705178,
        9.476555837318301
      ],
      [
        100.04114708863199,
        9.476536894217134
      ],
      [
        100.04132998175919,
        9.476541671901941
      ],
      [
        100.04148052074015,
        9.476445782929659
      ],
      [
        100.04150399006903,
        9.476449554786086
      ],
      [
        100.0416249409318,
        9.476429605856538
      ],
      [
        100.04163751378655,
        9.476428683847189
      ],
      [
        100.04181596450508,
        9.47640429250896
      ],
      [
        100.04192132502794,
        9.476369926705956
      ],
      [
        100.04194085486233,
        9.476361963897943
      ],
      [
        100.04203003831208,
        9.476287113502622
      ],
      [
        100.04206566140056,
        9.476260794326663
      ],
      [
        100.04207932390273,
        9.476246293634176
      ],
      [
        100.04209742881358,
        9.476229697465897
      ],
      [
        100.0422449503094,
        9.476123582571745
      ],
      [
        100.04233404994011,
        9.476042613387108
      ],
      [
        100.0423842575401,
        9.475938510149717
      ],
      [
        100.04243169911206,
        9.475816804915667
      ],
      [
        100.04245365969837,
        9.475785875692964
      ],
      [
        100.04256824031472,
        9.475725358352065
      ],
      [
        100.04264778457582,
        9.47556626982987
      ],
      [
        100.04269975237548,
        9.475509943440557
      ],
      [
        100.04277024418116,
        9.475447414442897
      ],
      [
        100.04293251782656,
        9.47534641250968
      ],
      [
        100.04311415366828,
        9.475289415568113
      ],
      [
        100.04313234239817,
        9.47527508251369
      ],
      [
        100.04316377453506,
        9.475264521315694
      ],
      [
        100.04334985278547,
        9.475241471081972
      ],
      [
        100.04353291355073,
        9.475227305665612
      ],
      [
        100.04355696961284,
        9.475222863256931
      ],
      [
        100.04359384998679,
        9.475195873528719
      ],
      [
        100.04363265819848,
        9.475193191319704
      ],
      [
        100.04381882026792,
        9.47520081885159
      ],
      [
        100.04390615969896,
        9.475203417241573
      ],
      [
        100.04409642890096,
        9.475204590708017
      ],
      [
        100.04413959570229,
        9.475220935419202
      ],
      [
        100.04420975223184,
        9.475229736417532
      ],
      [
        100.04425400868058,
        9.475230323150754
      ],
      [
        100.04426658153534,
        9.475231999531388
      ],
      [
        100.04439524374902,
        9.475209284573793
      ],
      [
        100.04444771446288,
        9.475155724212527
      ],
      [
        100.04456279799342,
        9.4750155787915
      ],
      [
        100.0446156039834,
        9.474955564364791
      ],
      [
        100.04463220015168,
        9.47494676336646
      ],
      [
        100.04474887624383,
        9.474915163591504
      ],
      [
        100.04478215239942,
        9.474909882992506
      ],
      [
        100.04482205025852,
        9.474910721182823
      ],
      [
        100.04494878463447,
        9.474894795566797
      ],
      [
        100.04508281126618,
        9.474871326237917
      ],
      [
        100.0451679714024,
        9.47484752163291
      ],
      [
        100.04519588313997,
        9.474836038425565
      ],
      [
        100.04538824781775,
        9.474786669015884
      ],
      [
        100.04541356116533,
        9.474782394245267
      ],
      [
        100.04558723419905,
        9.474733024835587
      ],
      [
        100.0456362683326,
        9.474710812792182
      ],
      [
        100.04572712816298,
        9.474676866084337
      ],
      [
        100.04581337794662,
        9.474644679576159
      ],
      [
        100.04591882228851,
        9.474604614078999
      ],
      [
        100.04596550948918,
        9.474586006253958
      ],
      [
        100.04615443758667,
        9.47449665516615
      ],
      [
        100.04623088054359,
        9.474446782842278
      ],
      [
        100.04624127410352,
        9.474442759528756
      ],
      [
        100.04640438593924,
        9.474366148933768
      ],
      [
        100.04644906148314,
        9.474331196397543
      ],
      [
        100.04646364599466,
        9.47432616725564
      ],
      [
        100.04652449861169,
        9.47429783642292
      ],
      [
        100.04656062461436,
        9.474293310195208
      ],
      [
        100.04659599624574,
        9.474291549995542
      ],
      [
        100.04664444364607,
        9.474293142557144
      ],
      [
        100.04666439257562,
        9.474280150607228
      ],
      [
        100.046789618209,
        9.474217537790537
      ],
      [
        100.04696119576693,
        9.474130952730775
      ],
      [
        100.04701232537627,
        9.474110249429941
      ],
      [
        100.04711735062301,
        9.474055767059326
      ],
      [
        100.04715532064438,
        9.474031459540129
      ],
      [
        100.04717552103102,
        9.474014192819595
      ],
      [
        100.04723846912384,
        9.473976222798228
      ],
      [
        100.0472920294851,
        9.47394110262394
      ],
      [
        100.04735388793051,
        9.473894080147147
      ],
      [
        100.04740350879729,
        9.473858457058668
      ],
      [
        100.04742815159261,
        9.473834400996566
      ],
      [
        100.04745556041598,
        9.473814284428954
      ],
      [
        100.04758765920997,
        9.473741445690393
      ],
      [
        100.04759872332215,
        9.473731303587556
      ],
      [
        100.04760819487274,
        9.473726022988558
      ],
      [
        100.04767642356455,
        9.4737031403929
      ],
      [
        100.04771313630044,
        9.473684867843986
      ],
      [
        100.04785822704434,
        9.473647903650999
      ],
      [
        100.04783123731613,
        9.473552936688066
      ],
      [
        100.04782654345036,
        9.473543297499418
      ],
      [
        100.04781799390912,
        9.473519073799253
      ],
      [
        100.04779930226505,
        9.473483450710773
      ],
      [
        100.04778698086739,
        9.473458975553513
      ],
      [
        100.04777323454618,
        9.473418490961194
      ],
      [
        100.04777600057423,
        9.473407259210944
      ],
      [
        100.04773090593517,
        9.473270634189248
      ],
      [
        100.04769754596055,
        9.473158735781908
      ],
      [
        100.04769033752382,
        9.473136942833662
      ],
      [
        100.04766410216689,
        9.473099056631327
      ],
      [
        100.04763803444803,
        9.473033677786589
      ],
      [
        100.04759495146573,
        9.47295656427741
      ],
      [
        100.04754927009344,
        9.472881965339184
      ],
      [
        100.04754910245538,
        9.472857490181923
      ],
      [
        100.04752387292683,
        9.472790937870741
      ],
      [
        100.04755304194987,
        9.472730588167906
      ],
      [
        100.04753979854286,
        9.472631346434355
      ],
      [
        100.0475272256881,
        9.472580971196294
      ],
      [
        100.04744650796056,
        9.472403526306152
      ],
      [
        100.04736637696624,
        9.472272349521518
      ]
    ]
  }
}
