{
  "type": "Feature",
  "properties": {
    "id": "intervals-178055374",
    "activity": "walking",
    "name": "Ko Samui Walking",
    "date": "2024-06-27T23:28:15Z",
    "distanceKm": 4.31,
    "movingTimeSeconds": 3205,
    "elapsedTimeSeconds": 3550,
    "ascentM": null,
    "descentM": null,
    "providers": [
      "Garmin",
      "Strava"
    ]
  },
  "geometry": {
    "type": "LineString",
    "coordinates": [
      [
        100.02601557411253,
        9.484748393297195
      ],
      [
        100.02601557411253,
        9.484748393297195
      ],
      [
        100.0259705632925,
        9.484774461016059
      ],
      [
        100.02590971067548,
        9.484820142388344
      ],
      [
        100.02590359188616,
        9.484823746606708
      ],
      [
        100.02577350474894,
        9.48495919816196
      ],
      [
        100.02574601210654,
        9.484992222860456
      ],
      [
        100.02571558579803,
        9.485031701624393
      ],
      [
        100.02562640234828,
        9.48516832664609
      ],
      [
        100.02561802044511,
        9.4851937238127
      ],
      [
        100.02561550587416,
        9.485203446820378
      ],
      [
        100.0255440082401,
        9.48528802022338
      ],
      [
        100.02552615478635,
        9.485295228660107
      ],
      [
        100.02536337822676,
        9.485389860346913
      ],
      [
        100.02522574737668,
        9.485443085432053
      ],
      [
        100.02520169131458,
        9.485453478991985
      ],
      [
        100.02518911845982,
        9.485459430143237
      ],
      [
        100.02517738379538,
        9.485468063503504
      ],
      [
        100.0251121725887,
        9.485493125393987
      ],
      [
        100.02499901689589,
        9.485525479540229
      ],
      [
        100.02480992116034,
        9.485565042123199
      ],
      [
        100.02476734109223,
        9.485566215589643
      ],
      [
        100.0245666783303,
        9.485625308007002
      ],
      [
        100.02453507855535,
        9.485629079863429
      ],
      [
        100.0245045684278,
        9.48563352227211
      ],
      [
        100.02443768084049,
        9.485638216137886
      ],
      [
        100.02438068389893,
        9.485651208087802
      ],
      [
        100.02435226924717,
        9.485655734315515
      ],
      [
        100.02433089539409,
        9.485665457323194
      ],
      [
        100.02430859953165,
        9.485674258321524
      ],
      [
        100.02426392398775,
        9.48569311760366
      ],
      [
        100.02424246631563,
        9.485701080411673
      ],
      [
        100.02412361092865,
        9.48573611676693
      ],
      [
        100.02402839250863,
        9.485789677128196
      ],
      [
        100.0238499417901,
        9.485881878063083
      ],
      [
        100.02368188463151,
        9.485958572477102
      ],
      [
        100.02351684495807,
        9.486059322953224
      ],
      [
        100.0233461894095,
        9.486126378178596
      ],
      [
        100.0231575127691,
        9.486164264380932
      ],
      [
        100.02296632155776,
        9.486167784780264
      ],
      [
        100.02288619056344,
        9.486157391220331
      ],
      [
        100.02281561493874,
        9.486156217753887
      ],
      [
        100.02280119806528,
        9.486150098964572
      ],
      [
        100.02271913923323,
        9.486136185005307
      ],
      [
        100.02257388085127,
        9.486130317673087
      ],
      [
        100.02253490500152,
        9.486138615757227
      ],
      [
        100.02239224500954,
        9.48615194298327
      ],
      [
        100.02233516424894,
        9.486194103956223
      ],
      [
        100.0223165564239,
        9.486205754801631
      ],
      [
        100.02225251868367,
        9.486232157796621
      ],
      [
        100.02221127972007,
        9.486263170838356
      ],
      [
        100.02215947955847,
        9.486295441165566
      ],
      [
        100.02209795638919,
        9.486330477520823
      ],
      [
        100.02208563499153,
        9.486338188871741
      ],
      [
        100.02206032164395,
        9.486353863030672
      ],
      [
        100.02201916649938,
        9.486379930749536
      ],
      [
        100.02197314985096,
        9.486405495554209
      ],
      [
        100.02183669246733,
        9.486482189968228
      ],
      [
        100.02175404690206,
        9.48653507977724
      ],
      [
        100.02174382098019,
        9.486541785299778
      ],
      [
        100.02170350402594,
        9.486566931009293
      ],
      [
        100.02160962671041,
        9.486622754484415
      ],
      [
        100.02158045768738,
        9.4866494089365
      ],
      [
        100.0215395539999,
        9.486667178571224
      ],
      [
        100.0215191859752,
        9.486685786396265
      ],
      [
        100.02147140912712,
        9.486711770296097
      ],
      [
        100.02143302001059,
        9.48672752827406
      ],
      [
        100.02142254263163,
        9.486730629578233
      ],
      [
        100.02131567336619,
        9.486852334812284
      ],
      [
        100.0212842412293,
        9.486907823011279
      ],
      [
        100.02124325372279,
        9.487064145505428
      ],
      [
        100.02117846161127,
        9.487241674214602
      ],
      [
        100.02115868031979,
        9.4872694183141
      ],
      [
        100.02111442387104,
        9.487338569015265
      ],
      [
        100.0209855940193,
        9.487469913437963
      ],
      [
        100.02086724154651,
        9.487610645592213
      ],
      [
        100.02084989100695,
        9.487629504874349
      ],
      [
        100.02083388157189,
        9.487646603956819
      ],
      [
        100.02081644721329,
        9.487665379419923
      ],
      [
        100.02071301452816,
        9.487796556204557
      ],
      [
        100.02057831734419,
        9.487923542037606
      ],
      [
        100.02045300789177,
        9.488029405474663
      ],
      [
        100.02037011086941,
        9.488151613622904
      ],
      [
        100.02035368233919,
        9.488193020224571
      ],
      [
        100.02034538425505,
        9.48820961639285
      ],
      [
        100.02032510004938,
        9.488327885046601
      ],
      [
        100.02031462267041,
        9.488359652459621
      ],
      [
        100.02031202428043,
        9.488370129838586
      ],
      [
        100.02030422911048,
        9.488437855616212
      ],
      [
        100.02028754912317,
        9.488494014367461
      ],
      [
        100.02028117887676,
        9.488505916669965
      ],
      [
        100.02026399597526,
        9.488541120663285
      ],
      [
        100.02017984166741,
        9.488708674907684
      ],
      [
        100.02015938982368,
        9.488750165328383
      ],
      [
        100.02014698460698,
        9.488770198076963
      ],
      [
        100.020054532215,
        9.488932974636555
      ],
      [
        100.02002636902034,
        9.48901922442019
      ],
      [
        100.02000600099564,
        9.489102875813842
      ],
      [
        100.01999795436859,
        9.489176301285625
      ],
      [
        100.01997331157327,
        9.489243943244219
      ],
      [
        100.01997699961066,
        9.48928501456976
      ],
      [
        100.01996534876525,
        9.489374617114663
      ],
      [
        100.01996191218495,
        9.489415269345045
      ],
      [
        100.0199252832681,
        9.489525239914656
      ],
      [
        100.01990499906242,
        9.489647699519992
      ],
      [
        100.01991095021367,
        9.489668989554048
      ],
      [
        100.01989435404539,
        9.489719867706299
      ],
      [
        100.01988261938095,
        9.489740068092942
      ],
      [
        100.01985202543437,
        9.489860264584422
      ],
      [
        100.01987725496292,
        9.489926481619477
      ],
      [
        100.01988873817027,
        9.48993100784719
      ],
      [
        100.01997767016292,
        9.489984819665551
      ],
      [
        100.02004221081734,
        9.490017173811793
      ],
      [
        100.02005000598729,
        9.490022538229823
      ],
      [
        100.02016802318394,
        9.490071320906281
      ],
      [
        100.02024094574153,
        9.490088503807783
      ],
      [
        100.02027631737292,
        9.490086240693927
      ],
      [
        100.02042107284069,
        9.490019185468554
      ],
      [
        100.0204810872674,
        9.490000829100609
      ],
      [
        100.02051813527942,
        9.489993369206786
      ],
      [
        100.02062735147774,
        9.489994291216135
      ],
      [
        100.02075735479593,
        9.48996520601213
      ],
      [
        100.02086514607072,
        9.489958081394434
      ],
      [
        100.02088878303766,
        9.489961853250861
      ],
      [
        100.02091124653816,
        9.489966547116637
      ],
      [
        100.02109615132213,
        9.489990184083581
      ],
      [
        100.02113697119057,
        9.490009797737002
      ],
      [
        100.02117343246937,
        9.490029411390424
      ],
      [
        100.02120645716786,
        9.490057993680239
      ],
      [
        100.02124140970409,
        9.490106273442507
      ],
      [
        100.02124945633113,
        9.490138795226812
      ],
      [
        100.02124099060893,
        9.490219010040164
      ],
      [
        100.02120519988239,
        9.490365190431476
      ],
      [
        100.0211978238076,
        9.49037667363882
      ],
      [
        100.02117468975484,
        9.490480776876211
      ],
      [
        100.02115650102496,
        9.49055596254766
      ],
      [
        100.02114979550242,
        9.490587059408426
      ],
      [
        100.02113713882864,
        9.490628633648157
      ],
      [
        100.02113479189575,
        9.490642547607422
      ],
      [
        100.02112825401127,
        9.490689067170024
      ],
      [
        100.02112272195518,
        9.490700969472528
      ],
      [
        100.0211164355278,
        9.490856789052486
      ],
      [
        100.0210990011692,
        9.49093365110457
      ],
      [
        100.02107536420226,
        9.490975979715586
      ],
      [
        100.02104619517922,
        9.490968184545636
      ],
      [
        100.02099632285535,
        9.490952007472515
      ],
      [
        100.0209713447839,
        9.49093365110457
      ],
      [
        100.0209092348814,
        9.490852765738964
      ],
      [
        100.02087243832648,
        9.490816136822104
      ],
      [
        100.02075190655887,
        9.490779004991055
      ],
      [
        100.02074285410345,
        9.490788979455829
      ],
      [
        100.02070211805403,
        9.490822507068515
      ],
      [
        100.0206671655178,
        9.490849999710917
      ],
      [
        100.02051872201264,
        9.490941194817424
      ],
      [
        100.02044663764536,
        9.490994587540627
      ],
      [
        100.02041352912784,
        9.491005651652813
      ],
      [
        100.02037681639194,
        9.491039346903563
      ],
      [
        100.02033532597125,
        9.49104554951191
      ],
      [
        100.02031864598393,
        9.491044543683529
      ],
      [
        100.02027983777225,
        9.491050997748971
      ],
      [
        100.02026592381299,
        9.491048734635115
      ],
      [
        100.02023038454354,
        9.491051081568003
      ],
      [
        100.0201755668968,
        9.491057619452477
      ],
      [
        100.02000667154789,
        9.49112618342042
      ],
      [
        100.0199628341943,
        9.491151832044125
      ],
      [
        100.01995403319597,
        9.491158202290535
      ],
      [
        100.01985546201468,
        9.491281164810061
      ],
      [
        100.01982017420232,
        9.491316620260477
      ],
      [
        100.01981698907912,
        9.49132508598268
      ],
      [
        100.01978790387511,
        9.491362301632762
      ],
      [
        100.0197712238878,
        9.491372779011726
      ],
      [
        100.01976770348847,
        9.491383088752627
      ],
      [
        100.01975487917662,
        9.49139985255897
      ],
      [
        100.01973283477128,
        9.491433296352625
      ],
      [
        100.01971984282136,
        9.491456346586347
      ],
      [
        100.01968547701836,
        9.491490963846445
      ],
      [
        100.01958036795259,
        9.491565143689513
      ],
      [
        100.01955673098564,
        9.491617949679494
      ],
      [
        100.01954055391252,
        9.491653153672814
      ],
      [
        100.01952454447746,
        9.491676706820726
      ],
      [
        100.01951398327947,
        9.491683496162295
      ],
      [
        100.01949680037796,
        9.491702020168304
      ],
      [
        100.01935372129083,
        9.491820205003023
      ],
      [
        100.01931340433657,
        9.491849457845092
      ],
      [
        100.01924090087414,
        9.491889607161283
      ],
      [
        100.01919354312122,
        9.491909053176641
      ],
      [
        100.01907988451421,
        9.491951800882816
      ],
      [
        100.01899598166347,
        9.491992788389325
      ],
      [
        100.01896580681205,
        9.492010055109859
      ],
      [
        100.01885038800538,
        9.492102842777967
      ],
      [
        100.01878450624645,
        9.492144668474793
      ],
      [
        100.01864955760539,
        9.492272660136223
      ],
      [
        100.01861795783043,
        9.492309791967273
      ],
      [
        100.01859624870121,
        9.49234675616026
      ],
      [
        100.01855609938502,
        9.492398221045732
      ],
      [
        100.0185193028301,
        9.492439040914178
      ],
      [
        100.01848602667451,
        9.49246016331017
      ],
      [
        100.01839416101575,
        9.492528140544891
      ],
      [
        100.01837203279138,
        9.492540126666427
      ],
      [
        100.01832526177168,
        9.492555800825357
      ],
      [
        100.0182312168181,
        9.492599554359913
      ],
      [
        100.01819349825382,
        9.492609780281782
      ],
      [
        100.01815837807953,
        9.492619587108493
      ],
      [
        100.01814488321543,
        9.492623778060079
      ],
      [
        100.01810364425182,
        9.492650516331196
      ],
      [
        100.01807254739106,
        9.49270935729146
      ],
      [
        100.0180430430919,
        9.492760570719838
      ],
      [
        100.01803809776902,
        9.492768701165915
      ],
      [
        100.01788588240743,
        9.492870541289449
      ],
      [
        100.01786962151527,
        9.492875905707479
      ],
      [
        100.01781715080142,
        9.492889568209648
      ],
      [
        100.0177851319313,
        9.492900548502803
      ],
      [
        100.01776258461177,
        9.492905661463737
      ],
      [
        100.01775336451828,
        9.492906332015991
      ],
      [
        100.01758924685419,
        9.492867607623339
      ],
      [
        100.01757374033332,
        9.492860902100801
      ],
      [
        100.0175678730011,
        9.492856711149216
      ],
      [
        100.01754842698574,
        9.49284078553319
      ],
      [
        100.01754121854901,
        9.492833744734526
      ],
      [
        100.01747424714267,
        9.492776496335864
      ],
      [
        100.01744625158608,
        9.492767108604312
      ],
      [
        100.01738833263516,
        9.492752021178603
      ],
      [
        100.0173723232001,
        9.492751099169254
      ],
      [
        100.0173416454345,
        9.492751602083445
      ],
      [
        100.01718741841614,
        9.492740035057068
      ],
      [
        100.01711952500045,
        9.492726288735867
      ],
      [
        100.01707979477942,
        9.492737269029021
      ],
      [
        100.01702355220914,
        9.49273869395256
      ],
      [
        100.017004692927,
        9.49271329678595
      ],
      [
        100.01698767766356,
        9.492686474695802
      ],
      [
        100.01694182865322,
        9.492510706186295
      ],
      [
        100.01690243370831,
        9.492469131946564
      ],
      [
        100.01689002849162,
        9.492459744215012
      ],
      [
        100.01682263799012,
        9.49238053523004
      ],
      [
        100.01681081950665,
        9.4923722371459
      ],
      [
        100.01676622778177,
        9.492304176092148
      ],
      [
        100.01675298437476,
        9.492274839431047
      ],
      [
        100.01669305376709,
        9.492172747850418
      ],
      [
        100.01667947508395,
        9.49214885942638
      ],
      [
        100.01663940958679,
        9.49212153442204
      ],
      [
        100.0166008528322,
        9.492119690403342
      ],
      [
        100.01654075458646,
        9.492147518321872
      ],
      [
        100.01653103157878,
        9.492182303220034
      ],
      [
        100.01649976707995,
        9.492263523861766
      ],
      [
        100.01648551784456,
        9.49227743782103
      ],
      [
        100.0163952447474,
        9.492393862456083
      ],
      [
        100.01636574044824,
        9.49245773255825
      ],
      [
        100.01633665524423,
        9.492517160251737
      ],
      [
        100.01631159335375,
        9.492559237405658
      ],
      [
        100.01629868522286,
        9.492575665935874
      ],
      [
        100.01620220951736,
        9.49272989295423
      ],
      [
        100.01617731526494,
        9.49274891987443
      ],
      [
        100.01615133136511,
        9.492773143574595
      ],
      [
        100.01605024561286,
        9.492854867130518
      ],
      [
        100.0160157121718,
        9.492883617058396
      ],
      [
        100.0159948412329,
        9.492929046973586
      ],
      [
        100.01594237051904,
        9.492970537394285
      ],
      [
        100.01590188592672,
        9.493013201281428
      ],
      [
        100.0158809311688,
        9.493032479658723
      ],
      [
        100.01583793200552,
        9.493085704743862
      ],
      [
        100.01579049043357,
        9.493134655058384
      ],
      [
        100.01570818014443,
        9.493199782446027
      ],
      [
        100.0156888179481,
        9.493210762739182
      ],
      [
        100.01565822400153,
        9.493229789659381
      ],
      [
        100.0156269595027,
        9.493250995874405
      ],
      [
        100.01559745520353,
        9.493273543193936
      ],
      [
        100.01557582989335,
        9.493291396647692
      ],
      [
        100.01554934307933,
        9.493317464366555
      ],
      [
        100.01554330810905,
        9.493324588984251
      ],
      [
        100.01553358510137,
        9.493332300335169
      ],
      [
        100.01552503556013,
        9.493341688066721
      ],
      [
        100.01550818793476,
        9.49335920624435
      ],
      [
        100.01550097949803,
        9.493365408852696
      ],
      [
        100.01549167558551,
        9.493372533470392
      ],
      [
        100.01548312604427,
        9.493380161002278
      ],
      [
        100.015466529876,
        9.493387872353196
      ],
      [
        100.01546015962958,
        9.493392398580909
      ],
      [
        100.01544959843159,
        9.493414359167218
      ],
      [
        100.01544088125229,
        9.493429781869054
      ],
      [
        100.01543124206364,
        9.493436152115464
      ],
      [
        100.0154231954366,
        9.493439588695765
      ],
      [
        100.01538530923426,
        9.49348141439259
      ],
      [
        100.01537709496915,
        9.493495495989919
      ],
      [
        100.01535060815513,
        9.493526257574558
      ],
      [
        100.01524105668068,
        9.493630360811949
      ],
      [
        100.01517358236015,
        9.493710240349174
      ],
      [
        100.0150825548917,
        9.49381367303431
      ],
      [
        100.01506478525698,
        9.493839154019952
      ],
      [
        100.01503301784396,
        9.493939066305757
      ],
      [
        100.01502010971308,
        9.493960943073034
      ],
      [
        100.01500887796283,
        9.49397150427103
      ],
      [
        100.01499412581325,
        9.493983909487724
      ],
      [
        100.0149847380817,
        9.493991453200579
      ],
      [
        100.01490955241024,
        9.49404132552445
      ],
      [
        100.01483269035816,
        9.494090611115098
      ],
      [
        100.01477963291109,
        9.494140567258
      ],
      [
        100.01471945084631,
        9.49417032301426
      ],
      [
        100.01458525657654,
        9.494276186451316
      ],
      [
        100.01451526768506,
        9.494399819523096
      ],
      [
        100.01450177282095,
        9.494419349357486
      ],
      [
        100.01449774950743,
        9.494438711553812
      ],
      [
        100.01448106952012,
        9.494464276358485
      ],
      [
        100.01447687856853,
        9.494484895840287
      ],
      [
        100.01437269151211,
        9.49459444731474
      ],
      [
        100.01432206481695,
        9.494652450084686
      ],
      [
        100.0142400059849,
        9.494711458683014
      ],
      [
        100.0140660814941,
        9.494766527786851
      ],
      [
        100.01402182504535,
        9.494807599112391
      ],
      [
        100.0140153709799,
        9.4948226865381
      ],
      [
        100.01399299129844,
        9.494846910238266
      ],
      [
        100.01389056444168,
        9.494995018467307
      ],
      [
        100.01387069933116,
        9.49509241618216
      ],
      [
        100.01386768184602,
        9.495102558284998
      ],
      [
        100.01384840346873,
        9.495210601016879
      ],
      [
        100.01384018920362,
        9.495350243523717
      ],
      [
        100.01376776956022,
        9.495515869930387
      ],
      [
        100.01375854946673,
        9.495550571009517
      ],
      [
        100.01373365521431,
        9.495619386434555
      ],
      [
        100.01370909623802,
        9.49565970338881
      ],
      [
        100.01368931494653,
        9.495707647874951
      ],
      [
        100.0136757362634,
        9.495724076405168
      ],
      [
        100.01359920948744,
        9.49585416354239
      ],
      [
        100.01357171684504,
        9.49596262536943
      ],
      [
        100.01357339322567,
        9.496015347540379
      ],
      [
        100.01357766799629,
        9.49616395868361
      ],
      [
        100.0135438889265,
        9.49631743133068
      ],
      [
        100.0135113671422,
        9.496353305876255
      ],
      [
        100.01349468715489,
        9.496369482949376
      ],
      [
        100.01344305463135,
        9.496450116857886
      ],
      [
        100.0133282225579,
        9.496508706361055
      ],
      [
        100.01319570466876,
        9.49652262032032
      ],
      [
        100.01310559920967,
        9.49656411074102
      ],
      [
        100.01302555203438,
        9.496665364131331
      ],
      [
        100.01297400332987,
        9.496753793209791
      ],
      [
        100.0129619333893,
        9.496806263923645
      ],
      [
        100.01294248737395,
        9.496840126812458
      ],
      [
        100.01284743659198,
        9.496995275840163
      ],
      [
        100.01279823482037,
        9.497046153992414
      ],
      [
        100.0127898529172,
        9.497054535895586
      ],
      [
        100.01267485320568,
        9.497203649953008
      ],
      [
        100.01258441247046,
        9.497335078194737
      ],
      [
        100.01259916462004,
        9.49752476066351
      ],
      [
        100.01259136945009,
        9.497572369873524
      ],
      [
        100.01256639137864,
        9.497602209448814
      ],
      [
        100.01255733892322,
        9.497644454240799
      ],
      [
        100.01256136223674,
        9.49767672456801
      ],
      [
        100.0125652179122,
        9.497696505859494
      ],
      [
        100.01256664283574,
        9.497703546658158
      ],
      [
        100.01256622374058,
        9.497711677104235
      ],
      [
        100.01257058233023,
        9.497722741216421
      ],
      [
        100.01257494091988,
        9.497734727337956
      ],
      [
        100.01257418654859,
        9.497757526114583
      ],
      [
        100.01256613992155,
        9.497771104797721
      ],
      [
        100.01256446354091,
        9.497797256335616
      ],
      [
        100.01255163922906,
        9.497866239398718
      ],
      [
        100.0125113222748,
        9.498007139191031
      ],
      [
        100.01249640248716,
        9.498030273243785
      ],
      [
        100.0124478712678,
        9.498119624331594
      ],
      [
        100.01240302808583,
        9.498252477496862
      ],
      [
        100.01238115131855,
        9.498330764472485
      ],
      [
        100.01236204057932,
        9.498421708121896
      ],
      [
        100.01235474832356,
        9.49844341725111
      ],
      [
        100.0123234000057,
        9.498550286516547
      ],
      [
        100.01226187683642,
        9.498602589592338
      ],
      [
        100.01225265674293,
        9.498644080013037
      ],
      [
        100.01218744553626,
        9.498731838539243
      ],
      [
        100.01214318908751,
        9.498815406113863
      ],
      [
        100.01212667673826,
        9.49886611662805
      ],
      [
        100.01209080219269,
        9.49893350712955
      ],
      [
        100.01206506974995,
        9.498971728608012
      ],
      [
        100.01206465065479,
        9.498978266492486
      ],
      [
        100.01204755157232,
        9.498994024470448
      ],
      [
        100.01203238032758,
        9.499016990885139
      ],
      [
        100.0120054744184,
        9.49905420653522
      ],
      [
        100.01194051466882,
        9.499197956174612
      ],
      [
        100.01194084994495,
        9.499209355562925
      ],
      [
        100.01190547831357,
        9.499306920915842
      ],
      [
        100.0118878763169,
        9.499379843473434
      ],
      [
        100.01187295652926,
        9.499469865113497
      ],
      [
        100.01186273060739,
        9.499489394947886
      ],
      [
        100.01181872561574,
        9.49956575408578
      ],
      [
        100.01180053688586,
        9.499593498185277
      ],
      [
        100.01177757047117,
        9.49963322840631
      ],
      [
        100.0117641594261,
        9.499673629179597
      ],
      [
        100.0117065757513,
        9.49976566247642
      ],
      [
        100.01161990687251,
        9.499834729358554
      ],
      [
        100.01157984137535,
        9.49987219646573
      ],
      [
        100.01154782250524,
        9.499932378530502
      ],
      [
        100.01153038814664,
        9.499962385743856
      ],
      [
        100.01151429489255,
        9.49998308904469
      ],
      [
        100.0115133728832,
        9.499996500089765
      ],
      [
        100.01150247640908,
        9.500009408220649
      ],
      [
        100.01146920025349,
        9.500053161755204
      ],
      [
        100.01144950278103,
        9.500139746814966
      ],
      [
        100.01144648529589,
        9.500168496742845
      ],
      [
        100.01144799403846,
        9.50019221752882
      ],
      [
        100.01146593131125,
        9.500273019075394
      ],
      [
        100.01146676950157,
        9.500287352129817
      ],
      [
        100.01147263683379,
        9.500336218625307
      ],
      [
        100.0114686973393,
        9.500378547236323
      ],
      [
        100.01150876283646,
        9.50049564242363
      ],
      [
        100.0115305557847,
        9.50054157525301
      ],
      [
        100.01091934740543,
        9.504574779421091
      ],
      [
        100.01091934740543,
        9.504574779421091
      ],
      [
        100.01088380813599,
        9.504620879888535
      ],
      [
        100.01084357500076,
        9.504682486876845
      ],
      [
        100.01079252921045,
        9.504829673096538
      ],
      [
        100.01077827997506,
        9.504873091354966
      ],
      [
        100.01077123917639,
        9.504888346418738
      ],
      [
        100.01076654531062,
        9.504901841282845
      ],
      [
        100.01075657084584,
        9.50491726398468
      ],
      [
        100.01074802130461,
        9.504950288683176
      ],
      [
        100.01074156723917,
        9.505112562328577
      ],
      [
        100.01072958111763,
        9.505258575081825
      ],
      [
        100.01070829108357,
        9.505341136828065
      ],
      [
        100.01071248203516,
        9.50551095418632
      ],
      [
        100.01071650534868,
        9.505581194534898
      ],
      [
        100.01074475236237,
        9.505656464025378
      ],
      [
        100.01076956279576,
        9.505761824548244
      ],
      [
        100.01077199354768,
        9.505783701315522
      ],
      [
        100.01076998189092,
        9.505815468728542
      ],
      [
        100.01077366992831,
        9.50583592057228
      ],
      [
        100.0107760168612,
        9.50584371574223
      ],
      [
        100.01077903434634,
        9.505862407386303
      ],
      [
        100.01078205183148,
        9.5059868786484
      ],
      [
        100.01077383756638,
        9.506029123440385
      ],
      [
        100.01075095497072,
        9.506083186715841
      ],
      [
        100.01074416562915,
        9.506091736257076
      ],
      [
        100.01066202297807,
        9.506198354065418
      ],
      [
        100.01061734743416,
        9.506218219175935
      ],
      [
        100.01053721643984,
        9.506282089278102
      ],
      [
        100.01045214012265,
        9.506319724023342
      ],
      [
        100.01040771603584,
        9.50633472763002
      ],
      [
        100.01039799302816,
        9.506337828934193
      ],
      [
        100.01037552952766,
        9.506358113139868
      ],
      [
        100.01021476462483,
        9.506444362923503
      ],
      [
        100.01007881015539,
        9.506537318229675
      ],
      [
        100.00994076021016,
        9.506650138646364
      ],
      [
        100.00980958342552,
        9.506746027618647
      ],
      [
        100.00977714546025,
        9.506771005690098
      ],
      [
        100.0097191426903,
        9.506835713982582
      ],
      [
        100.00964244827628,
        9.506884077563882
      ],
      [
        100.00957497395575,
        9.506927831098437
      ],
      [
        100.00951873138547,
        9.506953060626984
      ],
      [
        100.00942627899349,
        9.506990611553192
      ],
      [
        100.00933768227696,
        9.507070910185575
      ],
      [
        100.00926517881453,
        9.50725195929408
      ],
      [
        100.00917113386095,
        9.507405012845993
      ],
      [
        100.00917289406061,
        9.50749285519123
      ],
      [
        100.00909661874175,
        9.50763065367937
      ],
      [
        100.00906937755644,
        9.50764574110508
      ],
      [
        100.00898924656212,
        9.507679101079702
      ],
      [
        100.00893903896213,
        9.507653452455997
      ],
      [
        100.00886368565261,
        9.507481204345822
      ],
      [
        100.0087743345648,
        9.507323876023293
      ],
      [
        100.00872915610671,
        9.507151544094086
      ],
      [
        100.00860795378685,
        9.50700469315052
      ],
      [
        100.00853997655213,
        9.506917269900441
      ],
      [
        100.00851650722325,
        9.50687913224101
      ],
      [
        100.00849714502692,
        9.506815765053034
      ],
      [
        100.0084793753922,
        9.50662205927074
      ],
      [
        100.00844023190439,
        9.50652097351849
      ],
      [
        100.00833621248603,
        9.506367417052388
      ],
      [
        100.00828399322927,
        9.506240766495466
      ],
      [
        100.0081873498857,
        9.506081426516175
      ],
      [
        100.00807075761259,
        9.50592183507979
      ],
      [
        100.00802708789706,
        9.505881434306502
      ],
      [
        100.0078440271318,
        9.505801554769278
      ],
      [
        100.00767203047872,
        9.505760483443737
      ],
      [
        100.00758066773415,
        9.5057469047606
      ],
      [
        100.0074468087405,
        9.505700636655092
      ],
      [
        100.00726802274585,
        9.505638107657433
      ],
      [
        100.00714858062565,
        9.505544817075133
      ],
      [
        100.00704640522599,
        9.505380867049098
      ],
      [
        100.00701078213751,
        9.505274249240756
      ],
      [
        100.0069956947118,
        9.505190597847104
      ],
      [
        100.00694364309311,
        9.505011141300201
      ],
      [
        100.00694850459695,
        9.50496319681406
      ],
      [
        100.00696468167007,
        9.504920113831758
      ],
      [
        100.00700189732015,
        9.50473696924746
      ],
      [
        100.00706870108843,
        9.504567068070173
      ],
      [
        100.00709074549377,
        9.504520045593381
      ],
      [
        100.00707808881998,
        9.504453912377357
      ],
      [
        100.00706400722265,
        9.504411919042468
      ],
      [
        100.00704523175955,
        9.504365902394056
      ],
      [
        100.00701949931681,
        9.504175381734967
      ],
      [
        100.00694431364536,
        9.504080833867192
      ],
      [
        100.00691422261298,
        9.504030710086226
      ],
      [
        100.00688161700964,
        9.504010509699583
      ],
      [
        100.00687541440129,
        9.504009671509266
      ],
      [
        100.00682327896357,
        9.503967929631472
      ],
      [
        100.00670744106174,
        9.503863910213113
      ],
      [
        100.0066883303225,
        9.503844548016787
      ],
      [
        100.00665019266307,
        9.503789646551013
      ],
      [
        100.00664013437927,
        9.503772715106606
      ],
      [
        100.00664080493152,
        9.503658302128315
      ],
      [
        100.00663007609546,
        9.503628546372056
      ],
      [
        100.00662052072585,
        9.503595856949687
      ],
      [
        100.00654432922602,
        9.503514971584082
      ],
      [
        100.00645631924272,
        9.503355715423822
      ],
      [
        100.00643293373287,
        9.503346243873239
      ],
      [
        100.00641273334622,
        9.503312800079584
      ],
      [
        100.00636990182102,
        9.503284050151706
      ],
      [
        100.0063534732908,
        9.503273405134678
      ],
      [
        100.00625087879598,
        9.503222359344363
      ],
      [
        100.00615716911852,
        9.5031669549644
      ],
      [
        100.00615792348981,
        9.503162344917655
      ],
      [
        100.00604937784374,
        9.503210624679923
      ],
      [
        100.00598802231252,
        9.503250941634178
      ],
      [
        100.0058547500521,
        9.503241302445531
      ],
      [
        100.00579305924475,
        9.503248929977417
      ],
      [
        100.00565718859434,
        9.503263430669904
      ],
      [
        100.00561754219234,
        9.503248929977417
      ],
      [
        100.00548795796931,
        9.503236943855882
      ],
      [
        100.00537304207683,
        9.503207858651876
      ],
      [
        100.0053589604795,
        9.503204170614481
      ],
      [
        100.00534244813025,
        9.503139881417155
      ],
      [
        100.00529458746314,
        9.503139713779092
      ],
      [
        100.00527773983777,
        9.503127224743366
      ],
      [
        100.00526374205947,
        9.503109874203801
      ],
      [
        100.00525343231857,
        9.503088919445872
      ],
      [
        100.00525569543242,
        9.50307508930564
      ],
      [
        100.00525075010955,
        9.503057152032852
      ],
      [
        100.0052514206618,
        9.503046423196793
      ],
      [
        100.00525603070855,
        9.503018008545041
      ],
      [
        100.00527866184711,
        9.502905020490289
      ],
      [
        100.00525619834661,
        9.502853220328689
      ],
      [
        100.00525644980371,
        9.502841737121344
      ],
      [
        100.00525770708919,
        9.502827487885952
      ],
      [
        100.00526424497366,
        9.502795385196805
      ],
      [
        100.00526709482074,
        9.502779375761747
      ],
      [
        100.00527053140104,
        9.502762276679277
      ],
      [
        100.00524370931089,
        9.502730006352067
      ],
      [
        100.00524010509253,
        9.50270963832736
      ],
      [
        100.00523490831256,
        9.502678541466594
      ],
      [
        100.00518746674061,
        9.50250394642353
      ],
      [
        100.00518780201674,
        9.502488020807505
      ]
    ]
  }
}
