{
  "type": "Feature",
  "properties": {
    "id": "intervals-178055446",
    "activity": "walking",
    "name": "Ko Samui Walking",
    "date": "2024-07-04T23:11:50Z",
    "distanceKm": 4.82,
    "movingTimeSeconds": 3519,
    "elapsedTimeSeconds": 3523,
    "ascentM": null,
    "descentM": null
  },
  "geometry": {
    "type": "LineString",
    "coordinates": [
      [
        100.02582924440503,
        9.484889712184668
      ],
      [
        100.02582924440503,
        9.484889712184668
      ],
      [
        100.02575456164777,
        9.484912594780326
      ],
      [
        100.0257136579603,
        9.484942434355617
      ],
      [
        100.02564056776464,
        9.48501443490386
      ],
      [
        100.02558331936598,
        9.485102109611034
      ],
      [
        100.0255376379937,
        9.4852230604738
      ],
      [
        100.02549413591623,
        9.4853076338768
      ],
      [
        100.02538341097534,
        9.485383406281471
      ],
      [
        100.02536438405514,
        9.485389022156596
      ],
      [
        100.02529154531658,
        9.485403606668115
      ],
      [
        100.02510043792427,
        9.485438391566277
      ],
      [
        100.0250278506428,
        9.48547719977796
      ],
      [
        100.02493305131793,
        9.48550159111619
      ],
      [
        100.0249001942575,
        9.485502764582634
      ],
      [
        100.02480388619006,
        9.485519612208009
      ],
      [
        100.02475384622812,
        9.485524138435721
      ],
      [
        100.02473859116435,
        9.485526150092483
      ],
      [
        100.02456726506352,
        9.485532436519861
      ],
      [
        100.02455259673297,
        9.485538639128208
      ],
      [
        100.02452418208122,
        9.485547691583633
      ],
      [
        100.02448352985084,
        9.485555989667773
      ],
      [
        100.02433005720377,
        9.485589265823364
      ],
      [
        100.02416585572064,
        9.485650202259421
      ],
      [
        100.02412931062281,
        9.485661769285798
      ],
      [
        100.02410248853266,
        9.485671827569604
      ],
      [
        100.0239796936512,
        9.485736452043056
      ],
      [
        100.0238123908639,
        9.485820941627026
      ],
      [
        100.02375547774136,
        9.485850194469094
      ],
      [
        100.02372077666223,
        9.485872406512499
      ],
      [
        100.02359538339078,
        9.48596527799964
      ],
      [
        100.02348725683987,
        9.486008528620005
      ],
      [
        100.02347795292735,
        9.486013054847717
      ],
      [
        100.02347024157643,
        9.486022526398301
      ],
      [
        100.02345314249396,
        9.486032919958234
      ],
      [
        100.02327804453671,
        9.486111290752888
      ],
      [
        100.023088529706,
        9.48614557273686
      ],
      [
        100.02299590967596,
        9.48613928630948
      ],
      [
        100.02289155498147,
        9.486140124499798
      ],
      [
        100.02282022498548,
        9.48613584972918
      ],
      [
        100.02267697826028,
        9.486098298802972
      ],
      [
        100.02259902656078,
        9.48608748614788
      ],
      [
        100.02257220447063,
        9.486088827252388
      ],
      [
        100.02238822169602,
        9.486112045124173
      ],
      [
        100.0222975295037,
        9.486149428412318
      ],
      [
        100.02223231829703,
        9.48618471622467
      ],
      [
        100.02221052534878,
        9.486195780336857
      ],
      [
        100.022192588076,
        9.486207934096456
      ],
      [
        100.02218345180154,
        9.486211035400629
      ],
      [
        100.0221648439765,
        9.486220926046371
      ],
      [
        100.0221405364573,
        9.486242216080427
      ],
      [
        100.02211689949036,
        9.48625554330647
      ],
      [
        100.02199779264629,
        9.486345145851374
      ],
      [
        100.02195479348302,
        9.486366854980588
      ],
      [
        100.02179428003728,
        9.486451847478747
      ],
      [
        100.02177391201258,
        9.48646366596222
      ],
      [
        100.02170509658754,
        9.486546479165554
      ],
      [
        100.02167995087802,
        9.486567182466388
      ],
      [
        100.02156310714781,
        9.486624179407954
      ],
      [
        100.02152614295483,
        9.486639350652695
      ],
      [
        100.02150711603463,
        9.486651420593262
      ],
      [
        100.02147803083062,
        9.486675057560205
      ],
      [
        100.02135448157787,
        9.48674563318491
      ],
      [
        100.02132992260158,
        9.486764911562204
      ],
      [
        100.02122548408806,
        9.486898016184568
      ],
      [
        100.02122724428773,
        9.486918887123466
      ],
      [
        100.0212218798697,
        9.486941182985902
      ],
      [
        100.02120612189174,
        9.487020559608936
      ],
      [
        100.0211991649121,
        9.487054338678718
      ],
      [
        100.02112179994583,
        9.487226167693734
      ],
      [
        100.02110746689141,
        9.487244775518775
      ],
      [
        100.02103605307639,
        9.487340077757835
      ],
      [
        100.02101769670844,
        9.487372264266014
      ],
      [
        100.02092742361128,
        9.487531436607242
      ],
      [
        100.02091074362397,
        9.48754895478487
      ],
      [
        100.02085207030177,
        9.487614836543798
      ],
      [
        100.02083094790578,
        9.487640988081694
      ],
      [
        100.02078266814351,
        9.487688094377518
      ],
      [
        100.02074134536088,
        9.487726148217916
      ],
      [
        100.02073765732348,
        9.487735871225595
      ],
      [
        100.02064830623567,
        9.487843494862318
      ],
      [
        100.02059717662632,
        9.487888002768159
      ],
      [
        100.0205500703305,
        9.487940054386854
      ],
      [
        100.02051964402199,
        9.487969223409891
      ],
      [
        100.02049550414085,
        9.487994704395533
      ],
      [
        100.02047304064035,
        9.488006439059973
      ],
      [
        100.02045778557658,
        9.48802387341857
      ],
      [
        100.0204567797482,
        9.488053293898702
      ],
      [
        100.02045786939561,
        9.488065280020237
      ],
      [
        100.02045007422566,
        9.488082127645612
      ],
      [
        100.02044722437859,
        9.488090593367815
      ],
      [
        100.02044077031314,
        9.488098472356796
      ],
      [
        100.0204276945442,
        9.488127138465643
      ],
      [
        100.02040372230113,
        9.488146249204874
      ],
      [
        100.02034563571215,
        9.48823350481689
      ],
      [
        100.02031931653619,
        9.488341715186834
      ],
      [
        100.02029308117926,
        9.488395527005196
      ],
      [
        100.02027874812484,
        9.488415056839585
      ],
      [
        100.0201911572367,
        9.488561572507024
      ],
      [
        100.0201755668968,
        9.488616976886988
      ],
      [
        100.02016039565206,
        9.488646648824215
      ],
      [
        100.02013290300965,
        9.48872895911336
      ],
      [
        100.02011680975556,
        9.488766510039568
      ],
      [
        100.0201026443392,
        9.488822584971786
      ],
      [
        100.02008814364672,
        9.488857286050916
      ],
      [
        100.02002159133554,
        9.489029701799154
      ],
      [
        100.01999191939831,
        9.489158364012837
      ],
      [
        100.01996182836592,
        9.48934025131166
      ],
      [
        100.01992888748646,
        9.48942918330431
      ],
      [
        100.01991212368011,
        9.489578045904636
      ],
      [
        100.01987901516259,
        9.489694889634848
      ],
      [
        100.01988454721868,
        9.489874765276909
      ],
      [
        100.02001253888011,
        9.490002505481243
      ],
      [
        100.02017581835389,
        9.490086827427149
      ],
      [
        100.02020616084337,
        9.490094119682908
      ],
      [
        100.02038343809545,
        9.490032093599439
      ],
      [
        100.02051302231848,
        9.489991692826152
      ],
      [
        100.02061704173684,
        9.489978030323982
      ],
      [
        100.02080756239593,
        9.48997501283884
      ],
      [
        100.02091962844133,
        9.489955063909292
      ],
      [
        100.02095357514918,
        9.489948693662882
      ],
      [
        100.02110780216753,
        9.489965122193098
      ],
      [
        100.02116697840393,
        9.49001214466989
      ],
      [
        100.02117913216352,
        9.490039721131325
      ],
      [
        100.02122255042195,
        9.490178860723972
      ],
      [
        100.021214755252,
        9.490198139101267
      ],
      [
        100.02120578661561,
        9.490240635350347
      ],
      [
        100.02119514159858,
        9.490296375006437
      ],
      [
        100.0211875140667,
        9.49033367447555
      ],
      [
        100.02117888070643,
        9.490358987823129
      ],
      [
        100.02116203308105,
        9.490405423566699
      ],
      [
        100.02114325761795,
        9.490471556782722
      ],
      [
        100.0211404915899,
        9.490495109930634
      ],
      [
        100.02113906666636,
        9.490506928414106
      ],
      [
        100.0211391504854,
        9.490555040538311
      ],
      [
        100.02112800255418,
        9.490599883720279
      ],
      [
        100.02112079411745,
        9.490633495151997
      ],
      [
        100.02112381160259,
        9.49074950069189
      ],
      [
        100.02111945301294,
        9.490793757140636
      ],
      [
        100.02110746689141,
        9.490896183997393
      ],
      [
        100.02109196037054,
        9.490934405475855
      ],
      [
        100.02106203697622,
        9.490953600034118
      ],
      [
        100.02105474472046,
        9.490954354405403
      ],
      [
        100.02105474472046,
        9.490954354405403
      ],
      [
        100.02099120989442,
        9.490940608084202
      ],
      [
        100.02096363343298,
        9.490924263373017
      ],
      [
        100.02093815244734,
        9.490904482081532
      ],
      [
        100.02092817798257,
        9.490899536758661
      ],
      [
        100.02087243832648,
        9.49083742685616
      ],
      [
        100.02073103561997,
        9.490766432136297
      ],
      [
        100.0205796584487,
        9.490881348028779
      ],
      [
        100.02054747194052,
        9.490901548415422
      ],
      [
        100.02050363458693,
        9.490944379940629
      ],
      [
        100.02035175450146,
        9.491037167608738
      ],
      [
        100.02028897404671,
        9.491034988313913
      ],
      [
        100.02009686082602,
        9.491040352731943
      ],
      [
        100.01995185390115,
        9.491092907264829
      ],
      [
        100.01983526162803,
        9.491238836199045
      ],
      [
        100.01977222971618,
        9.49133581481874
      ],
      [
        100.01962663605809,
        9.49147704988718
      ],
      [
        100.0195759255439,
        9.491537902504206
      ],
      [
        100.01947710290551,
        9.491683496162295
      ],
      [
        100.01937635242939,
        9.491754490882158
      ],
      [
        100.01923335716128,
        9.491859683766961
      ],
      [
        100.01913302578032,
        9.491904024034739
      ],
      [
        100.01900562085211,
        9.491945262998343
      ],
      [
        100.01885726116598,
        9.492063615471125
      ],
      [
        100.01871602609754,
        9.49219529516995
      ],
      [
        100.01860764808953,
        9.492307445034385
      ],
      [
        100.0186025351286,
        9.492316748946905
      ],
      [
        100.0185832567513,
        9.492354718968272
      ],
      [
        100.01852718181908,
        9.492417247965932
      ],
      [
        100.01846356317401,
        9.49248899705708
      ],
      [
        100.01829215325415,
        9.492568792775273
      ],
      [
        100.01811554655433,
        9.492629393935204
      ],
      [
        100.01803323626518,
        9.492750512436032
      ],
      [
        100.0179526861757,
        9.492845898494124
      ],
      [
        100.01788621768355,
        9.492885209619999
      ],
      [
        100.01778068952262,
        9.492894681170583
      ],
      [
        100.01762889325619,
        9.492890741676092
      ],
      [
        100.0176164880395,
        9.492886634543538
      ],
      [
        100.01756703481078,
        9.492867775261402
      ],
      [
        100.0174021627754,
        9.492783285677433
      ],
      [
        100.01735061407089,
        9.492758978158236
      ],
      [
        100.01729914918542,
        9.492753446102142
      ],
      [
        100.0171841494739,
        9.492758642882109
      ],
      [
        100.01710837706923,
        9.492744896560907
      ],
      [
        100.01704190857708,
        9.492728132754564
      ],
      [
        100.01696621999145,
        9.4926624186337
      ],
      [
        100.01695968210697,
        9.492647666484118
      ],
      [
        100.01694031991065,
        9.492548760026693
      ],
      [
        100.01689488999546,
        9.492452871054411
      ],
      [
        100.01678450033069,
        9.492314485833049
      ],
      [
        100.01676170155406,
        9.492278108373284
      ],
      [
        100.01675357110798,
        9.492247933521867
      ],
      [
        100.01673479564488,
        9.492221027612686
      ],
      [
        100.01656950451434,
        9.492144165560603
      ],
      [
        100.01648610457778,
        9.49215673841536
      ],
      [
        100.01646355725825,
        9.492189595475793
      ],
      [
        100.01645014621317,
        9.492209125310183
      ],
      [
        100.01643790863454,
        9.492222284898162
      ],
      [
        100.016407398507,
        9.492261596024036
      ],
      [
        100.01637294888496,
        9.492332674562931
      ],
      [
        100.01636163331568,
        9.49235019274056
      ],
      [
        100.0163558498025,
        9.492355054244399
      ],
      [
        100.0163315422833,
        9.492380702868104
      ],
      [
        100.01630740240216,
        9.492417080327868
      ],
      [
        100.0162517465651,
        9.492558483034372
      ],
      [
        100.01622618176043,
        9.492625454440713
      ],
      [
        100.016132555902,
        9.492782447487116
      ],
      [
        100.0161275267601,
        9.492787476629019
      ],
      [
        100.01610673964024,
        9.492804827168584
      ],
      [
        100.01610363833606,
        9.49281295761466
      ],
      [
        100.01607664860785,
        9.492846736684442
      ],
      [
        100.01605284400284,
        9.49287498369813
      ],
      [
        100.0159826874733,
        9.492933321744204
      ],
      [
        100.01594471745193,
        9.492960646748543
      ],
      [
        100.01585142686963,
        9.493055446073413
      ],
      [
        100.0157802645117,
        9.493119399994612
      ],
      [
        100.01567934639752,
        9.493208918720484
      ],
      [
        100.01566568389535,
        9.493217971175909
      ],
      [
        100.01557004638016,
        9.493268262594938
      ],
      [
        100.01551078632474,
        9.49330497533083
      ],
      [
        100.01547248102725,
        9.493349399417639
      ],
      [
        100.01542730256915,
        9.493398601189256
      ],
      [
        100.01538078300655,
        9.49344964697957
      ],
      [
        100.01532428897917,
        9.493490131571889
      ],
      [
        100.01528950408101,
        9.493532292544842
      ],
      [
        100.01520526595414,
        9.493634132668376
      ],
      [
        100.0151192676276,
        9.493765980005264
      ],
      [
        100.01507945358753,
        9.493823647499084
      ],
      [
        100.01496990211308,
        9.493986340239644
      ],
      [
        100.01493662595749,
        9.494031351059675
      ],
      [
        100.01488465815783,
        9.494066471233964
      ],
      [
        100.01480670645833,
        9.494110308587551
      ],
      [
        100.01477686688304,
        9.49414199218154
      ],
      [
        100.01467360183597,
        9.494249112904072
      ],
      [
        100.01465189270675,
        9.494277108460665
      ],
      [
        100.01462121494114,
        9.494306109845638
      ],
      [
        100.01459623686969,
        9.494321029633284
      ],
      [
        100.01457821577787,
        9.494363944977522
      ],
      [
        100.01451518386602,
        9.49444248341024
      ],
      [
        100.01446112059057,
        9.494506940245628
      ],
      [
        100.01444175839424,
        9.494517836719751
      ],
      [
        100.01435056328773,
        9.49458573013544
      ],
      [
        100.01419633626938,
        9.494693605229259
      ],
      [
        100.01413866877556,
        9.494712464511395
      ],
      [
        100.01408200711012,
        9.49473769403994
      ],
      [
        100.01390950754285,
        9.494810029864311
      ],
      [
        100.01386659219861,
        9.494889238849282
      ],
      [
        100.01385594718158,
        9.494938105344772
      ],
      [
        100.01384345814586,
        9.494995940476656
      ],
      [
        100.01383557915688,
        9.495091997087002
      ],
      [
        100.01381294801831,
        9.495273130014539
      ],
      [
        100.01379065215588,
        9.495363151654601
      ],
      [
        100.0137341581285,
        9.495498770847917
      ],
      [
        100.01367598772049,
        9.495667917653918
      ],
      [
        100.01363147981465,
        9.495854247361422
      ],
      [
        100.01361991278827,
        9.495871933177114
      ],
      [
        100.01357196830213,
        9.495975784957409
      ],
      [
        100.01354657113552,
        9.496016269549727
      ],
      [
        100.01353248953819,
        9.496105536818504
      ],
      [
        100.01355210319161,
        9.496223302558064
      ],
      [
        100.01350206322968,
        9.496422540396452
      ],
      [
        100.01349912956357,
        9.496547095477581
      ],
      [
        100.0134875625372,
        9.496549358591437
      ],
      [
        100.013346998021,
        9.496533265337348
      ],
      [
        100.0131485145539,
        9.496578695252538
      ],
      [
        100.01307249069214,
        9.496658658608794
      ],
      [
        100.01305354759097,
        9.49667701497674
      ],
      [
        100.01304072327912,
        9.496699562296271
      ],
      [
        100.01299428753555,
        9.496853789314628
      ],
      [
        100.01296252012253,
        9.496905002743006
      ],
      [
        100.01294835470617,
        9.496912294998765
      ],
      [
        100.01280125230551,
        9.49704447761178
      ],
      [
        100.01269857399166,
        9.497167691588402
      ],
      [
        100.01257351599634,
        9.497306747362018
      ],
      [
        100.01257418654859,
        9.497324600815773
      ],
      [
        100.01253412105143,
        9.497450413182378
      ],
      [
        100.01255247741938,
        9.497640263289213
      ],
      [
        100.01254342496395,
        9.497651159763336
      ],
      [
        100.01254350878298,
        9.497692314907908
      ],
      [
        100.01254669390619,
        9.497866407036781
      ],
      [
        100.01254853792489,
        9.49796313419938
      ],
      [
        100.01252984628081,
        9.498105123639107
      ],
      [
        100.01246857456863,
        9.498284412547946
      ],
      [
        100.01236631534994,
        9.498441657051444
      ],
      [
        100.01228685490787,
        9.49854458682239
      ],
      [
        100.01222407445312,
        9.498656233772635
      ],
      [
        100.01215064898133,
        9.498836528509855
      ],
      [
        100.01213631592691,
        9.498844658955932
      ],
      [
        100.01210228540003,
        9.498896123841405
      ],
      [
        100.0120178796351,
        9.498972902074456
      ],
      [
        100.01200882717967,
        9.498983463272452
      ],
      [
        100.01196180470288,
        9.499085554853082
      ],
      [
        100.01193380914629,
        9.49915143661201
      ],
      [
        100.01195241697133,
        9.499206002801657
      ],
      [
        100.01196758821607,
        9.499276578426361
      ],
      [
        100.01197521574795,
        9.499308932572603
      ],
      [
        100.01196364872158,
        9.499355619773269
      ],
      [
        100.01195459626615,
        9.49943239800632
      ],
      [
        100.01192048192024,
        9.499543374404311
      ],
      [
        100.01186390407383,
        9.499581009149551
      ],
      [
        100.01173851080239,
        9.49969475157559
      ],
      [
        100.01168235205114,
        9.499730542302132
      ],
      [
        100.01166064292192,
        9.49974026530981
      ],
      [
        100.01162962988019,
        9.499774631112814
      ],
      [
        100.01157883554697,
        9.499868340790272
      ],
      [
        100.01156508922577,
        9.499893989413977
      ],
      [
        100.01148805953562,
        9.500013766810298
      ],
      [
        100.01145889051259,
        9.50004905462265
      ],
      [
        100.01141304150224,
        9.500228511169553
      ],
      [
        100.0114129576832,
        9.50027821585536
      ],
      [
        100.01141287386417,
        9.500322137027979
      ],
      [
        100.0114129576832,
        9.500358095392585
      ],
      [
        100.01142452470958,
        9.50043068267405
      ],
      [
        100.0114338286221,
        9.500462869182229
      ],
      [
        100.01144128851593,
        9.500494385138154
      ],
      [
        100.01145159825683,
        9.500562530010939
      ],
      [
        100.01147842034698,
        9.500642493367195
      ],
      [
        100.01148889772594,
        9.500683983787894
      ],
      [
        100.0115292146802,
        9.500849861651659
      ],
      [
        100.01153751276433,
        9.500872492790222
      ],
      [
        100.01158487051725,
        9.500999059528112
      ],
      [
        100.0116412807256,
        9.501143731176853
      ],
      [
        100.01164823770523,
        9.501161752268672
      ],
      [
        100.01166625879705,
        9.501191591843963
      ],
      [
        100.0116880517453,
        9.501265436410904
      ],
      [
        100.01171101815999,
        9.501324696466327
      ],
      [
        100.01172090880573,
        9.501331150531769
      ],
      [
        100.01175183802843,
        9.501410527154803
      ],
      [
        100.01178167760372,
        9.50149979442358
      ],
      [
        100.01179265789688,
        9.501532735303044
      ],
      [
        100.01180925406516,
        9.50155645608902
      ],
      [
        100.0118659157306,
        9.5017353259027
      ],
      [
        100.01187496818602,
        9.501816043630242
      ],
      [
        100.0119782332331,
        9.50198351405561
      ],
      [
        100.0120125990361,
        9.502163976430893
      ],
      [
        100.01202190294862,
        9.502206137403846
      ],
      [
        100.01206951215863,
        9.502306887879968
      ],
      [
        100.01208242028952,
        9.502381067723036
      ],
      [
        100.01211242750287,
        9.50245600193739
      ],
      [
        100.012131286785,
        9.5025400724262
      ],
      [
        100.01213371753693,
        9.502588352188468
      ],
      [
        100.01212139613926,
        9.502686588093638
      ],
      [
        100.01201561652124,
        9.502838300541043
      ],
      [
        100.01199239864945,
        9.502909881994128
      ],
      [
        100.0119745451957,
        9.502933183684945
      ],
      [
        100.01196616329253,
        9.502961849793792
      ],
      [
        100.01193540170789,
        9.503062264993787
      ],
      [
        100.01187060959637,
        9.50321582145989
      ],
      [
        100.01176935620606,
        9.50337566435337
      ],
      [
        100.01173599623144,
        9.503426207229495
      ],
      [
        100.01166173256934,
        9.503504745662212
      ],
      [
        100.01156668178737,
        9.503610525280237
      ],
      [
        100.0114721339196,
        9.503743797540665
      ],
      [
        100.0114184897393,
        9.50380808673799
      ],
      [
        100.01140356995165,
        9.503818564116955
      ],
      [
        100.01135160215199,
        9.503879332914948
      ],
      [
        100.01126417890191,
        9.504043953493237
      ],
      [
        100.0112303160131,
        9.5041080750525
      ],
      [
        100.01123048365116,
        9.504118971526623
      ],
      [
        100.01121757552028,
        9.504134729504585
      ],
      [
        100.01121237874031,
        9.504146380349994
      ],
      [
        100.01120500266552,
        9.504160210490227
      ],
      [
        100.0111988838762,
        9.504174711182714
      ],
      [
        100.01118991523981,
        9.504186110571027
      ],
      [
        100.01116393133998,
        9.504207903519273
      ],
      [
        100.011116405949,
        9.50425417162478
      ],
      [
        100.01107843592763,
        9.504308151081204
      ],
      [
        100.01096360385418,
        9.504455169662833
      ],
      [
        100.01093560829759,
        9.504488110542297
      ],
      [
        100.01089612953365,
        9.504539323970675
      ],
      [
        100.01082337461412,
        9.504707464948297
      ],
      [
        100.01080711372197,
        9.504720959812403
      ],
      [
        100.01073167659342,
        9.504805784672499
      ],
      [
        100.01071248203516,
        9.504883149638772
      ],
      [
        100.01071675680578,
        9.50496713630855
      ],
      [
        100.01075782813132,
        9.505108874291182
      ],
      [
        100.0107625219971,
        9.505123039707541
      ],
      [
        100.01076947897673,
        9.505152376368642
      ],
      [
        100.01076964661479,
        9.505201326683164
      ],
      [
        100.01072874292731,
        9.505387069657445
      ],
      [
        100.0107207801193,
        9.505478264763951
      ],
      [
        100.01073025166988,
        9.505558563396335
      ],
      [
        100.01073561608791,
        9.505634168162942
      ],
      [
        100.0107638631016,
        9.505786467343569
      ],
      [
        100.01078699715436,
        9.505874644964933
      ],
      [
        100.01079537905753,
        9.505891324952245
      ],
      [
        100.01079705543816,
        9.505983358249068
      ],
      [
        100.01077408902347,
        9.506104979664087
      ],
      [
        100.01075388863683,
        9.506139680743217
      ],
      [
        100.01075045205653,
        9.506148314103484
      ],
      [
        100.01073762774467,
        9.506166335195303
      ],
      [
        100.01071122474968,
        9.5061906427145
      ],
      [
        100.0106692314148,
        9.506224002689123
      ],
      [
        100.01061785034835,
        9.506262894719839
      ],
      [
        100.01058524474502,
        9.506285106763244
      ],
      [
        100.01048390753567,
        9.50633816421032
      ],
      [
        100.01034770160913,
        9.506423827260733
      ],
      [
        100.01030537299812,
        9.506453415378928
      ],
      [
        100.0102788861841,
        9.506472023203969
      ],
      [
        100.01025306992233,
        9.506482165306807
      ],
      [
        100.01021007075906,
        9.506496163085103
      ],
      [
        100.01015433110297,
        9.50651066377759
      ],
      [
        100.01006321981549,
        9.506570007652044
      ],
      [
        100.01002667471766,
        9.50660646893084
      ],
      [
        100.00995459035039,
        9.506693724542856
      ],
      [
        100.00983179546893,
        9.506740998476744
      ],
      [
        100.00965937972069,
        9.506815765053034
      ],
      [
        100.00952308997512,
        9.506951132789254
      ],
      [
        100.00945930369198,
        9.50704081915319
      ],
      [
        100.00933516770601,
        9.507192196324468
      ],
      [
        100.00921748578548,
        9.507315242663026
      ],
      [
        100.00921715050936,
        9.507364528253675
      ],
      [
        100.00912805087864,
        9.507518922910094
      ],
      [
        100.00910474918783,
        9.507578769698739
      ],
      [
        100.00894499011338,
        9.50770148076117
      ],
      [
        100.00890475697815,
        9.507681867107749
      ],
      [
        100.00888975337148,
        9.507633671164513
      ],
      [
        100.0088715646416,
        9.507605088874698
      ],
      [
        100.00886410474777,
        9.507580697536469
      ],
      [
        100.0088623445481,
        9.507558066397905
      ],
      [
        100.00886502675712,
        9.507499560713768
      ],
      [
        100.00885429792106,
        9.507444072514772
      ],
      [
        100.00876897014678,
        9.50728121213615
      ],
      [
        100.00866176560521,
        9.507137462496758
      ],
      [
        100.00864374451339,
        9.507117178291082
      ],
      [
        100.0085967220366,
        9.507026402279735
      ],
      [
        100.0085139926523,
        9.506918108090758
      ],
      [
        100.00849882140756,
        9.506890280172229
      ],
      [
        100.00850334763527,
        9.506836635991931
      ],
      [
        100.00849538482726,
        9.506801515817642
      ],
      [
        100.00847535207868,
        9.506738735362887
      ],
      [
        100.00846730545163,
        9.506664723157883
      ],
      [
        100.00845900736749,
        9.506524074822664
      ],
      [
        100.00841894187033,
        9.506467999890447
      ],
      [
        100.00827016308904,
        9.506315030157566
      ],
      [
        100.00819128938019,
        9.506144626066089
      ],
      [
        100.00818667933345,
        9.506129454821348
      ],
      [
        100.00813068822026,
        9.50599567964673
      ],
      [
        100.00805617310107,
        9.50590523891151
      ],
      [
        100.00799934379756,
        9.505883110687137
      ],
      [
        100.0078284367919,
        9.505815720185637
      ],
      [
        100.00781351700425,
        9.505811780691147
      ],
      [
        100.00773875042796,
        9.505797196179628
      ],
      [
        100.00765467993915,
        9.505800548940897
      ],
      [
        100.00761201605201,
        9.505801387131214
      ],
      [
        100.00745938159525,
        9.505733828991652
      ],
      [
        100.00743230804801,
        9.50572008267045
      ],
      [
        100.00739827752113,
        9.505700720474124
      ],
      [
        100.00735091976821,
        9.5056760776788
      ],
      [
        100.00733784399927,
        9.505646405741572
      ],
      [
        100.00733155757189,
        9.505639281123877
      ],
      [
        100.00732719898224,
        9.5056242775172
      ],
      [
        100.00731814652681,
        9.505616649985313
      ],
      [
        100.00731026753783,
        9.505604077130556
      ],
      [
        100.00726123340428,
        9.505552276968956
      ],
      [
        100.00711136497557,
        9.505461249500513
      ],
      [
        100.00711111351848,
        9.505419423803687
      ],
      [
        100.00705813989043,
        9.505319176241755
      ],
      [
        100.00702419318259,
        9.505130667239428
      ],
      [
        100.00702821649611,
        9.504947606474161
      ],
      [
        100.00703609548509,
        9.504930842667818
      ],
      [
        100.00703299418092,
        9.504859931766987
      ],
      [
        100.0070567149669,
        9.504673685878515
      ],
      [
        100.00714112073183,
        9.504498336464167
      ],
      [
        100.00712502747774,
        9.504314018413424
      ],
      [
        100.00703475438058,
        9.5041564386338
      ],
      [
        100.00694297254086,
        9.504080666229129
      ],
      [
        100.00686636194587,
        9.50400983914733
      ],
      [
        100.00682160258293,
        9.50399424880743
      ],
      [
        100.00672630034387,
        9.503900622949004
      ],
      [
        100.00669780187309,
        9.5038231741637
      ],
      [
        100.00667047686875,
        9.503796268254519
      ],
      [
        100.00660845078528,
        9.503737846389413
      ],
      [
        100.00652429647744,
        9.50356375426054
      ],
      [
        100.00651516020298,
        9.503524443134665
      ],
      [
        100.00651289708912,
        9.503497201949358
      ],
      [
        100.00649797730148,
        9.503408102318645
      ],
      [
        100.00642631202936,
        9.503319589421153
      ],
      [
        100.00633670948446,
        9.503263514488935
      ],
      [
        100.00625372864306,
        9.50320752337575
      ],
      [
        100.00611282885075,
        9.503153124824166
      ],
      [
        100.00604577362537,
        9.503163015469909
      ],
      [
        100.0058714300394,
        9.50323836877942
      ],
      [
        100.00586757436395,
        9.503235686570406
      ],
      [
        100.0057976692915,
        9.503205511718988
      ],
      [
        100.00578601844609,
        9.503200147300959
      ],
      [
        100.0056592002511,
        9.503176677972078
      ],
      [
        100.00565459020436,
        9.50316209346056
      ],
      [
        100.0054488144815,
        9.503150694072247
      ],
      [
        100.00531788915396,
        9.503089673817158
      ],
      [
        100.0052241794765,
        9.502923963591456
      ],
      [
        100.00521797686815,
        9.502792786806822
      ],
      [
        100.00522007234395,
        9.50268181040883
      ],
      [
        100.00520909205079,
        9.50249757617712
      ],
      [
        100.00519501045346,
        9.502443261444569
      ]
    ]
  }
}
