{
  "type": "Feature",
  "properties": {
    "id": "intervals-178055308",
    "activity": "walking",
    "name": "Ko Samui Walking",
    "date": "2024-06-20T00:00:24Z",
    "distanceKm": 8.9,
    "movingTimeSeconds": 5992,
    "elapsedTimeSeconds": 6397,
    "ascentM": null,
    "descentM": null
  },
  "geometry": {
    "type": "LineString",
    "coordinates": [
      [
        100.0473356153816,
        9.472160954028368
      ],
      [
        100.0473356153816,
        9.472160954028368
      ],
      [
        100.0473456736654,
        9.472161792218685
      ],
      [
        100.04734525457025,
        9.472171599045396
      ],
      [
        100.04724819213152,
        9.47202424518764
      ],
      [
        100.04723000340164,
        9.472002033144236
      ],
      [
        100.04707787185907,
        9.471979569643736
      ],
      [
        100.04700277000666,
        9.471999099478126
      ],
      [
        100.04689590074122,
        9.472035896033049
      ],
      [
        100.04685952328146,
        9.472053833305836
      ],
      [
        100.04672918468714,
        9.472097670659423
      ],
      [
        100.04655324853957,
        9.472171431407332
      ],
      [
        100.04652366042137,
        9.472178807482123
      ],
      [
        100.04650111310184,
        9.47219330817461
      ],
      [
        100.04645358771086,
        9.472221219912171
      ],
      [
        100.04627983085811,
        9.472289448603988
      ],
      [
        100.04613742232323,
        9.472334878519177
      ],
      [
        100.04600540734828,
        9.47239849716425
      ],
      [
        100.04593214951456,
        9.472457589581609
      ],
      [
        100.04577088169754,
        9.472554316744208
      ],
      [
        100.04568446427584,
        9.472584575414658
      ],
      [
        100.04565722309053,
        9.472593795508146
      ],
      [
        100.0455461628735,
        9.472628915682435
      ],
      [
        100.04536712542176,
        9.472688427194953
      ],
      [
        100.04521541297436,
        9.472743077203631
      ],
      [
        100.04503335803747,
        9.472778029739857
      ],
      [
        100.04501877352595,
        9.472781801596284
      ],
      [
        100.04500452429056,
        9.472783813253045
      ],
      [
        100.04495666362345,
        9.472797475755215
      ],
      [
        100.04479983821511,
        9.47283930145204
      ],
      [
        100.04475256428123,
        9.472857406362891
      ],
      [
        100.04472733475268,
        9.47287106886506
      ],
      [
        100.04470512270927,
        9.472887581214309
      ],
      [
        100.04462918266654,
        9.4729467574507
      ],
      [
        100.04445810802281,
        9.473013309761882
      ],
      [
        100.04435953684151,
        9.473039377480745
      ],
      [
        100.04431754350662,
        9.473042981699109
      ],
      [
        100.04413599148393,
        9.473078437149525
      ],
      [
        100.0440391805023,
        9.473114060238004
      ],
      [
        100.04403113387525,
        9.47311975993216
      ],
      [
        100.04396818578243,
        9.473137613385916
      ],
      [
        100.04394857212901,
        9.473140379413962
      ],
      [
        100.04393088631332,
        9.473147001117468
      ],
      [
        100.04375201649964,
        9.473185390233994
      ],
      [
        100.04371128045022,
        9.473188491538167
      ],
      [
        100.04363953135908,
        9.473216906189919
      ],
      [
        100.04354674369097,
        9.473245991393924
      ],
      [
        100.04347717389464,
        9.473247583955526
      ],
      [
        100.04338715225458,
        9.473262000828981
      ],
      [
        100.04337684251368,
        9.47326535359025
      ],
      [
        100.04323133267462,
        9.47329955175519
      ],
      [
        100.04321850836277,
        9.4733059220016
      ],
      [
        100.04314566962421,
        9.47333131916821
      ],
      [
        100.04296780563891,
        9.473379598930478
      ],
      [
        100.04288658499718,
        9.473456544801593
      ],
      [
        100.04282372072339,
        9.47347548790276
      ],
      [
        100.04277711734176,
        9.473493928089738
      ],
      [
        100.0427510496229,
        9.473508428782225
      ],
      [
        100.04257494583726,
        9.473558720201254
      ],
      [
        100.04255281761289,
        9.47356685064733
      ],
      [
        100.04254125058651,
        9.473572885617614
      ],
      [
        100.04243832081556,
        9.47362208738923
      ],
      [
        100.04227889701724,
        9.473657794296741
      ],
      [
        100.04219172522426,
        9.473717892542481
      ],
      [
        100.04211570136249,
        9.473742032423615
      ],
      [
        100.0420803297311,
        9.473710935562849
      ],
      [
        100.0419513322413,
        9.473739685490727
      ],
      [
        100.04179132170975,
        9.473822833970189
      ],
      [
        100.04163231700659,
        9.473928613588214
      ],
      [
        100.04154581576586,
        9.473967673256993
      ],
      [
        100.04140952602029,
        9.474066747352481
      ],
      [
        100.04138731397688,
        9.474084516987205
      ],
      [
        100.04136853851378,
        9.474101951345801
      ],
      [
        100.04134129732847,
        9.47416054084897
      ],
      [
        100.04127541556954,
        9.474254669621587
      ],
      [
        100.04120349884033,
        9.474304541945457
      ],
      [
        100.041149770841,
        9.474328178912401
      ],
      [
        100.04107081331313,
        9.47433890774846
      ],
      [
        100.04088104702532,
        9.474374782294035
      ],
      [
        100.04071081057191,
        9.474424067884684
      ],
      [
        100.04068616777658,
        9.474450219422579
      ],
      [
        100.04065867513418,
        9.474484082311392
      ],
      [
        100.04063394851983,
        9.474513754248619
      ],
      [
        100.04057921469212,
        9.474556501954794
      ],
      [
        100.04048399627209,
        9.474620707333088
      ],
      [
        100.04037243314087,
        9.474673513323069
      ],
      [
        100.04029129631817,
        9.47469748556614
      ],
      [
        100.04010278731585,
        9.4747375510633
      ],
      [
        100.03997261635959,
        9.474733024835587
      ],
      [
        100.03987639211118,
        9.474751213565469
      ],
      [
        100.0397770665586,
        9.474748698994517
      ],
      [
        100.03961395472288,
        9.474798571318388
      ],
      [
        100.03944757394493,
        9.474839391186833
      ],
      [
        100.03930441103876,
        9.474827740341425
      ],
      [
        100.03925604745746,
        9.474825141951442
      ],
      [
        100.0391602423042,
        9.474800918251276
      ],
      [
        100.03914557397366,
        9.474800918251276
      ],
      [
        100.03913174383342,
        9.474804354831576
      ],
      [
        100.03908379934728,
        9.474798236042261
      ],
      [
        100.03906385041773,
        9.474786501377821
      ],
      [
        100.03896318376064,
        9.474737048149109
      ],
      [
        100.03883217461407,
        9.474711483344436
      ],
      [
        100.03882085904479,
        9.47470880113542
      ],
      [
        100.03875338472426,
        9.474709890782833
      ],
      [
        100.03856948576868,
        9.474761774763465
      ],
      [
        100.0384717527777,
        9.47476931847632
      ],
      [
        100.0383488740772,
        9.474778706207871
      ],
      [
        100.03833739086986,
        9.47477770037949
      ],
      [
        100.03822381608188,
        9.474771078675985
      ],
      [
        100.03815156407654,
        9.47476931847632
      ],
      [
        100.03796649165452,
        9.47477518580854
      ],
      [
        100.03787152469158,
        9.47480401955545
      ],
      [
        100.03785786218941,
        9.474805612117052
      ],
      [
        100.03774596378207,
        9.474822962656617
      ],
      [
        100.03755980171263,
        9.47486076503992
      ],
      [
        100.03740381449461,
        9.474911224097013
      ],
      [
        100.03733332268894,
        9.474938549101353
      ],
      [
        100.03722745925188,
        9.474973417818546
      ],
      [
        100.03716610372066,
        9.474992360919714
      ],
      [
        100.03700927831233,
        9.47505078278482
      ],
      [
        100.03697860054672,
        9.475049693137407
      ],
      [
        100.03679394721985,
        9.475092189386487
      ],
      [
        100.03676922060549,
        9.47510501369834
      ],
      [
        100.03675782121718,
        9.475109288468957
      ],
      [
        100.03670853562653,
        9.475125884637237
      ],
      [
        100.03652807325125,
        9.47517684660852
      ],
      [
        100.03652111627162,
        9.475180869922042
      ],
      [
        100.03649194724858,
        9.47518271394074
      ],
      [
        100.03646462224424,
        9.475183468312025
      ],
      [
        100.03633386455476,
        9.475211882963777
      ],
      [
        100.036292206496,
        9.475225629284978
      ],
      [
        100.0362818967551,
        9.475231412798166
      ],
      [
        100.03611224703491,
        9.475311962887645
      ],
      [
        100.03592013381422,
        9.475352950394154
      ],
      [
        100.03583723679185,
        9.47536795400083
      ],
      [
        100.03574914298952,
        9.475391758605838
      ],
      [
        100.03569005057216,
        9.475399134680629
      ],
      [
        100.03561084158719,
        9.47542604058981
      ],
      [
        100.03554672002792,
        9.47544364258647
      ],
      [
        100.03545938059688,
        9.475350603461266
      ],
      [
        100.03546256572008,
        9.475263683125377
      ],
      [
        100.03542300313711,
        9.475234681740403
      ],
      [
        100.03541084937751,
        9.475239962339401
      ],
      [
        100.03542090766132,
        9.475228060036898
      ],
      [
        100.03538813441992,
        9.475242979824543
      ],
      [
        100.03527238033712,
        9.475299222394824
      ],
      [
        100.03517867065966,
        9.475409192964435
      ],
      [
        100.03515637479722,
        9.475437356159091
      ],
      [
        100.03508596681058,
        9.475488234311342
      ],
      [
        100.0350400339812,
        9.475523605942726
      ],
      [
        100.03491757437587,
        9.475655369460583
      ],
      [
        100.0348243676126,
        9.475801717489958
      ],
      [
        100.03481850028038,
        9.475810267031193
      ],
      [
        100.03478933125734,
        9.475842453539371
      ],
      [
        100.03466762602329,
        9.475978575646877
      ],
      [
        100.03460912033916,
        9.476037584245205
      ],
      [
        100.03446377813816,
        9.47615409269929
      ],
      [
        100.03438666462898,
        9.476224919781089
      ],
      [
        100.03428993746638,
        9.476294992491603
      ],
      [
        100.03414870239794,
        9.476425414904952
      ],
      [
        100.03409790806472,
        9.476482579484582
      ],
      [
        100.03394569270313,
        9.476594645529985
      ],
      [
        100.03379900939763,
        9.476711237803102
      ],
      [
        100.03375131636858,
        9.476743508130312
      ],
      [
        100.03361091949046,
        9.476875271648169
      ],
      [
        100.03350036218762,
        9.47699949145317
      ],
      [
        100.03345945850015,
        9.477063696831465
      ],
      [
        100.03342626616359,
        9.477107366546988
      ],
      [
        100.03325871191919,
        9.477209206670523
      ],
      [
        100.03319417126477,
        9.477249942719936
      ],
      [
        100.03315561451018,
        9.477339712902904
      ],
      [
        100.0331183988601,
        9.477413138374686
      ],
      [
        100.03309878520668,
        9.477437613531947
      ],
      [
        100.03301999531686,
        9.477525623515248
      ],
      [
        100.03290834836662,
        9.477626793086529
      ],
      [
        100.03287800587714,
        9.47766300290823
      ],
      [
        100.03280005417764,
        9.477717066183686
      ],
      [
        100.03266694955528,
        9.477865844964981
      ],
      [
        100.03262009471655,
        9.477912364527583
      ],
      [
        100.03249268978834,
        9.478006912395358
      ],
      [
        100.03240560181439,
        9.47805636562407
      ],
      [
        100.0323292426765,
        9.478099448606372
      ],
      [
        100.03227249719203,
        9.478145129978657
      ],
      [
        100.0321891810745,
        9.478310085833073
      ],
      [
        100.03217744641006,
        9.478332297876477
      ],
      [
        100.03215867094696,
        9.478374626487494
      ],
      [
        100.03205984830856,
        9.478536816313863
      ],
      [
        100.03197091631591,
        9.478677799925208
      ],
      [
        100.03195230849087,
        9.4787282589823
      ],
      [
        100.03194275312126,
        9.478752231225371
      ],
      [
        100.03191316500306,
        9.478815430775285
      ],
      [
        100.03190143033862,
        9.478842252865434
      ],
      [
        100.03189388662577,
        9.478855412453413
      ],
      [
        100.03187905065715,
        9.478895897045732
      ],
      [
        100.03185859881341,
        9.478934286162257
      ],
      [
        100.0318043678999,
        9.479049034416676
      ],
      [
        100.03178332932293,
        9.479094380512834
      ],
      [
        100.03173035569489,
        9.479162693023682
      ],
      [
        100.0317179504782,
        9.479214660823345
      ],
      [
        100.03169305622578,
        9.479261180385947
      ],
      [
        100.03167930990458,
        9.47929898276925
      ],
      [
        100.03167587332428,
        9.479311974719167
      ],
      [
        100.03165542148054,
        9.479401325806975
      ],
      [
        100.03164745867252,
        9.479449354112148
      ],
      [
        100.0316386576742,
        9.479458322748542
      ],
      [
        100.03157453611493,
        9.479644484817982
      ],
      [
        100.03149013035,
        9.479805752635002
      ],
      [
        100.03148392774165,
        9.479815308004618
      ],
      [
        100.03147705458105,
        9.479863923043013
      ],
      [
        100.03146322444081,
        9.47995520196855
      ],
      [
        100.03143539652228,
        9.480145554989576
      ],
      [
        100.0313754659146,
        9.480322832241654
      ],
      [
        100.03136079758406,
        9.480372620746493
      ],
      [
        100.03130706958473,
        9.480458786711097
      ],
      [
        100.03130296245217,
        9.480473287403584
      ],
      [
        100.03127798438072,
        9.48052148334682
      ],
      [
        100.03124185837805,
        9.480708986520767
      ],
      [
        100.03117983229458,
        9.480883665382862
      ],
      [
        100.03116684034467,
        9.480903195217252
      ],
      [
        100.03115259110928,
        9.480951642617583
      ],
      [
        100.03106223419309,
        9.481113161891699
      ],
      [
        100.03101169131696,
        9.481231179088354
      ],
      [
        100.03099450841546,
        9.481276189908385
      ],
      [
        100.03096517175436,
        9.48131893761456
      ],
      [
        100.03093767911196,
        9.481349280104041
      ],
      [
        100.0308609008789,
        9.481444749981165
      ],
      [
        100.03083064220846,
        9.48147869668901
      ],
      [
        100.03074833191931,
        9.481536699458957
      ],
      [
        100.03062151372433,
        9.4816536270082
      ],
      [
        100.03060818649828,
        9.481681790202856
      ],
      [
        100.03058253787458,
        9.481740798801184
      ],
      [
        100.03046116791666,
        9.481884967535734
      ],
      [
        100.03039922565222,
        9.481952525675297
      ],
      [
        100.03026578575373,
        9.482058640569448
      ],
      [
        100.03023309633136,
        9.482096526771784
      ],
      [
        100.03020434640348,
        9.482131227850914
      ],
      [
        100.03019026480615,
        9.482135586440563
      ],
      [
        100.03014802001417,
        9.482154110446572
      ],
      [
        100.0301224552095,
        9.482177747413516
      ],
      [
        100.03011382184923,
        9.48218286037445
      ],
      [
        100.03009521402419,
        9.482195768505335
      ],
      [
        100.02999370917678,
        9.482286041602492
      ],
      [
        100.02998356707394,
        9.482291238382459
      ],
      [
        100.02993176691234,
        9.482321664690971
      ],
      [
        100.0299168471247,
        9.48232795111835
      ],
      [
        100.02988440915942,
        9.482342284172773
      ],
      [
        100.02975834533572,
        9.482435071840882
      ],
      [
        100.02960805781186,
        9.482545293867588
      ],
      [
        100.02956765703857,
        9.48256934992969
      ],
      [
        100.02954058349133,
        9.482581503689289
      ],
      [
        100.02937395125628,
        9.482668172568083
      ],
      [
        100.02923481166363,
        9.482797086238861
      ],
      [
        100.02911562100053,
        9.482878306880593
      ],
      [
        100.02898712642491,
        9.482940919697285
      ],
      [
        100.02883977256715,
        9.483064552769065
      ],
      [
        100.02877942286432,
        9.48309506289661
      ],
      [
        100.02873298712075,
        9.483120208606124
      ],
      [
        100.02868680283427,
        9.483146946877241
      ],
      [
        100.02863265573978,
        9.483188353478909
      ],
      [
        100.02854405902326,
        9.483240824192762
      ],
      [
        100.02846870571375,
        9.483285499736667
      ],
      [
        100.02840584143996,
        9.48332673870027
      ],
      [
        100.02828723751009,
        9.483380215242505
      ],
      [
        100.02824583090842,
        9.483401840552688
      ],
      [
        100.0280737504363,
        9.483484821394086
      ],
      [
        100.02800258807838,
        9.483553804457188
      ],
      [
        100.02798087894917,
        9.483576267957687
      ],
      [
        100.02793511375785,
        9.483607532456517
      ],
      [
        100.02783335745335,
        9.48366779834032
      ],
      [
        100.02768189646304,
        9.483751952648163
      ],
      [
        100.02759824506938,
        9.48376846499741
      ],
      [
        100.02748718485236,
        9.483807105571032
      ],
      [
        100.02729104831815,
        9.483832838013768
      ],
      [
        100.02710463479161,
        9.483797550201416
      ],
      [
        100.0269843544811,
        9.483790006488562
      ],
      [
        100.02685074694455,
        9.483827305957675
      ],
      [
        100.02683700062335,
        9.483830826357007
      ],
      [
        100.0267359148711,
        9.483867203816772
      ],
      [
        100.02672426402569,
        9.483878519386053
      ],
      [
        100.0266928318888,
        9.483892349526286
      ],
      [
        100.02666056156158,
        9.4839037489146
      ],
      [
        100.02649267204106,
        9.483985807746649
      ],
      [
        100.02631656825542,
        9.48404984548688
      ],
      [
        100.02619218081236,
        9.484174819663167
      ],
      [
        100.0262020714581,
        9.484201474115252
      ],
      [
        100.02623861655593,
        9.48425360955298
      ],
      [
        100.0262660253793,
        9.48431278578937
      ],
      [
        100.02624716609716,
        9.484323179349303
      ],
      [
        100.02625278197229,
        9.484327370300889
      ],
      [
        100.02625118941069,
        9.48432644829154
      ],
      [
        100.0262644328177,
        9.484334997832775
      ],
      [
        100.02627122215927,
        9.48434455320239
      ],
      [
        100.02624901011586,
        9.484380008652806
      ],
      [
        100.02624766901135,
        9.484382690861821
      ],
      [
        100.02624255605042,
        9.484384534880519
      ],
      [
        100.02624020911753,
        9.484386881813407
      ],
      [
        100.0262403767556,
        9.484385373070836
      ],
      [
        100.0262332521379,
        9.484386965632439
      ],
      [
        100.02623241394758,
        9.484387217089534
      ],
      [
        100.02623333595693,
        9.484390821307898
      ],
      [
        100.02623945474625,
        9.484405908733606
      ],
      [
        100.02627423964441,
        9.484425522387028
      ],
      [
        100.0263350084424,
        9.484489057213068
      ],
      [
        100.02634565345943,
        9.484510850161314
      ],
      [
        100.02641363069415,
        9.484600620344281
      ],
      [
        100.02642159350216,
        9.484625766053796
      ],
      [
        100.02643366344273,
        9.484633393585682
      ],
      [
        100.02642737701535,
        9.48462643660605
      ],
      [
        100.02641472034156,
        9.484614199027419
      ],
      [
        100.02643081359565,
        9.484612690284848
      ],
      [
        100.02643684856594,
        9.484615037217736
      ],
      [
        100.0265490822494,
        9.48475744575262
      ],
      [
        100.02659224905074,
        9.484825171530247
      ],
      [
        100.02660918049514,
        9.484859872609377
      ],
      [
        100.0266629923135,
        9.484960371628404
      ],
      [
        100.02666927874088,
        9.484969424083829
      ],
      [
        100.02682107500732,
        9.48504427447915
      ],
      [
        100.02683222293854,
        9.485045364126563
      ],
      [
        100.02684571780264,
        9.485048297792673
      ],
      [
        100.0268569495529,
        9.48505156673491
      ],
      [
        100.02696909941733,
        9.485073694959283
      ],
      [
        100.02698142081499,
        9.485076125711203
      ],
      [
        100.02701662480831,
        9.485091548413038
      ],
      [
        100.02710807137191,
        9.485130021348596
      ],
      [
        100.02727076411247,
        9.48515416122973
      ],
      [
        100.02738400362432,
        9.485178971663117
      ],
      [
        100.02745650708675,
        9.485224150121212
      ],
      [
        100.02762800082564,
        9.485295480117202
      ],
      [
        100.02776646986604,
        9.485408803448081
      ],
      [
        100.02784316428006,
        9.485582560300827
      ],
      [
        100.0278842356056,
        9.485690016299486
      ],
      [
        100.02788348123431,
        9.485746342688799
      ],
      [
        100.02789052203298,
        9.485771656036377
      ],
      [
        100.02793511375785,
        9.485957566648722
      ],
      [
        100.02793528139591,
        9.485971229150891
      ],
      [
        100.0279465969652,
        9.486061837524176
      ],
      [
        100.02795958891511,
        9.486124450340867
      ],
      [
        100.02796453423798,
        9.486172394827008
      ],
      [
        100.0280082039535,
        9.486315390095115
      ],
      [
        100.02800744958222,
        9.48632880114019
      ],
      [
        100.02800225280225,
        9.486366603523493
      ],
      [
        100.02795900218189,
        9.486526949331164
      ],
      [
        100.02793335355818,
        9.48665427044034
      ],
      [
        100.02792480401695,
        9.486735574901104
      ],
      [
        100.02787702716887,
        9.486822411417961
      ],
      [
        100.0278631132096,
        9.486873541027308
      ],
      [
        100.02787007018924,
        9.486964149400592
      ],
      [
        100.02786688506603,
        9.486990300938487
      ],
      [
        100.0278654601425,
        9.487040843814611
      ],
      [
        100.02785900607705,
        9.487051572650671
      ],
      [
        100.02786261029541,
        9.487094236537814
      ],
      [
        100.02786638215184,
        9.487153077498078
      ],
      [
        100.02788088284433,
        9.487189538776875
      ],
      [
        100.02788884565234,
        9.487209487706423
      ],
      [
        100.02789965830743,
        9.487259779125452
      ],
      [
        100.02790041267872,
        9.487271262332797
      ],
      [
        100.02790527418256,
        9.487308226525784
      ],
      [
        100.02790560945868,
        9.487322140485048
      ],
      [
        100.02790259197354,
        9.48733689263463
      ],
      [
        100.02788339741528,
        9.487464297562838
      ],
      [
        100.0278821401298,
        9.487489024177194
      ],
      [
        100.0278787035495,
        9.48752741329372
      ],
      [
        100.0278942938894,
        9.48760561645031
      ],
      [
        100.02792723476887,
        9.487784821540117
      ],
      [
        100.0278927013278,
        9.487972157076001
      ],
      [
        100.02789555117488,
        9.48807911016047
      ],
      [
        100.0279307551682,
        9.488135939463973
      ],
      [
        100.02804349176586,
        9.488292429596186
      ],
      [
        100.02817424945533,
        9.488416900858283
      ],
      [
        100.02824096940458,
        9.488485800102353
      ],
      [
        100.02829059027135,
        9.48854279704392
      ],
      [
        100.02829813398421,
        9.488558387383819
      ],
      [
        100.02834188751876,
        9.488627705723047
      ],
      [
        100.02840274013579,
        9.488689061254263
      ],
      [
        100.02844322472811,
        9.488736670464277
      ],
      [
        100.0285624153912,
        9.48888000100851
      ],
      [
        100.02858186140656,
        9.48888880200684
      ],
      [
        100.02863768488169,
        9.488945547491312
      ],
      [
        100.02871027216315,
        9.489107569679618
      ],
      [
        100.02876265905797,
        9.489275543019176
      ],
      [
        100.02877548336983,
        9.48930169455707
      ],
      [
        100.02881303429604,
        9.489341592416167
      ],
      [
        100.02881772816181,
        9.489351063966751
      ],
      [
        100.02889953553677,
        9.48944284580648
      ],
      [
        100.02890716306865,
        9.489464303478599
      ],
      [
        100.0290275271982,
        9.489610064774752
      ],
      [
        100.0290547683835,
        9.48968617245555
      ],
      [
        100.02908041700721,
        9.489819696173072
      ],
      [
        100.02903616055846,
        9.48996126651764
      ],
      [
        100.02898838371038,
        9.490092443302274
      ],
      [
        100.02898243255913,
        9.490103758871555
      ],
      [
        100.02898276783526,
        9.49012789875269
      ],
      [
        100.02896801568568,
        9.490182967856526
      ],
      [
        100.02893289551139,
        9.490237114951015
      ],
      [
        100.02892375923693,
        9.49024859815836
      ],
      [
        100.02884689718485,
        9.490348175168037
      ],
      [
        100.02883465960622,
        9.490356054157019
      ],
      [
        100.0288184825331,
        9.49037273414433
      ],
      [
        100.02879266627133,
        9.490389162674546
      ],
      [
        100.02872091718018,
        9.49045336805284
      ],
      [
        100.0286625791341,
        9.490601811558008
      ],
      [
        100.0286527723074,
        9.490658892318606
      ],
      [
        100.02865344285965,
        9.490687223151326
      ],
      [
        100.02866006456316,
        9.490766432136297
      ],
      [
        100.02866500988603,
        9.490792248398066
      ],
      [
        100.02866316586733,
        9.49082426726818
      ],
      [
        100.02862444147468,
        9.49099039658904
      ],
      [
        100.02862276509404,
        9.491006238386035
      ],
      [
        100.02861396409571,
        9.49101964943111
      ],
      [
        100.02860524691641,
        9.491069354116917
      ],
      [
        100.02860340289772,
        9.491110173985362
      ],
      [
        100.02861094661057,
        9.49116482399404
      ],
      [
        100.02862511202693,
        9.491218300536275
      ],
      [
        100.02863416448236,
        9.491248223930597
      ],
      [
        100.02864229492843,
        9.491330115124583
      ],
      [
        100.02864514477551,
        9.491465063765645
      ],
      [
        100.02864950336516,
        9.491488868370652
      ],
      [
        100.02864019945264,
        9.491670588031411
      ],
      [
        100.02864464186132,
        9.491706127300858
      ],
      [
        100.02865721471608,
        9.491875525563955
      ],
      [
        100.02865822054446,
        9.491887344047427
      ],
      [
        100.02865838818252,
        9.491899162530899
      ],
      [
        100.02865897491574,
        9.4919129088521
      ],
      [
        100.02865931019187,
        9.491938473656774
      ],
      [
        100.02862729132175,
        9.49200913310051
      ],
      [
        100.02862150780857,
        9.49203746393323
      ],
      [
        100.02860466018319,
        9.492076691240072
      ],
      [
        100.02859208732843,
        9.492101836949587
      ],
      [
        100.02856777980924,
        9.49216595850885
      ],
      [
        100.02856208011508,
        9.492192445322871
      ],
      [
        100.02851597964764,
        9.492358407005668
      ],
      [
        100.02851354889572,
        9.49237123131752
      ],
      [
        100.02846845425665,
        9.492520932108164
      ],
      [
        100.02841732464731,
        9.49261506088078
      ],
      [
        100.02837910316885,
        9.492725115269423
      ],
      [
        100.02837507985532,
        9.492770796641707
      ],
      [
        100.02833744511008,
        9.49287598952651
      ],
      [
        100.02822789363563,
        9.493033569306135
      ],
      [
        100.02817089669406,
        9.493075143545866
      ],
      [
        100.0281207729131,
        9.493105569854379
      ],
      [
        100.02804407849908,
        9.493285529315472
      ],
      [
        100.02803217619658,
        9.49335090816021
      ],
      [
        100.02797635272145,
        9.49343103915453
      ],
      [
        100.0279376283288,
        9.493485856801271
      ],
      [
        100.02792371436954,
        9.493556767702103
      ],
      [
        100.02792404964566,
        9.49363044463098
      ],
      [
        100.0279254745692,
        9.493729518726468
      ],
      [
        100.027940813452,
        9.493751311674714
      ],
      [
        100.02791910432279,
        9.493807721883059
      ],
      [
        100.02788297832012,
        9.49387620203197
      ],
      [
        100.02785825170577,
        9.493933785706758
      ],
      [
        100.0278115645051,
        9.49403596110642
      ],
      [
        100.02778465859592,
        9.494078624993563
      ],
      [
        100.02775825560093,
        9.494156744331121
      ],
      [
        100.02775062806904,
        9.494185410439968
      ],
      [
        100.02773880958557,
        9.494199324399233
      ],
      [
        100.02772992476821,
        9.49422656558454
      ],
      [
        100.02772103995085,
        9.494259841740131
      ],
      [
        100.02766035497189,
        9.494345169514418
      ],
      [
        100.02763520926237,
        9.49452806264162
      ],
      [
        100.02763613127172,
        9.49459109455347
      ],
      [
        100.02764727920294,
        9.494644571095705
      ],
      [
        100.02769153565168,
        9.494828637689352
      ],
      [
        100.0277341157198,
        9.494878510013223
      ],
      [
        100.02772506326437,
        9.494911283254623
      ],
      [
        100.02772606909275,
        9.494914300739765
      ],
      [
        100.02772984094918,
        9.494979344308376
      ],
      [
        100.02772321924567,
        9.494989234954119
      ],
      [
        100.02771215513349,
        9.495014799758792
      ],
      [
        100.02769388258457,
        9.495085626840591
      ],
      [
        100.02769648097456,
        9.495111694559455
      ],
      [
        100.02770276740193,
        9.495125189423561
      ],
      [
        100.02771332859993,
        9.495148994028568
      ],
      [
        100.02771156840026,
        9.495161147788167
      ],
      [
        100.02775121480227,
        9.495309088379145
      ],
      [
        100.02775766886771,
        9.495322667062283
      ],
      [
        100.02778314985335,
        9.495444372296333
      ],
      [
        100.02779790200293,
        9.49553120881319
      ],
      [
        100.027821874246,
        9.49562550522387
      ],
      [
        100.02782765775919,
        9.495637994259596
      ],
      [
        100.02783142961562,
        9.495662720873952
      ],
      [
        100.0278739258647,
        9.495792724192142
      ],
      [
        100.02796922810376,
        9.49589816853404
      ],
      [
        100.02798775210977,
        9.495920464396477
      ],
      [
        100.0280322600156,
        9.495958602055907
      ],
      [
        100.02814893610775,
        9.4960642978549
      ],
      [
        100.02817181870341,
        9.49608433060348
      ],
      [
        100.02821632660925,
        9.496109560132027
      ],
      [
        100.02825127914548,
        9.496132945641875
      ],
      [
        100.02831389196217,
        9.49615515768528
      ],
      [
        100.0284884031862,
        9.496205281466246
      ],
      [
        100.0286644231528,
        9.49625146575272
      ],
      [
        100.02874413505197,
        9.496279628947377
      ],
      [
        100.0287645868957,
        9.496293207630515
      ],
      [
        100.02883206121624,
        9.496313743293285
      ],
      [
        100.0289199873805,
        9.496334781870246
      ],
      [
        100.02910070121288,
        9.49638482183218
      ],
      [
        100.02913858741522,
        9.49639362283051
      ],
      [
        100.029177647084,
        9.496400328353047
      ],
      [
        100.02918829210103,
        9.496407452970743
      ],
      [
        100.02932516857982,
        9.49649034999311
      ],
      [
        100.02940957434475,
        9.496562601998448
      ],
      [
        100.02949976362288,
        9.496664945036173
      ],
      [
        100.0295145995915,
        9.49669855646789
      ],
      [
        100.02954225987196,
        9.496744824573398
      ],
      [
        100.02959171310067,
        9.496806431561708
      ],
      [
        100.02972624264657,
        9.496943727135658
      ],
      [
        100.029780222103,
        9.496980523690581
      ],
      [
        100.02984040416777,
        9.497001310810447
      ],
      [
        100.03002514131367,
        9.497007681056857
      ],
      [
        100.03021163865924,
        9.496980188414454
      ],
      [
        100.03038765862584,
        9.496940458193421
      ],
      [
        100.03041112795472,
        9.496933165937662
      ],
      [
        100.0305984634906,
        9.496901733800769
      ],
      [
        100.03065495751798,
        9.49688664637506
      ],
      [
        100.03083516843617,
        9.496839456260204
      ],
      [
        100.03102334216237,
        9.496811209246516
      ],
      [
        100.0311251822859,
        9.496805761009455
      ],
      [
        100.03130941651762,
        9.496799306944013
      ],
      [
        100.03133749589324,
        9.496804168447852
      ],
      [
        100.03141494467854,
        9.496820764616132
      ],
      [
        100.03151795826852,
        9.496820513159037
      ],
      [
        100.0316865183413,
        9.496768293902278
      ],
      [
        100.03170998767018,
        9.496739711612463
      ],
      [
        100.03173572011292,
        9.496723618358374
      ],
      [
        100.03189749084413,
        9.496637871488929
      ],
      [
        100.03202774561942,
        9.496504263952374
      ],
      [
        100.0321600958705,
        9.49636328034103
      ],
      [
        100.03222715109587,
        9.496301840990782
      ],
      [
        100.03227065317333,
        9.49623679742217
      ],
      [
        100.03227937035263,
        9.496228583157063
      ],
      [
        100.0323443301022,
        9.496139902621508
      ],
      [
        100.03245111554861,
        9.49599145911634
      ],
      [
        100.03255630843341,
        9.495834214612842
      ],
      [
        100.0325641874224,
        9.495819630101323
      ],
      [
        100.03259050659835,
        9.49578040279448
      ],
      [
        100.03260894678533,
        9.49575542472303
      ],
      [
        100.0326242018491,
        9.495731368660927
      ],
      [
        100.03274054266512,
        9.495586780831218
      ],
      [
        100.03285881131887,
        9.49544127099216
      ],
      [
        100.03289812244475,
        9.495407324284315
      ],
      [
        100.0329061690718,
        9.49539634399116
      ],
      [
        100.03300884738564,
        9.495286541059613
      ],
      [
        100.03307556733489,
        9.49522384442389
      ],
      [
        100.0331945065409,
        9.495077077299356
      ],
      [
        100.03328846767545,
        9.494909774512053
      ],
      [
        100.03330950625241,
        9.494863422587514
      ],
      [
        100.03331763669848,
        9.494850765913725
      ],
      [
        100.03340950235724,
        9.494689833372831
      ],
      [
        100.03349483013153,
        9.494602074846625
      ],
      [
        100.03353296779096,
        9.494564775377512
      ],
      [
        100.03356171771884,
        9.494529822841287
      ],
      [
        100.03360044211149,
        9.49437509290874
      ],
      [
        100.03366464748979,
        9.494286831468344
      ],
      [
        100.03368870355189,
        9.494265373796225
      ],
      [
        100.0337177887559,
        9.49422949925065
      ],
      [
        100.03373027779162,
        9.494203934445977
      ],
      [
        100.03377025946975,
        9.494141153991222
      ],
      [
        100.03380018286407,
        9.494066471233964
      ],
      [
        100.03385307267308,
        9.494010144844651
      ],
      [
        100.03395667299628,
        9.49389765970409
      ],
      [
        100.03407686948776,
        9.493850888684392
      ],
      [
        100.03424442373216,
        9.493786850944161
      ],
      [
        100.03433318808675,
        9.49369934387505
      ],
      [
        100.03434693440795,
        9.493665480986238
      ],
      [
        100.03441264852881,
        9.493599934503436
      ],
      [
        100.03455396741629,
        9.493479989469051
      ],
      [
        100.03470718860626,
        9.493368258699775
      ],
      [
        100.03488035872579,
        9.493282679468393
      ],
      [
        100.03498404286802,
        9.493228113278747
      ],
      [
        100.0350801832974,
        9.493154436349869
      ],
      [
        100.03519979305565,
        9.493083106353879
      ],
      [
        100.03523248247802,
        9.493066007271409
      ],
      [
        100.03539802506566,
        9.49299132451415
      ],
      [
        100.03542141057551,
        9.492969196289778
      ],
      [
        100.03554898314178,
        9.492871798574924
      ],
      [
        100.03560623154044,
        9.49282712303102
      ],
      [
        100.03566205501556,
        9.492722935974598
      ],
      [
        100.03562148660421,
        9.492597207427025
      ],
      [
        100.03561419434845,
        9.492543479427695
      ],
      [
        100.03555635921657,
        9.492363100871444
      ],
      [
        100.0354803353548,
        9.492187248542905
      ],
      [
        100.03542602062225,
        9.492122624069452
      ],
      [
        100.03538268618286,
        9.492084570229053
      ],
      [
        100.03534488379955,
        9.492024136707187
      ],
      [
        100.03531445749104,
        9.491980131715536
      ],
      [
        100.03530733287334,
        9.491968313232064
      ],
      [
        100.03524765372276,
        9.491894552484155
      ],
      [
        100.03524119965732,
        9.491885583847761
      ],
      [
        100.03513818606734,
        9.491724986582994
      ],
      [
        100.03505512140691,
        9.491616357117891
      ],
      [
        100.03492285497487,
        9.491476379334927
      ],
      [
        100.03485202789307,
        9.491376802325249
      ],
      [
        100.03473912365735,
        9.491248894482851
      ],
      [
        100.0346858985722,
        9.491192484274507
      ],
      [
        100.03458514809608,
        9.491109251976013
      ],
      [
        100.03456402570009,
        9.491046387702227
      ],
      [
        100.03456075675786,
        9.491033898666501
      ],
      [
        100.03450954332948,
        9.49097815901041
      ],
      [
        100.03449202515185,
        9.490958796814084
      ],
      [
        100.03447408787906,
        9.490929041057825
      ],
      [
        100.0343740079552,
        9.490819154307246
      ],
      [
        100.0343013368547,
        9.490752937272191
      ],
      [
        100.03428080119193,
        9.490696024149656
      ],
      [
        100.03422665409744,
        9.490633578971028
      ],
      [
        100.0341509655118,
        9.490565685555339
      ],
      [
        100.03402775153518,
        9.490430736914277
      ],
      [
        100.03392624668777,
        9.490324202924967
      ],
      [
        100.03390671685338,
        9.490270055830479
      ],
      [
        100.03386002965271,
        9.490170311182737
      ],
      [
        100.03376900218427,
        9.490001080557704
      ],
      [
        100.03377528861165,
        9.489817097783089
      ],
      [
        100.0338451936841,
        9.489747695624828
      ],
      [
        100.03399254754186,
        9.489632025361061
      ],
      [
        100.0340746063739,
        9.489589110016823
      ],
      [
        100.03418239764869,
        9.489534376189113
      ],
      [
        100.034265127033,
        9.489527083933353
      ],
      [
        100.03441625274718,
        9.489446701481938
      ],
      [
        100.03453183919191,
        9.489434631541371
      ],
      [
        100.03458430990577,
        9.489419963210821
      ],
      [
        100.03457969985902,
        9.489412168040872
      ],
      [
        100.03459059633315,
        9.489400517195463
      ],
      [
        100.03468036651611,
        9.489379478618503
      ],
      [
        100.03484825603664,
        9.489302700385451
      ],
      [
        100.0348864775151,
        9.48927529156208
      ],
      [
        100.03505889326334,
        9.489199770614505
      ],
      [
        100.03523390740156,
        9.48911553248763
      ],
      [
        100.03528218716383,
        9.48911645449698
      ],
      [
        100.03528964705765,
        9.489111509174109
      ],
      [
        100.03531864844263,
        9.489104300737381
      ],
      [
        100.0353492423892,
        9.489093739539385
      ],
      [
        100.03538478165865,
        9.48908175341785
      ],
      [
        100.03542979247868,
        9.489064486697316
      ],
      [
        100.03560220822692,
        9.488992067053914
      ],
      [
        100.0357882026583,
        9.48893372900784
      ],
      [
        100.03581125289202,
        9.488925598561764
      ],
      [
        100.03589909523726,
        9.488877654075623
      ],
      [
        100.03592994064093,
        9.488864075392485
      ],
      [
        100.03610981628299,
        9.488811772316694
      ],
      [
        100.03627351485193,
        9.48872015811503
      ],
      [
        100.03628675825894,
        9.488710854202509
      ],
      [
        100.03644425421953,
        9.48861270211637
      ],
      [
        100.03651491366327,
        9.488492757081985
      ],
      [
        100.03657861612737,
        9.488380355760455
      ],
      [
        100.03658113069832,
        9.48831950314343
      ],
      [
        100.03658548928797,
        9.488236773759127
      ],
      [
        100.03659705631435,
        9.488163348287344
      ],
      [
        100.03660636022687,
        9.488059161230922
      ],
      [
        100.03664843738079,
        9.487863192334771
      ],
      [
        100.03666620701551,
        9.487774427980185
      ],
      [
        100.03669403493404,
        9.48759145103395
      ],
      [
        100.03671842627227,
        9.487417191267014
      ],
      [
        100.03673544153571,
        9.487236309796572
      ],
      [
        100.03675488755107,
        9.487145617604256
      ],
      [
        100.03674918785691,
        9.487131033092737
      ],
      [
        100.03673150204122,
        9.487026510760188
      ],
      [
        100.03670711070299,
        9.486897932365537
      ],
      [
        100.03671272657812,
        9.486829871311784
      ],
      [
        100.03677693195641,
        9.486659215763211
      ],
      [
        100.03684340044856,
        9.486587382853031
      ],
      [
        100.03699134103954,
        9.48647447861731
      ],
      [
        100.03716006875038,
        9.486380098387599
      ],
      [
        100.03731119446456,
        9.486250430345535
      ],
      [
        100.03746072761714,
        9.486140795052052
      ],
      [
        100.03752904012799,
        9.486088240519166
      ],
      [
        100.03754337318242,
        9.486082373186946
      ],
      [
        100.03763062879443,
        9.486044822260737
      ],
      [
        100.03780170343816,
        9.485954381525517
      ],
      [
        100.03793857991695,
        9.485861593857408
      ],
      [
        100.03800915554166,
        9.485803339630365
      ],
      [
        100.038055004552,
        9.485764615237713
      ],
      [
        100.03817436285317,
        9.48562522418797
      ],
      [
        100.03827008418739,
        9.485569400712848
      ],
      [
        100.03838969394565,
        9.485493628308177
      ],
      [
        100.03846177831292,
        9.485420621931553
      ],
      [
        100.03847024403512,
        9.485409054905176
      ],
      [
        100.03852640278637,
        9.485346442088485
      ],
      [
        100.03856303170323,
        9.485291205346584
      ],
      [
        100.03867032006383,
        9.485240075737238
      ],
      [
        100.03878456540406,
        9.485175115987659
      ],
      [
        100.03892001695931,
        9.485058942809701
      ],
      [
        100.03901414573193,
        9.484967747703195
      ],
      [
        100.03913333639503,
        9.484814358875155
      ],
      [
        100.03927348181605,
        9.484702795743942
      ],
      [
        100.03946165554225,
        9.484632723033428
      ],
      [
        100.03960917703807,
        9.484516801312566
      ],
      [
        100.03968251869082,
        9.484414961189032
      ],
      [
        100.03972006961703,
        9.484356874600053
      ],
      [
        100.03986356779933,
        9.484232403337955
      ],
      [
        100.03989516757429,
        9.484210442751646
      ],
      [
        100.03995191305876,
        9.48417741805315
      ],
      [
        100.04002810455859,
        9.484124779701233
      ],
      [
        100.04008619114757,
        9.48409628123045
      ],
      [
        100.04025441594422,
        9.484004583209753
      ],
      [
        100.04027805291116,
        9.483992932364345
      ],
      [
        100.04039766266942,
        9.48393794707954
      ],
      [
        100.04046991467476,
        9.483897797763348
      ],
      [
        100.04058256745338,
        9.48382269591093
      ],
      [
        100.04068465903401,
        9.483764274045825
      ],
      [
        100.0407340284437,
        9.483728734776378
      ],
      [
        100.04076847806573,
        9.48371565900743
      ],
      [
        100.04077970981598,
        9.48371616192162
      ],
      [
        100.0408357847482,
        9.483701242133975
      ],
      [
        100.04087937064469,
        9.483688669279218
      ],
      [
        100.04089227877557,
        9.483684059232473
      ],
      [
        100.04090434871614,
        9.483678610995412
      ],
      [
        100.04104558378458,
        9.483606107532978
      ],
      [
        100.04110383801162,
        9.483573082834482
      ],
      [
        100.04126401618123,
        9.483479876071215
      ],
      [
        100.0413310714066,
        9.483438888564706
      ],
      [
        100.04147691652179,
        9.483344508334994
      ],
      [
        100.04155168309808,
        9.483283488079906
      ],
      [
        100.04159987904131,
        9.483238980174065
      ],
      [
        100.04175142385066,
        9.483122220262885
      ],
      [
        100.04177330061793,
        9.48310051113367
      ],
      [
        100.04180364310741,
        9.483082741498947
      ],
      [
        100.04182258620858,
        9.483068827539682
      ],
      [
        100.0419806689024,
        9.482957096770406
      ],
      [
        100.04203867167234,
        9.482876295223832
      ],
      [
        100.04211042076349,
        9.482850646600127
      ],
      [
        100.04227336496115,
        9.4827623013407
      ],
      [
        100.04232365638018,
        9.482730533927679
      ],
      [
        100.04234008491039,
        9.48271980509162
      ],
      [
        100.04247955977917,
        9.48259323835373
      ],
      [
        100.04254217259586,
        9.482538169249892
      ],
      [
        100.04257285036147,
        9.48249852284789
      ],
      [
        100.04264971241355,
        9.482409004122019
      ],
      [
        100.04265658557415,
        9.482395425438881
      ],
      [
        100.04273939877748,
        9.482315545901656
      ],
      [
        100.0428300909698,
        9.48225712403655
      ],
      [
        100.04290267825127,
        9.482186464592814
      ],
      [
        100.04294089972973,
        9.482144638895988
      ],
      [
        100.0430600065738,
        9.482001727446914
      ],
      [
        100.04313628189266,
        9.481936935335398
      ],
      [
        100.04317307844758,
        9.481906676664948
      ],
      [
        100.04318472929299,
        9.481897372752428
      ],
      [
        100.04319311119616,
        9.481888739392161
      ],
      [
        100.04320685751736,
        9.481881279498339
      ],
      [
        100.04334398545325,
        9.481757478788495
      ],
      [
        100.04341321997344,
        9.481649016961455
      ],
      [
        100.04345504567027,
        9.481612388044596
      ],
      [
        100.04356669262052,
        9.481477187946439
      ],
      [
        100.04366702400148,
        9.48132329620421
      ],
      [
        100.04375151358545,
        9.481278117746115
      ],
      [
        100.04388478584588,
        9.481137050315738
      ],
      [
        100.04390171729028,
        9.481118191033602
      ],
      [
        100.04390775226057,
        9.481102600693703
      ],
      [
        100.04392275586724,
        9.481091033667326
      ],
      [
        100.0439316406846,
        9.481081143021584
      ],
      [
        100.04393457435071,
        9.481067061424255
      ],
      [
        100.04394186660647,
        9.481045017018914
      ],
      [
        100.04394580610096,
        9.481034791097045
      ],
      [
        100.04398352466524,
        9.4809783808887
      ],
      [
        100.04407790489495,
        9.48085424490273
      ],
      [
        100.04415141418576,
        9.480740837752819
      ],
      [
        100.04418284632266,
        9.480683421716094
      ],
      [
        100.04428963176906,
        9.480597088113427
      ],
      [
        100.0443034619093,
        9.480585940182209
      ],
      [
        100.04443036392331,
        9.48045258410275
      ],
      [
        100.04456120543182,
        9.480310007929802
      ],
      [
        100.04458014853299,
        9.4802703615278
      ],
      [
        100.04459364339709,
        9.480261979624629
      ],
      [
        100.04464234225452,
        9.48020146228373
      ],
      [
        100.04479422233999,
        9.480092832818627
      ],
      [
        100.0449335295707,
        9.480028543621302
      ],
      [
        100.04494769498706,
        9.480011025443673
      ],
      [
        100.04498113878071,
        9.479971043765545
      ],
      [
        100.04508499056101,
        9.479816649109125
      ],
      [
        100.0452387984842,
        9.479721179232001
      ],
      [
        100.04539243876934,
        9.479601653292775
      ],
      [
        100.04546133801341,
        9.479551864787936
      ],
      [
        100.04557130858302,
        9.479486988857388
      ],
      [
        100.04571002908051,
        9.479366708546877
      ],
      [
        100.04579594358802,
        9.4792705681175
      ],
      [
        100.04592728801072,
        9.479136038571596
      ],
      [
        100.0461043138057,
        9.479039814323187
      ],
      [
        100.04620565101504,
        9.478993210941553
      ],
      [
        100.04626038484275,
        9.478968987241387
      ],
      [
        100.04631101153791,
        9.478945601731539
      ],
      [
        100.04646473564208,
        9.478869494050741
      ],
      [
        100.0465512368828,
        9.478815766051412
      ],
      [
        100.04656380973756,
        9.478798247873783
      ],
      [
        100.04656992852688,
        9.47879715822637
      ],
      [
        100.04671912640333,
        9.478669250383973
      ],
      [
        100.04679406061769,
        9.478628262877464
      ],
      [
        100.04696513526142,
        9.478551568463445
      ],
      [
        100.04696815274656,
        9.478537905961275
      ],
      [
        100.04697385244071,
        9.47852642275393
      ],
      [
        100.04697603173554,
        9.478521393612027
      ],
      [
        100.04713059403002,
        9.478421900421381
      ],
      [
        100.04717451520264,
        9.478385774418712
      ],
      [
        100.04732270725071,
        9.478278905153275
      ],
      [
        100.0474323425442,
        9.478219812735915
      ],
      [
        100.04757651127875,
        9.47809492237866
      ],
      [
        100.04773207940161,
        9.477991154417396
      ],
      [
        100.04782117903233,
        9.477931139990687
      ],
      [
        100.0478464923799,
        9.47788923047483
      ],
      [
        100.04789276048541,
        9.477852853015065
      ],
      [
        100.04798638634384,
        9.477757215499878
      ],
      [
        100.04805629141629,
        9.477683790028095
      ],
      [
        100.04813055507839,
        9.47763609699905
      ],
      [
        100.048134829849,
        9.477623524144292
      ],
      [
        100.04817112348974,
        9.477570466697216
      ],
      [
        100.04817112348974,
        9.477540459483862
      ],
      [
        100.04826181568205,
        9.47744607925415
      ],
      [
        100.04826944321394,
        9.477417413145304
      ],
      [
        100.04824178293347,
        9.477433087304235
      ],
      [
        100.04826500080526,
        9.477400230243802
      ],
      [
        100.0482476502657,
        9.477392854169011
      ],
      [
        100.04823851399124,
        9.47739813476801
      ],
      [
        100.04825594834983,
        9.477392183616757
      ],
      [
        100.04826164804399,
        9.477391261607409
      ],
      [
        100.04827086813748,
        9.47738740593195
      ],
      [
        100.0482730474323,
        9.47739084251225
      ],
      [
        100.04832719452679,
        9.477332588285208
      ],
      [
        100.04834395833313,
        9.477317417040467
      ],
      [
        100.04836642183363,
        9.477303503081203
      ],
      [
        100.04840523004532,
        9.477289086207747
      ],
      [
        100.048549734056,
        9.4771983101964
      ],
      [
        100.0486306194216,
        9.477091692388058
      ],
      [
        100.04876933991909,
        9.476977530866861
      ],
      [
        100.0488341320306,
        9.476934783160686
      ],
      [
        100.04892901517451,
        9.476857166737318
      ],
      [
        100.04906111396849,
        9.476742586120963
      ],
      [
        100.04907812923193,
        9.47670285589993
      ],
      [
        100.04908005706966,
        9.476692713797092
      ],
      [
        100.04906304180622,
        9.476518034934998
      ],
      [
        100.04902171902359,
        9.47632659226656
      ],
      [
        100.04891904070973,
        9.476239420473576
      ],
      [
        100.04889054223895,
        9.476167419925332
      ],
      [
        100.04886120557785,
        9.476107992231846
      ],
      [
        100.04885818809271,
        9.476084355264902
      ],
      [
        100.04876984283328,
        9.47591369971633
      ],
      [
        100.04868007265031,
        9.475751342251897
      ],
      [
        100.04863313399255,
        9.475647322833538
      ],
      [
        100.04862458445132,
        9.475618237629533
      ],
      [
        100.04858217202127,
        9.475519750267267
      ],
      [
        100.04856817424297,
        9.475489407777786
      ],
      [
        100.04852232523263,
        9.475397039204836
      ],
      [
        100.04850723780692,
        9.475369714200497
      ],
      [
        100.04848117008805,
        9.475340964272618
      ],
      [
        100.04845879040658,
        9.475318165495992
      ],
      [
        100.04841931164265,
        9.475127896293998
      ],
      [
        100.04837815649807,
        9.474950702860951
      ],
      [
        100.0483560282737,
        9.474760433658957
      ],
      [
        100.04836122505367,
        9.474716847762465
      ],
      [
        100.04835661500692,
        9.4746027700603
      ],
      [
        100.04832115955651,
        9.474457427859306
      ],
      [
        100.04831814207137,
        9.474446112290025
      ],
      [
        100.04829978570342,
        9.474394898861647
      ],
      [
        100.04828914068639,
        9.474353576079011
      ],
      [
        100.04827614873648,
        9.47427679784596
      ],
      [
        100.04827539436519,
        9.474262464791536
      ],
      [
        100.04826650954783,
        9.474175460636616
      ],
      [
        100.04826441407204,
        9.47410874068737
      ],
      [
        100.04822451621294,
        9.474056772887707
      ],
      [
        100.04816542379558,
        9.473993238061666
      ],
      [
        100.04802603274584,
        9.473861390724778
      ],
      [
        100.04801052622497,
        9.473830629140139
      ],
      [
        100.04799175076187,
        9.473792323842645
      ],
      [
        100.0479707121849,
        9.473734153434634
      ],
      [
        100.04794254899025,
        9.473699619993567
      ],
      [
        100.04792989231646,
        9.473655028268695
      ],
      [
        100.04787306301296,
        9.473552852869034
      ],
      [
        100.04781665280461,
        9.473462579771876
      ],
      [
        100.04775672219694,
        9.473305251449347
      ],
      [
        100.04767466336489,
        9.473150605335832
      ],
      [
        100.04766787402332,
        9.473065445199609
      ],
      [
        100.0476620066911,
        9.47305278852582
      ],
      [
        100.0476569775492,
        9.473039796575904
      ],
      [
        100.0476535409689,
        9.47302588261664
      ],
      [
        100.04763551987708,
        9.47300098836422
      ],
      [
        100.0476152356714,
        9.472978357225657
      ],
      [
        100.04760115407407,
        9.472953379154205
      ],
      [
        100.04757818765938,
        9.47293703444302
      ],
      [
        100.04752144217491,
        9.472891855984926
      ],
      [
        100.04750534892082,
        9.4728724937886
      ],
      [
        100.04748808220029,
        9.472849108278751
      ],
      [
        100.04747349768877,
        9.47281968779862
      ],
      [
        100.04746528342366,
        9.472803343087435
      ],
      [
        100.04745740443468,
        9.472775766626
      ],
      [
        100.04744483157992,
        9.472726481035352
      ],
      [
        100.04744173027575,
        9.472707454115152
      ],
      [
        100.04744273610413,
        9.472663030028343
      ],
      [
        100.0474130641669,
        9.47254903614521
      ],
      [
        100.04736939445138,
        9.472392294555902
      ],
      [
        100.04733293317258,
        9.472235636785626
      ],
      [
        100.04733913578093,
        9.472221052274108
      ],
      [
        100.04732614383101,
        9.472188279032707
      ],
      [
        100.04731482826173,
        9.472177969291806
      ],
      [
        100.04731457680464,
        9.47217671200633
      ],
      [
        100.04731667228043,
        9.472190709784627
      ],
      [
        100.04731784574687,
        9.472192218527198
      ],
      [
        100.04732932895422,
        9.47217964567244
      ],
      [
        100.04732086323202,
        9.472188027575612
      ],
      [
        100.04731558263302,
        9.47218794375658
      ],
      [
        100.04732631146908,
        9.472187105566263
      ],
      [
        100.04732706584036,
        9.472187692299485
      ],
      [
        100.04732446745038,
        9.47219138033688
      ],
      [
        100.04732580855489,
        9.47219624184072
      ],
      [
        100.04730728454888,
        9.472183249890804
      ],
      [
        100.04731751047075,
        9.472167743369937
      ],
      [
        100.04733662120998,
        9.472170006483793
      ],
      [
        100.04733938723803,
        9.472168581560254
      ],
      [
        100.04734282381833,
        9.47217813692987
      ],
      [
        100.04732270725071,
        9.472178807482123
      ],
      [
        100.04733460955322,
        9.472177382558584
      ],
      [
        100.04733511246741,
        9.47217964567244
      ],
      [
        100.04733678884804,
        9.472178304567933
      ],
      [
        100.04730502143502,
        9.472199426963925
      ],
      [
        100.04729588516057,
        9.472207641229033
      ],
      [
        100.04734315909445,
        9.47220403701067
      ],
      [
        100.0473388005048,
        9.472189201042056
      ],
      [
        100.04733670502901,
        9.472172101959586
      ],
      [
        100.04733343608677,
        9.472166066989303
      ]
    ]
  }
}
