{
  "type": "Feature",
  "properties": {
    "id": "photo-20220416",
    "activity": "hiking",
    "name": "Pilgrimsleden Dalsland — day 2: Livarebosjön to Tansjön",
    "date": "2022-04-16T10:20:24+02:00",
    "distanceKm": 24.71,
    "elapsedTimeSeconds": 32625,
    "ascentM": null,
    "descentM": null,
    "providers": [
      "OpenStreetMap",
      "Photo archive"
    ],
    "provenance": {
      "status": "estimated",
      "method": "photo-gps-openstreetmap",
      "metricsSource": "Photo timestamps and matched trail geometry",
      "routeSource": "GPS-tagged photo anchors matched to OpenStreetMap trail geometry",
      "label": "Estimated route reconstructed from GPS-tagged photos and the mapped Pilgrimsleden trail."
    },
    "notes": "The middle day of the Dalsland hike, continuing north from Livarebosjön to a second hammock camp beside Tansjön.",
    "references": [
      {
        "label": "Pilgrimsleden — Dalsland Canal",
        "url": "https://dalslandskanal.se/en/naturen/pilgrimsleden/"
      }
    ]
  },
  "geometry": {
    "type": "LineString",
    "coordinates": [
      [
        12.425405,
        58.84183
      ],
      [
        12.4260978,
        58.8419477
      ],
      [
        12.4261085,
        58.8420462
      ],
      [
        12.4261568,
        58.8421975
      ],
      [
        12.4262453,
        58.8423279
      ],
      [
        12.4263419,
        58.8424126
      ],
      [
        12.426417,
        58.8424639
      ],
      [
        12.4264572,
        58.8425458
      ],
      [
        12.4265511,
        58.8427248
      ],
      [
        12.4267469,
        58.843044
      ],
      [
        12.426881,
        58.8432855
      ],
      [
        12.4271009,
        58.8435741
      ],
      [
        12.4273128,
        58.8438683
      ],
      [
        12.4274738,
        58.8440404
      ],
      [
        12.4275703,
        58.8441431
      ],
      [
        12.4276347,
        58.8442458
      ],
      [
        12.4276508,
        58.8443277
      ],
      [
        12.4276991,
        58.8444303
      ],
      [
        12.42775,
        58.8444775
      ],
      [
        12.4278734,
        58.844515
      ],
      [
        12.4282918,
        58.844558
      ],
      [
        12.4286405,
        58.8445872
      ],
      [
        12.42889,
        58.8445969
      ],
      [
        12.4291394,
        58.8445747
      ],
      [
        12.4293325,
        58.8445511
      ],
      [
        12.4295203,
        58.8445316
      ],
      [
        12.4296839,
        58.8445247
      ],
      [
        12.429818,
        58.8445497
      ],
      [
        12.4300755,
        58.8446302
      ],
      [
        12.4303008,
        58.8446815
      ],
      [
        12.4305476,
        58.8446982
      ],
      [
        12.4308614,
        58.844694
      ],
      [
        12.4310545,
        58.8446843
      ],
      [
        12.4311377,
        58.8446496
      ],
      [
        12.4312181,
        58.8445788
      ],
      [
        12.4313281,
        58.8445122
      ],
      [
        12.4315346,
        58.8444886
      ],
      [
        12.4319209,
        58.8444539
      ],
      [
        12.4322776,
        58.8444512
      ],
      [
        12.4324814,
        58.8444789
      ],
      [
        12.4327416,
        58.8445039
      ],
      [
        12.4329428,
        58.8445969
      ],
      [
        12.4331238,
        58.8447134
      ],
      [
        12.4332056,
        58.8447675
      ],
      [
        12.4332486,
        58.8448907
      ],
      [
        12.433211,
        58.84506
      ],
      [
        12.4331869,
        58.8452792
      ],
      [
        12.4331869,
        58.8454471
      ],
      [
        12.4331783,
        58.845645
      ],
      [
        12.4333786,
        58.8456502
      ],
      [
        12.4339527,
        58.8457213
      ],
      [
        12.4339678,
        58.8458081
      ],
      [
        12.4340697,
        58.8458997
      ],
      [
        12.4342199,
        58.8460024
      ],
      [
        12.4342682,
        58.846087
      ],
      [
        12.4342468,
        58.846162
      ],
      [
        12.4341287,
        58.8462494
      ],
      [
        12.4340751,
        58.8463507
      ],
      [
        12.4340912,
        58.8464645
      ],
      [
        12.434067,
        58.846563
      ],
      [
        12.4339651,
        58.8467475
      ],
      [
        12.4338927,
        58.8469154
      ],
      [
        12.4338766,
        58.8470639
      ],
      [
        12.4338847,
        58.847186
      ],
      [
        12.4339303,
        58.84734
      ],
      [
        12.4338981,
        58.8474885
      ],
      [
        12.4338605,
        58.8475829
      ],
      [
        12.4338498,
        58.8476439
      ],
      [
        12.4338739,
        58.8477397
      ],
      [
        12.4339624,
        58.8478978
      ],
      [
        12.4341851,
        58.8483779
      ],
      [
        12.4343031,
        58.8485056
      ],
      [
        12.4345177,
        58.8486221
      ],
      [
        12.4348261,
        58.848747
      ],
      [
        12.4349656,
        58.8488372
      ],
      [
        12.4351292,
        58.8489523
      ],
      [
        12.435215,
        58.8490509
      ],
      [
        12.4353062,
        58.8491688
      ],
      [
        12.4354698,
        58.8492729
      ],
      [
        12.4357032,
        58.8493908
      ],
      [
        12.4361323,
        58.8495448
      ],
      [
        12.4365293,
        58.8497016
      ],
      [
        12.4368619,
        58.8498847
      ],
      [
        12.4370094,
        58.8499777
      ],
      [
        12.4369665,
        58.850097
      ],
      [
        12.4362799,
        58.8504175
      ],
      [
        12.4360277,
        58.8505909
      ],
      [
        12.4359473,
        58.850713
      ],
      [
        12.4359365,
        58.8508962
      ],
      [
        12.4358749,
        58.8510092
      ],
      [
        12.4357689,
        58.8511126
      ],
      [
        12.4356925,
        58.8511591
      ],
      [
        12.4355396,
        58.8511695
      ],
      [
        12.4354377,
        58.8511868
      ],
      [
        12.4352512,
        58.8512534
      ],
      [
        12.4350259,
        58.8513956
      ],
      [
        12.4346981,
        58.8516915
      ],
      [
        12.4347736,
        58.8517234
      ],
      [
        12.4351748,
        58.8518882
      ],
      [
        12.4356379,
        58.8520081
      ],
      [
        12.4356185,
        58.8523588
      ],
      [
        12.4356791,
        58.8524847
      ],
      [
        12.4357756,
        58.8525721
      ],
      [
        12.4359124,
        58.8526651
      ],
      [
        12.436079,
        58.8528305
      ],
      [
        12.4362128,
        58.852912
      ],
      [
        12.4364435,
        58.8529994
      ],
      [
        12.4366133,
        58.8530918
      ],
      [
        12.4366902,
        58.8532145
      ],
      [
        12.436768,
        58.8533601
      ],
      [
        12.4367949,
        58.8535183
      ],
      [
        12.4368458,
        58.8536418
      ],
      [
        12.4368297,
        58.8537375
      ],
      [
        12.4368655,
        58.8537974
      ],
      [
        12.4369853,
        58.8538901
      ],
      [
        12.4376962,
        58.8540718
      ],
      [
        12.4378651,
        58.8541306
      ],
      [
        12.4378195,
        58.8542558
      ],
      [
        12.4378034,
        58.8543203
      ],
      [
        12.4378007,
        58.854391
      ],
      [
        12.4378391,
        58.8544723
      ],
      [
        12.4378986,
        58.8545416
      ],
      [
        12.4380448,
        58.8546768
      ],
      [
        12.4382728,
        58.8549144
      ],
      [
        12.4384758,
        58.8550038
      ],
      [
        12.4385563,
        58.8550961
      ],
      [
        12.4386612,
        58.8552302
      ],
      [
        12.4386373,
        58.8556862
      ],
      [
        12.4390066,
        58.8559511
      ],
      [
        12.4391377,
        58.8563208
      ],
      [
        12.439924,
        58.8570602
      ],
      [
        12.4403719,
        58.8574404
      ],
      [
        12.4407377,
        58.8575194
      ],
      [
        12.4408986,
        58.8575673
      ],
      [
        12.4410408,
        58.8576339
      ],
      [
        12.4411977,
        58.8577046
      ],
      [
        12.4413492,
        58.8577434
      ],
      [
        12.4414807,
        58.8577871
      ],
      [
        12.4415822,
        58.8578553
      ],
      [
        12.4420326,
        58.8583602
      ],
      [
        12.44239,
        58.8583786
      ],
      [
        12.4424674,
        58.8585022
      ],
      [
        12.4427167,
        58.8588182
      ],
      [
        12.4428231,
        58.8589163
      ],
      [
        12.4429398,
        58.8589967
      ],
      [
        12.443212,
        58.8591426
      ],
      [
        12.4432985,
        58.8591555
      ],
      [
        12.4434031,
        58.8591347
      ],
      [
        12.4434622,
        58.8590748
      ],
      [
        12.4434943,
        58.8590237
      ],
      [
        12.4434932,
        58.8587977
      ],
      [
        12.4439864,
        58.8588407
      ],
      [
        12.444238,
        58.8589221
      ],
      [
        12.4445296,
        58.8590584
      ],
      [
        12.444694,
        58.8591523
      ],
      [
        12.4448777,
        58.8592279
      ],
      [
        12.4450145,
        58.8592924
      ],
      [
        12.4451674,
        58.8593979
      ],
      [
        12.4452948,
        58.859463
      ],
      [
        12.4454114,
        58.8595171
      ],
      [
        12.445547,
        58.859543
      ],
      [
        12.4457447,
        58.859554
      ],
      [
        12.445907,
        58.8595782
      ],
      [
        12.4460246,
        58.8596151
      ],
      [
        12.4459631,
        58.859744
      ],
      [
        12.4459468,
        58.8601538
      ],
      [
        12.4461477,
        58.8604166
      ],
      [
        12.4462845,
        58.8607329
      ],
      [
        12.4464862,
        58.8611349
      ],
      [
        12.4466417,
        58.8612738
      ],
      [
        12.4469325,
        58.8614398
      ],
      [
        12.447163,
        58.8616404
      ],
      [
        12.4472407,
        58.8617652
      ],
      [
        12.4473936,
        58.8619102
      ],
      [
        12.4475036,
        58.8619885
      ],
      [
        12.4475881,
        58.8621057
      ],
      [
        12.447608,
        58.8621798
      ],
      [
        12.4476001,
        58.8622347
      ],
      [
        12.4475706,
        58.8623117
      ],
      [
        12.4474392,
        58.8624206
      ],
      [
        12.4473909,
        58.8625045
      ],
      [
        12.4474177,
        58.8626071
      ],
      [
        12.4474401,
        58.8628495
      ],
      [
        12.4474861,
        58.8630776
      ],
      [
        12.4475008,
        58.863418
      ],
      [
        12.4474706,
        58.863705
      ],
      [
        12.447483,
        58.8640614
      ],
      [
        12.4475621,
        58.8644023
      ],
      [
        12.4470357,
        58.8645318
      ],
      [
        12.4468258,
        58.8645676
      ],
      [
        12.4466711,
        58.8646173
      ],
      [
        12.4466273,
        58.864741
      ],
      [
        12.4466461,
        58.8648588
      ],
      [
        12.4468147,
        58.8651419
      ],
      [
        12.4470004,
        58.8654199
      ],
      [
        12.4469948,
        58.8655509
      ],
      [
        12.4469626,
        58.8656798
      ],
      [
        12.4469647,
        58.8657834
      ],
      [
        12.447035,
        58.865935
      ],
      [
        12.4471477,
        58.8661111
      ],
      [
        12.4474585,
        58.8664634
      ],
      [
        12.447601,
        58.8666243
      ],
      [
        12.4477485,
        58.8668226
      ],
      [
        12.4477708,
        58.8669583
      ],
      [
        12.4479523,
        58.8671568
      ],
      [
        12.4480838,
        58.8673107
      ],
      [
        12.4481493,
        58.8675132
      ],
      [
        12.4481736,
        58.8676865
      ],
      [
        12.448179,
        58.8677961
      ],
      [
        12.4483198,
        58.8679375
      ],
      [
        12.4483962,
        58.8680499
      ],
      [
        12.4485063,
        58.8683774
      ],
      [
        12.4485706,
        58.8685907
      ],
      [
        12.4486945,
        58.8688134
      ],
      [
        12.4487127,
        58.8689692
      ],
      [
        12.4486983,
        58.8690882
      ],
      [
        12.4486618,
        58.8691842
      ],
      [
        12.4485572,
        58.8693034
      ],
      [
        12.4485121,
        58.8695573
      ],
      [
        12.4484874,
        58.8696127
      ],
      [
        12.4483399,
        58.8696848
      ],
      [
        12.4482809,
        58.8698013
      ],
      [
        12.448224,
        58.8701033
      ],
      [
        12.4481844,
        58.8702741
      ],
      [
        12.4481817,
        58.8704447
      ],
      [
        12.4482205,
        58.8707467
      ],
      [
        12.4483587,
        58.87093
      ],
      [
        12.448474,
        58.8711088
      ],
      [
        12.4485572,
        58.8713695
      ],
      [
        12.4485873,
        58.8715754
      ],
      [
        12.4484097,
        58.8717564
      ],
      [
        12.4481227,
        58.8718853
      ],
      [
        12.4478169,
        58.8720406
      ],
      [
        12.4476896,
        58.8721421
      ],
      [
        12.447664,
        58.8722521
      ],
      [
        12.4476533,
        58.8723824
      ],
      [
        12.4476747,
        58.8725363
      ],
      [
        12.4477069,
        58.8727013
      ],
      [
        12.4476935,
        58.8728289
      ],
      [
        12.4476279,
        58.8729253
      ],
      [
        12.447495,
        58.8730216
      ],
      [
        12.4472885,
        58.8731159
      ],
      [
        12.4469531,
        58.8732501
      ],
      [
        12.4467662,
        58.8734028
      ],
      [
        12.4463336,
        58.8735152
      ],
      [
        12.4460761,
        58.8736285
      ],
      [
        12.4459179,
        58.8737884
      ],
      [
        12.4458428,
        58.8739714
      ],
      [
        12.445816,
        58.8741544
      ],
      [
        12.4456765,
        58.8744123
      ],
      [
        12.4454711,
        58.8746356
      ],
      [
        12.445301,
        58.8747464
      ],
      [
        12.4450918,
        58.8748116
      ],
      [
        12.4447382,
        58.8748669
      ],
      [
        12.4445017,
        58.8748837
      ],
      [
        12.4443434,
        58.8749641
      ],
      [
        12.4442576,
        58.8750736
      ],
      [
        12.4441315,
        58.8751956
      ],
      [
        12.4437265,
        58.8754299
      ],
      [
        12.4426486,
        58.8758802
      ],
      [
        12.4414515,
        58.8763053
      ],
      [
        12.4405986,
        58.8765466
      ],
      [
        12.4402353,
        58.8766281
      ],
      [
        12.4400943,
        58.8768599
      ],
      [
        12.4400616,
        58.8770503
      ],
      [
        12.4400948,
        58.8771893
      ],
      [
        12.4401909,
        58.8773507
      ],
      [
        12.4401324,
        58.8774756
      ],
      [
        12.4400167,
        58.8775561
      ],
      [
        12.439853,
        58.8776148
      ],
      [
        12.439804,
        58.8777759
      ],
      [
        12.4397235,
        58.8778813
      ],
      [
        12.4395745,
        58.8780017
      ],
      [
        12.4394679,
        58.878124
      ],
      [
        12.4394365,
        58.8782279
      ],
      [
        12.4394472,
        58.8783138
      ],
      [
        12.4394484,
        58.8783871
      ],
      [
        12.439485,
        58.8784486
      ],
      [
        12.439502,
        58.8785271
      ],
      [
        12.4394189,
        58.878602
      ],
      [
        12.4392916,
        58.8786521
      ],
      [
        12.4391587,
        58.8787739
      ],
      [
        12.4391062,
        58.8788927
      ],
      [
        12.4389751,
        58.879154
      ],
      [
        12.4389066,
        58.879345
      ],
      [
        12.4388847,
        58.8794548
      ],
      [
        12.4389549,
        58.8796098
      ],
      [
        12.4390798,
        58.8797846
      ],
      [
        12.4391556,
        58.8798888
      ],
      [
        12.4393036,
        58.8799758
      ],
      [
        12.4393304,
        58.8800673
      ],
      [
        12.4392687,
        58.8801823
      ],
      [
        12.4392193,
        58.8802989
      ],
      [
        12.4392653,
        58.8804667
      ],
      [
        12.4392488,
        58.8806774
      ],
      [
        12.4392648,
        58.8808854
      ],
      [
        12.4392139,
        58.881006
      ],
      [
        12.4392327,
        58.8812402
      ],
      [
        12.4391495,
        58.8814287
      ],
      [
        12.4390251,
        58.8815334
      ],
      [
        12.4390449,
        58.8816755
      ],
      [
        12.4389987,
        58.8818624
      ],
      [
        12.4387257,
        58.8819042
      ],
      [
        12.4384307,
        58.8819416
      ],
      [
        12.4380156,
        58.8818976
      ],
      [
        12.4379291,
        58.8820678
      ],
      [
        12.4377717,
        58.882169
      ],
      [
        12.4375939,
        58.8822508
      ],
      [
        12.4376017,
        58.8824037
      ],
      [
        12.4376046,
        58.8824698
      ],
      [
        12.437603,
        58.8825243
      ],
      [
        12.4376032,
        58.8825876
      ],
      [
        12.4375936,
        58.8826407
      ],
      [
        12.4375226,
        58.8826858
      ],
      [
        12.4374074,
        58.8827664
      ],
      [
        12.4373254,
        58.8828265
      ],
      [
        12.4372329,
        58.8829103
      ],
      [
        12.4372005,
        58.8829871
      ],
      [
        12.4371084,
        58.8831808
      ],
      [
        12.4370545,
        58.8832499
      ],
      [
        12.4369714,
        58.8832804
      ],
      [
        12.436883,
        58.883307
      ],
      [
        12.4366878,
        58.8834665
      ],
      [
        12.4366202,
        58.8835371
      ],
      [
        12.4364673,
        58.8835814
      ],
      [
        12.4362432,
        58.8837143
      ],
      [
        12.436216,
        58.8837906
      ],
      [
        12.4362715,
        58.8839113
      ],
      [
        12.4363209,
        58.8840359
      ],
      [
        12.4363233,
        58.8841218
      ],
      [
        12.4362661,
        58.8841955
      ],
      [
        12.4362271,
        58.8843089
      ],
      [
        12.4362259,
        58.884445
      ],
      [
        12.4362876,
        58.8845392
      ],
      [
        12.4363386,
        58.8846667
      ],
      [
        12.436439,
        58.8847663
      ],
      [
        12.4365224,
        58.8848817
      ],
      [
        12.4365302,
        58.8849784
      ],
      [
        12.4365302,
        58.8851239
      ],
      [
        12.4364539,
        58.8851824
      ],
      [
        12.4363834,
        58.885286
      ],
      [
        12.4363654,
        58.885533
      ],
      [
        12.4364432,
        58.8858047
      ],
      [
        12.4364727,
        58.8860569
      ],
      [
        12.4365279,
        58.8864227
      ],
      [
        12.4363674,
        58.8866379
      ],
      [
        12.4363075,
        58.8866977
      ],
      [
        12.4362018,
        58.8867361
      ],
      [
        12.4360742,
        58.8867719
      ],
      [
        12.4360393,
        58.8868142
      ],
      [
        12.4359778,
        58.8868968
      ],
      [
        12.4358958,
        58.8870241
      ],
      [
        12.4358244,
        58.8871966
      ],
      [
        12.435755,
        58.8873006
      ],
      [
        12.4356547,
        58.8873549
      ],
      [
        12.43555,
        58.8874042
      ],
      [
        12.4354439,
        58.8874926
      ],
      [
        12.435432,
        58.8875773
      ],
      [
        12.4354009,
        58.8877185
      ],
      [
        12.4353917,
        58.8878865
      ],
      [
        12.4354065,
        58.8880124
      ],
      [
        12.4354586,
        58.8880892
      ],
      [
        12.4354559,
        58.8881897
      ],
      [
        12.4354762,
        58.8882453
      ],
      [
        12.435499,
        58.8883077
      ],
      [
        12.4354412,
        58.8883706
      ],
      [
        12.4353527,
        58.8884288
      ],
      [
        12.435284,
        58.8884797
      ],
      [
        12.4352749,
        58.8885923
      ],
      [
        12.4352396,
        58.8886733
      ],
      [
        12.435123,
        58.8887864
      ],
      [
        12.4350103,
        58.8888571
      ],
      [
        12.4348521,
        58.8889458
      ],
      [
        12.4347791,
        58.8890003
      ],
      [
        12.4346871,
        58.8890726
      ],
      [
        12.434542,
        58.8891931
      ],
      [
        12.4344695,
        58.8893303
      ],
      [
        12.4344615,
        58.8894287
      ],
      [
        12.4344859,
        58.889512
      ],
      [
        12.4345242,
        58.8896265
      ],
      [
        12.4344555,
        58.8898715
      ],
      [
        12.4344447,
        58.8899671
      ],
      [
        12.4344152,
        58.8900191
      ],
      [
        12.4342878,
        58.8900967
      ],
      [
        12.4342556,
        58.8901459
      ],
      [
        12.4342489,
        58.8902197
      ],
      [
        12.4342766,
        58.8903863
      ],
      [
        12.4343214,
        58.8904473
      ],
      [
        12.4343844,
        58.8904896
      ],
      [
        12.4344729,
        58.8905561
      ],
      [
        12.4345756,
        58.8906824
      ],
      [
        12.4347997,
        58.8908184
      ],
      [
        12.4347844,
        58.8910798
      ],
      [
        12.4347612,
        58.8912095
      ],
      [
        12.4347156,
        58.8913592
      ],
      [
        12.4346325,
        58.8915186
      ],
      [
        12.4344819,
        58.8916083
      ],
      [
        12.4342,
        58.8916719
      ],
      [
        12.4343627,
        58.8917849
      ],
      [
        12.4345155,
        58.8919167
      ],
      [
        12.4346358,
        58.8920829
      ],
      [
        12.4347452,
        58.8922832
      ],
      [
        12.4349067,
        58.8927384
      ],
      [
        12.435076,
        58.8932539
      ],
      [
        12.435175,
        58.8936086
      ],
      [
        12.4352098,
        58.8937236
      ],
      [
        12.4352796,
        58.8938345
      ],
      [
        12.4353694,
        58.8939435
      ],
      [
        12.4355397,
        58.8940825
      ],
      [
        12.4357516,
        58.8942197
      ],
      [
        12.436257,
        58.8944844
      ],
      [
        12.4363712,
        58.8945717
      ],
      [
        12.4365027,
        58.8946825
      ],
      [
        12.4365942,
        58.8947892
      ],
      [
        12.4366555,
        58.8949195
      ],
      [
        12.4366851,
        58.8950436
      ],
      [
        12.4368221,
        58.8953089
      ],
      [
        12.4369558,
        58.8955888
      ],
      [
        12.4371923,
        58.895974
      ],
      [
        12.4374024,
        58.8962726
      ],
      [
        12.4375463,
        58.8966114
      ],
      [
        12.4376167,
        58.8970517
      ],
      [
        12.4376442,
        58.8973687
      ],
      [
        12.4377331,
        58.8978023
      ],
      [
        12.4377874,
        58.8979269
      ],
      [
        12.4378505,
        58.8980329
      ],
      [
        12.4379283,
        58.8981292
      ],
      [
        12.4380038,
        58.8982047
      ],
      [
        12.4381857,
        58.8983751
      ],
      [
        12.4383751,
        58.898574
      ],
      [
        12.4384513,
        58.8986979
      ],
      [
        12.4385146,
        58.8988213
      ],
      [
        12.4385397,
        58.8988991
      ],
      [
        12.4385613,
        58.898966
      ],
      [
        12.4385397,
        58.8988991
      ],
      [
        12.4384165,
        58.8989733
      ],
      [
        12.4382766,
        58.8990038
      ],
      [
        12.4381668,
        58.8990405
      ],
      [
        12.4380845,
        58.8991209
      ],
      [
        12.4380148,
        58.8992175
      ],
      [
        12.4379725,
        58.8992681
      ],
      [
        12.437945,
        58.8993183
      ],
      [
        12.4378984,
        58.8994174
      ],
      [
        12.437829,
        58.8997149
      ],
      [
        12.4377606,
        58.8998998
      ],
      [
        12.4377536,
        58.8999764
      ],
      [
        12.4377794,
        58.9000585
      ],
      [
        12.437775,
        58.9001309
      ],
      [
        12.4375926,
        58.9003166
      ],
      [
        12.4374507,
        58.9005311
      ],
      [
        12.4373469,
        58.9006192
      ],
      [
        12.4372671,
        58.9006888
      ],
      [
        12.4371098,
        58.900789
      ],
      [
        12.4370585,
        58.9008818
      ],
      [
        12.436922,
        58.9009566
      ],
      [
        12.4367001,
        58.9010114
      ],
      [
        12.4364229,
        58.9010314
      ],
      [
        12.4362341,
        58.9010384
      ],
      [
        12.4361184,
        58.9010404
      ],
      [
        12.4359977,
        58.9010293
      ],
      [
        12.4358146,
        58.9010003
      ],
      [
        12.4356866,
        58.9009857
      ],
      [
        12.4355659,
        58.9009774
      ],
      [
        12.4353502,
        58.9009566
      ],
      [
        12.4350821,
        58.9008915
      ],
      [
        12.4348484,
        58.9008263
      ],
      [
        12.4346633,
        58.9007917
      ],
      [
        12.4345592,
        58.9007924
      ],
      [
        12.4344179,
        58.900843
      ],
      [
        12.4342479,
        58.900895
      ],
      [
        12.4341725,
        58.9009649
      ],
      [
        12.4341459,
        58.9010314
      ],
      [
        12.4340582,
        58.901072
      ],
      [
        12.4339529,
        58.9010744
      ],
      [
        12.4336954,
        58.9010688
      ],
      [
        12.433518,
        58.9010854
      ],
      [
        12.4333772,
        58.901111
      ],
      [
        12.4332515,
        58.9011292
      ],
      [
        12.4330929,
        58.901136
      ],
      [
        12.4329601,
        58.9011381
      ],
      [
        12.4327821,
        58.9011402
      ],
      [
        12.4326316,
        58.9011554
      ],
      [
        12.432542,
        58.901181
      ],
      [
        12.4324411,
        58.9012337
      ],
      [
        12.4323692,
        58.9012676
      ],
      [
        12.4322882,
        58.9012884
      ],
      [
        12.4321756,
        58.9013057
      ],
      [
        12.4320377,
        58.9013133
      ],
      [
        12.4318028,
        58.9013209
      ],
      [
        12.4316917,
        58.9013383
      ],
      [
        12.4316231,
        58.9013798
      ],
      [
        12.4315815,
        58.9014796
      ],
      [
        12.4315697,
        58.9015392
      ],
      [
        12.4315734,
        58.9015897
      ],
      [
        12.4315815,
        58.9016354
      ],
      [
        12.4315171,
        58.901722
      ],
      [
        12.4314487,
        58.9017539
      ],
      [
        12.4313629,
        58.9017823
      ],
      [
        12.4312636,
        58.9018294
      ],
      [
        12.4311993,
        58.9018799
      ],
      [
        12.4311671,
        58.9020039
      ],
      [
        12.4311684,
        58.9020642
      ],
      [
        12.4311537,
        58.9021487
      ],
      [
        12.4311352,
        58.9022041
      ],
      [
        12.4310893,
        58.9022616
      ],
      [
        12.4310316,
        58.9023087
      ],
      [
        12.4309176,
        58.9023821
      ],
      [
        12.4308518,
        58.9024211
      ],
      [
        12.4307986,
        58.902572
      ],
      [
        12.4308233,
        58.9027449
      ],
      [
        12.4307972,
        58.9028927
      ],
      [
        12.4307272,
        58.9029425
      ],
      [
        12.4306433,
        58.9029831
      ],
      [
        12.4304871,
        58.9030277
      ],
      [
        12.4303946,
        58.9030651
      ],
      [
        12.4303265,
        58.9031088
      ],
      [
        12.4302726,
        58.9031739
      ],
      [
        12.4302256,
        58.9032244
      ],
      [
        12.4301436,
        58.9032631
      ],
      [
        12.4300298,
        58.9032875
      ],
      [
        12.4299027,
        58.9032965
      ],
      [
        12.4297659,
        58.9033145
      ],
      [
        12.4296919,
        58.903347
      ],
      [
        12.4296691,
        58.9033914
      ],
      [
        12.4296768,
        58.9034444
      ],
      [
        12.429724,
        58.9034959
      ],
      [
        12.429771,
        58.9035763
      ],
      [
        12.4297656,
        58.903649
      ],
      [
        12.4297901,
        58.9037218
      ],
      [
        12.4299,
        58.9038478
      ],
      [
        12.4300435,
        58.9039667
      ],
      [
        12.430129,
        58.9040553
      ],
      [
        12.430365,
        58.9042333
      ],
      [
        12.4305259,
        58.904394
      ],
      [
        12.4306166,
        58.9044698
      ],
      [
        12.4307028,
        58.9045382
      ],
      [
        12.4308445,
        58.9046554
      ],
      [
        12.430888,
        58.9047071
      ],
      [
        12.4309599,
        58.9047822
      ],
      [
        12.4310717,
        58.9048359
      ],
      [
        12.4312061,
        58.9049104
      ],
      [
        12.4313193,
        58.9048972
      ],
      [
        12.4313555,
        58.9049394
      ],
      [
        12.4313595,
        58.9050184
      ],
      [
        12.4313904,
        58.9050786
      ],
      [
        12.4315392,
        58.9051306
      ],
      [
        12.4317538,
        58.9051998
      ],
      [
        12.4319791,
        58.9052677
      ],
      [
        12.4321374,
        58.9053439
      ],
      [
        12.4322447,
        58.9054229
      ],
      [
        12.4323841,
        58.9054533
      ],
      [
        12.4325585,
        58.9054713
      ],
      [
        12.4327945,
        58.9055281
      ],
      [
        12.4330359,
        58.9056168
      ],
      [
        12.4330815,
        58.9056764
      ],
      [
        12.4330574,
        58.9057539
      ],
      [
        12.4330949,
        58.9058204
      ],
      [
        12.4331351,
        58.9058814
      ],
      [
        12.4331056,
        58.9059382
      ],
      [
        12.4330493,
        58.906042
      ],
      [
        12.4330386,
        58.9061127
      ],
      [
        12.4330761,
        58.906157
      ],
      [
        12.4330359,
        58.9062166
      ],
      [
        12.4330842,
        58.9063329
      ],
      [
        12.4330654,
        58.9064548
      ],
      [
        12.4330842,
        58.9065227
      ],
      [
        12.4331244,
        58.9065781
      ],
      [
        12.4332049,
        58.9066058
      ],
      [
        12.4332746,
        58.9066598
      ],
      [
        12.4333095,
        58.9067236
      ],
      [
        12.4333578,
        58.9068288
      ],
      [
        12.4334516,
        58.9069549
      ],
      [
        12.4335214,
        58.9070408
      ],
      [
        12.4335589,
        58.9070934
      ],
      [
        12.4335777,
        58.9071765
      ],
      [
        12.4335965,
        58.9072319
      ],
      [
        12.4336716,
        58.9073095
      ],
      [
        12.4337145,
        58.907358
      ],
      [
        12.4337279,
        58.9074175
      ],
      [
        12.4337977,
        58.9075741
      ],
      [
        12.4338325,
        58.907635
      ],
      [
        12.4338164,
        58.9076904
      ],
      [
        12.4338164,
        58.9077403
      ],
      [
        12.4338272,
        58.907858
      ],
      [
        12.4338513,
        58.9079176
      ],
      [
        12.4339398,
        58.9079785
      ],
      [
        12.4340176,
        58.9080353
      ],
      [
        12.4340444,
        58.9080935
      ],
      [
        12.4340927,
        58.9081489
      ],
      [
        12.434141,
        58.9081877
      ],
      [
        12.4341893,
        58.9082542
      ],
      [
        12.4342134,
        58.9083179
      ],
      [
        12.4342751,
        58.9083594
      ],
      [
        12.4343958,
        58.9083913
      ],
      [
        12.4344789,
        58.9084259
      ],
      [
        12.4345058,
        58.9084716
      ],
      [
        12.4345138,
        58.9085284
      ],
      [
        12.4345353,
        58.9085824
      ],
      [
        12.434554,
        58.9086309
      ],
      [
        12.4345487,
        58.9086974
      ],
      [
        12.4345406,
        58.9087708
      ],
      [
        12.4345835,
        58.9088511
      ],
      [
        12.4346291,
        58.9089024
      ],
      [
        12.4347257,
        58.9089467
      ],
      [
        12.4347847,
        58.9090007
      ],
      [
        12.4348759,
        58.909088
      ],
      [
        12.4349832,
        58.9091559
      ],
      [
        12.4351817,
        58.9092722
      ],
      [
        12.4352407,
        58.9093207
      ],
      [
        12.4352675,
        58.9093844
      ],
      [
        12.4353614,
        58.9094467
      ],
      [
        12.4353962,
        58.909498
      ],
      [
        12.4353989,
        58.9095534
      ],
      [
        12.4354418,
        58.9095991
      ],
      [
        12.4356269,
        58.9097293
      ],
      [
        12.435753,
        58.9097958
      ],
      [
        12.4358107,
        58.9098332
      ],
      [
        12.4358495,
        58.9098775
      ],
      [
        12.435926,
        58.9099128
      ],
      [
        12.4360212,
        58.9099481
      ],
      [
        12.4361406,
        58.9100201
      ],
      [
        12.4361982,
        58.9101122
      ],
      [
        12.436276,
        58.9101836
      ],
      [
        12.4364504,
        58.9102334
      ],
      [
        12.4365804,
        58.9102965
      ],
      [
        12.4366797,
        58.9103622
      ],
      [
        12.4367722,
        58.9104017
      ],
      [
        12.436909,
        58.9105084
      ],
      [
        12.4371397,
        58.9106579
      ],
      [
        12.4372202,
        58.9107147
      ],
      [
        12.4373301,
        58.9107549
      ],
      [
        12.4373811,
        58.9107923
      ],
      [
        12.4374106,
        58.9108408
      ],
      [
        12.4375179,
        58.910928
      ],
      [
        12.4375662,
        58.9109834
      ],
      [
        12.4375957,
        58.9110596
      ],
      [
        12.4376118,
        58.9111205
      ],
      [
        12.4375769,
        58.9112078
      ],
      [
        12.4376922,
        58.9113103
      ],
      [
        12.4377405,
        58.9113588
      ],
      [
        12.4377888,
        58.9114806
      ],
      [
        12.4378102,
        58.911561
      ],
      [
        12.4379604,
        58.9117382
      ],
      [
        12.4380731,
        58.9118477
      ],
      [
        12.438175,
        58.91191
      ],
      [
        12.4382287,
        58.9119557
      ],
      [
        12.4382635,
        58.9120277
      ],
      [
        12.4383118,
        58.91209
      ],
      [
        12.4385237,
        58.9122812
      ],
      [
        12.4386015,
        58.912367
      ],
      [
        12.4386766,
        58.9124875
      ],
      [
        12.4387892,
        58.9126094
      ],
      [
        12.4388965,
        58.9127036
      ],
      [
        12.4390333,
        58.91277
      ],
      [
        12.4391567,
        58.9128088
      ],
      [
        12.4392399,
        58.9128365
      ],
      [
        12.4393874,
        58.9129044
      ],
      [
        12.4394464,
        58.9129681
      ],
      [
        12.4394893,
        58.9132063
      ],
      [
        12.4395094,
        58.9132617
      ],
      [
        12.4395416,
        58.9133247
      ],
      [
        12.4395859,
        58.9134036
      ],
      [
        12.43961,
        58.9134687
      ],
      [
        12.4396422,
        58.9135345
      ],
      [
        12.439665,
        58.9135961
      ],
      [
        12.4396623,
        58.9136841
      ],
      [
        12.4396408,
        58.9137561
      ],
      [
        12.4396073,
        58.9138115
      ],
      [
        12.4395792,
        58.9138558
      ],
      [
        12.4395242,
        58.9139015
      ],
      [
        12.439488,
        58.9139486
      ],
      [
        12.4394625,
        58.9140054
      ],
      [
        12.4394638,
        58.9140566
      ],
      [
        12.4394786,
        58.9141266
      ],
      [
        12.4395108,
        58.9142166
      ],
      [
        12.4395523,
        58.914272
      ],
      [
        12.4396207,
        58.9143101
      ],
      [
        12.4397709,
        58.9143904
      ],
      [
        12.4399117,
        58.9144589
      ],
      [
        12.4399842,
        58.9145109
      ],
      [
        12.4400311,
        58.9145676
      ],
      [
        12.44007,
        58.9146258
      ],
      [
        12.4400861,
        58.9146736
      ],
      [
        12.4401156,
        58.9147248
      ],
      [
        12.4402135,
        58.914864
      ],
      [
        12.4402966,
        58.9150073
      ],
      [
        12.4403422,
        58.9150884
      ],
      [
        12.4403919,
        58.9151264
      ],
      [
        12.4404495,
        58.9151624
      ],
      [
        12.4404764,
        58.9152151
      ],
      [
        12.4404817,
        58.915294
      ],
      [
        12.4405032,
        58.9154076
      ],
      [
        12.4405367,
        58.9154678
      ],
      [
        12.4406453,
        58.9155599
      ],
      [
        12.4406695,
        58.915607
      ],
      [
        12.4406681,
        58.9156714
      ],
      [
        12.4406306,
        58.9157309
      ],
      [
        12.4405608,
        58.9158265
      ],
      [
        12.4405555,
        58.9158902
      ],
      [
        12.4406038,
        58.9159483
      ],
      [
        12.4406118,
        58.9160037
      ],
      [
        12.4405528,
        58.9160979
      ],
      [
        12.4405287,
        58.9161616
      ],
      [
        12.4405635,
        58.9162405
      ],
      [
        12.440644,
        58.9163375
      ],
      [
        12.4407379,
        58.9163832
      ],
      [
        12.440821,
        58.9163998
      ],
      [
        12.4409042,
        58.9164289
      ],
      [
        12.4409766,
        58.9165078
      ],
      [
        12.4410919,
        58.9166532
      ],
      [
        12.4411643,
        58.9167377
      ],
      [
        12.4412475,
        58.9167917
      ],
      [
        12.4413226,
        58.9168374
      ],
      [
        12.4413736,
        58.9169606
      ],
      [
        12.4414192,
        58.9170492
      ],
      [
        12.4414889,
        58.9171019
      ],
      [
        12.4415908,
        58.9171628
      ],
      [
        12.4416471,
        58.9172417
      ],
      [
        12.4416686,
        58.9173248
      ],
      [
        12.4416391,
        58.917394
      ],
      [
        12.441615,
        58.9174647
      ],
      [
        12.441631,
        58.9175284
      ],
      [
        12.441631,
        58.9176045
      ],
      [
        12.4415962,
        58.9176779
      ],
      [
        12.4414969,
        58.917743
      ],
      [
        12.4414406,
        58.9178081
      ],
      [
        12.4413387,
        58.9178953
      ],
      [
        12.441273,
        58.9179729
      ],
      [
        12.441222,
        58.9180656
      ],
      [
        12.4411898,
        58.9181231
      ],
      [
        12.441226,
        58.9181965
      ],
      [
        12.4412193,
        58.9182567
      ],
      [
        12.4411228,
        58.918308
      ],
      [
        12.4410691,
        58.9183571
      ],
      [
        12.4410799,
        58.9184665
      ],
      [
        12.4411013,
        58.9185503
      ],
      [
        12.4411737,
        58.9186195
      ],
      [
        12.4412971,
        58.9187068
      ],
      [
        12.4413561,
        58.9187635
      ],
      [
        12.4413883,
        58.9188674
      ],
      [
        12.4414151,
        58.9189214
      ],
      [
        12.4414875,
        58.9189795
      ],
      [
        12.4415841,
        58.919028
      ],
      [
        12.4416673,
        58.9190502
      ],
      [
        12.441796,
        58.9191208
      ],
      [
        12.4419489,
        58.9191734
      ],
      [
        12.4419891,
        58.9192156
      ],
      [
        12.4419891,
        58.9192932
      ],
      [
        12.441914,
        58.9193534
      ],
      [
        12.4418523,
        58.9193963
      ],
      [
        12.4418416,
        58.9194801
      ],
      [
        12.4419395,
        58.919559
      ],
      [
        12.4420173,
        58.9196033
      ],
      [
        12.4420441,
        58.9196504
      ],
      [
        12.442079,
        58.9197543
      ],
      [
        12.4421273,
        58.9198664
      ],
      [
        12.4421138,
        58.9199315
      ],
      [
        12.4420682,
        58.9200049
      ],
      [
        12.4420763,
        58.9200644
      ],
      [
        12.4421031,
        58.9201406
      ],
      [
        12.4421353,
        58.9202403
      ],
      [
        12.4420951,
        58.9203303
      ],
      [
        12.4420468,
        58.920403
      ],
      [
        12.4420307,
        58.9204881
      ],
      [
        12.4420401,
        58.9205428
      ],
      [
        12.4419931,
        58.9206446
      ],
      [
        12.4418617,
        58.9208855
      ],
      [
        12.4418054,
        58.9209367
      ],
      [
        12.4416686,
        58.9209866
      ],
      [
        12.4415908,
        58.9210489
      ],
      [
        12.4415452,
        58.9211209
      ],
      [
        12.4415318,
        58.9212026
      ],
      [
        12.4415345,
        58.9212829
      ],
      [
        12.4415533,
        58.9213383
      ],
      [
        12.4414674,
        58.9214103
      ],
      [
        12.4413601,
        58.9214269
      ],
      [
        12.441226,
        58.92142
      ],
      [
        12.4411268,
        58.9214338
      ],
      [
        12.4410168,
        58.9214934
      ],
      [
        12.44088,
        58.9215432
      ],
      [
        12.440695,
        58.9215667
      ],
      [
        12.4404696,
        58.9215584
      ],
      [
        12.4402417,
        58.9215391
      ],
      [
        12.4400968,
        58.9215003
      ],
      [
        12.4399439,
        58.9214518
      ],
      [
        12.4397374,
        58.9214311
      ],
      [
        12.4395175,
        58.9214186
      ],
      [
        12.4391876,
        58.9214269
      ],
      [
        12.4389596,
        58.9214366
      ],
      [
        12.438635,
        58.9214823
      ],
      [
        12.4382649,
        58.9215391
      ],
      [
        12.438112,
        58.9215834
      ],
      [
        12.4380074,
        58.9216401
      ],
      [
        12.4378411,
        58.9216955
      ],
      [
        12.4376506,
        58.921744
      ],
      [
        12.4374173,
        58.9217675
      ],
      [
        12.4368943,
        58.9218174
      ],
      [
        12.436508,
        58.9218464
      ],
      [
        12.4362441,
        58.9217464
      ],
      [
        12.4359412,
        58.9215221
      ],
      [
        12.4354432,
        58.9214669
      ],
      [
        12.4348677,
        58.9215099
      ],
      [
        12.4345162,
        58.9215134
      ],
      [
        12.4342331,
        58.9214376
      ],
      [
        12.434065,
        58.9212255
      ],
      [
        12.4337876,
        58.921029
      ],
      [
        12.4332957,
        58.9207069
      ],
      [
        12.4330163,
        58.9206315
      ],
      [
        12.4326968,
        58.920591
      ],
      [
        12.4324835,
        58.9206424
      ],
      [
        12.4322601,
        58.9207923
      ],
      [
        12.4319908,
        58.9209588
      ],
      [
        12.4317246,
        58.9210147
      ],
      [
        12.4313641,
        58.9210362
      ],
      [
        12.4311587,
        58.9210155
      ],
      [
        12.4308739,
        58.9210796
      ],
      [
        12.4309478,
        58.9211707
      ],
      [
        12.4310202,
        58.9212877
      ],
      [
        12.4310953,
        58.921429
      ],
      [
        12.4311771,
        58.9215882
      ],
      [
        12.4312294,
        58.9216948
      ],
      [
        12.431263,
        58.9217855
      ],
      [
        12.4312844,
        58.9218713
      ],
      [
        12.4313114,
        58.9219406
      ],
      [
        12.4313716,
        58.9220721
      ],
      [
        12.4314427,
        58.9221746
      ],
      [
        12.4315325,
        58.9222736
      ],
      [
        12.4316774,
        58.9224314
      ],
      [
        12.4318763,
        58.9226207
      ],
      [
        12.4319685,
        58.9227052
      ],
      [
        12.4320294,
        58.9227441
      ],
      [
        12.4319307,
        58.9227866
      ],
      [
        12.4314232,
        58.922909
      ],
      [
        12.4308786,
        58.9230611
      ],
      [
        12.4304926,
        58.9231336
      ],
      [
        12.4301669,
        58.9232034
      ],
      [
        12.4296178,
        58.9234182
      ],
      [
        12.428978,
        58.9236141
      ],
      [
        12.428087,
        58.9239277
      ],
      [
        12.4276323,
        58.9240834
      ],
      [
        12.4274084,
        58.9241603
      ],
      [
        12.4271978,
        58.9242061
      ],
      [
        12.4269886,
        58.9242004
      ],
      [
        12.4267955,
        58.9241876
      ],
      [
        12.4266962,
        58.9241679
      ],
      [
        12.4266372,
        58.9241146
      ],
      [
        12.4265299,
        58.9240509
      ],
      [
        12.4264067,
        58.9240686
      ],
      [
        12.4263409,
        58.9241076
      ],
      [
        12.4263033,
        58.9241672
      ],
      [
        12.4263041,
        58.924293
      ],
      [
        12.4263518,
        58.924619
      ],
      [
        12.4262671,
        58.9247286
      ],
      [
        12.4261062,
        58.92482
      ],
      [
        12.4260498,
        58.9249307
      ],
      [
        12.4260632,
        58.9250096
      ],
      [
        12.4260311,
        58.9250608
      ],
      [
        12.4259479,
        58.9251259
      ],
      [
        12.4258245,
        58.9252048
      ],
      [
        12.4257847,
        58.9252688
      ],
      [
        12.4258245,
        58.9254194
      ],
      [
        12.4259533,
        58.9256105
      ],
      [
        12.426135,
        58.9257544
      ],
      [
        12.42619,
        58.9258174
      ],
      [
        12.4262316,
        58.9258631
      ],
      [
        12.4263227,
        58.9258991
      ],
      [
        12.4264632,
        58.9259687
      ],
      [
        12.4265045,
        58.9260223
      ],
      [
        12.4265393,
        58.9261033
      ],
      [
        12.4266211,
        58.9261642
      ],
      [
        12.4267613,
        58.9262508
      ],
      [
        12.4267982,
        58.9263013
      ],
      [
        12.4268143,
        58.9263525
      ],
      [
        12.4269229,
        58.926419
      ],
      [
        12.4270168,
        58.926439
      ],
      [
        12.4270905,
        58.926466
      ],
      [
        12.4273775,
        58.9266107
      ],
      [
        12.4275841,
        58.9267976
      ],
      [
        12.4277101,
        58.9268682
      ],
      [
        12.4277799,
        58.9269277
      ],
      [
        12.4278657,
        58.9270357
      ],
      [
        12.4278469,
        58.9271035
      ],
      [
        12.4279166,
        58.9272254
      ],
      [
        12.4279901,
        58.9273166
      ],
      [
        12.4280534,
        58.9273693
      ],
      [
        12.4280937,
        58.9274552
      ],
      [
        12.4280695,
        58.9275618
      ],
      [
        12.4279918,
        58.9276407
      ],
      [
        12.4278985,
        58.9276684
      ],
      [
        12.4277886,
        58.9277009
      ],
      [
        12.427739,
        58.9277521
      ],
      [
        12.4277403,
        58.9278047
      ],
      [
        12.4277763,
        58.9278692
      ],
      [
        12.4278556,
        58.9279175
      ],
      [
        12.4279643,
        58.9279584
      ],
      [
        12.4280568,
        58.9279826
      ],
      [
        12.4281507,
        58.928074
      ],
      [
        12.4281735,
        58.9281252
      ],
      [
        12.4281885,
        58.9281876
      ],
      [
        12.4283277,
        58.9283937
      ],
      [
        12.428383,
        58.9284996
      ],
      [
        12.4284168,
        58.9286143
      ],
      [
        12.4283951,
        58.9287059
      ],
      [
        12.4283549,
        58.9287813
      ],
      [
        12.4282771,
        58.9288236
      ],
      [
        12.4281537,
        58.9288907
      ],
      [
        12.4280031,
        58.9289556
      ],
      [
        12.4279042,
        58.9290035
      ],
      [
        12.427797,
        58.9290755
      ],
      [
        12.4277876,
        58.9291295
      ],
      [
        12.4278755,
        58.9293873
      ],
      [
        12.4280055,
        58.9297053
      ],
      [
        12.428103,
        58.9300175
      ],
      [
        12.4281329,
        58.9300743
      ],
      [
        12.4281342,
        58.9301324
      ],
      [
        12.4280766,
        58.930185
      ],
      [
        12.4279827,
        58.9302134
      ],
      [
        12.4279103,
        58.9302812
      ],
      [
        12.4278409,
        58.9303803
      ],
      [
        12.4276756,
        58.9304037
      ],
      [
        12.4274798,
        58.9304279
      ],
      [
        12.4273591,
        58.9304715
      ],
      [
        12.4273048,
        58.9305832
      ],
      [
        12.4272659,
        58.9306411
      ],
      [
        12.4272645,
        58.9307048
      ],
      [
        12.4272525,
        58.9307934
      ],
      [
        12.4271881,
        58.93083
      ],
      [
        12.4271091,
        58.9309121
      ],
      [
        12.4270848,
        58.9309878
      ],
      [
        12.4270392,
        58.9310626
      ],
      [
        12.4269333,
        58.9311477
      ],
      [
        12.4266853,
        58.9312717
      ],
      [
        12.4266235,
        58.931419
      ],
      [
        12.4265833,
        58.9315962
      ],
      [
        12.4266423,
        58.9317761
      ],
      [
        12.4266954,
        58.9319761
      ],
      [
        12.426689,
        58.9320796
      ],
      [
        12.4266637,
        58.9321637
      ],
      [
        12.426535,
        58.9322509
      ],
      [
        12.4264782,
        58.9323247
      ],
      [
        12.4264324,
        58.932586
      ],
      [
        12.4263486,
        58.9329322
      ],
      [
        12.4265239,
        58.9334319
      ],
      [
        12.4264324,
        58.9336286
      ],
      [
        12.4262735,
        58.9337721
      ],
      [
        12.4262681,
        58.9338856
      ],
      [
        12.4263164,
        58.9340074
      ],
      [
        12.4262723,
        58.9340889
      ],
      [
        12.4256257,
        58.9344184
      ],
      [
        12.4253146,
        58.9345873
      ],
      [
        12.4249852,
        58.9347255
      ],
      [
        12.4246896,
        58.9347728
      ],
      [
        12.4243758,
        58.9348143
      ],
      [
        12.4241532,
        58.9348586
      ],
      [
        12.4240689,
        58.9349191
      ],
      [
        12.4239118,
        58.9349928
      ],
      [
        12.4237938,
        58.9350634
      ],
      [
        12.4235939,
        58.9351169
      ],
      [
        12.4234746,
        58.9351783
      ],
      [
        12.4234095,
        58.9353526
      ],
      [
        12.4234424,
        58.9355949
      ],
      [
        12.4235282,
        58.9357402
      ],
      [
        12.4236166,
        58.9358781
      ],
      [
        12.4236119,
        58.9360034
      ],
      [
        12.4235792,
        58.9360544
      ],
      [
        12.423488,
        58.9360599
      ],
      [
        12.4234102,
        58.9360239
      ],
      [
        12.4233566,
        58.9359658
      ],
      [
        12.4233029,
        58.9358564
      ],
      [
        12.423209,
        58.9357706
      ],
      [
        12.4229945,
        58.9356488
      ],
      [
        12.4228033,
        58.9355423
      ],
      [
        12.4226404,
        58.935498
      ],
      [
        12.4225304,
        58.9355021
      ],
      [
        12.4223939,
        58.9354714
      ],
      [
        12.4221496,
        58.9353886
      ],
      [
        12.4220541,
        58.935311
      ],
      [
        12.4218256,
        58.9351185
      ],
      [
        12.4216668,
        58.9350309
      ],
      [
        12.4214777,
        58.9349963
      ],
      [
        12.4213072,
        58.9350241
      ],
      [
        12.4211397,
        58.9350682
      ],
      [
        12.4210297,
        58.9351368
      ],
      [
        12.4208909,
        58.9352488
      ],
      [
        12.4207501,
        58.9353146
      ],
      [
        12.4206093,
        58.9353589
      ],
      [
        12.4204457,
        58.9354219
      ],
      [
        12.4203351,
        58.9354984
      ],
      [
        12.4200262,
        58.9356299
      ],
      [
        12.4196035,
        58.9357734
      ],
      [
        12.419354,
        58.9358246
      ],
      [
        12.4191579,
        58.9358329
      ],
      [
        12.4190667,
        58.9357956
      ],
      [
        12.4189339,
        58.9358142
      ],
      [
        12.4188368,
        58.935866
      ],
      [
        12.4187864,
        58.9359097
      ],
      [
        12.4187582,
        58.9359817
      ],
      [
        12.4187046,
        58.9360267
      ],
      [
        12.4186952,
        58.9361222
      ],
      [
        12.4186563,
        58.9362052
      ],
      [
        12.4186382,
        58.9363928
      ],
      [
        12.4185964,
        58.9364937
      ],
      [
        12.4185873,
        58.9365671
      ],
      [
        12.4185068,
        58.9366232
      ],
      [
        12.4184478,
        58.9366626
      ],
      [
        12.4184183,
        58.9367208
      ],
      [
        12.4184478,
        58.9367692
      ],
      [
        12.4184424,
        58.9368654
      ],
      [
        12.4185028,
        58.9370591
      ],
      [
        12.4184894,
        58.9372086
      ],
      [
        12.4184894,
        58.9372723
      ],
      [
        12.4185484,
        58.9373802
      ],
      [
        12.4184947,
        58.9374619
      ],
      [
        12.4184008,
        58.9374923
      ],
      [
        12.4183445,
        58.9375338
      ],
      [
        12.4183488,
        58.9376188
      ],
      [
        12.4183801,
        58.9376964
      ],
      [
        12.4184189,
        58.9377643
      ],
      [
        12.4184122,
        58.9378611
      ],
      [
        12.4184196,
        58.9379366
      ],
      [
        12.4184116,
        58.9379975
      ],
      [
        12.41837,
        58.9380431
      ],
      [
        12.4183033,
        58.9381184
      ],
      [
        12.418192,
        58.9381459
      ],
      [
        12.4180243,
        58.9381037
      ],
      [
        12.4178875,
        58.9380331
      ],
      [
        12.4177615,
        58.9379964
      ],
      [
        12.417626,
        58.9379736
      ],
      [
        12.4174932,
        58.937968
      ],
      [
        12.417398,
        58.9379667
      ],
      [
        12.4172814,
        58.9379777
      ],
      [
        12.4170976,
        58.9379632
      ],
      [
        12.4170185,
        58.9379362
      ],
      [
        12.4167691,
        58.9378338
      ],
      [
        12.4165317,
        58.9377438
      ],
      [
        12.4162755,
        58.93764
      ],
      [
        12.4161025,
        58.9375646
      ],
      [
        12.416014,
        58.9375363
      ],
      [
        12.4159175,
        58.9375162
      ],
      [
        12.4155674,
        58.9375176
      ],
      [
        12.4154494,
        58.9375183
      ],
      [
        12.4152523,
        58.937483
      ],
      [
        12.4150846,
        58.9373937
      ],
      [
        12.4149123,
        58.9373294
      ],
      [
        12.4148037,
        58.9372989
      ],
      [
        12.4146414,
        58.9372629
      ],
      [
        12.4145073,
        58.9372207
      ],
      [
        12.4143906,
        58.9371723
      ],
      [
        12.4142511,
        58.9370809
      ],
      [
        12.4140097,
        58.9369294
      ],
      [
        12.413834,
        58.9368318
      ],
      [
        12.4136745,
        58.9367453
      ],
      [
        12.4135323,
        58.9366927
      ],
      [
        12.413374,
        58.9366554
      ],
      [
        12.4132735,
        58.9366284
      ],
      [
        12.4131917,
        58.9366021
      ],
      [
        12.4131233,
        58.9365675
      ],
      [
        12.4130549,
        58.9365163
      ],
      [
        12.4129945,
        58.9364616
      ],
      [
        12.4129395,
        58.9363917
      ],
      [
        12.4128845,
        58.9363426
      ],
      [
        12.4128175,
        58.9362907
      ],
      [
        12.4127182,
        58.936245
      ],
      [
        12.4126203,
        58.9361876
      ],
      [
        12.4124936,
        58.9361135
      ],
      [
        12.4123903,
        58.9360464
      ],
      [
        12.4122857,
        58.9359696
      ],
      [
        12.412047,
        58.9358395
      ],
      [
        12.4119706,
        58.9357779
      ],
      [
        12.4118915,
        58.9357025
      ],
      [
        12.411815,
        58.9356464
      ],
      [
        12.4117238,
        58.9356035
      ],
      [
        12.4115803,
        58.9355537
      ],
      [
        12.4114221,
        58.9355163
      ],
      [
        12.4112853,
        58.9354907
      ],
      [
        12.4111002,
        58.935461
      ],
      [
        12.4109661,
        58.9354298
      ],
      [
        12.410773,
        58.9353627
      ],
      [
        12.4106027,
        58.935288
      ],
      [
        12.4103733,
        58.9351662
      ],
      [
        12.4100957,
        58.9350603
      ],
      [
        12.4099589,
        58.9350001
      ],
      [
        12.4097899,
        58.9349392
      ],
      [
        12.4096491,
        58.9348762
      ],
      [
        12.4095231,
        58.9348188
      ],
      [
        12.409401,
        58.9347676
      ],
      [
        12.409287,
        58.9347323
      ],
      [
        12.4091569,
        58.9346755
      ],
      [
        12.4090577,
        58.9346202
      ],
      [
        12.4089759,
        58.9345586
      ],
      [
        12.4089182,
        58.9344852
      ],
      [
        12.408882,
        58.9343828
      ],
      [
        12.4088445,
        58.9342907
      ],
      [
        12.4087452,
        58.9340845
      ],
      [
        12.4086607,
        58.9339683
      ],
      [
        12.4085588,
        58.933852
      ],
      [
        12.408481,
        58.9337717
      ],
      [
        12.4084152,
        58.9336235
      ],
      [
        12.4084152,
        58.9334684
      ],
      [
        12.4084125,
        58.9333716
      ],
      [
        12.4083615,
        58.9332761
      ],
      [
        12.4080397,
        58.9329702
      ],
      [
        12.4078868,
        58.9328414
      ],
      [
        12.4078036,
        58.9327722
      ],
      [
        12.4077178,
        58.9327335
      ],
      [
        12.4073959,
        58.932656
      ],
      [
        12.4067898,
        58.9324857
      ],
      [
        12.4065806,
        58.9324262
      ],
      [
        12.4064196,
        58.9323653
      ],
      [
        12.4062426,
        58.9322712
      ],
      [
        12.4057544,
        58.9320013
      ],
      [
        12.4052958,
        58.9317493
      ],
      [
        12.4044629,
        58.9313521
      ],
      [
        12.4037843,
        58.9309811
      ],
      [
        12.4035295,
        58.9308399
      ],
      [
        12.4031809,
        58.9306254
      ],
      [
        12.4028483,
        58.9303845
      ],
      [
        12.4026739,
        58.9302198
      ],
      [
        12.4025425,
        58.9300994
      ],
      [
        12.4023547,
        58.9299596
      ],
      [
        12.4022072,
        58.929871
      ],
      [
        12.4020007,
        58.9297851
      ],
      [
        12.4018156,
        58.9297173
      ],
      [
        12.4016439,
        58.9296315
      ],
      [
        12.4014079,
        58.9295332
      ],
      [
        12.4011772,
        58.9294681
      ],
      [
        12.4008581,
        58.9293851
      ],
      [
        12.4005898,
        58.9293145
      ],
      [
        12.4004128,
        58.9292979
      ],
      [
        12.3999354,
        58.9292522
      ],
      [
        12.3996779,
        58.929219
      ],
      [
        12.3994258,
        58.9291816
      ],
      [
        12.3991924,
        58.929147
      ],
      [
        12.3989269,
        58.9291193
      ],
      [
        12.3986426,
        58.9291027
      ],
      [
        12.3982784,
        58.9290937
      ],
      [
        12.3980867,
        58.9290972
      ],
      [
        12.3979351,
        58.929111
      ],
      [
        12.3978064,
        58.9291387
      ],
      [
        12.3976763,
        58.9291885
      ],
      [
        12.3975998,
        58.9292349
      ],
      [
        12.3975019,
        58.9293512
      ],
      [
        12.3974563,
        58.929473
      ],
      [
        12.3974483,
        58.9296308
      ],
      [
        12.397451,
        58.9299132
      ],
      [
        12.3974885,
        58.9302537
      ],
      [
        12.3974791,
        58.9304101
      ],
      [
        12.3974416,
        58.9305347
      ],
      [
        12.3973906,
        58.9306454
      ],
      [
        12.3972941,
        58.9307202
      ],
      [
        12.397117,
        58.9308185
      ],
      [
        12.3967965,
        58.9309527
      ],
      [
        12.3965095,
        58.9310939
      ],
      [
        12.3963888,
        58.9311631
      ],
      [
        12.396303,
        58.9312573
      ],
      [
        12.3962494,
        58.9313998
      ],
      [
        12.3961877,
        58.9317583
      ],
      [
        12.3962287,
        58.9318796
      ],
      [
        12.3963601,
        58.9319806
      ],
      [
        12.3964714,
        58.9320955
      ],
      [
        12.3965452,
        58.9322187
      ],
      [
        12.3965774,
        58.9323336
      ],
      [
        12.396568,
        58.9324464
      ],
      [
        12.3965398,
        58.9325834
      ],
      [
        12.3964688,
        58.9327357
      ],
      [
        12.3963641,
        58.9328354
      ],
      [
        12.3962086,
        58.9329475
      ],
      [
        12.3961174,
        58.9330485
      ],
      [
        12.3960396,
        58.93318
      ],
      [
        12.395994,
        58.9333018
      ],
      [
        12.3960128,
        58.9334873
      ],
      [
        12.3960664,
        58.9337281
      ],
      [
        12.3960879,
        58.9339773
      ],
      [
        12.3960879,
        58.9341863
      ],
      [
        12.3960637,
        58.9343482
      ],
      [
        12.3960342,
        58.9344645
      ],
      [
        12.3960369,
        58.9345766
      ],
      [
        12.3960691,
        58.9346555
      ],
      [
        12.3961469,
        58.9347551
      ],
      [
        12.3963212,
        58.9349738
      ],
      [
        12.3964071,
        58.9351191
      ],
      [
        12.3965036,
        58.9353433
      ],
      [
        12.3966029,
        58.9355966
      ],
      [
        12.3966351,
        58.9357281
      ],
      [
        12.396627,
        58.9359108
      ],
      [
        12.396576,
        58.9362429
      ],
      [
        12.3965278,
        58.9365862
      ],
      [
        12.3964741,
        58.9367592
      ],
      [
        12.3963963,
        58.9369169
      ],
      [
        12.3962676,
        58.9370955
      ],
      [
        12.3961147,
        58.9372781
      ],
      [
        12.3959189,
        58.9375439
      ],
      [
        12.3957325,
        58.9378096
      ],
      [
        12.3955823,
        58.9380033
      ],
      [
        12.3953892,
        58.9381985
      ],
      [
        12.3951719,
        58.9383756
      ],
      [
        12.3948769,
        58.9385943
      ],
      [
        12.3946623,
        58.9387631
      ],
      [
        12.3944638,
        58.9389084
      ],
      [
        12.3943512,
        58.939008
      ],
      [
        12.3942573,
        58.9391105
      ],
      [
        12.39415,
        58.9392585
      ],
      [
        12.3940051,
        58.9395408
      ],
      [
        12.393922,
        58.9397152
      ],
      [
        12.3938147,
        58.9400529
      ],
      [
        12.3937423,
        58.940266
      ],
      [
        12.3937235,
        58.940414
      ],
      [
        12.3937235,
        58.9405663
      ],
      [
        12.3937637,
        58.9408112
      ],
      [
        12.3938523,
        58.9411862
      ],
      [
        12.3939542,
        58.9415889
      ],
      [
        12.3939274,
        58.9416982
      ],
      [
        12.3938844,
        58.9417646
      ],
      [
        12.3937611,
        58.9419072
      ],
      [
        12.3936955,
        58.9419667
      ],
      [
        12.3937574,
        58.9420289
      ],
      [
        12.393862,
        58.9421154
      ],
      [
        12.3940135,
        58.9422441
      ],
      [
        12.3945728,
        58.9426101
      ],
      [
        12.3947243,
        58.9427104
      ],
      [
        12.3948611,
        58.9427582
      ],
      [
        12.3949912,
        58.9427831
      ],
      [
        12.3952266,
        58.9428281
      ],
      [
        12.3953499,
        58.9428578
      ],
      [
        12.3957268,
        58.942965
      ],
      [
        12.395999,
        58.9430377
      ],
      [
        12.3961747,
        58.9431013
      ],
      [
        12.3964711,
        58.9432363
      ],
      [
        12.3968117,
        58.9433719
      ],
      [
        12.3969566,
        58.943448
      ],
      [
        12.3970826,
        58.9435351
      ],
      [
        12.397308,
        58.9436472
      ],
      [
        12.3975923,
        58.9437842
      ],
      [
        12.3980134,
        58.9439489
      ],
      [
        12.398244,
        58.944043
      ],
      [
        12.3984908,
        58.9442035
      ],
      [
        12.3987376,
        58.9444082
      ],
      [
        12.3990889,
        58.9446282
      ],
      [
        12.3993357,
        58.9447749
      ],
      [
        12.39951,
        58.9448524
      ],
      [
        12.3997032,
        58.9449188
      ],
      [
        12.3999365,
        58.9449852
      ],
      [
        12.400186,
        58.9450475
      ],
      [
        12.4003496,
        58.9450945
      ],
      [
        12.4004944,
        58.9451554
      ],
      [
        12.400717,
        58.9452799
      ],
      [
        12.400945,
        58.9454197
      ],
      [
        12.401114,
        58.9455636
      ],
      [
        12.4012126,
        58.9456459
      ],
      [
        12.401415,
        58.9458004
      ],
      [
        12.4016725,
        58.9459499
      ],
      [
        12.4020748,
        58.9460689
      ],
      [
        12.4021835,
        58.9460993
      ],
      [
        12.4024544,
        58.9462031
      ],
      [
        12.4026636,
        58.9462944
      ],
      [
        12.4029184,
        58.9464438
      ],
      [
        12.4031853,
        58.9466043
      ],
      [
        12.4035594,
        58.9467856
      ],
      [
        12.4040825,
        58.9469682
      ],
      [
        12.4045009,
        58.9470844
      ],
      [
        12.4051768,
        58.9472394
      ],
      [
        12.4055523,
        58.9473003
      ],
      [
        12.4059225,
        58.9473528
      ],
      [
        12.4059613,
        58.9475493
      ],
      [
        12.4060874,
        58.94779
      ],
      [
        12.4062859,
        58.9481138
      ],
      [
        12.4064066,
        58.9483559
      ],
      [
        12.4065031,
        58.948634
      ],
      [
        12.4065528,
        58.9488373
      ],
      [
        12.4065957,
        58.9490061
      ],
      [
        12.4066708,
        58.9491445
      ],
      [
        12.4067915,
        58.9493409
      ],
      [
        12.4069752,
        58.9495342
      ],
      [
        12.4072153,
        58.9496826
      ],
      [
        12.4073977,
        58.9498182
      ],
      [
        12.407521,
        58.9499151
      ],
      [
        12.4075856,
        58.9500172
      ],
      [
        12.4075392,
        58.9501586
      ],
      [
        12.4075231,
        58.9502692
      ],
      [
        12.4075284,
        58.950474
      ],
      [
        12.4075499,
        58.9506843
      ],
      [
        12.4075445,
        58.9507866
      ],
      [
        12.4074453,
        58.950912
      ],
      [
        12.4077968,
        58.9510055
      ],
      [
        12.4075816,
        58.9512243
      ],
      [
        12.4074101,
        58.95152
      ],
      [
        12.4074086,
        58.9517016
      ],
      [
        12.4074578,
        58.9519071
      ],
      [
        12.407618,
        58.9520325
      ],
      [
        12.4077466,
        58.9521705
      ],
      [
        12.4078289,
        58.9522827
      ],
      [
        12.4078036,
        58.9523801
      ],
      [
        12.4077387,
        58.9524324
      ],
      [
        12.4076319,
        58.9524755
      ],
      [
        12.4075173,
        58.9524908
      ],
      [
        12.4070856,
        58.9524409
      ],
      [
        12.4068179,
        58.9524147
      ],
      [
        12.4066138,
        58.9524161
      ],
      [
        12.406437,
        58.9525101
      ],
      [
        12.406326,
        58.9526014
      ],
      [
        12.4061098,
        58.9528753
      ],
      [
        12.4059567,
        58.9532158
      ],
      [
        12.405712,
        58.953674
      ],
      [
        12.4058449,
        58.9540202
      ],
      [
        12.4060427,
        58.9544052
      ],
      [
        12.406612,
        58.9551343
      ],
      [
        12.4067816,
        58.9553129
      ],
      [
        12.406889,
        58.9554196
      ],
      [
        12.4074761,
        58.9558443
      ],
      [
        12.4078942,
        58.955974
      ],
      [
        12.408098,
        58.9560494
      ],
      [
        12.4082827,
        58.9561352
      ],
      [
        12.4084132,
        58.9562693
      ],
      [
        12.408482,
        58.9564525
      ],
      [
        12.4085748,
        58.9566483
      ],
      [
        12.4087558,
        58.9567777
      ],
      [
        12.4090187,
        58.956945
      ],
      [
        12.4092862,
        58.9571656
      ],
      [
        12.4094512,
        58.9572618
      ],
      [
        12.4095129,
        58.957362
      ],
      [
        12.4095535,
        58.9574645
      ],
      [
        12.409563,
        58.9576311
      ],
      [
        12.4094877,
        58.9576992
      ],
      [
        12.4092094,
        58.9575959
      ],
      [
        12.4090713,
        58.9575309
      ],
      [
        12.4089242,
        58.9574783
      ],
      [
        12.4087179,
        58.9574224
      ],
      [
        12.4084953,
        58.9573933
      ],
      [
        12.4082704,
        58.9573778
      ],
      [
        12.4080058,
        58.9573753
      ],
      [
        12.4078261,
        58.9573981
      ],
      [
        12.4076966,
        58.9574375
      ],
      [
        12.4075673,
        58.9574943
      ],
      [
        12.4074305,
        58.9575669
      ],
      [
        12.407181,
        58.9577156
      ],
      [
        12.4069296,
        58.9578608
      ],
      [
        12.4067687,
        58.9579424
      ],
      [
        12.4066117,
        58.9579996
      ],
      [
        12.4064629,
        58.9580337
      ],
      [
        12.4063127,
        58.9580503
      ],
      [
        12.4061081,
        58.9580535
      ],
      [
        12.4059063,
        58.9580254
      ],
      [
        12.4057548,
        58.9579791
      ],
      [
        12.4056142,
        58.9578994
      ],
      [
        12.4054919,
        58.9577993
      ],
      [
        12.405386,
        58.9577011
      ],
      [
        12.4051958,
        58.9575134
      ],
      [
        12.4048324,
        58.9575477
      ],
      [
        12.4045749,
        58.9575463
      ],
      [
        12.4044269,
        58.9575603
      ],
      [
        12.4042847,
        58.9575343
      ],
      [
        12.4040892,
        58.9575628
      ],
      [
        12.4040136,
        58.9576675
      ],
      [
        12.4041803,
        58.9578115
      ],
      [
        12.4044351,
        58.9580217
      ],
      [
        12.4046242,
        58.9581704
      ],
      [
        12.4047369,
        58.9582804
      ],
      [
        12.4047875,
        58.958348
      ],
      [
        12.4048428,
        58.9584284
      ],
      [
        12.4049581,
        58.9586538
      ],
      [
        12.4050761,
        58.9588765
      ],
      [
        12.4052572,
        58.9592216
      ],
      [
        12.4053323,
        58.9593571
      ],
      [
        12.4054007,
        58.9594553
      ],
      [
        12.4055268,
        58.9595964
      ],
      [
        12.4056984,
        58.9597962
      ],
      [
        12.4058526,
        58.9599809
      ],
      [
        12.4059412,
        58.9601192
      ],
      [
        12.4060176,
        58.9602692
      ],
      [
        12.4060578,
        58.9604158
      ],
      [
        12.4060699,
        58.9604995
      ],
      [
        12.4060672,
        58.9605673
      ],
      [
        12.4060444,
        58.9606586
      ],
      [
        12.4060069,
        58.9607374
      ],
      [
        12.4059344,
        58.9608183
      ],
      [
        12.4058473,
        58.9609047
      ],
      [
        12.4057172,
        58.9610119
      ],
      [
        12.4054302,
        58.9612373
      ],
      [
        12.4051647,
        58.9614552
      ],
      [
        12.4049595,
        58.9616197
      ],
      [
        12.4047207,
        58.9617912
      ],
      [
        12.4045598,
        58.9619019
      ],
      [
        12.4044566,
        58.9619883
      ],
      [
        12.4043761,
        58.9620823
      ],
      [
        12.4043171,
        58.9621875
      ],
      [
        12.4042795,
        58.9623015
      ],
      [
        12.4042742,
        58.9624627
      ],
      [
        12.4042473,
        58.9626715
      ],
      [
        12.4042125,
        58.9628789
      ],
      [
        12.4041671,
        58.9630014
      ],
      [
        12.4041208,
        58.9631356
      ],
      [
        12.4040651,
        58.9632766
      ],
      [
        12.4039927,
        58.9634557
      ],
      [
        12.4039002,
        58.9636597
      ],
      [
        12.4038304,
        58.963807
      ],
      [
        12.4037768,
        58.9639515
      ],
      [
        12.4037486,
        58.9641036
      ],
      [
        12.40375,
        58.9641963
      ],
      [
        12.4037674,
        58.9643152
      ],
      [
        12.4037902,
        58.9644784
      ],
      [
        12.4038056,
        58.9646167
      ],
      [
        12.4038097,
        58.9647142
      ],
      [
        12.4037909,
        58.9648054
      ],
      [
        12.4037667,
        58.964867
      ],
      [
        12.403705,
        58.9649596
      ],
      [
        12.4036098,
        58.9650578
      ],
      [
        12.4035039,
        58.965167
      ],
      [
        12.4034073,
        58.9652576
      ],
      [
        12.4033161,
        58.9653364
      ],
      [
        12.4032021,
        58.9654242
      ],
      [
        12.4030841,
        58.9655031
      ],
      [
        12.4028789,
        58.9656206
      ],
      [
        12.4027649,
        58.9656925
      ],
      [
        12.402726,
        58.9657451
      ],
      [
        12.4027063,
        58.9658004
      ],
      [
        12.4027327,
        58.9658889
      ],
      [
        12.4027944,
        58.9659753
      ],
      [
        12.402887,
        58.9661198
      ],
      [
        12.4029339,
        58.9661972
      ],
      [
        12.4029849,
        58.9662982
      ],
      [
        12.4030117,
        58.9663874
      ],
      [
        12.4030211,
        58.9664738
      ],
      [
        12.4030231,
        58.9665651
      ],
      [
        12.403015,
        58.9667172
      ],
      [
        12.4030365,
        58.966908
      ],
      [
        12.4030606,
        58.9670615
      ],
      [
        12.4030982,
        58.9672053
      ],
      [
        12.4031545,
        58.967376
      ],
      [
        12.4032015,
        58.9674756
      ],
      [
        12.4032471,
        58.967553
      ],
      [
        12.4033584,
        58.9676823
      ],
      [
        12.4035341,
        58.9678621
      ],
      [
        12.4036601,
        58.9680356
      ],
      [
        12.4037218,
        58.9681462
      ],
      [
        12.4037634,
        58.9682665
      ],
      [
        12.4037674,
        58.9683426
      ],
      [
        12.4037513,
        58.9684359
      ],
      [
        12.4037299,
        58.9685292
      ],
      [
        12.403742,
        58.9686018
      ],
      [
        12.4037916,
        58.9687197
      ],
      [
        12.4046193,
        58.970221
      ],
      [
        12.4047022,
        58.9704155
      ],
      [
        12.4047532,
        58.9705338
      ],
      [
        12.404778,
        58.9706492
      ],
      [
        12.4047967,
        58.9707146
      ],
      [
        12.4048028,
        58.9708193
      ],
      [
        12.4047994,
        58.9708932
      ],
      [
        12.4047733,
        58.9709707
      ],
      [
        12.4046995,
        58.9710792
      ],
      [
        12.4045828,
        58.9712028
      ],
      [
        12.4044246,
        58.9713315
      ],
      [
        12.4043534,
        58.9713698
      ],
      [
        12.404092,
        58.9714808
      ],
      [
        12.4035428,
        58.9716875
      ],
      [
        12.4033034,
        58.971765
      ],
      [
        12.4030996,
        58.971814
      ],
      [
        12.4028186,
        58.9718783
      ],
      [
        12.4008662,
        58.9722151
      ],
      [
        12.4006474,
        58.9722578
      ],
      [
        12.4005203,
        58.9723052
      ],
      [
        12.4004274,
        58.9723498
      ],
      [
        12.4003349,
        58.9724168
      ],
      [
        12.4002814,
        58.9724832
      ],
      [
        12.4001971,
        58.9725893
      ],
      [
        12.4001193,
        58.9726771
      ],
      [
        12.400003,
        58.9728762
      ],
      [
        12.3999443,
        58.9729577
      ],
      [
        12.3998746,
        58.9730283
      ],
      [
        12.3997791,
        58.9731185
      ],
      [
        12.3997903,
        58.9731648
      ],
      [
        12.3997783,
        58.9732153
      ],
      [
        12.3995667,
        58.9734515
      ],
      [
        12.3994889,
        58.9735878
      ],
      [
        12.3993521,
        58.9736846
      ],
      [
        12.3991625,
        58.973846
      ],
      [
        12.3989224,
        58.9740831
      ],
      [
        12.3987557,
        58.9743194
      ],
      [
        12.3983872,
        58.9748498
      ],
      [
        12.3983999,
        58.9749316
      ],
      [
        12.398518,
        58.9750823
      ],
      [
        12.3985933,
        58.9752066
      ],
      [
        12.3985622,
        58.9752979
      ],
      [
        12.3984009,
        58.9753956
      ],
      [
        12.3983396,
        58.9754777
      ],
      [
        12.3982994,
        58.9755578
      ],
      [
        12.3982963,
        58.9756135
      ],
      [
        12.398345,
        58.9757182
      ],
      [
        12.3983852,
        58.9758136
      ],
      [
        12.3983625,
        58.9758954
      ],
      [
        12.3976449,
        58.9761896
      ],
      [
        12.3973765,
        58.9762564
      ],
      [
        12.3971799,
        58.9763184
      ],
      [
        12.3971129,
        58.9763857
      ],
      [
        12.397131,
        58.9764449
      ],
      [
        12.3971135,
        58.9765167
      ],
      [
        12.3970207,
        58.9766212
      ],
      [
        12.3968544,
        58.9767871
      ],
      [
        12.3966359,
        58.976967
      ],
      [
        12.3966304,
        58.9772871
      ],
      [
        12.3966555,
        58.9774198
      ],
      [
        12.3966179,
        58.9775166
      ],
      [
        12.3965723,
        58.9776244
      ],
      [
        12.3965638,
        58.9777107
      ],
      [
        12.3965884,
        58.9778165
      ],
      [
        12.3967252,
        58.9779202
      ],
      [
        12.3969282,
        58.9780469
      ],
      [
        12.396921,
        58.9781234
      ],
      [
        12.3968344,
        58.9782094
      ],
      [
        12.3967333,
        58.9784828
      ],
      [
        12.3966724,
        58.978828
      ],
      [
        12.3966126,
        58.9789417
      ],
      [
        12.3965428,
        58.9790302
      ],
      [
        12.3964243,
        58.9791935
      ],
      [
        12.3963819,
        58.9793039
      ],
      [
        12.3963899,
        58.9793841
      ],
      [
        12.3964355,
        58.9795043
      ],
      [
        12.3965176,
        58.9797565
      ],
      [
        12.3962135,
        58.98005
      ],
      [
        12.3961068,
        58.9801856
      ],
      [
        12.3960156,
        58.9803446
      ],
      [
        12.3958842,
        58.9805699
      ],
      [
        12.3957378,
        58.9807256
      ],
      [
        12.3953612,
        58.9809311
      ],
      [
        12.3950594,
        58.981076
      ],
      [
        12.3949923,
        58.9811334
      ],
      [
        12.3949923,
        58.981485
      ],
      [
        12.395588,
        58.982168
      ],
      [
        12.3958263,
        58.9827895
      ],
      [
        12.396005,
        58.9832729
      ],
      [
        12.3962581,
        58.9841477
      ],
      [
        12.3967198,
        58.9848306
      ],
      [
        12.3970474,
        58.9850915
      ],
      [
        12.3977473,
        58.9853984
      ],
      [
        12.3981642,
        58.9858588
      ],
      [
        12.3988636,
        58.9864447
      ],
      [
        12.3994795,
        58.9866658
      ],
      [
        12.399821,
        58.9867308
      ],
      [
        12.4001689,
        58.9867126
      ],
      [
        12.4008298,
        58.9864189
      ],
      [
        12.4010387,
        58.9862651
      ],
      [
        12.4015053,
        58.986219
      ],
      [
        12.4021285,
        58.9860647
      ],
      [
        12.4022224,
        58.9860473
      ],
      [
        12.4023516,
        58.9860767
      ],
      [
        12.402719,
        58.9862293
      ],
      [
        12.4033816,
        58.9864125
      ],
      [
        12.4040464,
        58.9866107
      ],
      [
        12.4042425,
        58.9866834
      ],
      [
        12.4043791,
        58.9867673
      ],
      [
        12.4044827,
        58.9869983
      ],
      [
        12.4046878,
        58.9871491
      ],
      [
        12.4048326,
        58.9872223
      ],
      [
        12.404889,
        58.9873619
      ],
      [
        12.4049152,
        58.9875169
      ],
      [
        12.4050271,
        58.987782
      ],
      [
        12.4051249,
        58.9880887
      ],
      [
        12.4051692,
        58.9882754
      ],
      [
        12.4051076,
        58.988408
      ],
      [
        12.4050807,
        58.9885186
      ],
      [
        12.4051129,
        58.9886429
      ],
      [
        12.4052414,
        58.9887576
      ],
      [
        12.4052819,
        58.9888723
      ],
      [
        12.405328,
        58.9890167
      ],
      [
        12.4054241,
        58.9890921
      ],
      [
        12.406013,
        58.9893274
      ],
      [
        12.4061957,
        58.9893996
      ],
      [
        12.4065022,
        58.989605
      ],
      [
        12.4071,
        58.9894
      ]
    ]
  }
}
