{
  "type": "Feature",
  "properties": {
    "id": "strava-3833398987",
    "activity": "walking",
    "name": "Morning Walk",
    "date": "2020-07-28T08:37:33.000Z",
    "distanceKm": 1.38,
    "movingTimeSeconds": 903,
    "elapsedTimeSeconds": 903,
    "ascentM": 9,
    "descentM": 19.6,
    "providers": [
      "Strava"
    ]
  },
  "geometry": {
    "type": "LineString",
    "coordinates": [
      [
        -0.09459572844207287,
        51.51241949759424,
        16
      ],
      [
        -0.09458583779633045,
        51.512416480109096,
        16
      ],
      [
        -0.09456722997128963,
        51.51241069659591,
        16
      ],
      [
        -0.09453864768147469,
        51.51240189559758,
        15.799999999999955
      ],
      [
        -0.09451014921069145,
        51.51239309459925,
        15.799999999999955
      ],
      [
        -0.09448173455893993,
        51.512384209781885,
        15.799999999999955
      ],
      [
        -0.09445340372622013,
        51.51237532496452,
        15.600000000000023
      ],
      [
        -0.09442515671253204,
        51.51236635632813,
        15.600000000000023
      ],
      [
        -0.09439690969884396,
        51.512357303872705,
        15.600000000000023
      ],
      [
        -0.09436891414225101,
        51.51234825141728,
        15.399999999999977
      ],
      [
        -0.09434100240468979,
        51.51233903132379,
        15.399999999999977
      ],
      [
        -0.09431317448616028,
        51.51232972741127,
        15.399999999999977
      ],
      [
        -0.0942855142056942,
        51.51232033967972,
        15.200000000000045
      ],
      [
        -0.09425802156329155,
        51.512310868129134,
        15.200000000000045
      ],
      [
        -0.09423061273992062,
        51.51230122894049,
        15.200000000000045
      ],
      [
        -0.0942032877355814,
        51.512291422113776,
        15
      ],
      [
        -0.0941760465502739,
        51.512281531468034,
        15
      ],
      [
        -0.09414888918399811,
        51.512271389365196,
        15
      ],
      [
        -0.0941216479986906,
        51.51226124726236,
        15
      ],
      [
        -0.0940944068133831,
        51.512250853702426,
        14.799999999999955
      ],
      [
        -0.09406708180904388,
        51.51224046014249,
        14.799999999999955
      ],
      [
        -0.09403967298567295,
        51.5122298989445,
        14.799999999999955
      ],
      [
        -0.09401209652423859,
        51.51221925392747,
        14.600000000000023
      ],
      [
        -0.09398426860570908,
        51.51220852509141,
        14.600000000000023
      ],
      [
        -0.09395627304911613,
        51.51219771243632,
        14.600000000000023
      ],
      [
        -0.09392794221639633,
        51.512186815962195,
        14.600000000000023
      ],
      [
        -0.09389927610754967,
        51.51217583566904,
        14.399999999999977
      ],
      [
        -0.09387027472257614,
        51.512164771556854,
        14.399999999999977
      ],
      [
        -0.09384085424244404,
        51.51215370744467,
        14.399999999999977
      ],
      [
        -0.09381101466715336,
        51.51214264333248,
        14.399999999999977
      ],
      [
        -0.09378083981573582,
        51.512131579220295,
        14.399999999999977
      ],
      [
        -0.09375032968819141,
        51.51212051510811,
        14.200000000000045
      ],
      [
        -0.09371940046548843,
        51.512109618633986,
        14.200000000000045
      ],
      [
        -0.09368830360472202,
        51.512098805978894,
        14.200000000000045
      ],
      [
        -0.09365695528686047,
        51.512088160961866,
        14.200000000000045
      ],
      [
        -0.09362543933093548,
        51.5120776835829,
        14
      ],
      [
        -0.09359392337501049,
        51.512067541480064,
        14
      ],
      [
        -0.09356232360005379,
        51.51205765083432,
        14
      ],
      [
        -0.0935308076441288,
        51.512048095464706,
        14
      ],
      [
        -0.09349945932626724,
        51.51203887537122,
        14
      ],
      [
        -0.09346827864646912,
        51.512029990553856,
        14
      ],
      [
        -0.09343726560473442,
        51.51202144101262,
        13.799999999999955
      ],
      [
        -0.09340650402009487,
        51.512013310566545,
        13.799999999999955
      ],
      [
        -0.09337599389255047,
        51.51200559921563,
        13.799999999999955
      ],
      [
        -0.09334590286016464,
        51.511998223140836,
        13.799999999999955
      ],
      [
        -0.09331606328487396,
        51.51199118234217,
        13.799999999999955
      ],
      [
        -0.09328664280474186,
        51.511984560638666,
        13.600000000000023
      ],
      [
        -0.09325772523880005,
        51.511978190392256,
        13.600000000000023
      ],
      [
        -0.0932291429489851,
        51.511972239241004,
        13.600000000000023
      ],
      [
        -0.09320114739239216,
        51.51196653954685,
        13.600000000000023
      ],
      [
        -0.09317365474998951,
        51.511961091309786,
        13.600000000000023
      ],
      [
        -0.09314666502177715,
        51.51195597834885,
        13.399999999999977
      ],
      [
        -0.0931202620267868,
        51.51195111684501,
        13.399999999999977
      ],
      [
        -0.09309436194598675,
        51.511946422979236,
        13.399999999999977
      ],
      [
        -0.09306896477937698,
        51.511941980570555,
        13.399999999999977
      ],
      [
        -0.09304415434598923,
        51.51193770579994,
        13.399999999999977
      ],
      [
        -0.09301984682679176,
        51.51193351484835,
        13.200000000000045
      ],
      [
        -0.09299612604081631,
        51.51192949153483,
        13.200000000000045
      ],
      [
        -0.09297290816903114,
        51.51192555204034,
        13.200000000000045
      ],
      [
        -0.09295019321143627,
        51.51192169636488,
        13.200000000000045
      ],
      [
        -0.09292798116803169,
        51.51191784068942,
        13.200000000000045
      ],
      [
        -0.0929062720388174,
        51.51191406883299,
        13
      ],
      [
        -0.09288506582379341,
        51.511910296976566,
        13
      ],
      [
        -0.09286419488489628,
        51.5119066927582,
        13
      ],
      [
        -0.09284374304115772,
        51.51190308853984,
        13
      ],
      [
        -0.09282354265451431,
        51.51189956814051,
        13
      ],
      [
        -0.09280350990593433,
        51.51189621537924,
        12.799999999999955
      ],
      [
        -0.09278364479541779,
        51.51189303025603,
        12.799999999999955
      ],
      [
        -0.09276386350393295,
        51.51189001277089,
        12.799999999999955
      ],
      [
        -0.09274416603147984,
        51.51188716292381,
        12.799999999999955
      ],
      [
        -0.09272446855902672,
        51.5118844807148,
        12.799999999999955
      ],
      [
        -0.09270468726754189,
        51.51188204996288,
        12.600000000000023
      ],
      [
        -0.09268490597605705,
        51.511879870668054,
        12.600000000000023
      ],
      [
        -0.0926650408655405,
        51.51187777519226,
        12.600000000000023
      ],
      [
        -0.09264517575502396,
        51.51187593117356,
        12.600000000000023
      ],
      [
        -0.09262522682547569,
        51.51187425479293,
        12.600000000000023
      ],
      [
        -0.092605110257864,
        51.511872662231326,
        12.399999999999977
      ],
      [
        -0.09258507750928402,
        51.51187123730779,
        12.399999999999977
      ],
      [
        -0.09256487712264061,
        51.51186998002231,
        12.399999999999977
      ],
      [
        -0.0925446767359972,
        51.511868722736835,
        12.399999999999977
      ],
      [
        -0.09252439253032207,
        51.51186754927039,
        12.399999999999977
      ],
      [
        -0.09250402450561523,
        51.51186637580395,
        12.399999999999977
      ],
      [
        -0.0924836564809084,
        51.5118652023375,
        12.200000000000045
      ],
      [
        -0.09246320463716984,
        51.51186402887106,
        12.200000000000045
      ],
      [
        -0.092442836612463,
        51.511862855404615,
        12.200000000000045
      ],
      [
        -0.09242238476872444,
        51.51186159811914,
        12.200000000000045
      ],
      [
        -0.09240193292498589,
        51.51186025701463,
        12.200000000000045
      ],
      [
        -0.09238148108124733,
        51.51185883209109,
        12.200000000000045
      ],
      [
        -0.09236102923750877,
        51.51185732334852,
        12
      ],
      [
        -0.09234066121280193,
        51.51185573078692,
        12
      ],
      [
        -0.09232029318809509,
        51.511854054406285,
        12
      ],
      [
        -0.09230000898241997,
        51.51185221038759,
        12
      ],
      [
        -0.09227964095771313,
        51.51185028254986,
        12
      ],
      [
        -0.092259356752038,
        51.511848187074065,
        12
      ],
      [
        -0.09223898872733116,
        51.51184600777924,
        11.800000000000011
      ],
      [
        -0.09221862070262432,
        51.511843744665384,
        11.800000000000011
      ],
      [
        -0.09219825267791748,
        51.511841397732496,
        11.800000000000011
      ],
      [
        -0.09217780083417892,
        51.51183905079961,
        11.800000000000011
      ],
      [
        -0.09215726517140865,
        51.51183653622866,
        11.800000000000011
      ],
      [
        -0.09213672950863838,
        51.511834021657705,
        11.600000000000023
      ],
      [
        -0.09211602620780468,
        51.51183142326772,
        11.600000000000023
      ],
      [
        -0.09209523908793926,
        51.51182882487774,
        11.600000000000023
      ],
      [
        -0.09207428433001041,
        51.511826142668724,
        11.600000000000023
      ],
      [
        -0.09205324575304985,
        51.51182346045971,
        11.600000000000023
      ],
      [
        -0.09203212335705757,
        51.51182061061263,
        11.600000000000023
      ],
      [
        -0.09201091714203358,
        51.511817844584584,
        11.399999999999977
      ],
      [
        -0.09198962710797787,
        51.511814910918474,
        11.399999999999977
      ],
      [
        -0.09196825325489044,
        51.51181189343333,
        11.399999999999977
      ],
      [
        -0.09194671176373959,
        51.51180879212916,
        11.399999999999977
      ],
      [
        -0.09192517027258873,
        51.51180552318692,
        11.399999999999977
      ],
      [
        -0.09190362878143787,
        51.51180217042565,
        11.199999999999989
      ],
      [
        -0.09188191965222359,
        51.51179873384535,
        11.199999999999989
      ],
      [
        -0.0918602105230093,
        51.51179512962699,
        11.199999999999989
      ],
      [
        -0.0918384175747633,
        51.511791441589594,
        11.199999999999989
      ],
      [
        -0.0918166246265173,
        51.51178766973317,
        11.199999999999989
      ],
      [
        -0.0917948316782713,
        51.511783646419644,
        11
      ],
      [
        -0.09177303873002529,
        51.51177962310612,
        11
      ],
      [
        -0.09175124578177929,
        51.511775432154536,
        11
      ],
      [
        -0.09172945283353329,
        51.51177107356489,
        11
      ],
      [
        -0.091707743704319,
        51.511766631156206,
        11
      ],
      [
        -0.09168611839413643,
        51.51176210492849,
        11
      ],
      [
        -0.09166457690298557,
        51.51175741106272,
        10.800000000000011
      ],
      [
        -0.09164320304989815,
        51.51175263337791,
        10.800000000000011
      ],
      [
        -0.09162191301584244,
        51.51174768805504,
        10.800000000000011
      ],
      [
        -0.09160079061985016,
        51.511742658913136,
        10.800000000000011
      ],
      [
        -0.0915797520428896,
        51.51173746213317,
        10.800000000000011
      ],
      [
        -0.09155888110399246,
        51.51173209771514,
        10.800000000000011
      ],
      [
        -0.09153801016509533,
        51.51172664947808,
        10.800000000000011
      ],
      [
        -0.09151730686426163,
        51.51172103360295,
        10.600000000000023
      ],
      [
        -0.09149660356342793,
        51.511715250089765,
        10.600000000000023
      ],
      [
        -0.09147590026259422,
        51.51170929893851,
        10.600000000000023
      ],
      [
        -0.0914551131427288,
        51.5117031801492,
        10.600000000000023
      ],
      [
        -0.09143424220383167,
        51.51169689372182,
        10.600000000000023
      ],
      [
        -0.09141337126493454,
        51.51169043965638,
        10.600000000000023
      ],
      [
        -0.09139241650700569,
        51.51168381795287,
        10.600000000000023
      ],
      [
        -0.09137129411101341,
        51.5116770286113,
        10.399999999999977
      ],
      [
        -0.09135017171502113,
        51.51167007163167,
        10.399999999999977
      ],
      [
        -0.09132904931902885,
        51.51166286319494,
        10.399999999999977
      ],
      [
        -0.09130792692303658,
        51.51165540330112,
        10.399999999999977
      ],
      [
        -0.09128688834607601,
        51.511647775769234,
        10.399999999999977
      ],
      [
        -0.09126601740717888,
        51.51163981296122,
        10.399999999999977
      ],
      [
        -0.09124531410634518,
        51.51163159869611,
        10.399999999999977
      ],
      [
        -0.09122486226260662,
        51.51162313297391,
        10.199999999999989
      ],
      [
        -0.09120474569499493,
        51.51161424815655,
        10.199999999999989
      ],
      [
        -0.09118513204157352,
        51.51160494424403,
        10.199999999999989
      ],
      [
        -0.09116610512137413,
        51.511595137417316,
        10.199999999999989
      ],
      [
        -0.09114766493439674,
        51.51158491149545,
        10.199999999999989
      ],
      [
        -0.0911299791187048,
        51.511574098840356,
        10.199999999999989
      ],
      [
        -0.09111321531236172,
        51.51156261563301,
        10
      ],
      [
        -0.09109720587730408,
        51.511550545692444,
        10
      ],
      [
        -0.09108220227062702,
        51.51153772138059,
        10
      ],
      [
        -0.09106812067329884,
        51.511524226516485,
        10
      ],
      [
        -0.0910548772662878,
        51.511509977281094,
        10
      ],
      [
        -0.09104255586862564,
        51.51149505749345,
        10
      ],
      [
        -0.09103107266128063,
        51.511479299515486,
        10
      ],
      [
        -0.09102042764425278,
        51.51146287098527,
        9.800000000000011
      ],
      [
        -0.09101045317947865,
        51.5114457719028,
        9.800000000000011
      ],
      [
        -0.09100123308598995,
        51.511428002268076,
        9.800000000000011
      ],
      [
        -0.09099259972572327,
        51.51140964590013,
        9.800000000000011
      ],
      [
        -0.0909846369177103,
        51.51139070279896,
        9.800000000000011
      ],
      [
        -0.09097717702388763,
        51.511371340602636,
        9.800000000000011
      ],
      [
        -0.09097038768231869,
        51.51135155931115,
        9.800000000000011
      ],
      [
        -0.09096410125494003,
        51.51133144274354,
        9.800000000000011
      ],
      [
        -0.09095831774175167,
        51.511311158537865,
        9.600000000000023
      ],
      [
        -0.0909530371427536,
        51.511290622875094,
        9.600000000000023
      ],
      [
        -0.09094825945794582,
        51.511270087212324,
        9.600000000000023
      ],
      [
        -0.09094398468732834,
        51.51124946773052,
        9.600000000000023
      ],
      [
        -0.09094012901186943,
        51.51122893206775,
        9.600000000000023
      ],
      [
        -0.09093677625060081,
        51.51120848022401,
        9.399999999999977
      ],
      [
        -0.09093392640352249,
        51.51118819601834,
        9.399999999999977
      ],
      [
        -0.09093149565160275,
        51.51116816326976,
        9.399999999999977
      ],
      [
        -0.09092948399484158,
        51.51114838197827,
        9.399999999999977
      ],
      [
        -0.0909279752522707,
        51.511128935962915,
        9.199999999999989
      ],
      [
        -0.0909268856048584,
        51.511109825223684,
        9.199999999999989
      ],
      [
        -0.09092629887163639,
        51.51109113357961,
        9.199999999999989
      ],
      [
        -0.09092604741454124,
        51.511072777211666,
        9
      ],
      [
        -0.09092621505260468,
        51.51105483993888,
        9
      ],
      [
        -0.09092680178582668,
        51.51103740558028,
        9
      ],
      [
        -0.09092780761420727,
        51.51102030649781,
        8.800000000000011
      ],
      [
        -0.090929064899683,
        51.51100371032953,
        8.800000000000011
      ],
      [
        -0.09093065746128559,
        51.51098761707544,
        8.800000000000011
      ],
      [
        -0.09093250147998333,
        51.51097194291651,
        8.600000000000023
      ],
      [
        -0.09093459695577621,
        51.51095668785274,
        8.600000000000023
      ],
      [
        -0.09093694388866425,
        51.51094193570316,
        8.399999999999977
      ],
      [
        -0.09093945845961571,
        51.510927602648735,
        8.399999999999977
      ],
      [
        -0.0909421406686306,
        51.51091360487044,
        8.399999999999977
      ],
      [
        -0.09094499051570892,
        51.51090011000633,
        8.199999999999989
      ],
      [
        -0.09094792418181896,
        51.51088695041835,
        8.199999999999989
      ],
      [
        -0.09095110930502415,
        51.51087420992553,
        8.199999999999989
      ],
      [
        -0.09095437824726105,
        51.51086180470884,
        8
      ],
      [
        -0.0909578986465931,
        51.51084973476827,
        8
      ],
      [
        -0.09096158668398857,
        51.5108379162848,
        8
      ],
      [
        -0.0909655261784792,
        51.510826433077455,
        8
      ],
      [
        -0.09096971713006496,
        51.510815285146236,
        7.800000000000011
      ],
      [
        -0.0909742433577776,
        51.51080430485308,
        7.800000000000011
      ],
      [
        -0.09097902104258537,
        51.510793659836054,
        7.800000000000011
      ],
      [
        -0.09098413400352001,
        51.51078318245709,
        7.800000000000011
      ],
      [
        -0.09098958224058151,
        51.51077295653522,
        7.800000000000011
      ],
      [
        -0.09099536575376987,
        51.510762898251414,
        7.800000000000011
      ],
      [
        -0.09100156836211681,
        51.510753091424704,
        7.600000000000023
      ],
      [
        -0.0910080224275589,
        51.51074353605509,
        7.600000000000023
      ],
      [
        -0.09101489558815956,
        51.510734064504504,
        7.600000000000023
      ],
      [
        -0.0910221878439188,
        51.510724760591984,
        7.600000000000023
      ],
      [
        -0.09102989919483662,
        51.51071570813656,
        7.600000000000023
      ],
      [
        -0.09103819727897644,
        51.510706739500165,
        7.600000000000023
      ],
      [
        -0.09104699827730656,
        51.510697938501835,
        7.600000000000023
      ],
      [
        -0.0910564698278904,
        51.51068922132254,
        7.600000000000023
      ],
      [
        -0.09106652811169624,
        51.5106806717813,
        7.600000000000023
      ],
      [
        -0.09107742458581924,
        51.5106722060591,
        7.600000000000023
      ],
      [
        -0.09108899161219597,
        51.51066390797496,
        7.600000000000023
      ],
      [
        -0.09110139682888985,
        51.51065569370985,
        7.600000000000023
      ],
      [
        -0.09111447259783745,
        51.510647647082806,
        7.600000000000023
      ],
      [
        -0.0911283865571022,
        51.51063968427479,
        7.600000000000023
      ],
      [
        -0.0911430548876524,
        51.51063188910484,
        7.800000000000011
      ],
      [
        -0.09115839377045631,
        51.51062426157296,
        7.800000000000011
      ],
      [
        -0.09117448702454567,
        51.510616801679134,
        7.800000000000011
      ],
      [
        -0.09119108319282532,
        51.510609509423375,
        7.800000000000011
      ],
      [
        -0.09120826609432697,
        51.51060238480568,
        7.800000000000011
      ],
      [
        -0.0912258680909872,
        51.51059551164508,
        7.800000000000011
      ],
      [
        -0.09124388918280602,
        51.51058880612254,
        7.800000000000011
      ],
      [
        -0.09126216173171997,
        51.5105823520571,
        7.800000000000011
      ],
      [
        -0.09128060191869736,
        51.510576233267784,
        7.800000000000011
      ],
      [
        -0.09129904210567474,
        51.510570365935564,
        8
      ],
      [
        -0.0913173146545887,
        51.51056475006044,
        8
      ],
      [
        -0.09133541956543922,
        51.51055946946144,
        8
      ],
      [
        -0.09135302156209946,
        51.51055444031954,
        8
      ],
      [
        -0.0913701206445694,
        51.510549830272794,
        8
      ],
      [
        -0.09138654917478561,
        51.510545471683145,
        8
      ],
      [
        -0.09140213951468468,
        51.51054144836962,
        8
      ],
      [
        -0.0914169754832983,
        51.51053776033223,
        8
      ],
      [
        -0.09143080562353134,
        51.510534323751926,
        8
      ],
      [
        -0.09144371375441551,
        51.51053122244775,
        8
      ],
      [
        -0.09145578369498253,
        51.510528456419706,
        8
      ],
      [
        -0.09146684780716896,
        51.51052585802972,
        8
      ],
      [
        -0.09147707372903824,
        51.51052359491587,
        8
      ],
      [
        -0.09148654527962208,
        51.510521499440074,
        8
      ],
      [
        -0.09149517863988876,
        51.51051948778331,
        8
      ],
      [
        -0.09150322526693344,
        51.51051772758365,
        7.800000000000011
      ],
      [
        -0.09151068516075611,
        51.51051596738398,
        7.800000000000011
      ],
      [
        -0.09151764214038849,
        51.51051437482238,
        7.800000000000011
      ],
      [
        -0.09152418002486229,
        51.510512698441744,
        7.800000000000011
      ],
      [
        -0.09153046645224094,
        51.51051102206111,
        7.800000000000011
      ],
      [
        -0.09153641760349274,
        51.510509345680475,
        7.800000000000011
      ],
      [
        -0.0915422011166811,
        51.51050758548081,
        7.800000000000011
      ],
      [
        -0.09154798462986946,
        51.51050574146211,
        7.800000000000011
      ],
      [
        -0.09155360050499439,
        51.51050372980535,
        7.800000000000011
      ],
      [
        -0.09155930019915104,
        51.51050163432956,
        7.600000000000023
      ],
      [
        -0.09156491607427597,
        51.51049945503473,
        7.600000000000023
      ],
      [
        -0.09157069958746433,
        51.510497108101845,
        7.600000000000023
      ],
      [
        -0.09157639928162098,
        51.510494677349925,
        7.600000000000023
      ],
      [
        -0.09158209897577763,
        51.510492162778974,
        7.600000000000023
      ],
      [
        -0.09158771485090256,
        51.51048948056996,
        7.600000000000023
      ],
      [
        -0.09159324690699577,
        51.510486798360944,
        7.600000000000023
      ],
      [
        -0.09159861132502556,
        51.51048411615193,
        7.600000000000023
      ],
      [
        -0.09160380810499191,
        51.51048135012388,
        7.399999999999977
      ],
      [
        -0.09160875342786312,
        51.51047866791487,
        7.399999999999977
      ],
      [
        -0.09161344729363918,
        51.51047590188682,
        7.399999999999977
      ],
      [
        -0.09161797352135181,
        51.51047330349684,
        7.399999999999977
      ],
      [
        -0.09162233211100101,
        51.51047062128782,
        7.399999999999977
      ],
      [
        -0.09162643924355507,
        51.51046802289784,
        7.399999999999977
      ],
      [
        -0.09163029491901398,
        51.51046550832689,
        7.399999999999977
      ],
      [
        -0.09163389913737774,
        51.51046307757497,
        7.399999999999977
      ],
      [
        -0.09163725189864635,
        51.51046073064208,
        7.399999999999977
      ],
      [
        -0.0916401855647564,
        51.510458551347256,
        7.399999999999977
      ],
      [
        -0.09164278395473957,
        51.51045637205243,
        7.199999999999989
      ],
      [
        -0.09164487943053246,
        51.5104544442147,
        7.199999999999989
      ],
      [
        -0.09164638817310333,
        51.51045251637697,
        7.199999999999989
      ],
      [
        -0.09164697490632534,
        51.51045083999634,
        7.199999999999989
      ],
      [
        -0.09164663963019848,
        51.510449247434735,
        7.199999999999989
      ],
      [
        -0.09164504706859589,
        51.510447738692164,
        7.199999999999989
      ],
      [
        -0.09164194576442242,
        51.510446313768625,
        7.399999999999977
      ],
      [
        -0.0916369166225195,
        51.510444888845086,
        7.399999999999977
      ],
      [
        -0.09162979200482368,
        51.51044346392155,
        7.399999999999977
      ],
      [
        -0.09162015281617641,
        51.51044203899801,
        7.399999999999977
      ],
      [
        -0.09160783141851425,
        51.51044053025544,
        7.399999999999977
      ],
      [
        -0.09159249253571033,
        51.510438937693834,
        7.399999999999977
      ],
      [
        -0.09157413616776466,
        51.51043734513223,
        7.399999999999977
      ],
      [
        -0.09155276231467724,
        51.51043583638966,
        7.399999999999977
      ],
      [
        -0.09152845479547977,
        51.51043424382806,
        7.600000000000023
      ],
      [
        -0.0915013812482357,
        51.51043290272355,
        7.600000000000023
      ],
      [
        -0.09147179313004017,
        51.510431645438075,
        7.600000000000023
      ],
      [
        -0.09143994189798832,
        51.51043055579066,
        7.600000000000023
      ],
      [
        -0.0914060790091753,
        51.510429717600346,
        7.600000000000023
      ],
      [
        -0.09137062355875969,
        51.510429130867124,
        7.600000000000023
      ],
      [
        -0.09133391082286835,
        51.51042887941003,
        7.800000000000011
      ],
      [
        -0.09129619225859642,
        51.51042896322906,
        7.800000000000011
      ],
      [
        -0.09125771932303905,
        51.51042938232422,
        7.800000000000011
      ],
      [
        -0.09121891111135483,
        51.510430136695504,
        7.800000000000011
      ],
      [
        -0.09117985144257545,
        51.510431142523885,
        7.800000000000011
      ],
      [
        -0.09114095941185951,
        51.51043248362839,
        7.800000000000011
      ],
      [
        -0.09110231883823872,
        51.510434076189995,
        7.800000000000011
      ],
      [
        -0.09106418117880821,
        51.510436004027724,
        8
      ],
      [
        -0.09102663025259972,
        51.51043809950352,
        8
      ],
      [
        -0.09098974987864494,
        51.51044027879834,
        8
      ],
      [
        -0.09095379151403904,
        51.51044270955026,
        8
      ],
      [
        -0.09091867133975029,
        51.51044522412121,
        8
      ],
      [
        -0.09088447317481041,
        51.510447738692164,
        8
      ],
      [
        -0.09085111320018768,
        51.51045033708215,
        8.199999999999989
      ],
      [
        -0.09081867523491383,
        51.5104528516531,
        8.199999999999989
      ],
      [
        -0.09078707545995712,
        51.51045536622405,
        8.199999999999989
      ],
      [
        -0.09075623005628586,
        51.51045771315694,
        8.199999999999989
      ],
      [
        -0.09072605520486832,
        51.51046006008983,
        8.199999999999989
      ],
      [
        -0.0906965509057045,
        51.51046215556562,
        8.399999999999977
      ],
      [
        -0.0906677171587944,
        51.51046408340335,
        8.399999999999977
      ],
      [
        -0.09063947014510632,
        51.510465843603015,
        8.399999999999977
      ],
      [
        -0.09061172604560852,
        51.510467352345586,
        8.399999999999977
      ],
      [
        -0.09058456867933273,
        51.51046852581203,
        8.600000000000023
      ],
      [
        -0.09055783040821552,
        51.51046944782138,
        8.600000000000023
      ],
      [
        -0.0905315950512886,
        51.5104700345546,
        8.600000000000023
      ],
      [
        -0.09050586260855198,
        51.510470202192664,
        8.600000000000023
      ],
      [
        -0.09048054926097393,
        51.51046995073557,
        8.600000000000023
      ],
      [
        -0.09045557118952274,
        51.510469280183315,
        8.800000000000011
      ],
      [
        -0.09043101221323013,
        51.51046810671687,
        8.800000000000011
      ],
      [
        -0.09040678851306438,
        51.510466346517205,
        8.800000000000011
      ],
      [
        -0.0903829000890255,
        51.51046416722238,
        8.800000000000011
      ],
      [
        -0.09035926312208176,
        51.510461401194334,
        8.800000000000011
      ],
      [
        -0.09033579379320145,
        51.510458048433065,
        8.800000000000011
      ],
      [
        -0.09031240828335285,
        51.510454108938575,
        8.800000000000011
      ],
      [
        -0.09028910659253597,
        51.51044958271086,
        8.800000000000011
      ],
      [
        -0.09026572108268738,
        51.51044446974993,
        8.800000000000011
      ],
      [
        -0.09024216793477535,
        51.51043877005577,
        9
      ],
      [
        -0.0902184471487999,
        51.51043248362839,
        9
      ],
      [
        -0.09019439108669758,
        51.51042552664876,
        9
      ],
      [
        -0.0901699997484684,
        51.51041806675494,
        9
      ],
      [
        -0.09014502167701721,
        51.510410103946924,
        9
      ],
      [
        -0.09011945687234402,
        51.51040163822472,
        9
      ],
      [
        -0.09009330533444881,
        51.51039266958833,
        9
      ],
      [
        -0.09006631560623646,
        51.510383281856775,
        9
      ],
      [
        -0.09003857150673866,
        51.51037364266813,
        9
      ],
      [
        -0.090009905397892,
        51.51036358438432,
        9
      ],
      [
        -0.08998040109872818,
        51.510353442281485,
        9
      ],
      [
        -0.08995005860924721,
        51.510343132540584,
        9
      ],
      [
        -0.08991879411041737,
        51.51033273898065,
        9
      ],
      [
        -0.08988660760223866,
        51.51032242923975,
        8.800000000000011
      ],
      [
        -0.08985358290374279,
        51.51031228713691,
        8.800000000000011
      ],
      [
        -0.08981963619589806,
        51.51030222885311,
        8.800000000000011
      ],
      [
        -0.08978493511676788,
        51.510292422026396,
        8.800000000000011
      ],
      [
        -0.0897496473044157,
        51.51028286665678,
        8.800000000000011
      ],
      [
        -0.0897136889398098,
        51.51027373038232,
        8.800000000000011
      ],
      [
        -0.08967731148004532,
        51.51026484556496,
        8.800000000000011
      ],
      [
        -0.08964059874415398,
        51.51025629602373,
        8.800000000000011
      ],
      [
        -0.08960363455116749,
        51.51024808175862,
        8.800000000000011
      ],
      [
        -0.08956675417721272,
        51.51024028658867,
        8.800000000000011
      ],
      [
        -0.08952995762228966,
        51.510232826694846,
        8.800000000000011
      ],
      [
        -0.08949358016252518,
        51.51022570207715,
        8.800000000000011
      ],
      [
        -0.0894577894359827,
        51.51021891273558,
        8.800000000000011
      ],
      [
        -0.08942266926169395,
        51.51021254248917,
        8.800000000000011
      ],
      [
        -0.08938847109675407,
        51.510206423699856,
        8.800000000000011
      ],
      [
        -0.08935544639825821,
        51.51020080782473,
        8.800000000000011
      ],
      [
        -0.08932376280426979,
        51.5101954434067,
        8.800000000000011
      ],
      [
        -0.08929350413382053,
        51.51019049808383,
        8.800000000000011
      ],
      [
        -0.08926483802497387,
        51.51018597185612,
        9
      ],
      [
        -0.08923784829676151,
        51.51018186472356,
        9
      ],
      [
        -0.08921253494918346,
        51.51017817668617,
        9
      ],
      [
        -0.08918898180127144,
        51.51017499156296,
        9
      ],
      [
        -0.089167021214962,
        51.510172141715884,
        9
      ],
      [
        -0.08914665319025517,
        51.510169794782996,
        9
      ],
      [
        -0.08912787772715092,
        51.51016786694527,
        9
      ],
      [
        -0.08911044336855412,
        51.51016644202173,
        9
      ],
      [
        -0.08909435011446476,
        51.510165352374315,
        9
      ],
      [
        -0.08907943032681942,
        51.51016476564109,
        9
      ],
      [
        -0.08906551636755466,
        51.510164514184,
        9
      ],
      [
        -0.0890526082366705,
        51.51016459800303,
        9
      ],
      [
        -0.08904053829610348,
        51.51016510091722,
        8.800000000000011
      ],
      [
        -0.08902913890779018,
        51.510165855288506,
        8.800000000000011
      ],
      [
        -0.08901824243366718,
        51.510166861116886,
        8.800000000000011
      ],
      [
        -0.08900776505470276,
        51.510168202221394,
        8.800000000000011
      ],
      [
        -0.0889976229518652,
        51.510169710963964,
        8.800000000000011
      ],
      [
        -0.08898773230612278,
        51.5101713873446,
        8.800000000000011
      ],
      [
        -0.08897784166038036,
        51.510173147544265,
        8.800000000000011
      ],
      [
        -0.08896786719560623,
        51.510175075381994,
        8.800000000000011
      ],
      [
        -0.08895780891180038,
        51.510177003219724,
        8.800000000000011
      ],
      [
        -0.0889475829899311,
        51.51017893105745,
        8.800000000000011
      ],
      [
        -0.08893702179193497,
        51.51018085889518,
        8.800000000000011
      ],
      [
        -0.08892604149878025,
        51.51018278673291,
        8.600000000000023
      ],
      [
        -0.08891464211046696,
        51.51018454693258,
        8.600000000000023
      ],
      [
        -0.08890273980796337,
        51.51018622331321,
        8.600000000000023
      ],
      [
        -0.0888903345912695,
        51.51018764823675,
        8.600000000000023
      ],
      [
        -0.08887742646038532,
        51.51018898934126,
        8.600000000000023
      ],
      [
        -0.08886384777724743,
        51.51019007898867,
        8.600000000000023
      ],
      [
        -0.08884968236088753,
        51.51019091717899,
        8.600000000000023
      ],
      [
        -0.0888348463922739,
        51.51019142009318,
        8.600000000000023
      ],
      [
        -0.08881942369043827,
        51.510191755369306,
        8.600000000000023
      ],
      [
        -0.08880341425538063,
        51.510191671550274,
        8.600000000000023
      ],
      [
        -0.08878673426806927,
        51.51019142009318,
        8.600000000000023
      ],
      [
        -0.08876955136656761,
        51.510190749540925,
        8.600000000000023
      ],
      [
        -0.08875169791281223,
        51.510189827531576,
        8.600000000000023
      ],
      [
        -0.08873334154486656,
        51.5101885702461,
        8.600000000000023
      ],
      [
        -0.08871439844369888,
        51.5101869776845,
        8.600000000000023
      ],
      [
        -0.08869495242834091,
        51.5101851336658,
        8.600000000000023
      ],
      [
        -0.08867508731782436,
        51.510182954370975,
        8.600000000000023
      ],
      [
        -0.08865471929311752,
        51.510180439800024,
        8.600000000000023
      ],
      [
        -0.0886339321732521,
        51.51017775759101,
        8.600000000000023
      ],
      [
        -0.0886126421391964,
        51.51017474010587,
        8.600000000000023
      ],
      [
        -0.08859101682901382,
        51.51017155498266,
        8.600000000000023
      ],
      [
        -0.08856888860464096,
        51.51016811840236,
        8.600000000000023
      ],
      [
        -0.08854634128510952,
        51.510164514184,
        8.600000000000023
      ],
      [
        -0.08852345868945122,
        51.51016074232757,
        8.600000000000023
      ],
      [
        -0.08850007317960262,
        51.51015688665211,
        8.600000000000023
      ],
      [
        -0.08847635239362717,
        51.51015277951956,
        8.600000000000023
      ],
      [
        -0.08845229633152485,
        51.510148672387004,
        8.600000000000023
      ],
      [
        -0.08842782117426395,
        51.510144397616386,
        8.600000000000023
      ],
      [
        -0.08840309455990791,
        51.51014012284577,
        8.800000000000011
      ],
      [
        -0.08837811648845673,
        51.51013576425612,
        8.800000000000011
      ],
      [
        -0.08835288695991039,
        51.51013132184744,
        8.800000000000011
      ],
      [
        -0.08832740597426891,
        51.510126795619726,
        8.800000000000011
      ],
      [
        -0.08830184116959572,
        51.51012226939201,
        8.800000000000011
      ],
      [
        -0.08827610872685909,
        51.51011757552624,
        8.800000000000011
      ],
      [
        -0.08825020864605904,
        51.51011288166046,
        8.800000000000011
      ],
      [
        -0.08822430856525898,
        51.510108103975654,
        8.800000000000011
      ],
      [
        -0.08819849230349064,
        51.510103242471814,
        8.800000000000011
      ],
      [
        -0.0881726760417223,
        51.51009829714894,
        9
      ],
      [
        -0.08814702741801739,
        51.51009318418801,
        9
      ],
      [
        -0.08812154643237591,
        51.51008790358901,
        9
      ],
      [
        -0.08809640072286129,
        51.51008253917098,
        9
      ],
      [
        -0.08807159028947353,
        51.510076923295856,
        9
      ],
      [
        -0.08804719895124435,
        51.5100712236017,
        9
      ],
      [
        -0.08802322670817375,
        51.51006527245045,
        9
      ],
      [
        -0.08799967356026173,
        51.51005915366113,
        9
      ],
      [
        -0.08797670714557171,
        51.51005278341472,
        9
      ],
      [
        -0.0879543274641037,
        51.51004624553025,
        9
      ],
      [
        -0.0879325345158577,
        51.51003945618868,
        9
      ],
      [
        -0.0879113283008337,
        51.510032499209046,
        9
      ],
      [
        -0.08789079263806343,
        51.51002537459135,
        9
      ],
      [
        -0.08787084370851517,
        51.51001799851656,
        9.199999999999989
      ],
      [
        -0.08785156533122063,
        51.510010454803705,
        9.199999999999989
      ],
      [
        -0.08783295750617981,
        51.51000282727182,
        9.199999999999989
      ],
      [
        -0.08781502023339272,
        51.50999503210187,
        9.199999999999989
      ],
      [
        -0.08779766969382763,
        51.50998715311289,
        9.199999999999989
      ],
      [
        -0.08778090588748455,
        51.509979106485844,
        9.199999999999989
      ],
      [
        -0.0877648126333952,
        51.5099710598588,
        9
      ],
      [
        -0.08774930611252785,
        51.50996292941272,
        9
      ],
      [
        -0.08773430250585079,
        51.509954715147614,
        9
      ],
      [
        -0.08771980181336403,
        51.509946417063475,
        9
      ],
      [
        -0.08770588785409927,
        51.509938118979335,
        9
      ],
      [
        -0.08769247680902481,
        51.50992973707616,
        9
      ],
      [
        -0.08767948485910892,
        51.50992135517299,
        9
      ],
      [
        -0.08766699582338333,
        51.50991297326982,
        9
      ],
      [
        -0.0876548420637846,
        51.50990450754762,
        9
      ],
      [
        -0.08764310739934444,
        51.50989595800638,
        9
      ],
      [
        -0.08763170801103115,
        51.50988749228418,
        9
      ],
      [
        -0.08762064389884472,
        51.509878942742944,
        8.800000000000011
      ],
      [
        -0.08760991506278515,
        51.50987039320171,
        8.800000000000011
      ],
      [
        -0.08759935386478901,
        51.509861927479506,
        8.800000000000011
      ],
      [
        -0.08758904412388802,
        51.50985337793827,
        8.800000000000011
      ],
      [
        -0.08757898584008217,
        51.50984491221607,
        8.600000000000023
      ],
      [
        -0.08756909519433975,
        51.50983636267483,
        8.600000000000023
      ],
      [
        -0.08755928836762905,
        51.50982789695263,
        8.600000000000023
      ],
      [
        -0.08754964917898178,
        51.509819347411394,
        8.600000000000023
      ],
      [
        -0.08754017762839794,
        51.50981088168919,
        8.399999999999977
      ],
      [
        -0.0875307060778141,
        51.509802332147956,
        8.399999999999977
      ],
      [
        -0.0875214021652937,
        51.50979369878769,
        8.399999999999977
      ],
      [
        -0.08751226589083672,
        51.50978498160839,
        8.199999999999989
      ],
      [
        -0.08750321343541145,
        51.50977626442909,
        8.199999999999989
      ],
      [
        -0.08749441243708134,
        51.50976737961173,
        8.199999999999989
      ],
      [
        -0.08748586289584637,
        51.50975841097534,
        8.199999999999989
      ],
      [
        -0.08747756481170654,
        51.50974927470088,
        8
      ],
      [
        -0.0874696858227253,
        51.50973997078836,
        8
      ],
      [
        -0.08746214210987091,
        51.509730499237776,
        8
      ],
      [
        -0.0874550174921751,
        51.50972086004913,
        8
      ],
      [
        -0.08744831196963787,
        51.509710969403386,
        7.800000000000011
      ],
      [
        -0.08744219318032265,
        51.50970091111958,
        7.800000000000011
      ],
      [
        -0.08743657730519772,
        51.50969068519771,
        7.800000000000011
      ],
      [
        -0.08743146434426308,
        51.50968020781875,
        7.800000000000011
      ],
      [
        -0.08742693811655045,
        51.50966956280172,
        7.800000000000011
      ],
      [
        -0.08742308244109154,
        51.50965875014663,
        7.800000000000011
      ],
      [
        -0.08741972967982292,
        51.50964768603444,
        7.600000000000023
      ],
      [
        -0.08741704747080803,
        51.50963645428419,
        7.600000000000023
      ],
      [
        -0.08741495199501514,
        51.50962505489588,
        7.600000000000023
      ],
      [
        -0.08741352707147598,
        51.5096134878695,
        7.600000000000023
      ],
      [
        -0.08741268888115883,
        51.50960175320506,
        7.600000000000023
      ],
      [
        -0.08741243742406368,
        51.50958985090256,
        7.600000000000023
      ],
      [
        -0.08741285651922226,
        51.50957769714296,
        7.399999999999977
      ],
      [
        -0.08741369470953941,
        51.50956545956433,
        7.399999999999977
      ],
      [
        -0.08741511963307858,
        51.509553054347634,
        7.399999999999977
      ],
      [
        -0.08741704747080803,
        51.50954048149288,
        7.399999999999977
      ],
      [
        -0.08741939440369606,
        51.50952782481909,
        7.399999999999977
      ],
      [
        -0.08742207661271095,
        51.509515000507236,
        7.399999999999977
      ],
      [
        -0.0874250940978527,
        51.50950200855732,
        7.399999999999977
      ],
      [
        -0.08742836304008961,
        51.50948884896934,
        7.199999999999989
      ],
      [
        -0.08743179962038994,
        51.50947560556233,
        7.199999999999989
      ],
      [
        -0.0874354038387537,
        51.509462194517255,
        7.199999999999989
      ],
      [
        -0.08743900805711746,
        51.50944869965315,
        7.199999999999989
      ],
      [
        -0.08744269609451294,
        51.50943495333195,
        7.199999999999989
      ],
      [
        -0.08744638413190842,
        51.509421207010746,
        7.199999999999989
      ],
      [
        -0.08744998835027218,
        51.50940720923245,
        7.199999999999989
      ],
      [
        -0.08745350874960423,
        51.50939312763512,
        7.199999999999989
      ],
      [
        -0.08745686151087284,
        51.50937887839973,
        7.199999999999989
      ],
      [
        -0.08746013045310974,
        51.509364461526275,
        7
      ],
      [
        -0.0874631479382515,
        51.50934996083379,
        7
      ],
      [
        -0.08746608160436153,
        51.50933529250324,
        7
      ],
      [
        -0.08746876381337643,
        51.509320540353656,
        7
      ],
      [
        -0.08747119456529617,
        51.50930562056601,
        7
      ],
      [
        -0.08747337386012077,
        51.5092905331403,
        7
      ],
      [
        -0.08747546933591366,
        51.50927544571459,
        7
      ],
      [
        -0.08747722953557968,
        51.50926019065082,
        7
      ],
      [
        -0.08747890591621399,
        51.50924493558705,
        6.800000000000011
      ],
      [
        -0.08748041465878487,
        51.509229596704245,
        6.800000000000011
      ],
      [
        -0.08748183958232403,
        51.50921417400241,
        6.800000000000011
      ],
      [
        -0.08748318068683147,
        51.509198835119605,
        6.800000000000011
      ],
      [
        -0.08748452179133892,
        51.50918341241777,
        6.600000000000023
      ],
      [
        -0.08748586289584637,
        51.509168073534966,
        6.600000000000023
      ],
      [
        -0.08748728781938553,
        51.50915273465216,
        6.600000000000023
      ],
      [
        -0.0874887965619564,
        51.50913747958839,
        6.399999999999977
      ],
      [
        -0.087490389123559,
        51.50912222452462,
        6.399999999999977
      ],
      [
        -0.08749223314225674,
        51.50910705327988,
        6.199999999999989
      ],
      [
        -0.08749416097998619,
        51.50909196585417,
        6.199999999999989
      ],
      [
        -0.08749625645577908,
        51.50907696224749,
        6
      ],
      [
        -0.0874986033886671,
        51.509062042459846,
        6
      ],
      [
        -0.08750120177865028,
        51.50904720649123,
        5.800000000000011
      ],
      [
        -0.08750388398766518,
        51.50903245434165,
        5.600000000000023
      ],
      [
        -0.08750690147280693,
        51.5090177860111,
        5.600000000000023
      ],
      [
        -0.08751008659601212,
        51.50900328531861,
        5.399999999999977
      ],
      [
        -0.08751335553824902,
        51.508988784626126,
        5.199999999999989
      ],
      [
        -0.08751687593758106,
        51.50897436775267,
        5
      ],
      [
        -0.08752056397497654,
        51.50896003469825,
        5
      ],
      [
        -0.08752441965043545,
        51.50894586928189,
        4.800000000000011
      ],
      [
        -0.08752835914492607,
        51.50893170386553,
        4.600000000000023
      ],
      [
        -0.08753246627748013,
        51.5089176222682,
        4.399999999999977
      ],
      [
        -0.0875366572290659,
        51.50890354067087,
        4.199999999999989
      ],
      [
        -0.0875410158187151,
        51.508889542892575,
        4
      ],
      [
        -0.08754545822739601,
        51.50887562893331,
        4
      ],
      [
        -0.08754998445510864,
        51.508861714974046,
        3.8000000000000114
      ],
      [
        -0.0875546783208847,
        51.50884788483381,
        3.6000000000000227
      ],
      [
        -0.08755945600569248,
        51.50883405469358,
        3.3999999999999773
      ],
      [
        -0.08756431750953197,
        51.50882030837238,
        3.1999999999999886
      ],
      [
        -0.08756926283240318,
        51.50880656205118,
        3.1999999999999886
      ],
      [
        -0.0875742919743061,
        51.508792731910944,
        3
      ],
      [
        -0.08757948875427246,
        51.50877898558974,
        2.8000000000000114
      ],
      [
        -0.08758468553423882,
        51.50876523926854,
        2.6000000000000227
      ],
      [
        -0.0875900499522686,
        51.50875140912831,
        2.6000000000000227
      ],
      [
        -0.0875954981893301,
        51.508737578988075,
        2.3999999999999773
      ],
      [
        -0.0876009464263916,
        51.50872374884784,
        2.1999999999999886
      ],
      [
        -0.08760656230151653,
        51.50870983488858,
        2.1999999999999886
      ],
      [
        -0.08761217817664146,
        51.50869592092931,
        2
      ],
      [
        -0.08761787787079811,
        51.508681923151016,
        1.8000000000000114
      ],
      [
        -0.08762374520301819,
        51.50866784155369,
        1.8000000000000114
      ],
      [
        -0.08762952871620655,
        51.50865375995636,
        1.6000000000000227
      ],
      [
        -0.08763547986745834,
        51.50863951072097,
        1.6000000000000227
      ],
      [
        -0.08764143101871014,
        51.50862526148558,
        1.3999999999999773
      ],
      [
        -0.08764738216996193,
        51.50861084461212,
        1.3999999999999773
      ],
      [
        -0.08765341714024544,
        51.50859642773867,
        1.1999999999999886
      ],
      [
        -0.08765945211052895,
        51.50858184322715,
        1.1999999999999886
      ],
      [
        -0.08766540326178074,
        51.50856725871563,
        1
      ],
      [
        -0.08767143823206425,
        51.50855250656605,
        1
      ],
      [
        -0.08767738938331604,
        51.508537754416466,
        1
      ],
      [
        -0.08768334053456783,
        51.50852283462882,
        0.8000000000000114
      ],
      [
        -0.08768929168581963,
        51.508507914841175,
        0.8000000000000114
      ],
      [
        -0.0876951590180397,
        51.508492827415466,
        0.8000000000000114
      ],
      [
        -0.08770094253122807,
        51.50847773998976,
        0.8000000000000114
      ],
      [
        -0.08770672604441643,
        51.50846256874502,
        0.8000000000000114
      ],
      [
        -0.08771242573857307,
        51.50844739750028,
        0.8000000000000114
      ],
      [
        -0.08771812543272972,
        51.508432142436504,
        0.8000000000000114
      ],
      [
        -0.08772374130785465,
        51.5084168035537,
        0.8000000000000114
      ],
      [
        -0.08772935718297958,
        51.5084014646709,
        0.8000000000000114
      ],
      [
        -0.08773480542004108,
        51.50838604196906,
        0.8000000000000114
      ],
      [
        -0.08774025365710258,
        51.50837070308626,
        0.8000000000000114
      ],
      [
        -0.08774570189416409,
        51.50835528038442,
        0.8000000000000114
      ],
      [
        -0.08775098249316216,
        51.50833994150162,
        0.8000000000000114
      ],
      [
        -0.08775626309216022,
        51.50832451879978,
        1
      ],
      [
        -0.08776145987212658,
        51.50830917991698,
        1
      ],
      [
        -0.08776665665209293,
        51.508293841034174,
        1
      ],
      [
        -0.08777176961302757,
        51.50827850215137,
        1.1999999999999886
      ],
      [
        -0.08777688257396221,
        51.5082632470876,
        1.1999999999999886
      ],
      [
        -0.08778199553489685,
        51.50824807584286,
        1.1999999999999886
      ],
      [
        -0.08778702467679977,
        51.50823290459812,
        1.3999999999999773
      ],
      [
        -0.08779196999967098,
        51.508217733353376,
        1.3999999999999773
      ],
      [
        -0.0877969991415739,
        51.5082027297467,
        1.6000000000000227
      ],
      [
        -0.0878018606454134,
        51.50818772614002,
        1.6000000000000227
      ],
      [
        -0.08780672214925289,
        51.50817280635238,
        1.6000000000000227
      ],
      [
        -0.08781158365309238,
        51.50815788656473,
        1.8000000000000114
      ],
      [
        -0.08781636133790016,
        51.50814305059612,
        1.8000000000000114
      ],
      [
        -0.08782105520367622,
        51.508128298446536,
        2
      ],
      [
        -0.08782566525042057,
        51.508113630115986,
        2
      ],
      [
        -0.0878301914781332,
        51.508098961785436,
        2
      ],
      [
        -0.08783471770584583,
        51.508084293454885,
        2.1999999999999886
      ],
      [
        -0.08783916011452675,
        51.50806970894337,
        2.1999999999999886
      ],
      [
        -0.08784343488514423,
        51.50805520825088,
        2.1999999999999886
      ],
      [
        -0.08784770965576172,
        51.50804070755839,
        2.1999999999999886
      ],
      [
        -0.08785181678831577,
        51.50802620686591,
        2.3999999999999773
      ],
      [
        -0.08785592392086983,
        51.50801178999245,
        2.3999999999999773
      ],
      [
        -0.08785986341536045,
        51.507997373119,
        2.3999999999999773
      ],
      [
        -0.08786371909081936,
        51.50798295624554,
        2.3999999999999773
      ],
      [
        -0.08786740712821484,
        51.50796862319112,
        2.3999999999999773
      ],
      [
        -0.0878710113465786,
        51.507954290136695,
        2.3999999999999773
      ],
      [
        -0.08787453174591064,
        51.50793995708227,
        2.6000000000000227
      ],
      [
        -0.08787796832621098,
        51.50792562402785,
        2.6000000000000227
      ],
      [
        -0.08788123726844788,
        51.50791137479246,
        2.6000000000000227
      ],
      [
        -0.08788442239165306,
        51.507897125557065,
        2.6000000000000227
      ],
      [
        -0.08788760751485825,
        51.507882960140705,
        2.6000000000000227
      ],
      [
        -0.087890625,
        51.507868794724345,
        2.6000000000000227
      ],
      [
        -0.08789364248514175,
        51.507854629307985,
        2.6000000000000227
      ],
      [
        -0.08789665997028351,
        51.50784054771066,
        2.6000000000000227
      ],
      [
        -0.08789959363639355,
        51.50782646611333,
        2.6000000000000227
      ],
      [
        -0.0879026111215353,
        51.50781246833503,
        2.3999999999999773
      ],
      [
        -0.08790562860667706,
        51.507798470556736,
        2.3999999999999773
      ],
      [
        -0.08790872991085052,
        51.50778447277844,
        2.3999999999999773
      ],
      [
        -0.08791191503405571,
        51.507770558819175,
        2.3999999999999773
      ],
      [
        -0.08791518397629261,
        51.50775656104088,
        2.3999999999999773
      ],
      [
        -0.08791853673756123,
        51.50774264708161,
        2.3999999999999773
      ],
      [
        -0.08792205713689327,
        51.50772873312235,
        2.1999999999999886
      ],
      [
        -0.08792566135525703,
        51.507714819163084,
        2.1999999999999886
      ],
      [
        -0.08792934939265251,
        51.50770082138479,
        2.1999999999999886
      ],
      [
        -0.08793328888714314,
        51.50768682360649,
        2.1999999999999886
      ],
      [
        -0.08793731220066547,
        51.507672825828195,
        2
      ],
      [
        -0.08794141933321953,
        51.507658744230866,
        2
      ],
      [
        -0.08794569410383701,
        51.50764466263354,
        2
      ],
      [
        -0.08795013651251793,
        51.50763049721718,
        1.8000000000000114
      ],
      [
        -0.08795466274023056,
        51.50761624798179,
        1.8000000000000114
      ],
      [
        -0.0879592727869749,
        51.50760191492736,
        1.8000000000000114
      ],
      [
        -0.08796396665275097,
        51.50758758187294,
        1.6000000000000227
      ],
      [
        -0.08796882815659046,
        51.507573164999485,
        1.6000000000000227
      ],
      [
        -0.08797368966042995,
        51.50755874812603,
        1.3999999999999773
      ],
      [
        -0.08797871880233288,
        51.50754424743354,
        1.3999999999999773
      ],
      [
        -0.08798366412520409,
        51.507529746741056,
        1.3999999999999773
      ],
      [
        -0.08798869326710701,
        51.50751524604857,
        1.1999999999999886
      ],
      [
        -0.08799363858997822,
        51.507500829175115,
        1.1999999999999886
      ],
      [
        -0.08799858391284943,
        51.50748632848263,
        1
      ],
      [
        -0.08800344541668892,
        51.507471995428205,
        1
      ],
      [
        -0.08800830692052841,
        51.50745766237378,
        0.8000000000000114
      ],
      [
        -0.08801300078630447,
        51.50744332931936,
        0.8000000000000114
      ],
      [
        -0.08801769465208054,
        51.507429163903,
        0.6000000000000227
      ],
      [
        -0.08802230469882488,
        51.50741508230567,
        0.6000000000000227
      ],
      [
        -0.08802683092653751,
        51.50740100070834,
        0.39999999999997726
      ],
      [
        -0.08803135715425014,
        51.50738708674908,
        0.39999999999997726
      ],
      [
        -0.08803571574389935,
        51.50737317278981,
        0.19999999999998863
      ],
      [
        -0.08804007433354855,
        51.50735934264958,
        0.19999999999998863
      ],
      [
        -0.08804434910416603,
        51.50734568014741,
        0
      ],
      [
        -0.08804862387478352,
        51.50733201764524,
        0
      ],
      [
        -0.088052898645401,
        51.5073184389621,
        -0.19999999999998863
      ],
      [
        -0.08805717341601849,
        51.50730502791703,
        -0.19999999999998863
      ],
      [
        -0.08806136436760426,
        51.50729161687195,
        -0.19999999999998863
      ],
      [
        -0.08806563913822174,
        51.50727837346494,
        -0.39999999999997726
      ],
      [
        -0.08806991390883923,
        51.50726513005793,
        -0.39999999999997726
      ],
      [
        -0.08807418867945671,
        51.50725205428898,
        -0.6000000000000227
      ],
      [
        -0.08807854726910591,
        51.507238978520036,
        -0.6000000000000227
      ],
      [
        -0.08808290585875511,
        51.50722607038915,
        -0.8000000000000114
      ],
      [
        -0.08808734826743603,
        51.50721316225827,
        -0.8000000000000114
      ],
      [
        -0.08809187449514866,
        51.507200337946415,
        -0.8000000000000114
      ],
      [
        -0.088096484541893,
        51.507187597453594,
        -1
      ],
      [
        -0.08810126222670078,
        51.50717485696077,
        -1
      ],
      [
        -0.08810603991150856,
        51.507162200286984,
        -1.1999999999999886
      ],
      [
        -0.08811106905341148,
        51.50714962743223,
        -1.1999999999999886
      ],
      [
        -0.08811618201434612,
        51.50713705457747,
        -1.3999999999999773
      ],
      [
        -0.08812146261334419,
        51.50712448172271,
        -1.3999999999999773
      ],
      [
        -0.08812691085040569,
        51.50711199268699,
        -1.6000000000000227
      ],
      [
        -0.08813244290649891,
        51.50709950365126,
        -1.6000000000000227
      ],
      [
        -0.08813822641968727,
        51.50708709843457,
        -1.8000000000000114
      ],
      [
        -0.08814417757093906,
        51.507074693217874,
        -1.8000000000000114
      ],
      [
        -0.08815029636025429,
        51.50706228800118,
        -1.8000000000000114
      ],
      [
        -0.08815658278763294,
        51.507049882784486,
        -2
      ],
      [
        -0.08816303685307503,
        51.507037561386824,
        -2
      ],
      [
        -0.08816957473754883,
        51.50702515617013,
        -2.1999999999999886
      ],
      [
        -0.08817628026008606,
        51.507012750953436,
        -2.1999999999999886
      ],
      [
        -0.08818315342068672,
        51.507000429555774,
        -2.1999999999999886
      ],
      [
        -0.0881901104003191,
        51.50698802433908,
        -2.1999999999999886
      ],
      [
        -0.08819715119898319,
        51.506975619122386,
        -2.1999999999999886
      ],
      [
        -0.08820435963571072,
        51.50696313008666,
        -2.3999999999999773
      ],
      [
        -0.08821165189146996,
        51.5069505572319,
        -2.3999999999999773
      ],
      [
        -0.08821902796626091,
        51.506937984377146,
        -2.3999999999999773
      ],
      [
        -0.08822648786008358,
        51.50692532770336,
        -2.3999999999999773
      ],
      [
        -0.08823411539196968,
        51.506912587210536,
        -2.3999999999999773
      ],
      [
        -0.08824174292385578,
        51.50689976289868,
        -2.1999999999999886
      ],
      [
        -0.0882494542747736,
        51.50688677094877,
        -2.1999999999999886
      ],
      [
        -0.08825716562569141,
        51.50687369517982,
        -2.1999999999999886
      ],
      [
        -0.08826504461467266,
        51.50686045177281,
        -2
      ],
      [
        -0.08827300742268562,
        51.5068472083658,
        -2
      ],
      [
        -0.0882810540497303,
        51.50683371350169,
        -1.8000000000000114
      ],
      [
        -0.0882891844958067,
        51.506820218637586,
        -1.8000000000000114
      ],
      [
        -0.0882973987609148,
        51.506806556135416,
        -1.6000000000000227
      ],
      [
        -0.08830569684505463,
        51.50679272599518,
        -1.3999999999999773
      ],
      [
        -0.08831399492919445,
        51.50677889585495,
        -1.1999999999999886
      ],
      [
        -0.0883224606513977,
        51.50676489807665,
        -1
      ],
      [
        -0.08833092637360096,
        51.506750816479325,
        -0.8000000000000114
      ],
      [
        -0.08833947591483593,
        51.506736651062965,
        -0.6000000000000227
      ],
      [
        -0.08834794163703918,
        51.506722401827574,
        -0.39999999999997726
      ],
      [
        -0.08835657499730587,
        51.50670815259218,
        -0.19999999999998863
      ],
      [
        -0.08836512453854084,
        51.50669381953776,
        0.19999999999998863
      ],
      [
        -0.08837367407977581,
        51.506679486483335,
        0.39999999999997726
      ],
      [
        -0.0883823074400425,
        51.506665237247944,
        0.6000000000000227
      ],
      [
        -0.08839094080030918,
        51.50665090419352,
        1
      ],
      [
        -0.08839957416057587,
        51.50663665495813,
        1.1999999999999886
      ],
      [
        -0.08840829133987427,
        51.50662248954177,
        1.3999999999999773
      ],
      [
        -0.08841709233820438,
        51.50660840794444,
        1.8000000000000114
      ],
      [
        -0.08842606097459793,
        51.506594493985176,
        2
      ],
      [
        -0.0884351134300232,
        51.50658066384494,
        2.1999999999999886
      ],
      [
        -0.0884444173425436,
        51.50656700134277,
        2.3999999999999773
      ],
      [
        -0.08845388889312744,
        51.50655350647867,
        2.6000000000000227
      ],
      [
        -0.08846352808177471,
        51.506540263071656,
        3
      ],
      [
        -0.08847350254654884,
        51.50652718730271,
        3.1999999999999886
      ],
      [
        -0.08848356083035469,
        51.506514279171824,
        3.3999999999999773
      ],
      [
        -0.0884939543902874,
        51.506501538679004,
        3.6000000000000227
      ],
      [
        -0.08850443176925182,
        51.506488965824246,
        3.6000000000000227
      ],
      [
        -0.08851499296724796,
        51.50647656060755,
        3.8000000000000114
      ],
      [
        -0.08852572180330753,
        51.50646432302892,
        4
      ],
      [
        -0.08853653445839882,
        51.506452253088355,
        4.199999999999989
      ],
      [
        -0.08854726329445839,
        51.50644026696682,
        4.399999999999977
      ],
      [
        -0.08855807594954967,
        51.506428280845284,
        4.399999999999977
      ],
      [
        -0.08856863714754581,
        51.50641646236181,
        4.600000000000023
      ],
      [
        -0.08857911452651024,
        51.50640464387834,
        4.800000000000011
      ],
      [
        -0.08858942426741123,
        51.50639282539487,
        4.800000000000011
      ],
      [
        -0.08859939873218536,
        51.5063810069114,
        5
      ],
      [
        -0.08860895410180092,
        51.50636927224696,
        5
      ],
      [
        -0.08861817419528961,
        51.506357453763485,
        5.199999999999989
      ],
      [
        -0.0886268075555563,
        51.50634563528001,
        5.399999999999977
      ],
      [
        -0.08863493800163269,
        51.50633373297751,
        5.399999999999977
      ],
      [
        -0.08864231407642365,
        51.506321830675006,
        5.600000000000023
      ],
      [
        -0.08864901959896088,
        51.5063099283725,
        5.800000000000011
      ],
      [
        -0.08865480311214924,
        51.50629794225097,
        5.800000000000011
      ],
      [
        -0.08865974843502045,
        51.50628595612943,
        6
      ],
      [
        -0.08866377174854279,
        51.506273970007896,
        6.199999999999989
      ],
      [
        -0.08866678923368454,
        51.50626198388636,
        6.199999999999989
      ],
      [
        -0.08866888470947742,
        51.506249913945794,
        6.399999999999977
      ],
      [
        -0.08866997435688972,
        51.50623792782426,
        6.600000000000023
      ],
      [
        -0.08867014199495316,
        51.506226025521755,
        6.800000000000011
      ],
      [
        -0.08866938762366772,
        51.50621420703828,
        6.800000000000011
      ],
      [
        -0.08866779506206512,
        51.506202556192875,
        7
      ],
      [
        -0.08866536431014538,
        51.50619090534747,
        7.199999999999989
      ],
      [
        -0.0886621791869402,
        51.50617950595915,
        7.399999999999977
      ],
      [
        -0.08865832351148129,
        51.5061682742089,
        7.600000000000023
      ],
      [
        -0.08865388110280037,
        51.506157126277685,
        7.800000000000011
      ],
      [
        -0.08864893577992916,
        51.50614622980356,
        7.800000000000011
      ],
      [
        -0.08864357136189938,
        51.5061355009675,
        8
      ],
      [
        -0.08863778784871101,
        51.506124855950475,
        8.199999999999989
      ],
      [
        -0.08863183669745922,
        51.50611437857151,
        8.399999999999977
      ],
      [
        -0.088625717908144,
        51.50610398501158,
        8.600000000000023
      ],
      [
        -0.08861951529979706,
        51.50609367527068,
        8.800000000000011
      ],
      [
        -0.0886132288724184,
        51.506083281710744,
        8.800000000000011
      ],
      [
        -0.08860711008310318,
        51.50607280433178,
        9
      ],
      [
        -0.08860099129378796,
        51.50606215931475,
        9.199999999999989
      ],
      [
        -0.08859512396156788,
        51.50605126284063,
        9.199999999999989
      ],
      [
        -0.08858942426741123,
        51.50604011490941,
        9.399999999999977
      ],
      [
        -0.08858389221131802,
        51.506028631702065,
        9.600000000000023
      ],
      [
        -0.08857852779328823,
        51.50601664558053,
        9.600000000000023
      ],
      [
        -0.08857341483235359,
        51.506004156544805,
        9.800000000000011
      ],
      [
        -0.08856846950948238,
        51.50599108077586,
        10
      ],
      [
        -0.08856360800564289,
        51.50597741827369,
        10
      ],
      [
        -0.08855883032083511,
        51.505963169038296,
        10
      ],
      [
        -0.08855405263602734,
        51.50594816543162,
        10.199999999999989
      ],
      [
        -0.08854935877025127,
        51.505932407453656,
        10.199999999999989
      ],
      [
        -0.0885445810854435,
        51.50591597892344,
        10.399999999999977
      ],
      [
        -0.08853963576257229,
        51.50589879602194,
        10.399999999999977
      ],
      [
        -0.08853469043970108,
        51.50588094256818,
        10.399999999999977
      ],
      [
        -0.08852949365973473,
        51.505862502381206,
        10.399999999999977
      ],
      [
        -0.08852421306073666,
        51.505843475461006,
        10.399999999999977
      ],
      [
        -0.08851868100464344,
        51.50582394562662,
        10.600000000000023
      ],
      [
        -0.08851289749145508,
        51.50580399669707,
        10.600000000000023
      ],
      [
        -0.08850686252117157,
        51.50578371249139,
        10.600000000000023
      ],
      [
        -0.08850057609379292,
        51.50576317682862,
        10.600000000000023
      ],
      [
        -0.0884939543902874,
        51.50574255734682,
        10.600000000000023
      ],
      [
        -0.08848708122968674,
        51.50572193786502,
        10.399999999999977
      ],
      [
        -0.08848004043102264,
        51.50570156984031,
        10.399999999999977
      ],
      [
        -0.08847266435623169,
        51.5056814532727,
        10.399999999999977
      ],
      [
        -0.0884651206433773,
        51.50566183961928,
        10.399999999999977
      ],
      [
        -0.08845732547342777,
        51.505642645061016,
        10.399999999999977
      ],
      [
        -0.08844944648444653,
        51.50562412105501,
        10.399999999999977
      ],
      [
        -0.08844148367643356,
        51.50560635142028,
        10.199999999999989
      ],
      [
        -0.08843326941132545,
        51.50558925233781,
        10.199999999999989
      ],
      [
        -0.08842497132718563,
        51.50557307526469,
        10.199999999999989
      ],
      [
        -0.08841650560498238,
        51.50555773638189,
        10
      ],
      [
        -0.08840778842568398,
        51.5055432356894,
        10
      ],
      [
        -0.08839898742735386,
        51.505529657006264,
        10
      ],
      [
        -0.08838985115289688,
        51.50551691651344,
        10
      ],
      [
        -0.08838054724037647,
        51.50550501421094,
        9.800000000000011
      ],
      [
        -0.0883709080517292,
        51.505494033917785,
        9.800000000000011
      ],
      [
        -0.08836101740598679,
        51.505483724176884,
        9.800000000000011
      ],
      [
        -0.08835070766508579,
        51.5054742526263,
        9.600000000000023
      ],
      [
        -0.08834006264805794,
        51.50546545162797,
        9.600000000000023
      ],
      [
        -0.08832908235490322,
        51.50545723736286,
        9.600000000000023
      ],
      [
        -0.08831776678562164,
        51.50544969365001,
        9.600000000000023
      ],
      [
        -0.08830594830214977,
        51.50544256903231,
        9.399999999999977
      ],
      [
        -0.08829371072351933,
        51.505435863509774,
        9.399999999999977
      ],
      [
        -0.0882810540497303,
        51.505429577082396,
        9.399999999999977
      ],
      [
        -0.08826789446175098,
        51.50542354211211,
        9.399999999999977
      ],
      [
        -0.08825414814054966,
        51.505417758598924,
        9.399999999999977
      ],
      [
        -0.08823989890515804,
        51.5054121427238,
        9.399999999999977
      ],
      [
        -0.0882249791175127,
        51.50540669448674,
        9.399999999999977
      ],
      [
        -0.08820947259664536,
        51.50540133006871,
        9.399999999999977
      ],
      [
        -0.088193379342556,
        51.50539604946971,
        9.399999999999977
      ],
      [
        -0.0881765317171812,
        51.50539076887071,
        9.600000000000023
      ],
      [
        -0.08815901353955269,
        51.50538548827171,
        9.600000000000023
      ],
      [
        -0.08814090862870216,
        51.50538012385368,
        9.600000000000023
      ],
      [
        -0.08812213316559792,
        51.505374759435654,
        9.600000000000023
      ],
      [
        -0.08810268715023994,
        51.505369395017624,
        9.800000000000011
      ],
      [
        -0.08808265440165997,
        51.50536394678056,
        9.800000000000011
      ],
      [
        -0.08806220255792141,
        51.50535841472447,
        9.800000000000011
      ],
      [
        -0.08804116398096085,
        51.505352798849344,
        10
      ],
      [
        -0.08801979012787342,
        51.50534718297422,
        10
      ],
      [
        -0.08799799717962742,
        51.50534148328006,
        10
      ],
      [
        -0.08797595277428627,
        51.505335699766874,
        10.199999999999989
      ],
      [
        -0.08795365691184998,
        51.505329832434654,
        10.199999999999989
      ],
      [
        -0.08793110959231853,
        51.5053238812834,
        10.199999999999989
      ],
      [
        -0.08790847845375538,
        51.50531776249409,
        10.399999999999977
      ],
      [
        -0.08788576349616051,
        51.50531164370477,
        10.399999999999977
      ],
      [
        -0.08786304853856564,
        51.50530535727739,
        10.600000000000023
      ],
      [
        -0.08784033358097076,
        51.50529898703098,
        10.600000000000023
      ],
      [
        -0.08781770244240761,
        51.50529236532748,
        10.800000000000011
      ],
      [
        -0.08779515512287617,
        51.50528574362397,
        10.800000000000011
      ],
      [
        -0.08777277544140816,
        51.50527887046337,
        10.800000000000011
      ],
      [
        -0.08775056339800358,
        51.50527191348374,
        11
      ],
      [
        -0.08772860281169415,
        51.50526478886604,
        11
      ],
      [
        -0.08770689368247986,
        51.505257496610284,
        11.199999999999989
      ],
      [
        -0.08768543601036072,
        51.50525012053549,
        11.199999999999989
      ],
      [
        -0.08766422979533672,
        51.50524257682264,
        11.399999999999977
      ],
      [
        -0.08764335885643959,
        51.50523486547172,
        11.399999999999977
      ],
      [
        -0.0876227393746376,
        51.50522707030177,
        11.399999999999977
      ],
      [
        -0.08760237134993076,
        51.50521919131279,
        11.600000000000023
      ],
      [
        -0.08758225478231907,
        51.50521106086671,
        11.600000000000023
      ],
      [
        -0.08756238967180252,
        51.50520293042064,
        11.800000000000011
      ],
      [
        -0.0875426921993494,
        51.505194548517466,
        11.800000000000011
      ],
      [
        -0.08752316236495972,
        51.50518608279526,
        11.800000000000011
      ],
      [
        -0.08750380016863346,
        51.505177449434996,
        12
      ],
      [
        -0.08748452179133892,
        51.505168648436666,
        12
      ],
      [
        -0.08746541105210781,
        51.505159763619304,
        12
      ],
      [
        -0.0874463003128767,
        51.50515062734485,
        12
      ],
      [
        -0.08742727339267731,
        51.505141323432326,
        12.200000000000045
      ],
      [
        -0.0874081626534462,
        51.50513185188174,
        12.200000000000045
      ],
      [
        -0.0873891357332468,
        51.50512204505503,
        12.200000000000045
      ],
      [
        -0.0873700249940157,
        51.50511207059026,
        12.200000000000045
      ],
      [
        -0.08735083043575287,
        51.50510184466839,
        12.200000000000045
      ],
      [
        -0.08733146823942661,
        51.505091367289424,
        12.399999999999977
      ],
      [
        -0.08731202222406864,
        51.50508055463433,
        12.399999999999977
      ],
      [
        -0.08729240857064724,
        51.505069406703115,
        12.399999999999977
      ],
      [
        -0.0872726272791624,
        51.50505792349577,
        12.399999999999977
      ],
      [
        -0.08725259453058243,
        51.505046021193266,
        12.399999999999977
      ],
      [
        -0.08723247796297073,
        51.50503386743367,
        12.399999999999977
      ],
      [
        -0.08721219375729561,
        51.50502129457891,
        12.399999999999977
      ],
      [
        -0.08719174191355705,
        51.50500847026706,
        12.399999999999977
      ],
      [
        -0.08717112243175507,
        51.50499531067908,
        12.399999999999977
      ],
      [
        -0.08715041913092136,
        51.50498181581497,
        12.399999999999977
      ],
      [
        -0.08712954819202423,
        51.50496806949377,
        12.399999999999977
      ],
      [
        -0.0871086772531271,
        51.504954155534506,
        12.399999999999977
      ],
      [
        -0.08708772249519825,
        51.504939990118146,
        12.200000000000045
      ],
      [
        -0.0870667677372694,
        51.504925740882754,
        12.200000000000045
      ],
      [
        -0.08704589679837227,
        51.50491124019027,
        12.200000000000045
      ],
      [
        -0.08702510967850685,
        51.50489673949778,
        12.200000000000045
      ],
      [
        -0.08700449019670486,
        51.50488215498626,
        12.200000000000045
      ],
      [
        -0.08698412217199802,
        51.50486740283668,
        12
      ],
      [
        -0.08696417324244976,
        51.50485273450613,
        12
      ],
      [
        -0.08694464340806007,
        51.50483798235655,
        12
      ],
      [
        -0.0869257003068924,
        51.504823230206966,
        12
      ],
      [
        -0.08690734393894672,
        51.504808561876416,
        11.800000000000011
      ],
      [
        -0.08688965812325478,
        51.5047939773649,
        11.800000000000011
      ],
      [
        -0.0868728943169117,
        51.50477939285338,
        11.600000000000023
      ],
      [
        -0.08685696870088577,
        51.504764975979924,
        11.600000000000023
      ],
      [
        -0.08684196509420872,
        51.5047506429255,
        11.399999999999977
      ],
      [
        -0.08682805113494396,
        51.50473647750914,
        11.399999999999977
      ],
      [
        -0.08681522682309151,
        51.50472239591181,
        11.199999999999989
      ],
      [
        -0.08680365979671478,
        51.50470856577158,
        11.199999999999989
      ],
      [
        -0.08679318241775036,
        51.50469481945038,
        11
      ],
      [
        -0.08678404614329338,
        51.50468124076724,
        11
      ],
      [
        -0.08677616715431213,
        51.504667745903134,
        10.800000000000011
      ],
      [
        -0.08676954545080662,
        51.50465441867709,
        10.600000000000023
      ],
      [
        -0.08676426485180855,
        51.50464125908911,
        10.600000000000023
      ],
      [
        -0.0867601577192545,
        51.50462809950113,
        10.399999999999977
      ],
      [
        -0.08675739169120789,
        51.50461510755122,
        10.199999999999989
      ],
      [
        -0.08675571531057358,
        51.5046021156013,
        10
      ],
      [
        -0.08675521239638329,
        51.50458920747042,
        9.800000000000011
      ],
      [
        -0.08675588294863701,
        51.504576383158565,
        9.800000000000011
      ],
      [
        -0.0867574755102396,
        51.50456347502768,
        9.600000000000023
      ],
      [
        -0.08676007390022278,
        51.50455065071583,
        9.399999999999977
      ],
      [
        -0.08676359429955482,
        51.504537742584944,
        9.199999999999989
      ],
      [
        -0.08676803670823574,
        51.50452483445406,
        9.199999999999989
      ],
      [
        -0.08677314966917038,
        51.504511842504144,
        9
      ],
      [
        -0.08677893318235874,
        51.50449885055423,
        8.800000000000011
      ],
      [
        -0.08678530342876911,
        51.50448577478528,
        8.600000000000023
      ],
      [
        -0.08679209277033806,
        51.50447269901633,
        8.600000000000023
      ],
      [
        -0.08679921738803387,
        51.50445953942835,
        8.399999999999977
      ],
      [
        -0.08680634200572968,
        51.504446379840374,
        8.399999999999977
      ],
      [
        -0.08681346662342548,
        51.504433220252395,
        8.199999999999989
      ],
      [
        -0.08682025596499443,
        51.504420060664415,
        8
      ],
      [
        -0.08682654239237309,
        51.504406901076436,
        8
      ],
      [
        -0.08683224208652973,
        51.50439382530749,
        7.800000000000011
      ],
      [
        -0.08683701977133751,
        51.50438083335757,
        7.800000000000011
      ],
      [
        -0.08684070780873299,
        51.50436792522669,
        7.600000000000023
      ],
      [
        -0.08684322237968445,
        51.504355100914836,
        7.600000000000023
      ],
      [
        -0.08684431202709675,
        51.504342360422015,
        7.399999999999977
      ],
      [
        -0.08684397675096989,
        51.504329703748226,
        7.399999999999977
      ],
      [
        -0.08684213273227215,
        51.50431713089347,
        7.399999999999977
      ],
      [
        -0.08683877997100353,
        51.504304725676775,
        7.199999999999989
      ],
      [
        -0.08683391846716404,
        51.50429240427911,
        7.199999999999989
      ],
      [
        -0.08682754822075367,
        51.504280250519514,
        7
      ],
      [
        -0.08681975305080414,
        51.504268096759915,
        7
      ],
      [
        -0.08681053295731544,
        51.50425594300032,
        7
      ],
      [
        -0.08680005557835102,
        51.50424395687878,
        6.800000000000011
      ],
      [
        -0.08678840473294258,
        51.504231886938214,
        6.800000000000011
      ],
      [
        -0.08677566424012184,
        51.50421990081668,
        6.800000000000011
      ],
      [
        -0.08676191791892052,
        51.504207998514175,
        6.600000000000023
      ],
      [
        -0.08674733340740204,
        51.50419601239264,
        6.600000000000023
      ],
      [
        -0.0867319107055664,
        51.50418411009014,
        6.600000000000023
      ],
      [
        -0.08671581745147705,
        51.50417220778763,
        6.600000000000023
      ],
      [
        -0.08669905364513397,
        51.50416038930416,
        6.600000000000023
      ],
      [
        -0.0866817869246006,
        51.50414848700166,
        6.600000000000023
      ],
      [
        -0.08666401728987694,
        51.504136668518186,
        6.600000000000023
      ],
      [
        -0.0866458285599947,
        51.504124850034714,
        6.399999999999977
      ],
      [
        -0.08662738837301731,
        51.50411303155124,
        6.399999999999977
      ],
      [
        -0.08660861290991306,
        51.5041012968868,
        6.399999999999977
      ],
      [
        -0.08658966980874538,
        51.50408947840333,
        6.600000000000023
      ],
      [
        -0.08657055906951427,
        51.50407782755792,
        6.600000000000023
      ],
      [
        -0.08655136451125145,
        51.50406609289348,
        6.600000000000023
      ],
      [
        -0.08653208613395691,
        51.50405444204807,
        6.600000000000023
      ],
      [
        -0.08651272393763065,
        51.504042791202664,
        6.600000000000023
      ],
      [
        -0.08649344556033611,
        51.504031140357256,
        6.600000000000023
      ],
      [
        -0.08647408336400986,
        51.50401948951185,
        6.600000000000023
      ],
      [
        -0.0864547211676836,
        51.50400783866644,
        6.600000000000023
      ]
    ]
  }
}
