{
  "type": "Feature",
  "properties": {
    "id": "strava-11679632271",
    "activity": "walking",
    "name": "Afternoon Walk",
    "date": "2024-06-18T09:04:31.000Z",
    "distanceKm": 4.1,
    "movingTimeSeconds": 3170,
    "elapsedTimeSeconds": 4134,
    "ascentM": 41,
    "descentM": 23.9,
    "providers": [
      "Strava"
    ]
  },
  "geometry": {
    "type": "LineString",
    "coordinates": [
      [
        100.04834085702896,
        9.472649618983269
      ],
      [
        100.04834085702896,
        9.472649618983269
      ],
      [
        100.04839793778956,
        9.472406962886453
      ],
      [
        100.04842652007937,
        9.47244107723236
      ],
      [
        100.04843121394515,
        9.472419703379273
      ],
      [
        100.04855970852077,
        9.472459433600307
      ],
      [
        100.04859751090407,
        9.472593711689115
      ],
      [
        100.04857471212745,
        9.472494469955564
      ],
      [
        100.04861796274781,
        9.472564961761236
      ],
      [
        100.04865081980824,
        9.472614834085107
      ],
      [
        100.04867160692811,
        9.472707621753216
      ],
      [
        100.04868937656283,
        9.472775347530842
      ],
      [
        100.04868132993579,
        9.472824214026332
      ],
      [
        100.04876716062427,
        9.472901495173573
      ],
      [
        100.04879943095148,
        9.472973076626658
      ],
      [
        100.0488243252039,
        9.473039545118809
      ],
      [
        100.04880697466433,
        9.4730693846941
      ],
      [
        100.04870899021626,
        9.473116910085082
      ],
      [
        100.04869683645666,
        9.473120849579573
      ],
      [
        100.04856725223362,
        9.473212379962206
      ],
      [
        100.04847588948905,
        9.473267868161201
      ],
      [
        100.04844127222896,
        9.473276417702436
      ],
      [
        100.04837748594582,
        9.473275411874056
      ],
      [
        100.04830540157855,
        9.473298043012619
      ],
      [
        100.04822744987905,
        9.473335007205606
      ],
      [
        100.04820171743631,
        9.473360069096088
      ],
      [
        100.0481142103672,
        9.473429219797254
      ],
      [
        100.04808554425836,
        9.473443552851677
      ],
      [
        100.0480523519218,
        9.473461154848337
      ],
      [
        100.04802100360394,
        9.47348085232079
      ],
      [
        100.0480145495385,
        9.473488060757518
      ],
      [
        100.04796509630978,
        9.473512871190906
      ],
      [
        100.0479178223759,
        9.473574897274375
      ],
      [
        100.04793399944901,
        9.473662488162518
      ],
      [
        100.04794699139893,
        9.473684448748827
      ],
      [
        100.04796082153916,
        9.473691824823618
      ],
      [
        100.04795922897756,
        9.473728621378541
      ],
      [
        100.04795948043466,
        9.473739517852664
      ],
      [
        100.0480161421001,
        9.473867258056998
      ],
      [
        100.04802376963198,
        9.473878322169185
      ],
      [
        100.04807221703231,
        9.47394453920424
      ],
      [
        100.04810297861695,
        9.473996255546808
      ],
      [
        100.04811781458557,
        9.474023329094052
      ],
      [
        100.04812334664166,
        9.474064987152815
      ],
      [
        100.0481419544667,
        9.474118798971176
      ],
      [
        100.04819199442863,
        9.474252741783857
      ],
      [
        100.0481953471899,
        9.474286772310734
      ],
      [
        100.04819978959858,
        9.47438819333911
      ],
      [
        100.04820674657822,
        9.474436473101377
      ],
      [
        100.04823423922062,
        9.47455138899386
      ],
      [
        100.04824169911444,
        9.474608888849616
      ],
      [
        100.04825494252145,
        9.474643506109715
      ],
      [
        100.04827606491745,
        9.474799912422895
      ],
      [
        100.04828033968806,
        9.474835619330406
      ],
      [
        100.04828419536352,
        9.474872667342424
      ],
      [
        100.04830439575016,
        9.474906865507364
      ],
      [
        100.04831763915718,
        9.474927987903357
      ],
      [
        100.04835192114115,
        9.47498682886362
      ],
      [
        100.04839190281928,
        9.475022116675973
      ],
      [
        100.04839802160859,
        9.475031588226557
      ],
      [
        100.04844814538956,
        9.475123453885317
      ],
      [
        100.04850212484598,
        9.475213224068284
      ],
      [
        100.04851184785366,
        9.475238285958767
      ],
      [
        100.04852634854615,
        9.475272232666612
      ],
      [
        100.04856674931943,
        9.475438613444567
      ],
      [
        100.04862324334681,
        9.475613376125693
      ],
      [
        100.04871946759522,
        9.475777829065919
      ],
      [
        100.04874712787569,
        9.47583943605423
      ],
      [
        100.04877361468971,
        9.475890649482608
      ],
      [
        100.04880940541625,
        9.47593373246491
      ],
      [
        100.04880772903562,
        9.475997937843204
      ],
      [
        100.04890169017017,
        9.47615266777575
      ],
      [
        100.04900654777884,
        9.476300524547696
      ],
      [
        100.04904082976282,
        9.47639842517674
      ],
      [
        100.04912490025163,
        9.476505629718304
      ],
      [
        100.04912749864161,
        9.476517029106617
      ],
      [
        100.0491300970316,
        9.47656069882214
      ],
      [
        100.04915331490338,
        9.47660118341446
      ],
      [
        100.04908575676382,
        9.476679051294923
      ],
      [
        100.0490177795291,
        9.476709812879562
      ],
      [
        100.04900914616883,
        9.476720709353685
      ],
      [
        100.04899196326733,
        9.476728588342667
      ],
      [
        100.04894569516182,
        9.476799163967371
      ],
      [
        100.04893211647868,
        9.476825147867203
      ],
      [
        100.04892180673778,
        9.476828584447503
      ],
      [
        100.04889850504696,
        9.4768425822258
      ],
      [
        100.04873480647802,
        9.47694861330092
      ],
      [
        100.04870270378888,
        9.476974261924624
      ],
      [
        100.04861896857619,
        9.477046011015773
      ],
      [
        100.0485359877348,
        9.477107534185052
      ],
      [
        100.04843062721193,
        9.477193281054497
      ],
      [
        100.04839735105634,
        9.47721784003079
      ],
      [
        100.04835058003664,
        9.477244997397065
      ],
      [
        100.04834521561861,
        9.477252876386046
      ],
      [
        100.04831059835851,
        9.477281710132957
      ],
      [
        100.04828377626836,
        9.477299228310585
      ],
      [
        100.04825494252145,
        9.477342730388045
      ],
      [
        100.0482127815485,
        9.477382292971015
      ],
      [
        100.04816005937755,
        9.47743283584714
      ],
      [
        100.04807221703231,
        9.477496705949306
      ],
      [
        100.04793433472514,
        9.477624613791704
      ],
      [
        100.04792477935553,
        9.477631319314241
      ],
      [
        100.0479138828814,
        9.477646155282855
      ],
      [
        100.04788890480995,
        9.477662667632103
      ],
      [
        100.04787784069777,
        9.477675659582019
      ],
      [
        100.04781313240528,
        9.477756628766656
      ],
      [
        100.04776108078659,
        9.477808177471161
      ],
      [
        100.04774909466505,
        9.47781496681273
      ],
      [
        100.04759419709444,
        9.477927703410387
      ],
      [
        100.0475684646517,
        9.477946478873491
      ],
      [
        100.04755614325404,
        9.477960895746946
      ],
      [
        100.04741474054754,
        9.47805242612958
      ],
      [
        100.04739386960864,
        9.478066675364971
      ],
      [
        100.0473403930664,
        9.478107998147607
      ],
      [
        100.04721256904304,
        9.478244623169303
      ],
      [
        100.04706320352852,
        9.47835199534893
      ],
      [
        100.04701006226242,
        9.478372614830732
      ],
      [
        100.04696186631918,
        9.47843941859901
      ],
      [
        100.0469074677676,
        9.47847026400268
      ],
      [
        100.04689011722803,
        9.478481998667121
      ],
      [
        100.04680244252086,
        9.478510245680809
      ],
      [
        100.04673848859966,
        9.47855475358665
      ],
      [
        100.04671518690884,
        9.47857185266912
      ],
      [
        100.046609910205,
        9.47867545299232
      ],
      [
        100.04660203121603,
        9.478680230677128
      ],
      [
        100.04657814279199,
        9.478692803531885
      ],
      [
        100.0464478880167,
        9.478790955618024
      ],
      [
        100.04641477949917,
        9.478815263137221
      ],
      [
        100.04624135792255,
        9.478906039148569
      ],
      [
        100.04619685001671,
        9.478937555104494
      ],
      [
        100.04611898213625,
        9.478997653350234
      ],
      [
        100.04606022499502,
        9.47903461754322
      ],
      [
        100.0460440479219,
        9.479046603664756
      ],
      [
        100.04590440541506,
        9.47911961004138
      ],
      [
        100.04573626443744,
        9.479206949472427
      ],
      [
        100.04569158889353,
        9.479228658601642
      ],
      [
        100.04563727416098,
        9.479266880080104
      ],
      [
        100.04562838934362,
        9.479272915050387
      ],
      [
        100.04560357891023,
        9.47929261252284
      ],
      [
        100.04555546678603,
        9.479314908385277
      ],
      [
        100.04554213955998,
        9.479321027174592
      ],
      [
        100.04547349177301,
        9.47937031276524
      ],
      [
        100.04544977098703,
        9.479390177875757
      ],
      [
        100.04541917704046,
        9.479428231716156
      ],
      [
        100.04531037993729,
        9.479487994685769
      ],
      [
        100.04525237716734,
        9.4795226957649
      ],
      [
        100.04522748291492,
        9.479541555047035
      ],
      [
        100.04520342685282,
        9.479555636644363
      ],
      [
        100.04512941464782,
        9.479612214490771
      ],
      [
        100.045061185956,
        9.479667954146862
      ],
      [
        100.04494191147387,
        9.479803489521146
      ],
      [
        100.04490360617638,
        9.47983450256288
      ],
      [
        100.04488499835134,
        9.479841375723481
      ],
      [
        100.04476061090827,
        9.479981018230319
      ],
      [
        100.04471040330827,
        9.480039272457361
      ],
      [
        100.04455961287022,
        9.480168856680393
      ],
      [
        100.04448995925486,
        9.480249574407935
      ],
      [
        100.04446774721146,
        9.480287544429302
      ],
      [
        100.0444224011153,
        9.480345211923122
      ],
      [
        100.04429734311998,
        9.480476388707757
      ],
      [
        100.04421193152666,
        9.480566829442978
      ],
      [
        100.0442012026906,
        9.480577055364847
      ],
      [
        100.04417479969561,
        9.480588203296065
      ],
      [
        100.04407689906657,
        9.480666322633624
      ],
      [
        100.04406809806824,
        9.480723235756159
      ],
      [
        100.04406591877341,
        9.480747040361166
      ],
      [
        100.04400514997542,
        9.480804707854986
      ],
      [
        100.0439955946058,
        9.480815101414919
      ],
      [
        100.04397053271532,
        9.480847455561161
      ],
      [
        100.0439149606973,
        9.480892801657319
      ],
      [
        100.04390607587993,
        9.480916354805231
      ],
      [
        100.04389442503452,
        9.480936639010906
      ],
      [
        100.04387883469462,
        9.480962455272675
      ],
      [
        100.04385201260448,
        9.480990199372172
      ],
      [
        100.04384119994938,
        9.480996988713741
      ],
      [
        100.04380063153803,
        9.481025487184525
      ],
      [
        100.04375176504254,
        9.481071755290031
      ],
      [
        100.04373927600682,
        9.481084076687694
      ],
      [
        100.04370465874672,
        9.481119699776173
      ],
      [
        100.04364933818579,
        9.4811942987144
      ],
      [
        100.04355009645224,
        9.481340479105711
      ],
      [
        100.04354548640549,
        9.481346094980836
      ],
      [
        100.04343870095909,
        9.48147383518517
      ],
      [
        100.04331674426794,
        9.481614818796515
      ],
      [
        100.04324935376644,
        9.481721688061953
      ],
      [
        100.04316972568631,
        9.481790335848927
      ],
      [
        100.04313703626394,
        9.481758903712034
      ],
      [
        100.04312479868531,
        9.481743900105357
      ],
      [
        100.04303871653974,
        9.481750940904021
      ],
      [
        100.04302371293306,
        9.481757394969463
      ],
      [
        100.0430148281157,
        9.481753623113036
      ],
      [
        100.04302756860852,
        9.481751443818212
      ],
      [
        100.04302111454308,
        9.48175085708499
      ],
      [
        100.04302388057113,
        9.481745576485991
      ],
      [
        100.04302002489567,
        9.481748510152102
      ],
      [
        100.0430185161531,
        9.481749599799514
      ],
      [
        100.04302144981921,
        9.481757897883654
      ],
      [
        100.0430047698319,
        9.48176451958716
      ],
      [
        100.04300669766963,
        9.481755383312702
      ],
      [
        100.04307408817112,
        9.4816570635885
      ],
      [
        100.04310753196478,
        9.4817157369107
      ],
      [
        100.04311691969633,
        9.481739709153771
      ],
      [
        100.04312060773373,
        9.481749599799514
      ],
      [
        100.04309671930969,
        9.481817493215203
      ],
      [
        100.04307609982789,
        9.481838531792164
      ],
      [
        100.04303980618715,
        9.48188773356378
      ],
      [
        100.0430285744369,
        9.481902150437236
      ],
      [
        100.04296763800085,
        9.481986807659268
      ],
      [
        100.0430066138506,
        9.482016898691654
      ],
      [
        100.04301859997213,
        9.482013462111354
      ],
      [
        100.04286454059184,
        9.482118654996157
      ],
      [
        100.04280176013708,
        9.482168527320027
      ],
      [
        100.04277200438082,
        9.482197361066937
      ],
      [
        100.04271190613508,
        9.482242874801159
      ],
      [
        100.04269229248166,
        9.482256202027202
      ],
      [
        100.04265641793609,
        9.48228788562119
      ],
      [
        100.04260989837348,
        9.482335578650236
      ],
      [
        100.04258844070137,
        9.482359383255243
      ],
      [
        100.04257645457983,
        9.482373632490635
      ],
      [
        100.04256094805896,
        9.482383439317346
      ],
      [
        100.04254116676748,
        9.482404813170433
      ],
      [
        100.04252373240888,
        9.482419230043888
      ],
      [
        100.0423638895154,
        9.482527440413833
      ],
      [
        100.04233304411173,
        9.482557279989123
      ],
      [
        100.04232206381857,
        9.48256641626358
      ],
      [
        100.04227621480823,
        9.482600027695298
      ],
      [
        100.04226129502058,
        9.48261427693069
      ],
      [
        100.04225224256516,
        9.482620730996132
      ],
      [
        100.04224402830005,
        9.482627185061574
      ],
      [
        100.04210346378386,
        9.482758613303304
      ],
      [
        100.04197119735181,
        9.482876546680927
      ],
      [
        100.04184823483229,
        9.482982996851206
      ],
      [
        100.04170465283096,
        9.483065726235509
      ],
      [
        100.04161857068539,
        9.483117274940014
      ],
      [
        100.04156266339123,
        9.483151473104954
      ],
      [
        100.04140860401094,
        9.483271669596434
      ],
      [
        100.04125278443098,
        9.483370073139668
      ],
      [
        100.04119159653783,
        9.483405780047178
      ],
      [
        100.04113862290978,
        9.483448946848512
      ],
      [
        100.04110476002097,
        9.4834703207016
      ],
      [
        100.04105530679226,
        9.483499825000763
      ],
      [
        100.04099311307073,
        9.48354215361178
      ],
      [
        100.04089370369911,
        9.483614405617118
      ],
      [
        100.0407702382654,
        9.483688585460186
      ],
      [
        100.04075020551682,
        9.483703169971704
      ],
      [
        100.04067703150213,
        9.483742481097579
      ],
      [
        100.0406402349472,
        9.483763938769698
      ],
      [
        100.04047201015055,
        9.4838397949934
      ],
      [
        100.04035994410515,
        9.483874160796404
      ],
      [
        100.04019926302135,
        9.48396828956902
      ],
      [
        100.04012634046376,
        9.48401128873229
      ],
      [
        100.04003858193755,
        9.484053617343307
      ],
      [
        100.0400257576257,
        9.484061915427446
      ],
      [
        100.03994529135525,
        9.4841040764004
      ],
      [
        100.03989156335592,
        9.484143136069179
      ],
      [
        100.0398632325232,
        9.484167946502566
      ],
      [
        100.0397836882621,
        9.484247909858823
      ],
      [
        100.03971939906478,
        9.484306080266833
      ],
      [
        100.03956307657063,
        9.484412698075175
      ],
      [
        100.03942812792957,
        9.484531469643116
      ],
      [
        100.03927985206246,
        9.484660550951958
      ],
      [
        100.03925646655262,
        9.484673710539937
      ],
      [
        100.03924640826881,
        9.484678572043777
      ],
      [
        100.03912570886314,
        9.484777646139264
      ],
      [
        100.03904775716364,
        9.48484637774527
      ],
      [
        100.03899553790689,
        9.484881665557623
      ],
      [
        100.03885421901941,
        9.48499876074493
      ],
      [
        100.03871792927384,
        9.485128177329898
      ],
      [
        100.03856998868287,
        9.48525382205844
      ],
      [
        100.03844551742077,
        9.485391033813357
      ],
      [
        100.03843135200441,
        9.485451048240066
      ],
      [
        100.03845188766718,
        9.485502513125539
      ],
      [
        100.03844006918371,
        9.485524138435721
      ],
      [
        100.03842649050057,
        9.485565461218357
      ],
      [
        100.0384350400418,
        9.485606951639056
      ],
      [
        100.03843604587018,
        9.485644167289138
      ],
      [
        100.03842556849122,
        9.48563503101468
      ],
      [
        100.03843579441309,
        9.48560711927712
      ],
      [
        100.03845633007586,
        9.485645508393645
      ],
      [
        100.0384664721787,
        9.485651291906834
      ],
      [
        100.03846739418805,
        9.485654393211007
      ],
      [
        100.03846672363579,
        9.485663445666432
      ],
      [
        100.03846873529255,
        9.485667133703828
      ],
      [
        100.03846932202578,
        9.485683478415012
      ],
      [
        100.03847049549222,
        9.485687501728535
      ],
      [
        100.0384715013206,
        9.485689764842391
      ],
      [
        100.03847225569189,
        9.485693369060755
      ],
      [
        100.03846680745482,
        9.48570728302002
      ],
      [
        100.0384662207216,
        9.485706277191639
      ],
      [
        100.0384611915797,
        9.485709797590971
      ],
      [
        100.03843822516501,
        9.485700242221355
      ],
      [
        100.03843939863145,
        9.485690100118518
      ],
      [
        100.03850352019072,
        9.48572052642703
      ],
      [
        100.03848826512694,
        9.485717676579952
      ],
      [
        100.03846395760775,
        9.48572195135057
      ],
      [
        100.03844182938337,
        9.485727399587631
      ],
      [
        100.03842749632895,
        9.485735027119517
      ],
      [
        100.03840528428555,
        9.485740391537547
      ],
      [
        100.03839924931526,
        9.48574349284172
      ],
      [
        100.03840712830424,
        9.485738631337881
      ],
      [
        100.03843093290925,
        9.485705439001322
      ],
      [
        100.03842565231025,
        9.485709629952908
      ],
      [
        100.0384350400418,
        9.485710468143225
      ],
      [
        100.03844459541142,
        9.485709378495812
      ],
      [
        100.03844685852528,
        9.485705103725195
      ],
      [
        100.03844979219139,
        9.48569756001234
      ],
      [
        100.03846202977002,
        9.485681718215346
      ],
      [
        100.0384662207216,
        9.485681047663093
      ],
      [
        100.03846697509289,
        9.485681802034378
      ],
      [
        100.03846873529255,
        9.485682472586632
      ],
      [
        100.03847242332995,
        9.485679790377617
      ],
      [
        100.03847326152027,
        9.48567794635892
      ],
      [
        100.03847116604447,
        9.485677778720856
      ],
      [
        100.03846270032227,
        9.485676269978285
      ],
      [
        100.03845188766718,
        9.485698230564594
      ],
      [
        100.03844803199172,
        9.485700242221355
      ],
      [
        100.03845389932394,
        9.485703930258751
      ],
      [
        100.03846026957035,
        9.485709797590971
      ],
      [
        100.03846479579806,
        9.485707199200988
      ],
      [
        100.03846563398838,
        9.485702589154243
      ],
      [
        100.03847032785416,
        9.485711893066764
      ],
      [
        100.03847217187285,
        9.485722621902823
      ],
      [
        100.03847384825349,
        9.485717844218016
      ],
      [
        100.03846295177937,
        9.48572094552219
      ],
      [
        100.03844283521175,
        9.485736284404993
      ],
      [
        100.03842297010124,
        9.485753551125526
      ],
      [
        100.03841676749289,
        9.485757490620017
      ],
      [
        100.0384183600545,
        9.485748773440719
      ],
      [
        100.03841475583613,
        9.485743576660752
      ],
      [
        100.0384165160358,
        9.485739385709167
      ],
      [
        100.0384524744004,
        9.485720777884126
      ],
      [
        100.03845180384815,
        9.485722035169601
      ],
      [
        100.03845524042845,
        9.485727567225695
      ],
      [
        100.03845624625683,
        9.485731087625027
      ],
      [
        100.03845172002912,
        9.485698817297816
      ],
      [
        100.03845716826618,
        9.485711893066764
      ],
      [
        100.03846295177937,
        9.485724968835711
      ],
      [
        100.03845339640975,
        9.485724130645394
      ],
      [
        100.03843680024147,
        9.485718430951238
      ],
      [
        100.03843738697469,
        9.485715329647064
      ],
      [
        100.03843495622277,
        9.485715329647064
      ],
      [
        100.03847963176668,
        9.485704936087132
      ],
      [
        100.03848935477436,
        9.485681466758251
      ],
      [
        100.03849430009723,
        9.485682137310505
      ],
      [
        100.03852824680507,
        9.48572295717895
      ],
      [
        100.03852749243379,
        9.485726896673441
      ],
      [
        100.03851341083646,
        9.485713234171271
      ],
      [
        100.03840922378004,
        9.485700661316514
      ],
      [
        100.0384181085974,
        9.485723543912172
      ],
      [
        100.03842146135867,
        9.485723376274109
      ],
      [
        100.03846504725516,
        9.485716503113508
      ],
      [
        100.03844417631626,
        9.485687166452408
      ],
      [
        100.03844317048788,
        9.485686914995313
      ],
      [
        100.03846429288387,
        9.485687501728535
      ],
      [
        100.03846722654998,
        9.485689094290137
      ],
      [
        100.03847116604447,
        9.485687082633376
      ],
      [
        100.03846814855933,
        9.485680209472775
      ],
      [
        100.03846479579806,
        9.485677611082792
      ],
      [
        100.03846219740808,
        9.485665876418352
      ],
      [
        100.03846068866551,
        9.485663948580623
      ],
      [
        100.03845482133329,
        9.485658751800656
      ],
      [
        100.03845599479973,
        9.48565841652453
      ],
      [
        100.03845624625683,
        9.485658835619688
      ],
      [
        100.03845901228487,
        9.485668810084462
      ],
      [
        100.03846370615065,
        9.485662607476115
      ],
      [
        100.03842405974865,
        9.485649531707168
      ],
      [
        100.03843361511827,
        9.485679203644395
      ],
      [
        100.03842531703413,
        9.485695380717516
      ],
      [
        100.03844828344882,
        9.485706528648734
      ],
      [
        100.03844853490591,
        9.485702589154243
      ],
      [
        100.03844979219139,
        9.485700326040387
      ],
      [
        100.03845607861876,
        9.48569118976593
      ],
      [
        100.03847259096801,
        9.485695632174611
      ],
      [
        100.0385010894388,
        9.48569948785007
      ],
      [
        100.038504274562,
        9.485702086240053
      ],
      [
        100.03850544802845,
        9.485705271363258
      ],
      [
        100.03850779496133,
        9.485711641609669
      ],
      [
        100.03850134089589,
        9.485714994370937
      ],
      [
        100.03849882632494,
        9.48571658693254
      ],
      [
        100.0384994968772,
        9.485715832561255
      ],
      [
        100.03849589265883,
        9.485712982714176
      ],
      [
        100.03848935477436,
        9.485715748742223
      ],
      [
        100.03848055377603,
        9.485712898895144
      ],
      [
        100.03848055377603,
        9.485705103725195
      ],
      [
        100.0384781230241,
        9.485700409859419
      ],
      [
        100.03849304281175,
        9.485700326040387
      ],
      [
        100.03851877525449,
        9.485699823126197
      ],
      [
        100.0385283306241,
        9.485703092068434
      ],
      [
        100.03852598369122,
        9.485700577497482
      ],
      [
        100.03852405585349,
        9.485696218907833
      ],
      [
        100.03851684741676,
        9.485695799812675
      ],
      [
        100.03851441666484,
        9.485696638002992
      ],
      [
        100.03851282410324,
        9.485695883631706
      ],
      [
        100.03851240500808,
        9.485695632174611
      ],
      [
        100.0384854990989,
        9.485699320212007
      ],
      [
        100.03847711719573,
        9.485701248049736
      ],
      [
        100.03847342915833,
        9.485721699893475
      ],
      [
        100.03845633007586,
        9.485723124817014
      ],
      [
        100.03845172002912,
        9.485717341303825
      ],
      [
        100.03846387378871,
        9.485698817297816
      ],
      [
        100.03846412524581,
        9.485697643831372
      ],
      [
        100.03846378996968,
        9.485696721822023
      ],
      [
        100.03846655599773,
        9.485686412081122
      ],
      [
        100.03846613690257,
        9.485683059319854
      ],
      [
        100.03845037892461,
        9.485705522820354
      ],
      [
        100.03844786435366,
        9.485708205029368
      ],
      [
        100.03844987601042,
        9.485710300505161
      ],
      [
        100.03845783881843,
        9.485714575275779
      ],
      [
        100.03847569227219,
        9.4857117254287
      ],
      [
        100.03847510553896,
        9.485709127038717
      ],
      [
        100.03847728483379,
        9.48570585809648
      ],
      [
        100.03848013468087,
        9.48569948785007
      ],
      [
        100.03849203698337,
        9.485707199200988
      ],
      [
        100.03849337808788,
        9.485706612467766
      ],
      [
        100.03850787878036,
        9.485715916380286
      ],
      [
        100.03852531313896,
        9.485737876966596
      ],
      [
        100.03852103836834,
        9.48573812842369
      ],
      [
        100.03851517103612,
        9.485735781490803
      ],
      [
        100.03849656321108,
        9.48572832159698
      ],
      [
        100.03848122432828,
        9.485706696286798
      ],
      [
        100.03848114050925,
        9.485706193372607
      ],
      [
        100.03848114050925,
        9.48570585809648
      ],
      [
        100.03847007639706,
        9.48570099659264
      ],
      [
        100.03850142471492,
        9.4857273157686
      ],
      [
        100.0385024305433,
        9.485729997977614
      ],
      [
        100.03849279135466,
        9.4857497792691
      ],
      [
        100.03849002532661,
        9.485758999362588
      ],
      [
        100.03847971558571,
        9.4857756793499
      ],
      [
        100.038469908759,
        9.485779451206326
      ],
      [
        100.03847259096801,
        9.485780037939548
      ],
      [
        100.03848197869956,
        9.485775763168931
      ],
      [
        100.03848625347018,
        9.48576939292252
      ],
      [
        100.03847091458738,
        9.485751874744892
      ],
      [
        100.0384746864438,
        9.485752210021019
      ],
      [
        100.03859446384013,
        9.485695380717516
      ],
      [
        100.03865187987685,
        9.48571901768446
      ],
      [
        100.03865053877234,
        9.485721616074443
      ],
      [
        100.03864827565849,
        9.485732596367598
      ],
      [
        100.03864441998303,
        9.485739218071103
      ],
      [
        100.0386358704418,
        9.485765034332871
      ],
      [
        100.03862866200507,
        9.485768973827362
      ],
      [
        100.03852849826217,
        9.485739301890135
      ],
      [
        100.03850310109556,
        9.485726729035378
      ],
      [
        100.03850670531392,
        9.485721616074443
      ],
      [
        100.03850863315165,
        9.48572295717895
      ],
      [
        100.03850829787552,
        9.485722621902823
      ],
      [
        100.03850821405649,
        9.485721783712506
      ],
      [
        100.03850963898003,
        9.485722118988633
      ],
      [
        100.03851156681776,
        9.485721280798316
      ],
      [
        100.03851248882711,
        9.48571851477027
      ],
      [
        100.0385093037039,
        9.48571608401835
      ],
      [
        100.03850561566651,
        9.485717006027699
      ],
      [
        100.03850201144814,
        9.48571658693254
      ],
      [
        100.03849279135466,
        9.485718850046396
      ],
      [
        100.0384852476418,
        9.485722873359919
      ],
      [
        100.03848449327052,
        9.485714994370937
      ],
      [
        100.03845708444715,
        9.48571222834289
      ],
      [
        100.03842271864414,
        9.485695883631706
      ],
      [
        100.03838961012661,
        9.485677694901824
      ],
      [
        100.03837049938738,
        9.48568674735725
      ],
      [
        100.0384543184191,
        9.485772913321853
      ],
      [
        100.03841022960842,
        9.485726058483124
      ],
      [
        100.0384162645787,
        9.485715245828032
      ],
      [
        100.03845389932394,
        9.485694374889135
      ],
      [
        100.03847460262477,
        9.485724298283458
      ],
      [
        100.0384767819196,
        9.48572488501668
      ],
      [
        100.03847477026284,
        9.485721532255411
      ],
      [
        100.03847443498671,
        9.485719855874777
      ],
      [
        100.03847317770123,
        9.485716670751572
      ],
      [
        100.03846001811326,
        9.485709881410003
      ],
      [
        100.03845322877169,
        9.485707199200988
      ],
      [
        100.03846907056868,
        9.485707618296146
      ],
      [
        100.03845809027553,
        9.485714742913842
      ],
      [
        100.03843428567052,
        9.485708037391305
      ],
      [
        100.03846194595098,
        9.485705103725195
      ],
      [
        100.03852128982544,
        9.485703930258751
      ],
      [
        100.03853034228086,
        9.485700158402324
      ],
      [
        100.03852103836834,
        9.48571222834289
      ],
      [
        100.03851735033095,
        9.485737793147564
      ],
      [
        100.03851919434965,
        9.485747683793306
      ],
      [
        100.0384799670428,
        9.485708037391305
      ],
      [
        100.0384799670428,
        9.48570342734456
      ],
      [
        100.03843068145216,
        9.485679538920522
      ],
      [
        100.0384265743196,
        9.485675767064095
      ],
      [
        100.03842598758638,
        9.485673755407333
      ],
      [
        100.03842623904347,
        9.48567065410316
      ],
      [
        100.03844627179205,
        9.485670318827033
      ],
      [
        100.03846328705549,
        9.485674006864429
      ],
      [
        100.03846521489322,
        9.485678868368268
      ],
      [
        100.03846865147352,
        9.485679622739553
      ],
      [
        100.03844308666885,
        9.485679119825363
      ],
      [
        100.0384284183383,
        9.48567409068346
      ],
      [
        100.03843311220407,
        9.48568481951952
      ],
      [
        100.03843495622277,
        9.485687417909503
      ],
      [
        100.03843151964247,
        9.485687920823693
      ],
      [
        100.03844979219139,
        9.485741313546896
      ],
      [
        100.03844870254397,
        9.48574391193688
      ],
      [
        100.03843110054731,
        9.485730919986963
      ],
      [
        100.03842414356768,
        9.485725304111838
      ],
      [
        100.03841777332127,
        9.48572002351284
      ],
      [
        100.03840511664748,
        9.48570778593421
      ],
      [
        100.03840084187686,
        9.485703175887465
      ],
      [
        100.03839623183012,
        9.485691022127867
      ],
      [
        100.03840746358037,
        9.485684232786298
      ],
      [
        100.03841198980808,
        9.485681969672441
      ],
      [
        100.03842028789222,
        9.485680041834712
      ],
      [
        100.03844467923045,
        9.48568138293922
      ],
      [
        100.03844040445983,
        9.485703594982624
      ],
      [
        100.03844451159239,
        9.485706612467766
      ],
      [
        100.03845498897135,
        9.485710635781288
      ],
      [
        100.03849161788821,
        9.485724214464426
      ],
      [
        100.03849480301142,
        9.485727231949568
      ],
      [
        100.03849195316434,
        9.485696721822023
      ],
      [
        100.03847661428154,
        9.48568289168179
      ],
      [
        100.03846663981676,
        9.48568431660533
      ],
      [
        100.03845758736134,
        9.48567995801568
      ],
      [
        100.03845842555165,
        9.485677108168602
      ],
      [
        100.03846186213195,
        9.485675347968936
      ],
      [
        100.03846320323646,
        9.485674425959587
      ],
      [
        100.03844501450658,
        9.48568381369114
      ],
      [
        100.03843981772661,
        9.48569018393755
      ],
      [
        100.03843646496534,
        9.485694374889135
      ],
      [
        100.03841048106551,
        9.485720861703157
      ],
      [
        100.03842489793897,
        9.485714072361588
      ],
      [
        100.038385335356,
        9.4856979791075
      ],
      [
        100.03841333091259,
        9.48569311760366
      ],
      [
        100.03843755461276,
        9.485686579719186
      ],
      [
        100.03844736143947,
        9.48568188585341
      ],
      [
        100.0384575035423,
        9.485677191987634
      ],
      [
        100.03846890293062,
        9.485631259158254
      ],
      [
        100.03840629011393,
        9.485568311065435
      ],
      [
        100.03840168006718,
        9.485505865886807
      ],
      [
        100.03841643221676,
        9.485510140657425
      ],
      [
        100.03843395039439,
        9.485509470105171
      ],
      [
        100.03843780606985,
        9.48550988920033
      ],
      [
        100.03844476304948,
        9.485508380457759
      ],
      [
        100.0384316034615,
        9.485445348545909
      ],
      [
        100.03842456266284,
        9.48544635437429
      ],
      [
        100.03842749632895,
        9.485441241413355
      ],
      [
        100.03844224847853,
        9.485447276383638
      ],
      [
        100.03844484686852,
        9.48543076403439
      ],
      [
        100.03829430788755,
        9.485433027148247
      ],
      [
        100.03825784660876,
        9.485436463728547
      ],
      [
        100.03824678249657,
        9.485436212271452
      ],
      [
        100.038234712556,
        9.485436379909515
      ],
      [
        100.03822322934866,
        9.485436715185642
      ],
      [
        100.0382127519697,
        9.485435374081135
      ],
      [
        100.03820311278105,
        9.48543269187212
      ],
      [
        100.03819422796369,
        9.485423471778631
      ],
      [
        100.03818031400442,
        9.48541852645576
      ],
      [
        100.03817536868155,
        9.48540830053389
      ],
      [
        100.03817302174866,
        9.485412240028381
      ],
      [
        100.03816723823547,
        9.485408803448081
      ],
      [
        100.03811334259808,
        9.485333785414696
      ],
      [
        100.03804201260209,
        9.485303442925215
      ],
      [
        100.03804058767855,
        9.485311908647418
      ],
      [
        100.03804821521044,
        9.485316351056099
      ],
      [
        100.03804561682045,
        9.485326241701841
      ],
      [
        100.0380642246455,
        9.485320374369621
      ],
      [
        100.03810118883848,
        9.485353231430054
      ],
      [
        100.03812884911895,
        9.485371336340904
      ],
      [
        100.03814812749624,
        9.485393045470119
      ],
      [
        100.03815483301878,
        9.485400253906846
      ],
      [
        100.03819950856268,
        9.48544249869883
      ],
      [
        100.03823630511761,
        9.48543168604374
      ],
      [
        100.03836018964648,
        9.485375192016363
      ],
      [
        100.03842062316835,
        9.485346945002675
      ],
      [
        100.03850536420941,
        9.485300425440073
      ],
      [
        100.03850335255265,
        9.485304532572627
      ],
      [
        100.03850628621876,
        9.485305538401008
      ],
      [
        100.0385026820004,
        9.485301682725549
      ],
      [
        100.03850595094264,
        9.485285840928555
      ],
      [
        100.03852045163512,
        9.485274022445083
      ],
      [
        100.03852782770991,
        9.485266394913197
      ],
      [
        100.03855314105749,
        9.485244350507855
      ],
      [
        100.03857300616801,
        9.485231610015035
      ],
      [
        100.03858524374664,
        9.485222892835736
      ],
      [
        100.03861525095999,
        9.485197495669127
      ],
      [
        100.03870502114296,
        9.485103283077478
      ],
      [
        100.03872723318636,
        9.485082412138581
      ],
      [
        100.03873477689922,
        9.48507646098733
      ],
      [
        100.03881415352225,
        9.485008902847767
      ],
      [
        100.03886721096933,
        9.48496263474226
      ],
      [
        100.03888657316566,
        9.484941679984331
      ],
      [
        100.03890367224813,
        9.484920892864466
      ],
      [
        100.03890794701874,
        9.484909996390343
      ],
      [
        100.03898321650922,
        9.484840845689178
      ],
      [
        100.03913216292858,
        9.484723750501871
      ],
      [
        100.03920307382941,
        9.484627023339272
      ],
      [
        100.03920122981071,
        9.484621156007051
      ],
      [
        100.0392104499042,
        9.484614534303546
      ],
      [
        100.03925705328584,
        9.484582180157304
      ],
      [
        100.03928622230887,
        9.48456784710288
      ],
      [
        100.03930340521038,
        9.484559465199709
      ],
      [
        100.03943365998566,
        9.484551753848791
      ],
      [
        100.03945050761104,
        9.484544210135937
      ],
      [
        100.03948864527047,
        9.484519232064486
      ],
      [
        100.03958671353757,
        9.484364502131939
      ],
      [
        100.03960154950619,
        9.484401382505894
      ],
      [
        100.03960850648582,
        9.484418230131269
      ],
      [
        100.03965561278164,
        9.484455361962318
      ],
      [
        100.03966541960835,
        9.484468689188361
      ],
      [
        100.03967086784542,
        9.484476149082184
      ],
      [
        100.03966894000769,
        9.484480172395706
      ],
      [
        100.03967078402638,
        9.484476819634438
      ],
      [
        100.03967078402638,
        9.484473718330264
      ],
      [
        100.03968704491854,
        9.484373470768332
      ],
      [
        100.0396888051182,
        9.48435720987618
      ],
      [
        100.03969073295593,
        9.484352180734277
      ],
      [
        100.03969400189817,
        9.484307505190372
      ],
      [
        100.0397355761379,
        9.48425017297268
      ],
      [
        100.03974253311753,
        9.484239192679524
      ],
      [
        100.0398064032197,
        9.48419351130724
      ],
      [
        100.03996649757028,
        9.48409871198237
      ],
      [
        100.04007764160633,
        9.484007013961673
      ],
      [
        100.04010840319097,
        9.48398538865149
      ],
      [
        100.04013832658529,
        9.483973067253828
      ],
      [
        100.0402208045125,
        9.483942976221442
      ],
      [
        100.04021015949547,
        9.483943730592728
      ],
      [
        100.04020948894322,
        9.483939791098237
      ],
      [
        100.04020848311484,
        9.48392579331994
      ],
      [
        100.04018719308078,
        9.483928475528955
      ],
      [
        100.04020906984806,
        9.483919842168689
      ],
      [
        100.04022683948278,
        9.483911963179708
      ],
      [
        100.040232706815,
        9.483910202980042
      ],
      [
        100.04024284891784,
        9.48390869423747
      ],
      [
        100.0402689166367,
        9.48391498066485
      ],
      [
        100.04027361050248,
        9.483926547691226
      ],
      [
        100.04027486778796,
        9.483929062262177
      ],
      [
        100.0403296854347,
        9.483907856047153
      ],
      [
        100.04039472900331,
        9.483867203816772
      ],
      [
        100.04045767709613,
        9.483819594606757
      ],
      [
        100.04056571982801,
        9.483761508017778
      ],
      [
        100.04057443700731,
        9.483754131942987
      ],
      [
        100.04061500541866,
        9.483731836080551
      ],
      [
        100.04062414169312,
        9.483723202720284
      ],
      [
        100.04070712253451,
        9.483667211607099
      ],
      [
        100.04075766541064,
        9.483638796955347
      ],
      [
        100.0409129820764,
        9.483543075621128
      ],
      [
        100.04092438146472,
        9.483535196632147
      ],
      [
        100.04101230762899,
        9.48349479585886
      ],
      [
        100.04108707420528,
        9.483446264639497
      ],
      [
        100.04119545221329,
        9.483378622680902
      ],
      [
        100.04121867008507,
        9.483365882188082
      ],
      [
        100.04136635921896,
        9.483259599655867
      ],
      [
        100.04140768200159,
        9.483233112841845
      ],
      [
        100.04142704419792,
        9.48322263546288
      ],
      [
        100.04139360040426,
        9.483240488916636
      ],
      [
        100.04135621711612,
        9.483228335157037
      ],
      [
        100.04144917242229,
        9.483217103406787
      ],
      [
        100.04148161038756,
        9.483203189447522
      ],
      [
        100.041609602049,
        9.483098415657878
      ],
      [
        100.04167632199824,
        9.483033455908298
      ],
      [
        100.04176567308605,
        9.482986265793443
      ],
      [
        100.041818395257,
        9.482964472845197
      ],
      [
        100.04182191565633,
        9.482960533350706
      ],
      [
        100.04183700308204,
        9.482936393469572
      ],
      [
        100.04184337332845,
        9.48291677981615
      ],
      [
        100.04198469221592,
        9.482785100117326
      ],
      [
        100.04218116402626,
        9.482633890584111
      ],
      [
        100.04239900968969,
        9.482472874224186
      ],
      [
        100.04260470159352,
        9.482292663305998
      ],
      [
        100.04275004379451,
        9.482157798483968
      ],
      [
        100.04290158860385,
        9.482004074379802
      ],
      [
        100.04305967129767,
        9.481843896210194
      ],
      [
        100.04322513006628,
        9.481683801859617
      ],
      [
        100.04338354803622,
        9.481522953137755
      ],
      [
        100.04352637566626,
        9.481343245133758
      ],
      [
        100.04368035122752,
        9.48115574195981
      ],
      [
        100.04384296014905,
        9.480962371453643
      ],
      [
        100.04401017911732,
        9.48076581582427
      ],
      [
        100.04418477416039,
        9.480565739795566
      ],
      [
        100.0443547591567,
        9.480371195822954
      ],
      [
        100.0445188768208,
        9.480182686820626
      ],
      [
        100.04468291066587,
        9.480003817006946
      ],
      [
        100.04485918208957,
        9.479827377945185
      ],
      [
        100.04504450596869,
        9.47966585867107
      ],
      [
        100.04523301497102,
        9.479516576975584
      ],
      [
        100.04542110487819,
        9.479377437382936
      ],
      [
        100.04560592584312,
        9.479249948635697
      ],
      [
        100.04581564106047,
        9.479122878983617
      ],
      [
        100.04603046923876,
        9.478981224820018
      ],
      [
        100.046253092587,
        9.478842336684465
      ],
      [
        100.04636281169951,
        9.478771844878793
      ],
      [
        100.04657696932554,
        9.478629352524877
      ],
      [
        100.0467795599252,
        9.478493733331561
      ],
      [
        100.04697167314589,
        9.47834956459701
      ],
      [
        100.04707024432719,
        9.478281252086163
      ]
    ]
  }
}
