{
  "type": "Feature",
  "properties": {
    "id": "strava-1603949806",
    "activity": "hiking",
    "name": "Hadrian's Wall — day 4, part 1",
    "date": "2018-05-29T08:51:54.000Z",
    "distanceKm": 13.64,
    "movingTimeSeconds": 9430,
    "elapsedTimeSeconds": 10794,
    "ascentM": 204,
    "descentM": 294,
    "providers": [
      "Strava"
    ]
  },
  "geometry": {
    "type": "LineString",
    "coordinates": [
      [
        -2.533527,
        54.987923,
        134.8
      ],
      [
        -2.533527,
        54.987923,
        134.8
      ],
      [
        -2.533527,
        54.987923,
        134.8
      ],
      [
        -2.533527,
        54.987923,
        134.8
      ],
      [
        -2.533527,
        54.987923,
        134.8
      ],
      [
        -2.533527,
        54.987923,
        134.8
      ],
      [
        -2.533527,
        54.987923,
        134.8
      ],
      [
        -2.533527,
        54.987923,
        134.8
      ],
      [
        -2.533527,
        54.987923,
        134.8
      ],
      [
        -2.533527,
        54.987923,
        134.8
      ],
      [
        -2.533527,
        54.987923,
        134.8
      ],
      [
        -2.533527,
        54.987923,
        134.8
      ],
      [
        -2.533527,
        54.987923,
        134.8
      ],
      [
        -2.53357,
        54.987922,
        138.8
      ],
      [
        -2.533585,
        54.987923,
        139.4
      ],
      [
        -2.533606,
        54.987925,
        141.2
      ],
      [
        -2.533616,
        54.987932,
        142.2
      ],
      [
        -2.533623,
        54.987937,
        142.8
      ],
      [
        -2.533635,
        54.987942,
        143.2
      ],
      [
        -2.53365,
        54.987944,
        143.4
      ],
      [
        -2.533668,
        54.987947,
        143.6
      ],
      [
        -2.53368,
        54.987952,
        143.6
      ],
      [
        -2.53369,
        54.987957,
        143.4
      ],
      [
        -2.533699,
        54.987974,
        143.2
      ],
      [
        -2.533678,
        54.988026,
        139.8
      ],
      [
        -2.533665,
        54.988046,
        137.6
      ],
      [
        -2.533581,
        54.988079,
        135.6
      ],
      [
        -2.533567,
        54.988088,
        135.4
      ],
      [
        -2.533529,
        54.988104,
        135
      ],
      [
        -2.533498,
        54.988119,
        134.8
      ],
      [
        -2.533453,
        54.98813,
        134.8
      ],
      [
        -2.533452,
        54.988151,
        134.8
      ],
      [
        -2.533474,
        54.988188,
        134.8
      ],
      [
        -2.533475,
        54.988187,
        134.6
      ],
      [
        -2.533475,
        54.988187,
        134.8
      ],
      [
        -2.533475,
        54.988187,
        134.8
      ],
      [
        -2.533478,
        54.988187,
        134.8
      ],
      [
        -2.53349,
        54.988187,
        134.8
      ],
      [
        -2.533504,
        54.988186,
        134.8
      ],
      [
        -2.533586,
        54.988189,
        135
      ],
      [
        -2.533631,
        54.988184,
        135.2
      ],
      [
        -2.533667,
        54.988191,
        135.4
      ],
      [
        -2.533677,
        54.988192,
        135.4
      ],
      [
        -2.533695,
        54.988194,
        135.4
      ],
      [
        -2.533713,
        54.9882,
        135.6
      ],
      [
        -2.533759,
        54.98821,
        136
      ],
      [
        -2.533847,
        54.988241,
        136.2
      ],
      [
        -2.533993,
        54.988366,
        136
      ],
      [
        -2.534047,
        54.9884,
        136
      ],
      [
        -2.534153,
        54.988419,
        136
      ],
      [
        -2.534161,
        54.988416,
        136
      ],
      [
        -2.534166,
        54.988415,
        136.2
      ],
      [
        -2.534164,
        54.98841,
        136.2
      ],
      [
        -2.534161,
        54.988404,
        136.2
      ],
      [
        -2.534158,
        54.988371,
        136.2
      ],
      [
        -2.534133,
        54.988323,
        136.2
      ],
      [
        -2.534092,
        54.988253,
        136
      ],
      [
        -2.534085,
        54.988141,
        136
      ],
      [
        -2.534086,
        54.988132,
        136
      ],
      [
        -2.534087,
        54.98811,
        136
      ],
      [
        -2.534089,
        54.988043,
        136
      ],
      [
        -2.534095,
        54.988018,
        136
      ],
      [
        -2.534128,
        54.987934,
        136
      ],
      [
        -2.534131,
        54.987919,
        136
      ],
      [
        -2.53414,
        54.987897,
        136
      ],
      [
        -2.534153,
        54.987875,
        135.8
      ],
      [
        -2.534176,
        54.987832,
        135.8
      ],
      [
        -2.534205,
        54.987768,
        136
      ],
      [
        -2.534229,
        54.987722,
        136
      ],
      [
        -2.534233,
        54.987711,
        136
      ],
      [
        -2.534238,
        54.987699,
        136
      ],
      [
        -2.534241,
        54.987688,
        136
      ],
      [
        -2.534244,
        54.987677,
        136
      ],
      [
        -2.534246,
        54.98767,
        136
      ],
      [
        -2.534251,
        54.987649,
        136
      ],
      [
        -2.534254,
        54.987639,
        136
      ],
      [
        -2.53426,
        54.98762,
        136
      ],
      [
        -2.534262,
        54.987596,
        136.2
      ],
      [
        -2.534282,
        54.987543,
        136.2
      ],
      [
        -2.53428,
        54.987529,
        136.2
      ],
      [
        -2.534284,
        54.98752,
        136.2
      ],
      [
        -2.534294,
        54.987475,
        136.4
      ],
      [
        -2.5343,
        54.987451,
        136.4
      ],
      [
        -2.534305,
        54.987435,
        136.4
      ],
      [
        -2.534308,
        54.987423,
        136.6
      ],
      [
        -2.534319,
        54.987408,
        136.6
      ],
      [
        -2.534321,
        54.987393,
        136.6
      ],
      [
        -2.534322,
        54.987381,
        136.6
      ],
      [
        -2.534332,
        54.98734,
        136.8
      ],
      [
        -2.534335,
        54.987327,
        136.8
      ],
      [
        -2.534374,
        54.9872,
        137
      ],
      [
        -2.534413,
        54.987159,
        137
      ],
      [
        -2.534422,
        54.987145,
        137.2
      ],
      [
        -2.534429,
        54.987132,
        137.2
      ],
      [
        -2.534462,
        54.987088,
        137.2
      ],
      [
        -2.534699,
        54.986875,
        137.4
      ],
      [
        -2.534799,
        54.986821,
        137.4
      ],
      [
        -2.534877,
        54.986792,
        137.6
      ],
      [
        -2.534946,
        54.986771,
        137.4
      ],
      [
        -2.534968,
        54.986763,
        137.4
      ],
      [
        -2.53499,
        54.986758,
        137.2
      ],
      [
        -2.535014,
        54.986754,
        137.2
      ],
      [
        -2.535041,
        54.986749,
        137.2
      ],
      [
        -2.535358,
        54.986737,
        136.4
      ],
      [
        -2.535395,
        54.986745,
        136
      ],
      [
        -2.535636,
        54.986776,
        139.6
      ],
      [
        -2.535719,
        54.986789,
        140
      ],
      [
        -2.535839,
        54.986799,
        140
      ],
      [
        -2.535928,
        54.986827,
        137
      ],
      [
        -2.536023,
        54.986828,
        136.8
      ],
      [
        -2.536085,
        54.986832,
        137.4
      ],
      [
        -2.53632,
        54.986865,
        138
      ],
      [
        -2.536393,
        54.986868,
        138
      ],
      [
        -2.536416,
        54.986868,
        138
      ],
      [
        -2.536554,
        54.98685,
        138
      ],
      [
        -2.536713,
        54.986842,
        138
      ],
      [
        -2.53676,
        54.986838,
        138.2
      ],
      [
        -2.53691,
        54.986826,
        138.2
      ],
      [
        -2.537007,
        54.9868,
        138
      ],
      [
        -2.537028,
        54.986794,
        137.4
      ],
      [
        -2.537046,
        54.986753,
        137.8
      ],
      [
        -2.53706,
        54.986718,
        137.2
      ],
      [
        -2.537084,
        54.986678,
        136.2
      ],
      [
        -2.537116,
        54.986646,
        136.4
      ],
      [
        -2.537207,
        54.986616,
        134
      ],
      [
        -2.537227,
        54.986599,
        134.2
      ],
      [
        -2.537305,
        54.986514,
        135.8
      ],
      [
        -2.537465,
        54.98645,
        138
      ],
      [
        -2.537578,
        54.986436,
        139.2
      ],
      [
        -2.537753,
        54.986288,
        146.2
      ],
      [
        -2.537873,
        54.986209,
        151
      ],
      [
        -2.537978,
        54.98617,
        154.2
      ],
      [
        -2.538302,
        54.986138,
        159.2
      ],
      [
        -2.538517,
        54.98614,
        162.2
      ],
      [
        -2.538534,
        54.986134,
        162.4
      ],
      [
        -2.538908,
        54.986093,
        164
      ],
      [
        -2.539099,
        54.986073,
        163
      ],
      [
        -2.539407,
        54.986058,
        161
      ],
      [
        -2.539449,
        54.986049,
        160
      ],
      [
        -2.539919,
        54.986,
        159.4
      ],
      [
        -2.539985,
        54.985994,
        160
      ],
      [
        -2.540092,
        54.986024,
        159.4
      ],
      [
        -2.540203,
        54.986049,
        159
      ],
      [
        -2.540787,
        54.985921,
        160
      ],
      [
        -2.54085,
        54.985916,
        160.2
      ],
      [
        -2.540913,
        54.985912,
        160.4
      ],
      [
        -2.541087,
        54.985912,
        160
      ],
      [
        -2.541128,
        54.985922,
        159.8
      ],
      [
        -2.541315,
        54.98591,
        160.6
      ],
      [
        -2.541377,
        54.985915,
        161.4
      ],
      [
        -2.54149,
        54.985923,
        161
      ],
      [
        -2.541778,
        54.985913,
        161.8
      ],
      [
        -2.54182,
        54.985913,
        162
      ],
      [
        -2.54209,
        54.985923,
        162.6
      ],
      [
        -2.542135,
        54.985918,
        163
      ],
      [
        -2.542355,
        54.985925,
        162.8
      ],
      [
        -2.542527,
        54.985929,
        163.6
      ],
      [
        -2.542756,
        54.985919,
        164.6
      ],
      [
        -2.542775,
        54.985918,
        164.6
      ],
      [
        -2.542818,
        54.985919,
        165
      ],
      [
        -2.542963,
        54.98593,
        165.2
      ],
      [
        -2.543335,
        54.986042,
        170.6
      ],
      [
        -2.543354,
        54.986047,
        170.2
      ],
      [
        -2.543333,
        54.986101,
        169.6
      ],
      [
        -2.543315,
        54.986109,
        170
      ],
      [
        -2.543316,
        54.986109,
        170
      ],
      [
        -2.543316,
        54.98611,
        169.8
      ],
      [
        -2.543295,
        54.986116,
        169.6
      ],
      [
        -2.543182,
        54.986132,
        169
      ],
      [
        -2.543094,
        54.98622,
        169
      ],
      [
        -2.543067,
        54.986341,
        169.6
      ],
      [
        -2.543067,
        54.986341,
        169.6
      ],
      [
        -2.543051,
        54.986349,
        169.6
      ],
      [
        -2.543035,
        54.986352,
        169.6
      ],
      [
        -2.543014,
        54.986361,
        169.4
      ],
      [
        -2.543007,
        54.986372,
        169.2
      ],
      [
        -2.542998,
        54.986383,
        169.4
      ],
      [
        -2.542989,
        54.986393,
        169.4
      ],
      [
        -2.542968,
        54.986438,
        169.6
      ],
      [
        -2.542923,
        54.986501,
        170
      ],
      [
        -2.542918,
        54.986518,
        170.2
      ],
      [
        -2.542903,
        54.986533,
        170.4
      ],
      [
        -2.542873,
        54.986561,
        170.6
      ],
      [
        -2.54283,
        54.986696,
        170.2
      ],
      [
        -2.542836,
        54.986701,
        170
      ],
      [
        -2.542843,
        54.986705,
        170
      ],
      [
        -2.542974,
        54.986793,
        169.8
      ],
      [
        -2.542991,
        54.986801,
        169.8
      ],
      [
        -2.543078,
        54.986842,
        168.4
      ],
      [
        -2.543158,
        54.986883,
        167
      ],
      [
        -2.543199,
        54.986903,
        166.4
      ],
      [
        -2.543214,
        54.986911,
        166.2
      ],
      [
        -2.543823,
        54.987165,
        160.2
      ],
      [
        -2.543862,
        54.987191,
        159.6
      ],
      [
        -2.543912,
        54.987214,
        159
      ],
      [
        -2.543979,
        54.987255,
        157.2
      ],
      [
        -2.544012,
        54.987279,
        156.8
      ],
      [
        -2.544061,
        54.987352,
        156.2
      ],
      [
        -2.54413,
        54.987385,
        156.2
      ],
      [
        -2.544153,
        54.987409,
        154.4
      ],
      [
        -2.544217,
        54.987457,
        152.6
      ],
      [
        -2.544257,
        54.987475,
        152.4
      ],
      [
        -2.54427,
        54.987471,
        152
      ],
      [
        -2.544264,
        54.987481,
        152
      ],
      [
        -2.544264,
        54.987481,
        152
      ],
      [
        -2.544265,
        54.987481,
        152
      ],
      [
        -2.544266,
        54.987482,
        152
      ],
      [
        -2.544266,
        54.987482,
        152
      ],
      [
        -2.544266,
        54.987482,
        152
      ],
      [
        -2.544265,
        54.987482,
        152
      ],
      [
        -2.544265,
        54.987482,
        152
      ],
      [
        -2.544265,
        54.987486,
        152.2
      ],
      [
        -2.544256,
        54.987496,
        152
      ],
      [
        -2.544264,
        54.987512,
        152
      ],
      [
        -2.544261,
        54.98754,
        150.6
      ],
      [
        -2.54431,
        54.987667,
        148.8
      ],
      [
        -2.544347,
        54.98774,
        146.8
      ],
      [
        -2.544388,
        54.987797,
        146.2
      ],
      [
        -2.544508,
        54.987879,
        145
      ],
      [
        -2.544614,
        54.987882,
        145.2
      ],
      [
        -2.544647,
        54.98789,
        145
      ],
      [
        -2.544722,
        54.987901,
        144.6
      ],
      [
        -2.544757,
        54.987901,
        143.8
      ],
      [
        -2.5449,
        54.987881,
        142
      ],
      [
        -2.545124,
        54.987904,
        142.8
      ],
      [
        -2.545235,
        54.987922,
        142.8
      ],
      [
        -2.545294,
        54.98793,
        144
      ],
      [
        -2.545481,
        54.987941,
        146.4
      ],
      [
        -2.545998,
        54.987978,
        153.2
      ],
      [
        -2.546221,
        54.988002,
        153.4
      ],
      [
        -2.54644,
        54.987944,
        152.8
      ],
      [
        -2.54659,
        54.987921,
        153
      ],
      [
        -2.547095,
        54.987929,
        153.6
      ],
      [
        -2.547185,
        54.987934,
        154
      ],
      [
        -2.547881,
        54.987963,
        153.6
      ],
      [
        -2.547948,
        54.987968,
        153.6
      ],
      [
        -2.548042,
        54.987976,
        153.6
      ],
      [
        -2.548136,
        54.987977,
        153.4
      ],
      [
        -2.548284,
        54.987987,
        153.2
      ],
      [
        -2.548359,
        54.987991,
        152.4
      ],
      [
        -2.548379,
        54.987991,
        152.2
      ],
      [
        -2.548722,
        54.988022,
        152.8
      ],
      [
        -2.548722,
        54.988022,
        152.8
      ],
      [
        -2.549465,
        54.988067,
        153.2
      ],
      [
        -2.549735,
        54.988059,
        153
      ],
      [
        -2.549885,
        54.988077,
        153.4
      ],
      [
        -2.550208,
        54.988088,
        154.2
      ],
      [
        -2.550987,
        54.988166,
        156.4
      ],
      [
        -2.551771,
        54.988199,
        157
      ],
      [
        -2.551961,
        54.988208,
        157
      ],
      [
        -2.552289,
        54.988225,
        156.4
      ],
      [
        -2.552782,
        54.988246,
        155.4
      ],
      [
        -2.553301,
        54.988273,
        152.8
      ],
      [
        -2.553322,
        54.988272,
        152.6
      ],
      [
        -2.553344,
        54.988273,
        152.2
      ],
      [
        -2.55349,
        54.988289,
        152.2
      ],
      [
        -2.553563,
        54.988305,
        152.4
      ],
      [
        -2.553605,
        54.988326,
        152.2
      ],
      [
        -2.553758,
        54.988392,
        151.6
      ],
      [
        -2.553986,
        54.988451,
        153.4
      ],
      [
        -2.554013,
        54.988486,
        153.2
      ],
      [
        -2.554122,
        54.988567,
        152.2
      ],
      [
        -2.554249,
        54.98856,
        152.8
      ],
      [
        -2.554487,
        54.988485,
        152.6
      ],
      [
        -2.554583,
        54.98845,
        152
      ],
      [
        -2.554815,
        54.988429,
        150.2
      ],
      [
        -2.554935,
        54.9884,
        150
      ],
      [
        -2.555066,
        54.988177,
        150.8
      ],
      [
        -2.555167,
        54.988138,
        150.4
      ],
      [
        -2.555337,
        54.988,
        150.4
      ],
      [
        -2.555347,
        54.988006,
        151
      ],
      [
        -2.555333,
        54.988023,
        151
      ],
      [
        -2.555323,
        54.988047,
        151
      ],
      [
        -2.555148,
        54.988174,
        150.8
      ],
      [
        -2.555102,
        54.988202,
        150.2
      ],
      [
        -2.555045,
        54.988196,
        153
      ],
      [
        -2.555026,
        54.988235,
        153
      ],
      [
        -2.554999,
        54.988348,
        151.6
      ],
      [
        -2.554995,
        54.988403,
        151
      ],
      [
        -2.554993,
        54.988513,
        151
      ],
      [
        -2.555095,
        54.988585,
        151.6
      ],
      [
        -2.555685,
        54.988704,
        148.2
      ],
      [
        -2.555779,
        54.988724,
        151.2
      ],
      [
        -2.556074,
        54.988811,
        151
      ],
      [
        -2.556113,
        54.988809,
        150
      ],
      [
        -2.556308,
        54.988789,
        152
      ],
      [
        -2.556667,
        54.988788,
        156
      ],
      [
        -2.556905,
        54.98881,
        156.4
      ],
      [
        -2.556927,
        54.988812,
        156.2
      ],
      [
        -2.556982,
        54.988817,
        156
      ],
      [
        -2.557032,
        54.988821,
        156
      ],
      [
        -2.55771,
        54.988877,
        157.2
      ],
      [
        -2.558351,
        54.988922,
        154.6
      ],
      [
        -2.558521,
        54.988953,
        156.4
      ],
      [
        -2.55919,
        54.989004,
        161.6
      ],
      [
        -2.559409,
        54.989041,
        165.4
      ],
      [
        -2.560172,
        54.989143,
        163.2
      ],
      [
        -2.560939,
        54.98926,
        161.8
      ],
      [
        -2.561434,
        54.989343,
        162.6
      ],
      [
        -2.561647,
        54.989382,
        166.2
      ],
      [
        -2.562367,
        54.989562,
        161.8
      ],
      [
        -2.562512,
        54.989591,
        160
      ],
      [
        -2.563033,
        54.989759,
        151.8
      ],
      [
        -2.563502,
        54.989981,
        163.4
      ],
      [
        -2.563469,
        54.990053,
        162.6
      ],
      [
        -2.563517,
        54.990059,
        161.2
      ],
      [
        -2.563577,
        54.990071,
        160.4
      ],
      [
        -2.563917,
        54.990124,
        160
      ],
      [
        -2.564053,
        54.990121,
        158.8
      ],
      [
        -2.564084,
        54.990117,
        157.4
      ],
      [
        -2.564346,
        54.990083,
        157.2
      ],
      [
        -2.564411,
        54.990092,
        156.4
      ],
      [
        -2.564485,
        54.990065,
        155.2
      ],
      [
        -2.564577,
        54.990035,
        149.4
      ],
      [
        -2.564702,
        54.99001,
        146
      ],
      [
        -2.565397,
        54.989802,
        157.6
      ],
      [
        -2.565617,
        54.989738,
        160.4
      ],
      [
        -2.565699,
        54.989737,
        161.8
      ],
      [
        -2.565812,
        54.98972,
        163
      ],
      [
        -2.565871,
        54.989718,
        163.6
      ],
      [
        -2.56589,
        54.989718,
        163.8
      ],
      [
        -2.566212,
        54.989695,
        163
      ],
      [
        -2.566368,
        54.989699,
        161.8
      ],
      [
        -2.566484,
        54.989705,
        160
      ],
      [
        -2.566652,
        54.989704,
        160.4
      ],
      [
        -2.566919,
        54.989683,
        159.4
      ],
      [
        -2.567085,
        54.989661,
        158.6
      ],
      [
        -2.567312,
        54.989635,
        157.8
      ],
      [
        -2.567787,
        54.989597,
        156.4
      ],
      [
        -2.568519,
        54.989563,
        153.4
      ],
      [
        -2.568745,
        54.989536,
        152.2
      ],
      [
        -2.568933,
        54.989513,
        152.4
      ],
      [
        -2.569094,
        54.989532,
        150.6
      ],
      [
        -2.569323,
        54.989483,
        152.8
      ],
      [
        -2.569367,
        54.989491,
        153.4
      ],
      [
        -2.569385,
        54.98949,
        153.2
      ],
      [
        -2.569912,
        54.989509,
        157
      ],
      [
        -2.570207,
        54.989481,
        158.4
      ],
      [
        -2.570696,
        54.989395,
        158.4
      ],
      [
        -2.570708,
        54.989394,
        158.6
      ],
      [
        -2.570715,
        54.989395,
        158.8
      ],
      [
        -2.570745,
        54.989423,
        158.2
      ],
      [
        -2.570784,
        54.989478,
        156.6
      ],
      [
        -2.57101,
        54.989684,
        152.8
      ],
      [
        -2.571058,
        54.989729,
        152.2
      ],
      [
        -2.571066,
        54.989744,
        152
      ],
      [
        -2.571073,
        54.98976,
        151.8
      ],
      [
        -2.571109,
        54.989823,
        148.6
      ],
      [
        -2.571116,
        54.989836,
        148.6
      ],
      [
        -2.571122,
        54.989888,
        148
      ],
      [
        -2.571143,
        54.989952,
        145
      ],
      [
        -2.571184,
        54.989943,
        144.4
      ],
      [
        -2.571213,
        54.989938,
        143.6
      ],
      [
        -2.571288,
        54.989923,
        142.6
      ],
      [
        -2.571557,
        54.990157,
        140.6
      ],
      [
        -2.571623,
        54.990223,
        140
      ],
      [
        -2.571819,
        54.990336,
        141
      ],
      [
        -2.572014,
        54.990469,
        137.2
      ],
      [
        -2.572434,
        54.990861,
        132.4
      ],
      [
        -2.572583,
        54.991031,
        134
      ],
      [
        -2.572658,
        54.991316,
        134
      ],
      [
        -2.573419,
        54.991372,
        131.6
      ],
      [
        -2.573545,
        54.991425,
        133
      ],
      [
        -2.573695,
        54.991485,
        133
      ],
      [
        -2.574001,
        54.991518,
        130.8
      ],
      [
        -2.574363,
        54.991458,
        125.4
      ],
      [
        -2.574482,
        54.991425,
        127.6
      ],
      [
        -2.574563,
        54.991358,
        128.4
      ],
      [
        -2.574602,
        54.990935,
        129
      ],
      [
        -2.574709,
        54.990871,
        129.6
      ],
      [
        -2.57494,
        54.990762,
        129.4
      ],
      [
        -2.574971,
        54.990749,
        129.8
      ],
      [
        -2.575051,
        54.990731,
        132.4
      ],
      [
        -2.575082,
        54.990721,
        133.2
      ],
      [
        -2.575157,
        54.990693,
        133.8
      ],
      [
        -2.575298,
        54.99064,
        134.6
      ],
      [
        -2.575505,
        54.990568,
        135.8
      ],
      [
        -2.576128,
        54.990278,
        135.2
      ],
      [
        -2.576743,
        54.990004,
        137.8
      ],
      [
        -2.577204,
        54.989814,
        137.4
      ],
      [
        -2.577389,
        54.989756,
        138.2
      ],
      [
        -2.577767,
        54.989612,
        139.4
      ],
      [
        -2.578156,
        54.989531,
        136.4
      ],
      [
        -2.57819,
        54.989521,
        136.2
      ],
      [
        -2.578209,
        54.989518,
        135.8
      ],
      [
        -2.578227,
        54.989515,
        135.8
      ],
      [
        -2.578246,
        54.989514,
        135.8
      ],
      [
        -2.578266,
        54.989514,
        135.6
      ],
      [
        -2.578286,
        54.989515,
        135.6
      ],
      [
        -2.578313,
        54.989517,
        135.6
      ],
      [
        -2.578368,
        54.989525,
        136
      ],
      [
        -2.578398,
        54.989529,
        135.8
      ],
      [
        -2.578634,
        54.989609,
        135.6
      ],
      [
        -2.578727,
        54.989631,
        135
      ],
      [
        -2.579084,
        54.989646,
        133.8
      ],
      [
        -2.579256,
        54.989651,
        132.8
      ],
      [
        -2.579458,
        54.989663,
        133.6
      ],
      [
        -2.579794,
        54.989719,
        135.4
      ],
      [
        -2.58038,
        54.989865,
        138.6
      ],
      [
        -2.580592,
        54.989934,
        137.8
      ],
      [
        -2.581283,
        54.990145,
        129.4
      ],
      [
        -2.581352,
        54.990167,
        128.8
      ],
      [
        -2.582042,
        54.99037,
        127.4
      ],
      [
        -2.582175,
        54.990397,
        128
      ],
      [
        -2.582225,
        54.990408,
        128.4
      ],
      [
        -2.582225,
        54.990408,
        128.4
      ],
      [
        -2.582751,
        54.990552,
        128.6
      ],
      [
        -2.583095,
        54.99061,
        130.8
      ],
      [
        -2.583324,
        54.990718,
        133.4
      ],
      [
        -2.583342,
        54.990725,
        133.8
      ],
      [
        -2.583481,
        54.990763,
        133.8
      ],
      [
        -2.583633,
        54.990787,
        132.4
      ],
      [
        -2.583888,
        54.990862,
        133.2
      ],
      [
        -2.584211,
        54.990946,
        133
      ],
      [
        -2.584298,
        54.990973,
        133.4
      ],
      [
        -2.584444,
        54.99101,
        133.2
      ],
      [
        -2.584891,
        54.991127,
        130.2
      ],
      [
        -2.585216,
        54.991214,
        131.8
      ],
      [
        -2.5857,
        54.991325,
        126
      ],
      [
        -2.586042,
        54.99142,
        127
      ],
      [
        -2.586074,
        54.991427,
        126.2
      ],
      [
        -2.586451,
        54.99152,
        123
      ],
      [
        -2.586557,
        54.991539,
        123.6
      ],
      [
        -2.586899,
        54.991633,
        126.2
      ],
      [
        -2.587365,
        54.991754,
        128
      ],
      [
        -2.587487,
        54.991809,
        130
      ],
      [
        -2.587509,
        54.991815,
        130
      ],
      [
        -2.587711,
        54.991862,
        128.4
      ],
      [
        -2.587739,
        54.991905,
        127.8
      ],
      [
        -2.588035,
        54.991911,
        128
      ],
      [
        -2.588091,
        54.99192,
        129.6
      ],
      [
        -2.58821,
        54.991921,
        130.4
      ],
      [
        -2.588396,
        54.991907,
        129.4
      ],
      [
        -2.588634,
        54.991874,
        127.6
      ],
      [
        -2.588759,
        54.991855,
        126.2
      ],
      [
        -2.588895,
        54.99183,
        123.4
      ],
      [
        -2.588974,
        54.991815,
        121
      ],
      [
        -2.589024,
        54.99181,
        119
      ],
      [
        -2.589116,
        54.991796,
        116.6
      ],
      [
        -2.589866,
        54.991686,
        116.2
      ],
      [
        -2.590148,
        54.991658,
        115.4
      ],
      [
        -2.590923,
        54.991571,
        115.2
      ],
      [
        -2.591014,
        54.991558,
        114.6
      ],
      [
        -2.591203,
        54.99154,
        114.8
      ],
      [
        -2.591401,
        54.991503,
        114.4
      ],
      [
        -2.591655,
        54.991469,
        117
      ],
      [
        -2.591768,
        54.991461,
        117
      ],
      [
        -2.591825,
        54.991456,
        116.2
      ],
      [
        -2.592006,
        54.991453,
        113.4
      ],
      [
        -2.592237,
        54.991396,
        111.6
      ],
      [
        -2.592212,
        54.991303,
        111.4
      ],
      [
        -2.592269,
        54.991223,
        111.4
      ],
      [
        -2.592711,
        54.990886,
        111
      ],
      [
        -2.592792,
        54.990828,
        111
      ],
      [
        -2.593027,
        54.990671,
        110
      ],
      [
        -2.593028,
        54.990651,
        110
      ],
      [
        -2.592981,
        54.990571,
        108.6
      ],
      [
        -2.592981,
        54.990329,
        109.2
      ],
      [
        -2.593009,
        54.990332,
        109
      ],
      [
        -2.59326,
        54.990276,
        107.4
      ],
      [
        -2.593287,
        54.990261,
        108
      ],
      [
        -2.593299,
        54.990257,
        108.2
      ],
      [
        -2.593358,
        54.990236,
        109.2
      ],
      [
        -2.593381,
        54.990229,
        109.2
      ],
      [
        -2.593401,
        54.990223,
        109.4
      ],
      [
        -2.593445,
        54.99021,
        109.8
      ],
      [
        -2.59347,
        54.990204,
        109.6
      ],
      [
        -2.593495,
        54.990198,
        109.6
      ],
      [
        -2.593518,
        54.990193,
        109.2
      ],
      [
        -2.593601,
        54.990166,
        109
      ],
      [
        -2.593623,
        54.990162,
        108.8
      ],
      [
        -2.593647,
        54.990158,
        108.4
      ],
      [
        -2.593667,
        54.990154,
        108.4
      ],
      [
        -2.593685,
        54.99015,
        108.6
      ],
      [
        -2.593707,
        54.990151,
        108.6
      ],
      [
        -2.593746,
        54.990159,
        109.4
      ],
      [
        -2.593752,
        54.990163,
        109.4
      ],
      [
        -2.593835,
        54.990157,
        109
      ],
      [
        -2.594032,
        54.990102,
        111.4
      ],
      [
        -2.594373,
        54.990097,
        115.4
      ],
      [
        -2.594432,
        54.990089,
        115.4
      ],
      [
        -2.594546,
        54.990054,
        115
      ],
      [
        -2.594568,
        54.990049,
        115
      ],
      [
        -2.594622,
        54.990034,
        115.6
      ],
      [
        -2.595153,
        54.989835,
        117.2
      ],
      [
        -2.59531,
        54.989789,
        116
      ],
      [
        -2.595859,
        54.989717,
        122
      ],
      [
        -2.595683,
        54.989949,
        126
      ],
      [
        -2.595542,
        54.990061,
        126.8
      ],
      [
        -2.595271,
        54.990263,
        132.2
      ],
      [
        -2.594997,
        54.990421,
        139.2
      ],
      [
        -2.594988,
        54.99045,
        140
      ],
      [
        -2.59491,
        54.990543,
        143
      ],
      [
        -2.594877,
        54.990574,
        143
      ],
      [
        -2.594862,
        54.99059,
        143
      ],
      [
        -2.594835,
        54.990619,
        143.4
      ],
      [
        -2.59491,
        54.990833,
        149
      ],
      [
        -2.594927,
        54.990839,
        149.4
      ],
      [
        -2.595016,
        54.99086,
        151
      ],
      [
        -2.595034,
        54.990858,
        150.8
      ],
      [
        -2.595078,
        54.990826,
        149.4
      ],
      [
        -2.595191,
        54.990801,
        148.4
      ],
      [
        -2.595201,
        54.990806,
        148.4
      ],
      [
        -2.595209,
        54.990807,
        148.4
      ],
      [
        -2.595217,
        54.990807,
        148.2
      ],
      [
        -2.595239,
        54.990813,
        148.4
      ],
      [
        -2.595264,
        54.990821,
        148
      ],
      [
        -2.595264,
        54.990821,
        148
      ],
      [
        -2.595266,
        54.990822,
        147.8
      ],
      [
        -2.595263,
        54.990823,
        148
      ],
      [
        -2.595263,
        54.990822,
        147.8
      ],
      [
        -2.595313,
        54.990818,
        148.2
      ],
      [
        -2.595369,
        54.990817,
        148
      ],
      [
        -2.59539,
        54.990817,
        148.2
      ],
      [
        -2.59541,
        54.990818,
        148.6
      ],
      [
        -2.595495,
        54.990811,
        148.8
      ],
      [
        -2.595511,
        54.990808,
        149.2
      ],
      [
        -2.595527,
        54.990794,
        150
      ],
      [
        -2.595587,
        54.990799,
        150.6
      ],
      [
        -2.595606,
        54.990798,
        150.4
      ],
      [
        -2.595676,
        54.990782,
        150.2
      ],
      [
        -2.595764,
        54.990776,
        150.6
      ],
      [
        -2.595787,
        54.990772,
        150.8
      ],
      [
        -2.595831,
        54.990764,
        150.8
      ],
      [
        -2.59587,
        54.990754,
        151.6
      ],
      [
        -2.595937,
        54.990751,
        154.2
      ],
      [
        -2.596481,
        54.990691,
        157
      ],
      [
        -2.596579,
        54.990695,
        155.6
      ],
      [
        -2.596613,
        54.9907,
        155.6
      ],
      [
        -2.596637,
        54.9907,
        155.4
      ],
      [
        -2.596753,
        54.990691,
        153.6
      ],
      [
        -2.59728,
        54.99063,
        150.8
      ],
      [
        -2.597411,
        54.990616,
        150.8
      ],
      [
        -2.597686,
        54.990579,
        150.2
      ],
      [
        -2.598472,
        54.990512,
        150
      ],
      [
        -2.598786,
        54.990491,
        149.4
      ],
      [
        -2.59956,
        54.990458,
        149.2
      ],
      [
        -2.599888,
        54.990441,
        147.8
      ],
      [
        -2.600684,
        54.990419,
        150.4
      ],
      [
        -2.601297,
        54.990385,
        153
      ],
      [
        -2.601521,
        54.990363,
        154
      ],
      [
        -2.601896,
        54.990358,
        154.2
      ],
      [
        -2.601923,
        54.990345,
        154.4
      ],
      [
        -2.601963,
        54.990333,
        154.2
      ],
      [
        -2.602029,
        54.990323,
        153.6
      ],
      [
        -2.602085,
        54.990308,
        153.2
      ],
      [
        -2.602103,
        54.990306,
        153.4
      ],
      [
        -2.602138,
        54.990296,
        153.2
      ],
      [
        -2.602181,
        54.990291,
        152.8
      ],
      [
        -2.602201,
        54.990288,
        152.8
      ],
      [
        -2.602218,
        54.990284,
        152.6
      ],
      [
        -2.602261,
        54.990279,
        152.4
      ],
      [
        -2.60231,
        54.99028,
        152
      ],
      [
        -2.602356,
        54.990281,
        151.8
      ],
      [
        -2.602407,
        54.990283,
        152
      ],
      [
        -2.602669,
        54.990237,
        153.2
      ],
      [
        -2.602941,
        54.990147,
        153.8
      ],
      [
        -2.602969,
        54.990162,
        153.4
      ],
      [
        -2.602978,
        54.990168,
        154
      ],
      [
        -2.602975,
        54.990169,
        154.2
      ],
      [
        -2.602975,
        54.990169,
        154.2
      ],
      [
        -2.602975,
        54.990169,
        154.4
      ],
      [
        -2.602977,
        54.990163,
        154.6
      ],
      [
        -2.602974,
        54.990161,
        154.8
      ],
      [
        -2.602976,
        54.99016,
        155.2
      ],
      [
        -2.60298,
        54.990159,
        154.8
      ],
      [
        -2.60299,
        54.990181,
        158.2
      ],
      [
        -2.603059,
        54.990169,
        155.8
      ],
      [
        -2.603145,
        54.990129,
        155.8
      ],
      [
        -2.603232,
        54.990132,
        157.2
      ],
      [
        -2.603245,
        54.990137,
        157.4
      ],
      [
        -2.603267,
        54.990135,
        157.8
      ],
      [
        -2.603233,
        54.990138,
        157.6
      ],
      [
        -2.603244,
        54.990139,
        157
      ],
      [
        -2.603235,
        54.990141,
        156.8
      ],
      [
        -2.603122,
        54.990145,
        153.6
      ],
      [
        -2.603123,
        54.990193,
        153.6
      ],
      [
        -2.60313,
        54.990189,
        154
      ],
      [
        -2.603131,
        54.990192,
        154.8
      ],
      [
        -2.603188,
        54.990206,
        154.2
      ],
      [
        -2.603244,
        54.990219,
        154.2
      ],
      [
        -2.603267,
        54.990221,
        154.4
      ],
      [
        -2.603323,
        54.990216,
        153.8
      ],
      [
        -2.60334,
        54.990216,
        154.2
      ],
      [
        -2.603416,
        54.990203,
        155.2
      ],
      [
        -2.603502,
        54.990186,
        155.6
      ],
      [
        -2.603524,
        54.99018,
        155.8
      ],
      [
        -2.603548,
        54.990176,
        156
      ],
      [
        -2.603658,
        54.990153,
        156.6
      ],
      [
        -2.603678,
        54.990146,
        156.8
      ],
      [
        -2.603697,
        54.990139,
        157
      ],
      [
        -2.603713,
        54.990131,
        157.2
      ],
      [
        -2.603732,
        54.990114,
        158.4
      ],
      [
        -2.603753,
        54.99009,
        159
      ],
      [
        -2.603753,
        54.99009,
        159
      ],
      [
        -2.603767,
        54.99008,
        159.4
      ],
      [
        -2.603781,
        54.990068,
        159.6
      ],
      [
        -2.603797,
        54.990055,
        159.6
      ],
      [
        -2.603836,
        54.990035,
        160.4
      ],
      [
        -2.603861,
        54.990025,
        161
      ],
      [
        -2.603891,
        54.990024,
        161.2
      ],
      [
        -2.603991,
        54.990004,
        160.4
      ],
      [
        -2.604015,
        54.989941,
        159.4
      ],
      [
        -2.603966,
        54.98988,
        159.2
      ],
      [
        -2.603897,
        54.989792,
        160
      ],
      [
        -2.60401,
        54.989614,
        159.2
      ],
      [
        -2.604085,
        54.989607,
        159.4
      ],
      [
        -2.604134,
        54.989607,
        159.4
      ],
      [
        -2.604181,
        54.989607,
        159.4
      ],
      [
        -2.604613,
        54.989667,
        157.2
      ],
      [
        -2.605176,
        54.989704,
        158.2
      ],
      [
        -2.605367,
        54.989675,
        159.4
      ],
      [
        -2.605498,
        54.989648,
        160.6
      ],
      [
        -2.605762,
        54.989586,
        159.8
      ],
      [
        -2.60638,
        54.989436,
        159
      ],
      [
        -2.606548,
        54.989403,
        157.2
      ],
      [
        -2.606616,
        54.989389,
        156.2
      ],
      [
        -2.606919,
        54.989348,
        153.6
      ],
      [
        -2.607137,
        54.989305,
        152.4
      ],
      [
        -2.607582,
        54.989235,
        151.4
      ],
      [
        -2.607769,
        54.989189,
        148.8
      ],
      [
        -2.608182,
        54.989089,
        147.8
      ],
      [
        -2.608882,
        54.988883,
        147
      ],
      [
        -2.608905,
        54.988879,
        146.2
      ],
      [
        -2.609115,
        54.988854,
        144.8
      ],
      [
        -2.609249,
        54.98883,
        144.6
      ],
      [
        -2.609475,
        54.988776,
        144.2
      ],
      [
        -2.609954,
        54.988656,
        143.8
      ],
      [
        -2.610452,
        54.98834,
        146.4
      ],
      [
        -2.610469,
        54.988317,
        146.4
      ],
      [
        -2.610886,
        54.987928,
        151.4
      ],
      [
        -2.610912,
        54.987909,
        152.6
      ],
      [
        -2.611104,
        54.987751,
        156.6
      ],
      [
        -2.611152,
        54.987729,
        158
      ],
      [
        -2.61131,
        54.987564,
        161.2
      ],
      [
        -2.611801,
        54.987206,
        162.4
      ],
      [
        -2.611862,
        54.987159,
        162.6
      ],
      [
        -2.612121,
        54.98702,
        163.4
      ],
      [
        -2.612133,
        54.986994,
        164.4
      ],
      [
        -2.612266,
        54.986878,
        165.4
      ],
      [
        -2.612282,
        54.986865,
        164.6
      ],
      [
        -2.612392,
        54.986815,
        163
      ],
      [
        -2.612626,
        54.986742,
        162.4
      ],
      [
        -2.612715,
        54.986718,
        163.2
      ],
      [
        -2.612894,
        54.986659,
        163.8
      ],
      [
        -2.61328,
        54.986534,
        164.4
      ],
      [
        -2.613498,
        54.986466,
        165
      ],
      [
        -2.613666,
        54.98641,
        165.6
      ],
      [
        -2.613684,
        54.986405,
        165.8
      ],
      [
        -2.613782,
        54.986373,
        165.8
      ],
      [
        -2.613801,
        54.986367,
        165.8
      ],
      [
        -2.61413,
        54.986261,
        164.6
      ],
      [
        -2.614226,
        54.986229,
        164.4
      ],
      [
        -2.614453,
        54.986153,
        163.8
      ],
      [
        -2.615027,
        54.985967,
        160.4
      ],
      [
        -2.615571,
        54.985806,
        158.4
      ],
      [
        -2.615732,
        54.985759,
        156.2
      ],
      [
        -2.615918,
        54.98571,
        154.2
      ],
      [
        -2.616291,
        54.985607,
        151.6
      ],
      [
        -2.616469,
        54.985555,
        150.4
      ],
      [
        -2.616706,
        54.985485,
        148.6
      ],
      [
        -2.616751,
        54.985467,
        148.4
      ],
      [
        -2.616939,
        54.985407,
        147.6
      ],
      [
        -2.617017,
        54.98538,
        147.2
      ],
      [
        -2.617076,
        54.985359,
        147.2
      ],
      [
        -2.617132,
        54.985325,
        147.6
      ],
      [
        -2.617163,
        54.985309,
        147.2
      ],
      [
        -2.617494,
        54.985195,
        142.4
      ],
      [
        -2.617623,
        54.985154,
        142.6
      ],
      [
        -2.617644,
        54.985152,
        142.4
      ],
      [
        -2.61767,
        54.985144,
        142.8
      ],
      [
        -2.617717,
        54.985132,
        142.8
      ],
      [
        -2.618251,
        54.985036,
        142.2
      ],
      [
        -2.618446,
        54.985013,
        142
      ],
      [
        -2.618762,
        54.984963,
        141.8
      ],
      [
        -2.618848,
        54.984947,
        141.8
      ],
      [
        -2.619083,
        54.984915,
        141.2
      ],
      [
        -2.61937,
        54.98488,
        140.8
      ],
      [
        -2.61971,
        54.984833,
        142
      ],
      [
        -2.619954,
        54.984811,
        143.4
      ],
      [
        -2.620719,
        54.984718,
        140.4
      ],
      [
        -2.621442,
        54.984607,
        138.2
      ],
      [
        -2.621568,
        54.984584,
        135.6
      ],
      [
        -2.621776,
        54.984561,
        134
      ],
      [
        -2.622549,
        54.984479,
        135
      ],
      [
        -2.622762,
        54.984451,
        136.2
      ],
      [
        -2.623316,
        54.984369,
        135.6
      ],
      [
        -2.62373,
        54.984343,
        136
      ],
      [
        -2.623772,
        54.984338,
        136.4
      ],
      [
        -2.624031,
        54.984279,
        138.4
      ],
      [
        -2.62407,
        54.98425,
        140.4
      ],
      [
        -2.624198,
        54.984248,
        142.4
      ],
      [
        -2.624259,
        54.984243,
        142.8
      ],
      [
        -2.624419,
        54.984226,
        144.2
      ],
      [
        -2.624725,
        54.984229,
        138.8
      ],
      [
        -2.624849,
        54.984198,
        139
      ],
      [
        -2.625171,
        54.98417,
        134.4
      ],
      [
        -2.625191,
        54.984167,
        134.6
      ],
      [
        -2.625212,
        54.984163,
        134.6
      ],
      [
        -2.625345,
        54.984138,
        135.8
      ],
      [
        -2.625365,
        54.984135,
        136
      ],
      [
        -2.625413,
        54.984135,
        136.2
      ],
      [
        -2.625436,
        54.984133,
        136.2
      ],
      [
        -2.625557,
        54.984125,
        135.8
      ],
      [
        -2.62561,
        54.984121,
        135.2
      ],
      [
        -2.625681,
        54.984109,
        135.8
      ],
      [
        -2.625702,
        54.984104,
        135.8
      ],
      [
        -2.62604,
        54.984069,
        135.8
      ],
      [
        -2.626212,
        54.984052,
        136.2
      ],
      [
        -2.6267,
        54.984001,
        137.8
      ],
      [
        -2.626961,
        54.983979,
        138.6
      ],
      [
        -2.62709,
        54.983963,
        139.2
      ],
      [
        -2.62787,
        54.983879,
        134.2
      ],
      [
        -2.628015,
        54.983863,
        134.2
      ],
      [
        -2.628229,
        54.983841,
        136
      ],
      [
        -2.628297,
        54.983834,
        135.4
      ],
      [
        -2.628342,
        54.983826,
        136.2
      ],
      [
        -2.628304,
        54.983825,
        136.4
      ],
      [
        -2.628334,
        54.983824,
        135.4
      ],
      [
        -2.628453,
        54.983799,
        134
      ],
      [
        -2.628726,
        54.983772,
        132.6
      ],
      [
        -2.62879,
        54.983759,
        132.4
      ],
      [
        -2.628916,
        54.983737,
        132.6
      ],
      [
        -2.628986,
        54.983735,
        132.8
      ],
      [
        -2.629479,
        54.983706,
        135
      ],
      [
        -2.62993,
        54.983646,
        133.4
      ],
      [
        -2.63006,
        54.983633,
        132.8
      ],
      [
        -2.630765,
        54.98359,
        133.2
      ],
      [
        -2.63095,
        54.98357,
        132.8
      ],
      [
        -2.631573,
        54.983469,
        132.6
      ],
      [
        -2.631588,
        54.983469,
        132.4
      ],
      [
        -2.631718,
        54.983527,
        129.4
      ],
      [
        -2.631778,
        54.983819,
        129.2
      ],
      [
        -2.631807,
        54.983914,
        129.2
      ],
      [
        -2.631868,
        54.984011,
        130
      ],
      [
        -2.631926,
        54.984085,
        128.6
      ],
      [
        -2.632011,
        54.98407,
        128.8
      ],
      [
        -2.632026,
        54.984043,
        129
      ],
      [
        -2.632218,
        54.983899,
        130.2
      ],
      [
        -2.632648,
        54.983849,
        129.4
      ],
      [
        -2.632844,
        54.983838,
        133.2
      ],
      [
        -2.633055,
        54.983844,
        133.2
      ],
      [
        -2.633347,
        54.983834,
        132.2
      ],
      [
        -2.633499,
        54.983836,
        131.8
      ],
      [
        -2.633662,
        54.983824,
        131.4
      ],
      [
        -2.633765,
        54.983814,
        132
      ],
      [
        -2.634124,
        54.983676,
        135.4
      ],
      [
        -2.634392,
        54.983586,
        135.2
      ],
      [
        -2.63457,
        54.983528,
        135.6
      ],
      [
        -2.635229,
        54.983269,
        137.2
      ],
      [
        -2.635765,
        54.982953,
        145.6
      ],
      [
        -2.635884,
        54.982839,
        145.6
      ],
      [
        -2.635942,
        54.98277,
        145.6
      ],
      [
        -2.636154,
        54.982691,
        146.6
      ],
      [
        -2.636344,
        54.982669,
        145.2
      ],
      [
        -2.636578,
        54.982616,
        145.2
      ],
      [
        -2.636674,
        54.982604,
        144.4
      ],
      [
        -2.636736,
        54.982588,
        144
      ],
      [
        -2.637257,
        54.982497,
        142.2
      ],
      [
        -2.637449,
        54.982415,
        143.2
      ],
      [
        -2.637461,
        54.982402,
        142.6
      ],
      [
        -2.637469,
        54.982397,
        143.2
      ],
      [
        -2.63748,
        54.98239,
        143.8
      ],
      [
        -2.637505,
        54.982362,
        144.6
      ],
      [
        -2.63759,
        54.98194,
        139
      ],
      [
        -2.637456,
        54.981683,
        134
      ],
      [
        -2.637447,
        54.981563,
        135.4
      ],
      [
        -2.637466,
        54.981554,
        135.6
      ],
      [
        -2.63749,
        54.981548,
        135.6
      ],
      [
        -2.637514,
        54.981544,
        135.8
      ],
      [
        -2.637567,
        54.981526,
        136.4
      ],
      [
        -2.637627,
        54.981516,
        136.2
      ],
      [
        -2.637681,
        54.981499,
        135.6
      ],
      [
        -2.637701,
        54.981494,
        135.4
      ],
      [
        -2.637722,
        54.981488,
        135.4
      ],
      [
        -2.638029,
        54.981413,
        135.2
      ],
      [
        -2.63836,
        54.981332,
        134
      ],
      [
        -2.638603,
        54.981271,
        132.6
      ],
      [
        -2.638741,
        54.981233,
        134.4
      ],
      [
        -2.639162,
        54.981142,
        134.8
      ],
      [
        -2.639225,
        54.981126,
        134.4
      ],
      [
        -2.639259,
        54.981118,
        134.2
      ],
      [
        -2.639474,
        54.981068,
        133
      ],
      [
        -2.639594,
        54.981086,
        133.8
      ],
      [
        -2.639657,
        54.981079,
        134
      ],
      [
        -2.639838,
        54.981031,
        134
      ],
      [
        -2.639867,
        54.981021,
        134.4
      ],
      [
        -2.639885,
        54.981016,
        134.4
      ],
      [
        -2.639935,
        54.981006,
        134.4
      ],
      [
        -2.639985,
        54.980998,
        133.8
      ],
      [
        -2.640167,
        54.980952,
        131.4
      ],
      [
        -2.64035,
        54.980924,
        129.2
      ],
      [
        -2.640432,
        54.980902,
        129
      ],
      [
        -2.640795,
        54.980793,
        131.2
      ],
      [
        -2.641061,
        54.980711,
        129.8
      ],
      [
        -2.641144,
        54.980704,
        128.6
      ],
      [
        -2.641436,
        54.980729,
        129
      ],
      [
        -2.641457,
        54.980786,
        129
      ],
      [
        -2.641494,
        54.980884,
        130.2
      ],
      [
        -2.641477,
        54.980972,
        129.2
      ],
      [
        -2.641537,
        54.981229,
        136.2
      ],
      [
        -2.641532,
        54.98129,
        135.4
      ],
      [
        -2.641528,
        54.981381,
        134.6
      ],
      [
        -2.641537,
        54.981407,
        135.6
      ],
      [
        -2.641557,
        54.98145,
        136.4
      ],
      [
        -2.641574,
        54.981459,
        136.2
      ],
      [
        -2.641624,
        54.981464,
        136.4
      ],
      [
        -2.641687,
        54.981438,
        136.4
      ],
      [
        -2.641994,
        54.981326,
        139.8
      ],
      [
        -2.642709,
        54.981141,
        138
      ],
      [
        -2.642991,
        54.981065,
        138.4
      ],
      [
        -2.64373,
        54.980894,
        134.8
      ],
      [
        -2.644436,
        54.980688,
        138.2
      ],
      [
        -2.645157,
        54.980496,
        139.2
      ],
      [
        -2.645815,
        54.980348,
        139.8
      ],
      [
        -2.6464,
        54.980216,
        136.2
      ],
      [
        -2.646975,
        54.980067,
        141
      ],
      [
        -2.647206,
        54.980006,
        141.4
      ],
      [
        -2.647924,
        54.97982,
        141.6
      ],
      [
        -2.648612,
        54.979589,
        144.8
      ],
      [
        -2.648656,
        54.979553,
        145.4
      ],
      [
        -2.648761,
        54.979531,
        146.2
      ],
      [
        -2.64936,
        54.979366,
        144.2
      ],
      [
        -2.649789,
        54.979249,
        146
      ],
      [
        -2.650079,
        54.979189,
        145.4
      ],
      [
        -2.650225,
        54.979155,
        145
      ],
      [
        -2.650266,
        54.979145,
        145.2
      ],
      [
        -2.650368,
        54.979112,
        145.6
      ],
      [
        -2.65043,
        54.979096,
        145.6
      ],
      [
        -2.650472,
        54.979083,
        145.8
      ],
      [
        -2.650886,
        54.978971,
        145.6
      ],
      [
        -2.651061,
        54.978935,
        145.2
      ],
      [
        -2.651565,
        54.978818,
        142.8
      ],
      [
        -2.651709,
        54.978768,
        143.4
      ],
      [
        -2.651777,
        54.978739,
        145.6
      ],
      [
        -2.652219,
        54.978648,
        143.4
      ],
      [
        -2.652771,
        54.978532,
        144.8
      ],
      [
        -2.653495,
        54.978364,
        142.8
      ],
      [
        -2.654229,
        54.978192,
        145.2
      ],
      [
        -2.654945,
        54.978009,
        147.2
      ],
      [
        -2.655664,
        54.977805,
        150.6
      ],
      [
        -2.656383,
        54.977622,
        151.4
      ],
      [
        -2.656557,
        54.977573,
        152
      ],
      [
        -2.656848,
        54.977506,
        152.6
      ],
      [
        -2.656869,
        54.977499,
        152.6
      ],
      [
        -2.656892,
        54.977493,
        152.6
      ],
      [
        -2.656914,
        54.977486,
        152.6
      ],
      [
        -2.656935,
        54.977479,
        152.6
      ],
      [
        -2.656956,
        54.977473,
        152.6
      ],
      [
        -2.657015,
        54.977459,
        152.8
      ],
      [
        -2.657196,
        54.977414,
        152.4
      ],
      [
        -2.657314,
        54.977385,
        153
      ],
      [
        -2.657344,
        54.977391,
        153.4
      ],
      [
        -2.657383,
        54.977407,
        154.4
      ],
      [
        -2.657404,
        54.977415,
        153.8
      ],
      [
        -2.657423,
        54.977411,
        154.4
      ],
      [
        -2.657472,
        54.977398,
        155
      ],
      [
        -2.657505,
        54.977386,
        154.4
      ],
      [
        -2.657864,
        54.977296,
        155.8
      ],
      [
        -2.658274,
        54.977181,
        151.2
      ],
      [
        -2.65861,
        54.977132,
        154.4
      ],
      [
        -2.65897,
        54.977056,
        147
      ],
      [
        -2.659139,
        54.977013,
        151.6
      ],
      [
        -2.65922,
        54.976991,
        154.6
      ],
      [
        -2.659319,
        54.976961,
        158
      ],
      [
        -2.65934,
        54.97695,
        157.4
      ],
      [
        -2.659358,
        54.976944,
        157.8
      ],
      [
        -2.659544,
        54.976907,
        160.4
      ],
      [
        -2.659586,
        54.976896,
        160.6
      ],
      [
        -2.659934,
        54.976804,
        156.4
      ],
      [
        -2.660001,
        54.976769,
        156
      ],
      [
        -2.660051,
        54.976734,
        158
      ],
      [
        -2.660154,
        54.976706,
        157.6
      ],
      [
        -2.660849,
        54.9765,
        157.4
      ],
      [
        -2.660962,
        54.976464,
        157.4
      ],
      [
        -2.660994,
        54.976457,
        157.8
      ],
      [
        -2.661011,
        54.976452,
        158
      ],
      [
        -2.66105,
        54.976439,
        158.4
      ],
      [
        -2.661071,
        54.97643,
        158.8
      ],
      [
        -2.661176,
        54.976392,
        159.6
      ],
      [
        -2.661212,
        54.97638,
        159.6
      ],
      [
        -2.661253,
        54.976368,
        159.4
      ],
      [
        -2.661689,
        54.976235,
        156.8
      ],
      [
        -2.661882,
        54.976178,
        156.8
      ],
      [
        -2.66204,
        54.976152,
        155
      ],
      [
        -2.662099,
        54.976137,
        155.8
      ],
      [
        -2.662294,
        54.976074,
        157.6
      ],
      [
        -2.66267,
        54.975962,
        157.2
      ],
      [
        -2.663012,
        54.975897,
        157.8
      ],
      [
        -2.66326,
        54.975946,
        157.8
      ],
      [
        -2.663578,
        54.975878,
        154
      ],
      [
        -2.66373,
        54.975843,
        153.4
      ],
      [
        -2.664342,
        54.975698,
        149
      ],
      [
        -2.664365,
        54.975693,
        148.8
      ],
      [
        -2.664387,
        54.975688,
        148.8
      ],
      [
        -2.664766,
        54.975586,
        149.4
      ],
      [
        -2.664804,
        54.975595,
        151
      ],
      [
        -2.664855,
        54.975578,
        151.6
      ],
      [
        -2.665346,
        54.97545,
        152.4
      ],
      [
        -2.665406,
        54.975433,
        151.6
      ],
      [
        -2.665406,
        54.975433,
        151.6
      ],
      [
        -2.665587,
        54.975355,
        151.4
      ],
      [
        -2.665586,
        54.975355,
        151.4
      ],
      [
        -2.665586,
        54.975355,
        151.4
      ],
      [
        -2.665586,
        54.975355,
        151.4
      ],
      [
        -2.665585,
        54.975355,
        151.4
      ],
      [
        -2.665585,
        54.975355,
        151.4
      ],
      [
        -2.665585,
        54.975355,
        151.4
      ],
      [
        -2.665608,
        54.975349,
        150.8
      ],
      [
        -2.665792,
        54.975325,
        147.6
      ],
      [
        -2.665899,
        54.975308,
        146.8
      ],
      [
        -2.66592,
        54.975305,
        146.6
      ],
      [
        -2.665985,
        54.975304,
        146.4
      ],
      [
        -2.666067,
        54.975303,
        146.8
      ],
      [
        -2.666087,
        54.975302,
        146.8
      ],
      [
        -2.666211,
        54.975285,
        147.8
      ],
      [
        -2.666231,
        54.97528,
        148
      ],
      [
        -2.666251,
        54.97528,
        148
      ],
      [
        -2.666272,
        54.975281,
        147.6
      ],
      [
        -2.666328,
        54.975257,
        148
      ],
      [
        -2.666332,
        54.975233,
        147
      ],
      [
        -2.666351,
        54.975224,
        147
      ],
      [
        -2.666415,
        54.975203,
        147.4
      ],
      [
        -2.666531,
        54.975176,
        146.8
      ],
      [
        -2.666568,
        54.975166,
        146.8
      ],
      [
        -2.666606,
        54.975159,
        147
      ],
      [
        -2.666647,
        54.975143,
        147.8
      ],
      [
        -2.666711,
        54.975126,
        148.4
      ],
      [
        -2.666734,
        54.97512,
        148.6
      ],
      [
        -2.666757,
        54.975113,
        149
      ],
      [
        -2.66678,
        54.975106,
        149.2
      ],
      [
        -2.666803,
        54.975101,
        149.4
      ],
      [
        -2.666849,
        54.975089,
        149.8
      ],
      [
        -2.667221,
        54.975006,
        150.8
      ],
      [
        -2.667303,
        54.974984,
        151
      ],
      [
        -2.667771,
        54.974866,
        150.8
      ],
      [
        -2.668067,
        54.974799,
        150.2
      ],
      [
        -2.668244,
        54.974771,
        151.8
      ],
      [
        -2.668259,
        54.974751,
        151.6
      ],
      [
        -2.668276,
        54.974744,
        151.6
      ],
      [
        -2.668695,
        54.974638,
        151.2
      ],
      [
        -2.669455,
        54.974487,
        147.8
      ],
      [
        -2.66955,
        54.974471,
        147.6
      ],
      [
        -2.669723,
        54.974451,
        147.2
      ],
      [
        -2.670413,
        54.974286,
        145.4
      ],
      [
        -2.670649,
        54.974244,
        144.8
      ],
      [
        -2.670819,
        54.97423,
        144.6
      ],
      [
        -2.671057,
        54.974194,
        145.2
      ],
      [
        -2.671527,
        54.974117,
        143.6
      ],
      [
        -2.672024,
        54.973978,
        144.2
      ],
      [
        -2.672596,
        54.973881,
        134.2
      ],
      [
        -2.673091,
        54.973946,
        130.8
      ],
      [
        -2.673379,
        54.973965,
        134.8
      ],
      [
        -2.674102,
        54.974044,
        135.6
      ],
      [
        -2.674171,
        54.974049,
        134.8
      ],
      [
        -2.674457,
        54.974066,
        134
      ],
      [
        -2.674973,
        54.974125,
        134.2
      ],
      [
        -2.675336,
        54.974125,
        129.6
      ],
      [
        -2.67556,
        54.97414,
        125.8
      ],
      [
        -2.675889,
        54.974174,
        122.8
      ],
      [
        -2.676115,
        54.974189,
        119.6
      ],
      [
        -2.676152,
        54.974193,
        119
      ],
      [
        -2.67682,
        54.974442,
        119.4
      ],
      [
        -2.677077,
        54.974547,
        118.4
      ],
      [
        -2.677251,
        54.97463,
        119.8
      ],
      [
        -2.677826,
        54.974863,
        112
      ],
      [
        -2.677976,
        54.974914,
        112.2
      ],
      [
        -2.678552,
        54.975034,
        109
      ],
      [
        -2.679139,
        54.974973,
        101
      ],
      [
        -2.679541,
        54.974905,
        95.6
      ],
      [
        -2.6797,
        54.974823,
        92.8
      ],
      [
        -2.680161,
        54.974462,
        99.2
      ],
      [
        -2.680232,
        54.974432,
        98.8
      ],
      [
        -2.680258,
        54.974426,
        100
      ],
      [
        -2.680299,
        54.974424,
        99.6
      ],
      [
        -2.68036,
        54.974422,
        99
      ],
      [
        -2.680445,
        54.974422,
        97.8
      ],
      [
        -2.680569,
        54.974449,
        97
      ],
      [
        -2.680734,
        54.974443,
        100.4
      ],
      [
        -2.680754,
        54.974446,
        100.6
      ],
      [
        -2.680772,
        54.974446,
        101.2
      ],
      [
        -2.680788,
        54.974444,
        101.2
      ],
      [
        -2.680827,
        54.974444,
        101.4
      ],
      [
        -2.680849,
        54.974446,
        101.6
      ],
      [
        -2.680964,
        54.974455,
        102.6
      ],
      [
        -2.681709,
        54.974327,
        110.2
      ],
      [
        -2.682273,
        54.974309,
        113.2
      ],
      [
        -2.682447,
        54.974259,
        116
      ],
      [
        -2.682487,
        54.97424,
        118
      ],
      [
        -2.682501,
        54.974231,
        118.6
      ],
      [
        -2.682538,
        54.974206,
        120.4
      ],
      [
        -2.682551,
        54.9742,
        120.6
      ],
      [
        -2.682573,
        54.974182,
        121.2
      ],
      [
        -2.682581,
        54.974174,
        121.6
      ],
      [
        -2.682593,
        54.974165,
        121.6
      ],
      [
        -2.682607,
        54.974158,
        122
      ],
      [
        -2.682669,
        54.974124,
        122.4
      ],
      [
        -2.682695,
        54.974115,
        122.6
      ],
      [
        -2.682886,
        54.974073,
        121.2
      ],
      [
        -2.682954,
        54.974069,
        121.4
      ],
      [
        -2.683028,
        54.974067,
        121.8
      ],
      [
        -2.683088,
        54.974058,
        122.6
      ],
      [
        -2.683187,
        54.974056,
        124
      ],
      [
        -2.683272,
        54.974052,
        124
      ],
      [
        -2.683335,
        54.974061,
        124.4
      ],
      [
        -2.683429,
        54.974093,
        125.2
      ],
      [
        -2.683506,
        54.974088,
        126.2
      ],
      [
        -2.6836,
        54.974082,
        125.2
      ],
      [
        -2.683732,
        54.974092,
        124.8
      ],
      [
        -2.684318,
        54.974169,
        127
      ],
      [
        -2.684443,
        54.974186,
        126.6
      ],
      [
        -2.684794,
        54.974207,
        126
      ],
      [
        -2.685156,
        54.974224,
        126
      ],
      [
        -2.685342,
        54.974219,
        127.8
      ],
      [
        -2.685923,
        54.974248,
        128.6
      ],
      [
        -2.685986,
        54.974252,
        128.6
      ],
      [
        -2.686307,
        54.97422,
        128.4
      ],
      [
        -2.686324,
        54.974217,
        128.8
      ],
      [
        -2.686545,
        54.974211,
        130.4
      ],
      [
        -2.686652,
        54.974222,
        129.8
      ],
      [
        -2.687282,
        54.974181,
        128.4
      ],
      [
        -2.687722,
        54.974128,
        126.6
      ],
      [
        -2.687821,
        54.97411,
        126.8
      ],
      [
        -2.687968,
        54.974093,
        127.2
      ],
      [
        -2.688161,
        54.974097,
        126.8
      ],
      [
        -2.688313,
        54.974076,
        126.8
      ],
      [
        -2.688522,
        54.974062,
        127.2
      ],
      [
        -2.6886,
        54.974064,
        126.6
      ],
      [
        -2.689098,
        54.97403,
        128.6
      ],
      [
        -2.68918,
        54.974024,
        128.6
      ],
      [
        -2.689309,
        54.974012,
        128
      ],
      [
        -2.689892,
        54.973944,
        122
      ],
      [
        -2.690409,
        54.973924,
        121.6
      ],
      [
        -2.691191,
        54.973864,
        125.2
      ],
      [
        -2.691561,
        54.973828,
        125.2
      ],
      [
        -2.691795,
        54.973806,
        126.2
      ],
      [
        -2.692068,
        54.973807,
        124.8
      ],
      [
        -2.69247,
        54.973806,
        125.2
      ],
      [
        -2.6926,
        54.97381,
        128.4
      ],
      [
        -2.692611,
        54.97381,
        128.4
      ],
      [
        -2.692624,
        54.973811,
        129
      ],
      [
        -2.692635,
        54.97381,
        131.4
      ],
      [
        -2.692683,
        54.973791,
        131.4
      ],
      [
        -2.693005,
        54.973771,
        127.8
      ],
      [
        -2.693259,
        54.97376,
        127.2
      ],
      [
        -2.693348,
        54.973751,
        127.6
      ],
      [
        -2.693531,
        54.973732,
        128.2
      ],
      [
        -2.693605,
        54.973727,
        128.8
      ],
      [
        -2.69365,
        54.973723,
        129.2
      ],
      [
        -2.693727,
        54.973702,
        129.2
      ],
      [
        -2.693842,
        54.973671,
        130
      ],
      [
        -2.693878,
        54.973677,
        130
      ],
      [
        -2.693926,
        54.973679,
        129.6
      ],
      [
        -2.694015,
        54.973669,
        129
      ],
      [
        -2.694179,
        54.973664,
        128.2
      ],
      [
        -2.694218,
        54.973667,
        127.8
      ],
      [
        -2.694347,
        54.973646,
        128.6
      ],
      [
        -2.694468,
        54.973628,
        128.4
      ],
      [
        -2.694566,
        54.973608,
        128
      ],
      [
        -2.694618,
        54.973607,
        128.2
      ],
      [
        -2.694808,
        54.973607,
        126.8
      ],
      [
        -2.694839,
        54.973601,
        126.2
      ],
      [
        -2.694918,
        54.973589,
        125.6
      ],
      [
        -2.695115,
        54.973569,
        122.6
      ],
      [
        -2.69538,
        54.973517,
        117.8
      ],
      [
        -2.6955,
        54.973518,
        115.6
      ],
      [
        -2.695572,
        54.97351,
        114.2
      ],
      [
        -2.695648,
        54.973499,
        112.4
      ],
      [
        -2.695713,
        54.973498,
        111
      ],
      [
        -2.696493,
        54.973406,
        103.6
      ],
      [
        -2.696792,
        54.973395,
        99.6
      ],
      [
        -2.697556,
        54.973295,
        99.8
      ],
      [
        -2.697714,
        54.973291,
        100.2
      ],
      [
        -2.697945,
        54.973236,
        98.4
      ],
      [
        -2.698006,
        54.973205,
        98
      ],
      [
        -2.698041,
        54.973196,
        97.4
      ],
      [
        -2.698339,
        54.973184,
        92.4
      ],
      [
        -2.698361,
        54.973184,
        92
      ],
      [
        -2.698426,
        54.973189,
        90
      ],
      [
        -2.698685,
        54.973214,
        87.2
      ],
      [
        -2.698892,
        54.973204,
        91.8
      ],
      [
        -2.698917,
        54.973192,
        94.4
      ],
      [
        -2.698924,
        54.973132,
        92.4
      ],
      [
        -2.698883,
        54.97305,
        93.2
      ],
      [
        -2.698798,
        54.972984,
        92
      ],
      [
        -2.698703,
        54.972944,
        91.4
      ],
      [
        -2.698689,
        54.972944,
        91
      ],
      [
        -2.698668,
        54.972936,
        91.2
      ],
      [
        -2.698648,
        54.972931,
        91.2
      ],
      [
        -2.698557,
        54.972904,
        90.4
      ],
      [
        -2.698437,
        54.972837,
        90.6
      ],
      [
        -2.698069,
        54.972438,
        91
      ],
      [
        -2.697911,
        54.972109,
        92.8
      ],
      [
        -2.697925,
        54.971657,
        87.8
      ],
      [
        -2.698,
        54.971385,
        86.4
      ],
      [
        -2.698012,
        54.971344,
        86
      ],
      [
        -2.698017,
        54.971283,
        86.8
      ],
      [
        -2.698101,
        54.970831,
        84.8
      ],
      [
        -2.698109,
        54.970819,
        84.6
      ],
      [
        -2.69813,
        54.970618,
        82.4
      ],
      [
        -2.698163,
        54.970552,
        82
      ],
      [
        -2.698217,
        54.970414,
        80.4
      ],
      [
        -2.698226,
        54.970275,
        77.6
      ],
      [
        -2.698226,
        54.970066,
        73.2
      ],
      [
        -2.698275,
        54.969841,
        67.6
      ],
      [
        -2.698356,
        54.969643,
        64.2
      ],
      [
        -2.69836,
        54.969601,
        64.4
      ],
      [
        -2.698358,
        54.969486,
        63.6
      ],
      [
        -2.698357,
        54.969456,
        63
      ],
      [
        -2.698358,
        54.96944,
        62.8
      ],
      [
        -2.698407,
        54.969218,
        61.4
      ],
      [
        -2.698401,
        54.968937,
        57.8
      ],
      [
        -2.69843,
        54.968797,
        56.8
      ],
      [
        -2.698424,
        54.968604,
        53.2
      ],
      [
        -2.698416,
        54.968521,
        52.4
      ],
      [
        -2.698435,
        54.968415,
        51.2
      ],
      [
        -2.698476,
        54.968321,
        48.6
      ],
      [
        -2.698489,
        54.968198,
        47
      ],
      [
        -2.698463,
        54.968106,
        46.6
      ],
      [
        -2.698415,
        54.968077,
        46.2
      ],
      [
        -2.698236,
        54.967998,
        43.6
      ],
      [
        -2.698102,
        54.967919,
        42.8
      ],
      [
        -2.698019,
        54.967724,
        39.6
      ],
      [
        -2.698002,
        54.967673,
        40.2
      ],
      [
        -2.697979,
        54.96735,
        39.4
      ],
      [
        -2.697956,
        54.966987,
        43.2
      ],
      [
        -2.697952,
        54.966816,
        41.6
      ],
      [
        -2.697907,
        54.966773,
        40.2
      ],
      [
        -2.697871,
        54.966757,
        40
      ],
      [
        -2.69777,
        54.966707,
        40
      ],
      [
        -2.697764,
        54.966652,
        41.6
      ],
      [
        -2.697686,
        54.966432,
        45.2
      ],
      [
        -2.697588,
        54.966299,
        45
      ],
      [
        -2.697503,
        54.966261,
        45.2
      ],
      [
        -2.69744,
        54.966258,
        45.8
      ],
      [
        -2.697182,
        54.966165,
        43.6
      ],
      [
        -2.697244,
        54.965969,
        40.4
      ],
      [
        -2.697233,
        54.965877,
        43.6
      ],
      [
        -2.697106,
        54.965684,
        48.8
      ],
      [
        -2.697132,
        54.965633,
        51.2
      ],
      [
        -2.697111,
        54.965633,
        50.8
      ],
      [
        -2.697012,
        54.965637,
        46.8
      ],
      [
        -2.696913,
        54.965605,
        45
      ]
    ]
  }
}
