{
  "type": "Feature",
  "properties": {
    "id": "strava-1599409414",
    "activity": "hiking",
    "name": "Hadrian's Wall — stage 3",
    "date": "2018-05-27T08:29:22.000Z",
    "distanceKm": 17.5,
    "movingTimeSeconds": 11697,
    "elapsedTimeSeconds": 13122,
    "ascentM": 265,
    "descentM": 167,
    "providers": [
      "Strava"
    ]
  },
  "geometry": {
    "type": "LineString",
    "coordinates": [
      [
        -1.805252,
        54.995565,
        117
      ],
      [
        -1.805252,
        54.995565,
        117
      ],
      [
        -1.805252,
        54.995565,
        117
      ],
      [
        -1.805252,
        54.995565,
        117
      ],
      [
        -1.805252,
        54.995565,
        117
      ],
      [
        -1.805173,
        54.995576,
        118
      ],
      [
        -1.805173,
        54.995576,
        120.2
      ],
      [
        -1.804916,
        54.995585,
        122.2
      ],
      [
        -1.804874,
        54.995595,
        122.2
      ],
      [
        -1.804761,
        54.995648,
        123
      ],
      [
        -1.804738,
        54.995651,
        123
      ],
      [
        -1.804715,
        54.995656,
        123
      ],
      [
        -1.804642,
        54.995671,
        123.2
      ],
      [
        -1.804592,
        54.99568,
        123.6
      ],
      [
        -1.804522,
        54.995695,
        123.8
      ],
      [
        -1.8044,
        54.99574,
        123.2
      ],
      [
        -1.804358,
        54.995749,
        123.2
      ],
      [
        -1.804342,
        54.995756,
        123
      ],
      [
        -1.804325,
        54.995761,
        122.6
      ],
      [
        -1.8042,
        54.9958,
        122
      ],
      [
        -1.804182,
        54.995805,
        122
      ],
      [
        -1.804161,
        54.995809,
        122
      ],
      [
        -1.804116,
        54.995818,
        121.6
      ],
      [
        -1.803971,
        54.995844,
        120.8
      ],
      [
        -1.803822,
        54.995855,
        119.8
      ],
      [
        -1.803054,
        54.995958,
        118.4
      ],
      [
        -1.802327,
        54.996136,
        119
      ],
      [
        -1.801946,
        54.996217,
        119.4
      ],
      [
        -1.801854,
        54.996243,
        120
      ],
      [
        -1.801606,
        54.996297,
        120.4
      ],
      [
        -1.800867,
        54.996458,
        123
      ],
      [
        -1.80067,
        54.99652,
        123.6
      ],
      [
        -1.800255,
        54.996652,
        125
      ],
      [
        -1.799678,
        54.996804,
        127.4
      ],
      [
        -1.799246,
        54.996939,
        129.6
      ],
      [
        -1.798548,
        54.997163,
        132.6
      ],
      [
        -1.798321,
        54.997216,
        133.4
      ],
      [
        -1.797557,
        54.997315,
        131.6
      ],
      [
        -1.796765,
        54.997324,
        126.2
      ],
      [
        -1.795972,
        54.997361,
        128.2
      ],
      [
        -1.795659,
        54.997337,
        129.8
      ],
      [
        -1.795273,
        54.997309,
        135.4
      ],
      [
        -1.794479,
        54.997241,
        131.2
      ],
      [
        -1.794146,
        54.997244,
        131.6
      ],
      [
        -1.793887,
        54.99727,
        129.4
      ],
      [
        -1.793697,
        54.997291,
        131.8
      ],
      [
        -1.793309,
        54.997329,
        130.2
      ],
      [
        -1.792859,
        54.997295,
        128.4
      ],
      [
        -1.792638,
        54.997289,
        128.4
      ],
      [
        -1.792547,
        54.99725,
        127.2
      ],
      [
        -1.792531,
        54.99723,
        126.4
      ],
      [
        -1.792277,
        54.997186,
        119.4
      ],
      [
        -1.792258,
        54.997168,
        119.4
      ],
      [
        -1.792235,
        54.99714,
        118
      ],
      [
        -1.792219,
        54.997131,
        116.4
      ],
      [
        -1.792313,
        54.99708,
        117.8
      ],
      [
        -1.792341,
        54.997079,
        118.2
      ],
      [
        -1.792414,
        54.997028,
        118.4
      ],
      [
        -1.792438,
        54.996979,
        118.8
      ],
      [
        -1.79245,
        54.996964,
        118.8
      ],
      [
        -1.792583,
        54.996898,
        117.4
      ],
      [
        -1.792678,
        54.996825,
        117.6
      ],
      [
        -1.792671,
        54.99677,
        109.4
      ],
      [
        -1.792638,
        54.996804,
        105.4
      ],
      [
        -1.792644,
        54.9968,
        105.2
      ],
      [
        -1.792558,
        54.996938,
        105.8
      ],
      [
        -1.792506,
        54.997159,
        110.4
      ],
      [
        -1.792452,
        54.997274,
        112.4
      ],
      [
        -1.792409,
        54.997327,
        113.6
      ],
      [
        -1.792272,
        54.997471,
        117
      ],
      [
        -1.792197,
        54.997488,
        123.8
      ],
      [
        -1.792171,
        54.997505,
        127.8
      ],
      [
        -1.792161,
        54.997494,
        127.2
      ],
      [
        -1.792181,
        54.997439,
        123.6
      ],
      [
        -1.792181,
        54.997439,
        123.8
      ],
      [
        -1.792255,
        54.997287,
        127
      ],
      [
        -1.792241,
        54.997224,
        128.6
      ],
      [
        -1.792246,
        54.997181,
        129.8
      ],
      [
        -1.792269,
        54.997102,
        132
      ],
      [
        -1.792297,
        54.997064,
        132.6
      ],
      [
        -1.792307,
        54.997052,
        132.8
      ],
      [
        -1.792337,
        54.997027,
        134.2
      ],
      [
        -1.79237,
        54.997033,
        137.8
      ],
      [
        -1.792391,
        54.997036,
        139.4
      ],
      [
        -1.792402,
        54.997031,
        139.4
      ],
      [
        -1.792418,
        54.997011,
        139.8
      ],
      [
        -1.792418,
        54.997011,
        146.8
      ],
      [
        -1.792418,
        54.997011,
        146.8
      ],
      [
        -1.792418,
        54.997011,
        146.8
      ],
      [
        -1.792418,
        54.997011,
        146.8
      ],
      [
        -1.792418,
        54.997011,
        146.8
      ],
      [
        -1.792418,
        54.997011,
        146.8
      ],
      [
        -1.792418,
        54.997011,
        146.8
      ],
      [
        -1.792418,
        54.997011,
        146.8
      ],
      [
        -1.792418,
        54.997011,
        146.8
      ],
      [
        -1.792696,
        54.996729,
        154
      ],
      [
        -1.792891,
        54.99676,
        152.8
      ],
      [
        -1.792891,
        54.99676,
        148
      ],
      [
        -1.792891,
        54.99676,
        148
      ],
      [
        -1.792891,
        54.99676,
        148
      ],
      [
        -1.79308,
        54.996785,
        149
      ],
      [
        -1.79308,
        54.996785,
        148.6
      ],
      [
        -1.79308,
        54.996785,
        148.6
      ],
      [
        -1.79308,
        54.996785,
        148.6
      ],
      [
        -1.792141,
        54.997176,
        124.8
      ],
      [
        -1.792173,
        54.997177,
        127.4
      ],
      [
        -1.792179,
        54.997189,
        129.8
      ],
      [
        -1.792186,
        54.997197,
        131
      ],
      [
        -1.792181,
        54.997195,
        131
      ],
      [
        -1.792176,
        54.997193,
        131.2
      ],
      [
        -1.792175,
        54.997193,
        131.6
      ],
      [
        -1.792174,
        54.997189,
        131
      ],
      [
        -1.792173,
        54.997185,
        129.4
      ],
      [
        -1.792172,
        54.997194,
        131.2
      ],
      [
        -1.792199,
        54.997245,
        130.6
      ],
      [
        -1.792208,
        54.997262,
        131
      ],
      [
        -1.792243,
        54.997288,
        131.8
      ],
      [
        -1.792354,
        54.997354,
        132.2
      ],
      [
        -1.792388,
        54.99738,
        132.4
      ],
      [
        -1.792415,
        54.99741,
        133.2
      ],
      [
        -1.792439,
        54.997432,
        133.4
      ],
      [
        -1.792452,
        54.997441,
        133.6
      ],
      [
        -1.792466,
        54.997447,
        133
      ],
      [
        -1.792498,
        54.99745,
        132.8
      ],
      [
        -1.792519,
        54.997451,
        132.6
      ],
      [
        -1.792545,
        54.997455,
        132.6
      ],
      [
        -1.792569,
        54.997459,
        132.4
      ],
      [
        -1.792594,
        54.997462,
        132.4
      ],
      [
        -1.792715,
        54.997484,
        132.2
      ],
      [
        -1.792738,
        54.997485,
        132
      ],
      [
        -1.792868,
        54.997501,
        132.8
      ],
      [
        -1.793048,
        54.997531,
        133.6
      ],
      [
        -1.793076,
        54.997538,
        132.8
      ],
      [
        -1.793088,
        54.997538,
        131.2
      ],
      [
        -1.793704,
        54.997638,
        129.2
      ],
      [
        -1.794018,
        54.997696,
        131
      ],
      [
        -1.794336,
        54.997735,
        128.6
      ],
      [
        -1.794561,
        54.99777,
        128.8
      ],
      [
        -1.795317,
        54.997874,
        125.8
      ],
      [
        -1.796085,
        54.998004,
        130.4
      ],
      [
        -1.796856,
        54.998113,
        122
      ],
      [
        -1.797018,
        54.99813,
        122
      ],
      [
        -1.797782,
        54.998234,
        125
      ],
      [
        -1.798068,
        54.99828,
        125
      ],
      [
        -1.798792,
        54.998396,
        128.8
      ],
      [
        -1.799246,
        54.99847,
        130
      ],
      [
        -1.799812,
        54.998547,
        130.4
      ],
      [
        -1.800577,
        54.998663,
        129.6
      ],
      [
        -1.801366,
        54.998768,
        127
      ],
      [
        -1.802128,
        54.998893,
        124
      ],
      [
        -1.802483,
        54.998939,
        124.4
      ],
      [
        -1.802796,
        54.998984,
        121.6
      ],
      [
        -1.803422,
        54.999072,
        122.8
      ],
      [
        -1.80351,
        54.999095,
        122.6
      ],
      [
        -1.804273,
        54.999205,
        118.2
      ],
      [
        -1.804675,
        54.999221,
        119.4
      ],
      [
        -1.805049,
        54.999422,
        119.6
      ],
      [
        -1.804932,
        54.99958,
        121.4
      ],
      [
        -1.804894,
        54.999778,
        123.2
      ],
      [
        -1.804863,
        54.999908,
        123.8
      ],
      [
        -1.804858,
        54.999938,
        123.8
      ],
      [
        -1.80484,
        55.000072,
        123.2
      ],
      [
        -1.804845,
        55.00016,
        122.4
      ],
      [
        -1.804954,
        55.000608,
        123.8
      ],
      [
        -1.805191,
        55.000894,
        128
      ],
      [
        -1.805431,
        55.001205,
        128.2
      ],
      [
        -1.805739,
        55.001382,
        125.4
      ],
      [
        -1.805851,
        55.001378,
        123.6
      ],
      [
        -1.806002,
        55.001351,
        123
      ],
      [
        -1.806708,
        55.00116,
        121.6
      ],
      [
        -1.807399,
        55.000947,
        119.4
      ],
      [
        -1.807448,
        55.000933,
        119.8
      ],
      [
        -1.808155,
        55.00072,
        118.8
      ],
      [
        -1.808388,
        55.000642,
        118.4
      ],
      [
        -1.808838,
        55.000502,
        114.6
      ],
      [
        -1.80894,
        55.000477,
        114
      ],
      [
        -1.80921,
        55.000394,
        113
      ],
      [
        -1.809268,
        55.000376,
        113
      ],
      [
        -1.809361,
        55.000349,
        112.8
      ],
      [
        -1.810085,
        55.000151,
        112
      ],
      [
        -1.810417,
        55.0001,
        114
      ],
      [
        -1.810728,
        55.000013,
        109.6
      ],
      [
        -1.811457,
        55.000123,
        109
      ],
      [
        -1.812214,
        55.000256,
        111
      ],
      [
        -1.812381,
        55.000292,
        112.2
      ],
      [
        -1.812936,
        55.000382,
        113.4
      ],
      [
        -1.813045,
        55.00041,
        113.6
      ],
      [
        -1.813813,
        55.00053,
        114.8
      ],
      [
        -1.81391,
        55.000545,
        115.4
      ],
      [
        -1.814683,
        55.000651,
        119.4
      ],
      [
        -1.815291,
        55.000744,
        120.8
      ],
      [
        -1.815505,
        55.000785,
        121
      ],
      [
        -1.815554,
        55.000792,
        121.2
      ],
      [
        -1.815666,
        55.000814,
        121.2
      ],
      [
        -1.815773,
        55.000833,
        121.2
      ],
      [
        -1.816387,
        55.000905,
        124.4
      ],
      [
        -1.816423,
        55.000929,
        122.6
      ],
      [
        -1.816599,
        55.000951,
        121.8
      ],
      [
        -1.816937,
        55.001027,
        122
      ],
      [
        -1.81761,
        55.001115,
        126.4
      ],
      [
        -1.817959,
        55.001158,
        126.4
      ],
      [
        -1.818724,
        55.00129,
        130.6
      ],
      [
        -1.818801,
        55.001303,
        129.8
      ],
      [
        -1.819173,
        55.001364,
        130
      ],
      [
        -1.81966,
        55.001437,
        130.6
      ],
      [
        -1.819777,
        55.001449,
        131.2
      ],
      [
        -1.8198,
        55.001453,
        130.8
      ],
      [
        -1.820448,
        55.001567,
        129.8
      ],
      [
        -1.820533,
        55.001575,
        130.2
      ],
      [
        -1.820617,
        55.001562,
        131.4
      ],
      [
        -1.821209,
        55.001645,
        131.6
      ],
      [
        -1.821734,
        55.001747,
        132.6
      ],
      [
        -1.821975,
        55.001771,
        134.6
      ],
      [
        -1.82273,
        55.001894,
        135.2
      ],
      [
        -1.823018,
        55.001934,
        136.2
      ],
      [
        -1.823167,
        55.001948,
        137.2
      ],
      [
        -1.82332,
        55.001995,
        137
      ],
      [
        -1.823436,
        55.002016,
        138
      ],
      [
        -1.823481,
        55.002026,
        137.8
      ],
      [
        -1.824269,
        55.001988,
        138.4
      ],
      [
        -1.824368,
        55.001942,
        138.2
      ],
      [
        -1.824399,
        55.0018,
        138.6
      ],
      [
        -1.824435,
        55.001728,
        139.8
      ],
      [
        -1.824715,
        55.001574,
        140
      ],
      [
        -1.824813,
        55.001583,
        143
      ],
      [
        -1.824791,
        55.00159,
        141.8
      ],
      [
        -1.824801,
        55.001584,
        141
      ],
      [
        -1.824793,
        55.001584,
        140.4
      ],
      [
        -1.824794,
        55.00158,
        140.4
      ],
      [
        -1.824778,
        55.001584,
        139.6
      ],
      [
        -1.82479,
        55.001593,
        139.6
      ],
      [
        -1.824789,
        55.001596,
        139.4
      ],
      [
        -1.824791,
        55.001597,
        139.6
      ],
      [
        -1.824785,
        55.001594,
        140.8
      ],
      [
        -1.824847,
        55.001599,
        140.6
      ],
      [
        -1.824842,
        55.001605,
        140.4
      ],
      [
        -1.824845,
        55.0016,
        139.2
      ],
      [
        -1.824849,
        55.0016,
        139.4
      ],
      [
        -1.825165,
        55.001595,
        138.8
      ],
      [
        -1.825485,
        55.001564,
        139.2
      ],
      [
        -1.825601,
        55.001582,
        138.8
      ],
      [
        -1.825626,
        55.001586,
        138.8
      ],
      [
        -1.825647,
        55.00159,
        139
      ],
      [
        -1.82572,
        55.001596,
        139.6
      ],
      [
        -1.825746,
        55.001598,
        138.8
      ],
      [
        -1.825925,
        55.001616,
        139.4
      ],
      [
        -1.826011,
        55.001623,
        138.4
      ],
      [
        -1.826205,
        55.001641,
        138.2
      ],
      [
        -1.826461,
        55.001672,
        137.8
      ],
      [
        -1.826564,
        55.001751,
        138.4
      ],
      [
        -1.826604,
        55.001761,
        138.6
      ],
      [
        -1.826676,
        55.001791,
        139
      ],
      [
        -1.8267,
        55.001817,
        139.2
      ],
      [
        -1.82671,
        55.001867,
        139.8
      ],
      [
        -1.826701,
        55.001985,
        139.4
      ],
      [
        -1.826694,
        55.002027,
        139.6
      ],
      [
        -1.826691,
        55.002039,
        139.8
      ],
      [
        -1.826676,
        55.002125,
        139.2
      ],
      [
        -1.826675,
        55.002138,
        139
      ],
      [
        -1.82667,
        55.002163,
        138.8
      ],
      [
        -1.826667,
        55.002176,
        138.8
      ],
      [
        -1.826652,
        55.002217,
        139
      ],
      [
        -1.82664,
        55.002286,
        138.8
      ],
      [
        -1.8266,
        55.002437,
        138.6
      ],
      [
        -1.826671,
        55.002532,
        140.8
      ],
      [
        -1.826741,
        55.002535,
        141
      ],
      [
        -1.827515,
        55.002613,
        141.8
      ],
      [
        -1.827673,
        55.002629,
        141.2
      ],
      [
        -1.827946,
        55.002644,
        139.8
      ],
      [
        -1.828009,
        55.00266,
        139
      ],
      [
        -1.828255,
        55.002695,
        137.4
      ],
      [
        -1.828506,
        55.00273,
        136.6
      ],
      [
        -1.828657,
        55.002746,
        136.6
      ],
      [
        -1.828826,
        55.002762,
        136.8
      ],
      [
        -1.829608,
        55.002795,
        140
      ],
      [
        -1.829625,
        55.002796,
        139.8
      ],
      [
        -1.830251,
        55.002896,
        135.8
      ],
      [
        -1.830386,
        55.002979,
        135.6
      ],
      [
        -1.830514,
        55.003078,
        135
      ],
      [
        -1.830581,
        55.00312,
        135.6
      ],
      [
        -1.830793,
        55.00315,
        134.6
      ],
      [
        -1.830879,
        55.003161,
        134.2
      ],
      [
        -1.830914,
        55.003167,
        134
      ],
      [
        -1.830945,
        55.003167,
        133.6
      ],
      [
        -1.831063,
        55.003126,
        131.6
      ],
      [
        -1.831242,
        55.003138,
        129.2
      ],
      [
        -1.831285,
        55.003145,
        129
      ],
      [
        -1.831355,
        55.003158,
        128.4
      ],
      [
        -1.83157,
        55.003179,
        125.4
      ],
      [
        -1.83179,
        55.003247,
        123.8
      ],
      [
        -1.831856,
        55.003277,
        124.4
      ],
      [
        -1.83189,
        55.003295,
        125
      ],
      [
        -1.831982,
        55.003324,
        125.8
      ],
      [
        -1.832051,
        55.00334,
        126.6
      ],
      [
        -1.832142,
        55.003363,
        128
      ],
      [
        -1.832362,
        55.003398,
        130
      ],
      [
        -1.83313,
        55.0035,
        135.6
      ],
      [
        -1.833241,
        55.00352,
        136
      ],
      [
        -1.833782,
        55.003598,
        135.2
      ],
      [
        -1.833915,
        55.003621,
        135.4
      ],
      [
        -1.834551,
        55.003684,
        137.4
      ],
      [
        -1.834998,
        55.003678,
        138.4
      ],
      [
        -1.835786,
        55.003651,
        137.2
      ],
      [
        -1.835806,
        55.003652,
        137
      ],
      [
        -1.836001,
        55.003664,
        138
      ],
      [
        -1.836193,
        55.003648,
        137.2
      ],
      [
        -1.836345,
        55.003513,
        136.8
      ],
      [
        -1.836343,
        55.003489,
        136
      ],
      [
        -1.83623,
        55.00321,
        129.2
      ],
      [
        -1.836213,
        55.003168,
        128.8
      ],
      [
        -1.836208,
        55.003137,
        128.6
      ],
      [
        -1.836159,
        55.002991,
        127.6
      ],
      [
        -1.836123,
        55.002676,
        128.4
      ],
      [
        -1.836084,
        55.002437,
        130.6
      ],
      [
        -1.836007,
        55.002107,
        128
      ],
      [
        -1.836012,
        55.001887,
        126.4
      ],
      [
        -1.835951,
        55.001738,
        121.6
      ],
      [
        -1.835932,
        55.001404,
        116.2
      ],
      [
        -1.836075,
        55.001258,
        116.6
      ],
      [
        -1.836832,
        55.00122,
        119.4
      ],
      [
        -1.83707,
        55.001215,
        120
      ],
      [
        -1.837401,
        55.001217,
        120.6
      ],
      [
        -1.837464,
        55.001219,
        120
      ],
      [
        -1.837869,
        55.001236,
        121
      ],
      [
        -1.837981,
        55.001239,
        121
      ],
      [
        -1.838152,
        55.001256,
        121.4
      ],
      [
        -1.838383,
        55.001273,
        121.6
      ],
      [
        -1.839184,
        55.001317,
        121.6
      ],
      [
        -1.839706,
        55.001293,
        118.6
      ],
      [
        -1.839871,
        55.001278,
        115.4
      ],
      [
        -1.839923,
        55.001579,
        118
      ],
      [
        -1.839897,
        55.00178,
        118.6
      ],
      [
        -1.839821,
        55.002233,
        126.8
      ],
      [
        -1.839808,
        55.002278,
        126.8
      ],
      [
        -1.839756,
        55.002422,
        126.2
      ],
      [
        -1.839719,
        55.002543,
        127
      ],
      [
        -1.839663,
        55.002778,
        130
      ],
      [
        -1.839617,
        55.003157,
        130
      ],
      [
        -1.839589,
        55.003271,
        131.2
      ],
      [
        -1.839598,
        55.003398,
        130
      ],
      [
        -1.839578,
        55.003606,
        128.4
      ],
      [
        -1.839929,
        55.003684,
        126
      ],
      [
        -1.840707,
        55.003691,
        121.4
      ],
      [
        -1.841496,
        55.003727,
        133.8
      ],
      [
        -1.842275,
        55.003765,
        148.4
      ],
      [
        -1.843063,
        55.003684,
        140.4
      ],
      [
        -1.843126,
        55.00367,
        140.8
      ],
      [
        -1.84321,
        55.003662,
        139
      ],
      [
        -1.84336,
        55.003664,
        138.6
      ],
      [
        -1.843649,
        55.003676,
        140.2
      ],
      [
        -1.844438,
        55.003737,
        133.8
      ],
      [
        -1.844505,
        55.003749,
        133.8
      ],
      [
        -1.845064,
        55.003843,
        124.4
      ],
      [
        -1.845818,
        55.003996,
        123.6
      ],
      [
        -1.846123,
        55.004006,
        119.6
      ],
      [
        -1.846396,
        55.004048,
        121.8
      ],
      [
        -1.846597,
        55.004086,
        123.4
      ],
      [
        -1.846677,
        55.004097,
        122.4
      ],
      [
        -1.84744,
        55.004204,
        119
      ],
      [
        -1.84764,
        55.004261,
        118.6
      ],
      [
        -1.847999,
        55.004304,
        117.4
      ],
      [
        -1.848328,
        55.00435,
        119.8
      ],
      [
        -1.848576,
        55.004387,
        120
      ],
      [
        -1.848779,
        55.004417,
        118.6
      ],
      [
        -1.849394,
        55.004535,
        113.4
      ],
      [
        -1.849464,
        55.004551,
        112.8
      ],
      [
        -1.849529,
        55.004562,
        112
      ],
      [
        -1.849803,
        55.004601,
        114
      ],
      [
        -1.849838,
        55.004616,
        116.4
      ],
      [
        -1.849817,
        55.004659,
        118.8
      ],
      [
        -1.849848,
        55.004777,
        120.6
      ],
      [
        -1.850354,
        55.004874,
        123
      ],
      [
        -1.851098,
        55.005011,
        122
      ],
      [
        -1.851215,
        55.005034,
        120.8
      ],
      [
        -1.85129,
        55.005052,
        120.2
      ],
      [
        -1.851628,
        55.005119,
        123.8
      ],
      [
        -1.852137,
        55.00519,
        120.8
      ],
      [
        -1.852524,
        55.005234,
        120.8
      ],
      [
        -1.853303,
        55.005331,
        112.8
      ],
      [
        -1.854082,
        55.005432,
        114
      ],
      [
        -1.85413,
        55.005434,
        113.8
      ],
      [
        -1.85453,
        55.005501,
        110.6
      ],
      [
        -1.854833,
        55.005542,
        112.8
      ],
      [
        -1.855191,
        55.005601,
        114
      ],
      [
        -1.855863,
        55.005695,
        117.6
      ],
      [
        -1.856609,
        55.005842,
        112.2
      ],
      [
        -1.8567,
        55.005845,
        111.4
      ],
      [
        -1.857001,
        55.005879,
        110.4
      ],
      [
        -1.857415,
        55.005945,
        108.2
      ],
      [
        -1.858194,
        55.006061,
        107.8
      ],
      [
        -1.858299,
        55.006086,
        107.6
      ],
      [
        -1.858348,
        55.006115,
        105.8
      ],
      [
        -1.859127,
        55.006208,
        104.8
      ],
      [
        -1.859376,
        55.006246,
        103.8
      ],
      [
        -1.859414,
        55.006249,
        104.6
      ],
      [
        -1.860016,
        55.006375,
        112.4
      ],
      [
        -1.860263,
        55.006439,
        115.6
      ],
      [
        -1.86032,
        55.006448,
        114
      ],
      [
        -1.860949,
        55.006553,
        108.8
      ],
      [
        -1.861647,
        55.006619,
        124.2
      ],
      [
        -1.862006,
        55.006684,
        126.2
      ],
      [
        -1.862729,
        55.006775,
        128
      ],
      [
        -1.862798,
        55.006786,
        127.4
      ],
      [
        -1.862824,
        55.006793,
        127.4
      ],
      [
        -1.862905,
        55.006812,
        126.4
      ],
      [
        -1.862925,
        55.006811,
        126
      ],
      [
        -1.863173,
        55.006855,
        124
      ],
      [
        -1.863942,
        55.006972,
        123.6
      ],
      [
        -1.864156,
        55.007016,
        123.6
      ],
      [
        -1.86421,
        55.00703,
        124.2
      ],
      [
        -1.864245,
        55.007036,
        123.6
      ],
      [
        -1.864681,
        55.007091,
        124.8
      ],
      [
        -1.86532,
        55.007175,
        129
      ],
      [
        -1.865358,
        55.007188,
        127.8
      ],
      [
        -1.865379,
        55.007195,
        127.4
      ],
      [
        -1.865979,
        55.007413,
        122.2
      ],
      [
        -1.865984,
        55.007422,
        121.8
      ],
      [
        -1.866399,
        55.007395,
        123
      ],
      [
        -1.866583,
        55.007367,
        123.6
      ],
      [
        -1.866847,
        55.007411,
        123.8
      ],
      [
        -1.866969,
        55.007429,
        124.4
      ],
      [
        -1.867279,
        55.007459,
        122.2
      ],
      [
        -1.86804,
        55.007586,
        122.8
      ],
      [
        -1.868772,
        55.007697,
        118.6
      ],
      [
        -1.868831,
        55.007715,
        118
      ],
      [
        -1.868906,
        55.007719,
        117.8
      ],
      [
        -1.869354,
        55.007805,
        118.2
      ],
      [
        -1.869578,
        55.007822,
        120.4
      ],
      [
        -1.869661,
        55.007819,
        120.2
      ],
      [
        -1.870011,
        55.007887,
        119.2
      ],
      [
        -1.870302,
        55.00792,
        118.8
      ],
      [
        -1.870341,
        55.007927,
        118.8
      ],
      [
        -1.870472,
        55.007962,
        119
      ],
      [
        -1.870618,
        55.007979,
        119.2
      ],
      [
        -1.871392,
        55.008096,
        121.8
      ],
      [
        -1.872169,
        55.008217,
        125
      ],
      [
        -1.872559,
        55.008284,
        126.8
      ],
      [
        -1.872603,
        55.008292,
        127.4
      ],
      [
        -1.872863,
        55.008337,
        128.2
      ],
      [
        -1.873155,
        55.008383,
        129.8
      ],
      [
        -1.873653,
        55.00846,
        131.8
      ],
      [
        -1.874285,
        55.008563,
        133.4
      ],
      [
        -1.874325,
        55.00857,
        133.6
      ],
      [
        -1.874343,
        55.008573,
        133.6
      ],
      [
        -1.874343,
        55.008573,
        133.6
      ],
      [
        -1.874362,
        55.008577,
        133.6
      ],
      [
        -1.874426,
        55.008587,
        134
      ],
      [
        -1.87455,
        55.008604,
        134.4
      ],
      [
        -1.875302,
        55.008726,
        137.6
      ],
      [
        -1.875979,
        55.008828,
        138.2
      ],
      [
        -1.876657,
        55.008951,
        141.6
      ],
      [
        -1.876744,
        55.008971,
        141.6
      ],
      [
        -1.876919,
        55.009012,
        142
      ],
      [
        -1.877132,
        55.009077,
        143
      ],
      [
        -1.877621,
        55.009209,
        145.4
      ],
      [
        -1.877815,
        55.009282,
        145.2
      ],
      [
        -1.878109,
        55.009326,
        146
      ],
      [
        -1.878902,
        55.009395,
        146.6
      ],
      [
        -1.878982,
        55.009389,
        146.8
      ],
      [
        -1.87977,
        55.009457,
        150.2
      ],
      [
        -1.880547,
        55.009495,
        155.4
      ],
      [
        -1.880662,
        55.009495,
        156.8
      ],
      [
        -1.880684,
        55.009496,
        157
      ],
      [
        -1.880708,
        55.009499,
        157
      ],
      [
        -1.88073,
        55.0095,
        156.8
      ],
      [
        -1.880752,
        55.009501,
        156.6
      ],
      [
        -1.880774,
        55.009502,
        156.4
      ],
      [
        -1.880795,
        55.009504,
        156.2
      ],
      [
        -1.880856,
        55.009503,
        155.8
      ],
      [
        -1.880958,
        55.009502,
        154.8
      ],
      [
        -1.880974,
        55.009511,
        155.4
      ],
      [
        -1.881049,
        55.009503,
        155.4
      ],
      [
        -1.881143,
        55.009497,
        155.4
      ],
      [
        -1.881203,
        55.009491,
        155.4
      ],
      [
        -1.881395,
        55.009494,
        154
      ],
      [
        -1.881418,
        55.009498,
        154.4
      ],
      [
        -1.881782,
        55.009555,
        151.2
      ],
      [
        -1.88183,
        55.009545,
        149.8
      ],
      [
        -1.881839,
        55.009542,
        148.6
      ],
      [
        -1.881899,
        55.009528,
        147.2
      ],
      [
        -1.881919,
        55.009527,
        147.2
      ],
      [
        -1.882069,
        55.009535,
        145.4
      ],
      [
        -1.882402,
        55.009512,
        142
      ],
      [
        -1.883007,
        55.009448,
        142.6
      ],
      [
        -1.88338,
        55.009428,
        144.6
      ],
      [
        -1.883863,
        55.009416,
        141.8
      ],
      [
        -1.884124,
        55.009407,
        140.6
      ],
      [
        -1.884922,
        55.009418,
        133.2
      ],
      [
        -1.885605,
        55.009395,
        130.8
      ],
      [
        -1.885716,
        55.009394,
        129
      ],
      [
        -1.885785,
        55.009391,
        128
      ],
      [
        -1.885876,
        55.009375,
        130
      ],
      [
        -1.885899,
        55.009373,
        130
      ],
      [
        -1.886296,
        55.009353,
        129
      ],
      [
        -1.88642,
        55.009342,
        129.4
      ],
      [
        -1.886551,
        55.009354,
        129.4
      ],
      [
        -1.886612,
        55.009357,
        129.8
      ],
      [
        -1.886635,
        55.009358,
        130
      ],
      [
        -1.886659,
        55.009359,
        129.6
      ],
      [
        -1.886682,
        55.00936,
        129.4
      ],
      [
        -1.886729,
        55.009358,
        129.2
      ],
      [
        -1.887133,
        55.009316,
        126.6
      ],
      [
        -1.887183,
        55.009312,
        126.4
      ],
      [
        -1.887207,
        55.00931,
        126.4
      ],
      [
        -1.887229,
        55.009307,
        126.4
      ],
      [
        -1.887318,
        55.009299,
        125.8
      ],
      [
        -1.887342,
        55.009296,
        125.8
      ],
      [
        -1.887363,
        55.009293,
        125.8
      ],
      [
        -1.887408,
        55.00929,
        125.6
      ],
      [
        -1.887508,
        55.009288,
        125
      ],
      [
        -1.887695,
        55.009273,
        125.4
      ],
      [
        -1.887998,
        55.009262,
        125.2
      ],
      [
        -1.888185,
        55.009252,
        124.4
      ],
      [
        -1.88856,
        55.009243,
        124.8
      ],
      [
        -1.888771,
        55.009233,
        123.4
      ],
      [
        -1.889424,
        55.009196,
        125
      ],
      [
        -1.889694,
        55.009177,
        124.2
      ],
      [
        -1.890465,
        55.009147,
        123
      ],
      [
        -1.890564,
        55.009151,
        123
      ],
      [
        -1.890706,
        55.009154,
        123
      ],
      [
        -1.891457,
        55.009146,
        122
      ],
      [
        -1.891827,
        55.009134,
        121
      ],
      [
        -1.892426,
        55.009084,
        126.4
      ],
      [
        -1.893226,
        55.00908,
        117
      ],
      [
        -1.893436,
        55.009059,
        117
      ],
      [
        -1.894228,
        55.009051,
        118
      ],
      [
        -1.894452,
        55.009045,
        118.6
      ],
      [
        -1.89453,
        55.009044,
        119
      ],
      [
        -1.895141,
        55.009021,
        117.2
      ],
      [
        -1.895914,
        55.008964,
        116.6
      ],
      [
        -1.896266,
        55.008965,
        121.2
      ],
      [
        -1.896462,
        55.008971,
        123
      ],
      [
        -1.896712,
        55.008971,
        121.6
      ],
      [
        -1.897389,
        55.008942,
        117.2
      ],
      [
        -1.897567,
        55.008945,
        116.8
      ],
      [
        -1.897659,
        55.008944,
        115.8
      ],
      [
        -1.898027,
        55.008941,
        114.6
      ],
      [
        -1.898105,
        55.008895,
        114.4
      ],
      [
        -1.898331,
        55.008851,
        116.4
      ],
      [
        -1.898356,
        55.00883,
        116
      ],
      [
        -1.89838,
        55.008773,
        116.6
      ],
      [
        -1.898399,
        55.008814,
        116.8
      ],
      [
        -1.898491,
        55.008871,
        116.2
      ],
      [
        -1.898982,
        55.008848,
        115.4
      ],
      [
        -1.899033,
        55.008841,
        115.2
      ],
      [
        -1.899743,
        55.008836,
        115.6
      ],
      [
        -1.899758,
        55.008847,
        115.2
      ],
      [
        -1.899827,
        55.008852,
        116.4
      ],
      [
        -1.89997,
        55.008856,
        114.4
      ],
      [
        -1.900055,
        55.008858,
        114.2
      ],
      [
        -1.900141,
        55.008849,
        113.8
      ],
      [
        -1.900396,
        55.008842,
        113
      ],
      [
        -1.901176,
        55.008815,
        117.2
      ],
      [
        -1.901397,
        55.00881,
        117.6
      ],
      [
        -1.901687,
        55.008801,
        119.2
      ],
      [
        -1.901923,
        55.008793,
        118.8
      ],
      [
        -1.90271,
        55.008774,
        123.8
      ],
      [
        -1.903492,
        55.008743,
        122.8
      ],
      [
        -1.903797,
        55.008741,
        125
      ],
      [
        -1.903836,
        55.00873,
        126
      ],
      [
        -1.903924,
        55.008731,
        125.6
      ],
      [
        -1.904154,
        55.008721,
        126
      ],
      [
        -1.90459,
        55.008686,
        129.4
      ],
      [
        -1.904907,
        55.008687,
        129.4
      ],
      [
        -1.905692,
        55.00867,
        131.2
      ],
      [
        -1.905982,
        55.00867,
        134
      ],
      [
        -1.906253,
        55.008654,
        134
      ],
      [
        -1.906772,
        55.008636,
        131.4
      ],
      [
        -1.906813,
        55.008632,
        131.8
      ],
      [
        -1.907611,
        55.008627,
        131.6
      ],
      [
        -1.908346,
        55.008724,
        135
      ],
      [
        -1.908383,
        55.008729,
        135.4
      ],
      [
        -1.908457,
        55.008731,
        136
      ],
      [
        -1.909164,
        55.008783,
        136.6
      ],
      [
        -1.909954,
        55.008832,
        134.6
      ],
      [
        -1.910263,
        55.008842,
        136.8
      ],
      [
        -1.911043,
        55.008926,
        134.6
      ],
      [
        -1.911828,
        55.008973,
        132.8
      ],
      [
        -1.912541,
        55.009074,
        130.4
      ],
      [
        -1.913293,
        55.009099,
        138.4
      ],
      [
        -1.913437,
        55.009105,
        138
      ],
      [
        -1.913548,
        55.009118,
        137
      ],
      [
        -1.913625,
        55.009122,
        135.2
      ],
      [
        -1.913632,
        55.009116,
        134.6
      ],
      [
        -1.913638,
        55.009118,
        136
      ],
      [
        -1.913638,
        55.009118,
        136
      ],
      [
        -1.913638,
        55.009119,
        136
      ],
      [
        -1.91365,
        55.009115,
        135.4
      ],
      [
        -1.913847,
        55.009128,
        135.6
      ],
      [
        -1.914458,
        55.009183,
        132.6
      ],
      [
        -1.915173,
        55.009238,
        130
      ],
      [
        -1.915952,
        55.00929,
        130
      ],
      [
        -1.916118,
        55.009301,
        130
      ],
      [
        -1.916507,
        55.00933,
        130.2
      ],
      [
        -1.916971,
        55.009364,
        128.8
      ],
      [
        -1.917006,
        55.009361,
        128.8
      ],
      [
        -1.917637,
        55.009394,
        131.6
      ],
      [
        -1.917901,
        55.009418,
        130.4
      ],
      [
        -1.918291,
        55.009454,
        131.8
      ],
      [
        -1.9186,
        55.009485,
        130.8
      ],
      [
        -1.918678,
        55.009488,
        131.8
      ],
      [
        -1.91885,
        55.009495,
        131.4
      ],
      [
        -1.919123,
        55.009514,
        132.8
      ],
      [
        -1.919535,
        55.009554,
        131.8
      ],
      [
        -1.919586,
        55.009546,
        132.8
      ],
      [
        -1.919877,
        55.009559,
        135.8
      ],
      [
        -1.920174,
        55.009582,
        137.2
      ],
      [
        -1.920949,
        55.009625,
        135.2
      ],
      [
        -1.921043,
        55.009639,
        136.4
      ],
      [
        -1.92154,
        55.009636,
        138.2
      ],
      [
        -1.921586,
        55.009591,
        140
      ],
      [
        -1.921847,
        55.009593,
        141.2
      ],
      [
        -1.922091,
        55.009635,
        139.6
      ],
      [
        -1.922412,
        55.009656,
        138.8
      ],
      [
        -1.922494,
        55.009661,
        138
      ],
      [
        -1.92303,
        55.00969,
        139.6
      ],
      [
        -1.92382,
        55.009719,
        147.4
      ],
      [
        -1.924136,
        55.009745,
        149.4
      ],
      [
        -1.924146,
        55.00979,
        149.2
      ],
      [
        -1.924208,
        55.009825,
        147.2
      ],
      [
        -1.924304,
        55.009856,
        145.6
      ],
      [
        -1.924712,
        55.009875,
        143.2
      ],
      [
        -1.924806,
        55.009869,
        143.8
      ],
      [
        -1.925281,
        55.009904,
        144.2
      ],
      [
        -1.925323,
        55.009933,
        142.8
      ],
      [
        -1.925322,
        55.00995,
        142.2
      ],
      [
        -1.925385,
        55.009928,
        143
      ],
      [
        -1.925806,
        55.009959,
        141
      ],
      [
        -1.925858,
        55.00996,
        139.8
      ],
      [
        -1.926005,
        55.009971,
        138.6
      ],
      [
        -1.926045,
        55.009977,
        138.4
      ],
      [
        -1.926226,
        55.010012,
        137.8
      ],
      [
        -1.92646,
        55.010016,
        139.6
      ],
      [
        -1.92725,
        55.010065,
        143.6
      ],
      [
        -1.927271,
        55.010065,
        144
      ],
      [
        -1.92753,
        55.010096,
        143.8
      ],
      [
        -1.928175,
        55.010102,
        146.4
      ],
      [
        -1.928201,
        55.010077,
        146.8
      ],
      [
        -1.928288,
        55.010055,
        147
      ],
      [
        -1.928429,
        55.010069,
        145.2
      ],
      [
        -1.928495,
        55.010073,
        145.2
      ],
      [
        -1.928533,
        55.010075,
        145.6
      ],
      [
        -1.928578,
        55.010082,
        146.4
      ],
      [
        -1.928578,
        55.010082,
        146.4
      ],
      [
        -1.928602,
        55.010086,
        146
      ],
      [
        -1.928626,
        55.010087,
        146
      ],
      [
        -1.92865,
        55.010089,
        146.2
      ],
      [
        -1.928673,
        55.010092,
        146.2
      ],
      [
        -1.928696,
        55.010094,
        146.2
      ],
      [
        -1.928741,
        55.010096,
        146.4
      ],
      [
        -1.92953,
        55.010159,
        148.6
      ],
      [
        -1.929749,
        55.010176,
        150.2
      ],
      [
        -1.929858,
        55.010185,
        149.4
      ],
      [
        -1.930014,
        55.010193,
        149.2
      ],
      [
        -1.930131,
        55.010205,
        149.6
      ],
      [
        -1.930157,
        55.010221,
        149.4
      ],
      [
        -1.930168,
        55.010237,
        149.2
      ],
      [
        -1.930256,
        55.010354,
        149
      ],
      [
        -1.930303,
        55.010398,
        148.4
      ],
      [
        -1.930609,
        55.010417,
        146.8
      ],
      [
        -1.931029,
        55.010438,
        148.2
      ],
      [
        -1.93179,
        55.010516,
        152.2
      ],
      [
        -1.931897,
        55.010516,
        155.8
      ],
      [
        -1.932141,
        55.010523,
        160.4
      ],
      [
        -1.932486,
        55.010555,
        160.2
      ],
      [
        -1.932836,
        55.010584,
        158.2
      ],
      [
        -1.933392,
        55.01063,
        152.8
      ],
      [
        -1.933504,
        55.010629,
        153.4
      ],
      [
        -1.933687,
        55.010637,
        152.6
      ],
      [
        -1.933968,
        55.010651,
        149
      ],
      [
        -1.934745,
        55.010699,
        153
      ],
      [
        -1.934761,
        55.010697,
        153.2
      ],
      [
        -1.935015,
        55.010694,
        156
      ],
      [
        -1.935795,
        55.010751,
        154.4
      ],
      [
        -1.936099,
        55.010773,
        157.4
      ],
      [
        -1.93661,
        55.010822,
        155.6
      ],
      [
        -1.936688,
        55.010817,
        154.6
      ],
      [
        -1.936894,
        55.010832,
        152.4
      ],
      [
        -1.93769,
        55.010881,
        158
      ],
      [
        -1.937711,
        55.010882,
        157.8
      ],
      [
        -1.937853,
        55.010878,
        158.4
      ],
      [
        -1.938076,
        55.010901,
        159.8
      ],
      [
        -1.93886,
        55.010973,
        155
      ],
      [
        -1.938968,
        55.010996,
        155.4
      ],
      [
        -1.939,
        55.011043,
        155
      ],
      [
        -1.939057,
        55.011087,
        153.8
      ],
      [
        -1.939081,
        55.011172,
        151.8
      ],
      [
        -1.93913,
        55.011277,
        152.8
      ],
      [
        -1.939143,
        55.01133,
        155
      ],
      [
        -1.939166,
        55.011416,
        157.2
      ],
      [
        -1.939194,
        55.011602,
        157.2
      ],
      [
        -1.939218,
        55.011852,
        156.6
      ],
      [
        -1.939292,
        55.012216,
        147.4
      ],
      [
        -1.939264,
        55.012237,
        149.4
      ],
      [
        -1.939293,
        55.01242,
        151
      ],
      [
        -1.93939,
        55.012534,
        152.6
      ],
      [
        -1.939424,
        55.012532,
        152.8
      ],
      [
        -1.940165,
        55.012362,
        157
      ],
      [
        -1.940361,
        55.012316,
        158.8
      ],
      [
        -1.940497,
        55.012299,
        157.4
      ],
      [
        -1.940898,
        55.012207,
        158.4
      ],
      [
        -1.941079,
        55.012156,
        156.4
      ],
      [
        -1.941151,
        55.012123,
        158.6
      ],
      [
        -1.94166,
        55.012011,
        159
      ],
      [
        -1.941931,
        55.011977,
        155.4
      ],
      [
        -1.942158,
        55.011933,
        159.8
      ],
      [
        -1.942239,
        55.011932,
        159.6
      ],
      [
        -1.942291,
        55.011927,
        159.8
      ],
      [
        -1.942668,
        55.011749,
        160.2
      ],
      [
        -1.943088,
        55.011484,
        159.4
      ],
      [
        -1.943314,
        55.011338,
        157.8
      ],
      [
        -1.943357,
        55.011318,
        157
      ],
      [
        -1.943418,
        55.011304,
        155.2
      ],
      [
        -1.943552,
        55.01133,
        153.4
      ],
      [
        -1.943695,
        55.011338,
        150
      ],
      [
        -1.944469,
        55.011373,
        160
      ],
      [
        -1.944571,
        55.01137,
        160.4
      ],
      [
        -1.94477,
        55.01138,
        161.8
      ],
      [
        -1.944887,
        55.011369,
        165.6
      ],
      [
        -1.945112,
        55.011396,
        165
      ],
      [
        -1.945271,
        55.011398,
        162.8
      ],
      [
        -1.945686,
        55.011439,
        154.4
      ],
      [
        -1.946024,
        55.011469,
        153.4
      ],
      [
        -1.946177,
        55.011485,
        154
      ],
      [
        -1.946343,
        55.011508,
        153.6
      ],
      [
        -1.946802,
        55.011541,
        156.8
      ],
      [
        -1.947111,
        55.011558,
        162.4
      ],
      [
        -1.947171,
        55.011576,
        163
      ],
      [
        -1.947315,
        55.011593,
        163
      ],
      [
        -1.94753,
        55.011603,
        164
      ],
      [
        -1.947908,
        55.011618,
        165.8
      ],
      [
        -1.947975,
        55.011617,
        166.8
      ],
      [
        -1.948114,
        55.011626,
        167.4
      ],
      [
        -1.948269,
        55.011639,
        166.4
      ],
      [
        -1.948387,
        55.011633,
        167.2
      ],
      [
        -1.948486,
        55.011606,
        166.6
      ],
      [
        -1.948572,
        55.011591,
        169.6
      ],
      [
        -1.948579,
        55.011594,
        169.6
      ],
      [
        -1.948579,
        55.011595,
        169.4
      ],
      [
        -1.948589,
        55.011592,
        169.6
      ],
      [
        -1.948606,
        55.011588,
        169.2
      ],
      [
        -1.948771,
        55.011598,
        171.6
      ],
      [
        -1.948972,
        55.011588,
        174.2
      ],
      [
        -1.949051,
        55.01158,
        174.8
      ],
      [
        -1.949071,
        55.011578,
        175.2
      ],
      [
        -1.94909,
        55.011578,
        175.6
      ],
      [
        -1.949349,
        55.011532,
        172.8
      ],
      [
        -1.949523,
        55.011471,
        171.2
      ],
      [
        -1.950115,
        55.011489,
        173.6
      ],
      [
        -1.950522,
        55.011524,
        174.8
      ],
      [
        -1.950555,
        55.011521,
        175.2
      ],
      [
        -1.950591,
        55.011527,
        176
      ],
      [
        -1.951379,
        55.01157,
        177
      ],
      [
        -1.951538,
        55.011581,
        176.6
      ],
      [
        -1.951727,
        55.011598,
        175
      ],
      [
        -1.952102,
        55.011622,
        177
      ],
      [
        -1.952197,
        55.011636,
        175.6
      ],
      [
        -1.952994,
        55.011681,
        176
      ],
      [
        -1.953147,
        55.011694,
        177
      ],
      [
        -1.953316,
        55.011709,
        178.6
      ],
      [
        -1.953367,
        55.011717,
        178.6
      ],
      [
        -1.953375,
        55.011718,
        178.2
      ],
      [
        -1.953459,
        55.011732,
        178.4
      ],
      [
        -1.954251,
        55.011758,
        180.2
      ],
      [
        -1.954331,
        55.01177,
        180.2
      ],
      [
        -1.954466,
        55.011774,
        180.4
      ],
      [
        -1.954816,
        55.011797,
        178.6
      ],
      [
        -1.95523,
        55.011824,
        179.6
      ],
      [
        -1.955317,
        55.011827,
        179.4
      ],
      [
        -1.955607,
        55.011843,
        183.8
      ],
      [
        -1.955885,
        55.011861,
        184
      ],
      [
        -1.955948,
        55.01184,
        186.2
      ],
      [
        -1.95653,
        55.011889,
        179
      ],
      [
        -1.956874,
        55.011911,
        181.2
      ],
      [
        -1.956906,
        55.011905,
        181.8
      ],
      [
        -1.956967,
        55.011904,
        183.6
      ],
      [
        -1.957144,
        55.011908,
        188
      ],
      [
        -1.957167,
        55.011909,
        188.2
      ],
      [
        -1.957195,
        55.011911,
        188.4
      ],
      [
        -1.957221,
        55.011914,
        188.4
      ],
      [
        -1.957467,
        55.011932,
        189.2
      ],
      [
        -1.957709,
        55.011935,
        188.2
      ],
      [
        -1.958141,
        55.011972,
        187.2
      ],
      [
        -1.958836,
        55.011997,
        185.8
      ],
      [
        -1.959355,
        55.012023,
        181.6
      ],
      [
        -1.959584,
        55.012059,
        183
      ],
      [
        -1.960367,
        55.012084,
        186.2
      ],
      [
        -1.961147,
        55.01214,
        183.4
      ],
      [
        -1.961172,
        55.012143,
        183.8
      ],
      [
        -1.961632,
        55.01215,
        184.2
      ],
      [
        -1.961737,
        55.012127,
        186.4
      ],
      [
        -1.962014,
        55.012163,
        185.2
      ],
      [
        -1.96219,
        55.012163,
        185.8
      ],
      [
        -1.962304,
        55.01218,
        188
      ],
      [
        -1.962741,
        55.012202,
        189.8
      ],
      [
        -1.963515,
        55.012295,
        184.4
      ],
      [
        -1.963634,
        55.012276,
        183.4
      ],
      [
        -1.964008,
        55.01229,
        184.6
      ],
      [
        -1.964316,
        55.012292,
        185.8
      ],
      [
        -1.965091,
        55.012255,
        188
      ],
      [
        -1.965146,
        55.012269,
        188.6
      ],
      [
        -1.965153,
        55.012293,
        188.4
      ],
      [
        -1.965208,
        55.01231,
        187.8
      ],
      [
        -1.965246,
        55.012311,
        187
      ],
      [
        -1.965292,
        55.012311,
        187.2
      ],
      [
        -1.965652,
        55.012337,
        188.2
      ],
      [
        -1.965725,
        55.012355,
        189.4
      ],
      [
        -1.965808,
        55.012364,
        189.6
      ],
      [
        -1.96615,
        55.012397,
        191.4
      ],
      [
        -1.96692,
        55.012471,
        196.2
      ],
      [
        -1.967708,
        55.01247,
        189.6
      ],
      [
        -1.967905,
        55.012485,
        188.8
      ],
      [
        -1.968016,
        55.012479,
        188.4
      ],
      [
        -1.968179,
        55.012471,
        188.2
      ],
      [
        -1.968246,
        55.012469,
        188.2
      ],
      [
        -1.968436,
        55.01246,
        188.6
      ],
      [
        -1.969158,
        55.01255,
        186.6
      ],
      [
        -1.969302,
        55.01255,
        187.8
      ],
      [
        -1.969357,
        55.012532,
        189
      ],
      [
        -1.969526,
        55.012525,
        192.2
      ],
      [
        -1.969808,
        55.012553,
        199.2
      ],
      [
        -1.969917,
        55.012632,
        199.6
      ],
      [
        -1.970478,
        55.012726,
        189.6
      ],
      [
        -1.971044,
        55.012793,
        188.2
      ],
      [
        -1.971544,
        55.012846,
        185.4
      ],
      [
        -1.971614,
        55.012854,
        185
      ],
      [
        -1.971637,
        55.01286,
        185
      ],
      [
        -1.971764,
        55.012877,
        184.4
      ],
      [
        -1.971924,
        55.012883,
        184.6
      ],
      [
        -1.971947,
        55.012885,
        184.4
      ],
      [
        -1.972501,
        55.012978,
        192.8
      ],
      [
        -1.97329,
        55.013064,
        203.4
      ],
      [
        -1.973372,
        55.013062,
        204.4
      ],
      [
        -1.973693,
        55.013064,
        205.2
      ],
      [
        -1.974478,
        55.013049,
        193.8
      ],
      [
        -1.975149,
        55.013038,
        189
      ],
      [
        -1.97596,
        55.013063,
        196
      ],
      [
        -1.976119,
        55.013068,
        197
      ],
      [
        -1.976344,
        55.013082,
        200.8
      ],
      [
        -1.976852,
        55.013088,
        201.6
      ],
      [
        -1.977232,
        55.013089,
        200.6
      ],
      [
        -1.977345,
        55.013079,
        199.6
      ],
      [
        -1.977621,
        55.01309,
        199.4
      ],
      [
        -1.977692,
        55.013094,
        198.6
      ],
      [
        -1.977804,
        55.013099,
        197.8
      ],
      [
        -1.977994,
        55.013095,
        196.8
      ],
      [
        -1.978347,
        55.0131,
        202.4
      ],
      [
        -1.979138,
        55.01309,
        205.8
      ],
      [
        -1.979431,
        55.013096,
        206.8
      ],
      [
        -1.979456,
        55.013096,
        206.8
      ],
      [
        -1.979782,
        55.013086,
        207.8
      ],
      [
        -1.979909,
        55.013082,
        208
      ],
      [
        -1.979934,
        55.013078,
        208
      ],
      [
        -1.980574,
        55.013046,
        207.4
      ],
      [
        -1.980709,
        55.013016,
        206
      ],
      [
        -1.980885,
        55.012995,
        205.8
      ],
      [
        -1.981012,
        55.012991,
        205
      ],
      [
        -1.981197,
        55.012986,
        205.2
      ],
      [
        -1.98142,
        55.012972,
        205.8
      ],
      [
        -1.981739,
        55.012955,
        206.4
      ],
      [
        -1.981767,
        55.012956,
        206.4
      ],
      [
        -1.981793,
        55.012955,
        206.6
      ],
      [
        -1.981915,
        55.01296,
        207.4
      ],
      [
        -1.981938,
        55.012962,
        207.6
      ],
      [
        -1.981961,
        55.012962,
        207.6
      ],
      [
        -1.982505,
        55.012895,
        207
      ],
      [
        -1.98265,
        55.012885,
        207
      ],
      [
        -1.983233,
        55.012781,
        208.6
      ],
      [
        -1.98337,
        55.012744,
        208.4
      ],
      [
        -1.983406,
        55.012733,
        208.4
      ],
      [
        -1.983657,
        55.012686,
        205.6
      ],
      [
        -1.984038,
        55.012629,
        202.8
      ],
      [
        -1.984458,
        55.012612,
        202.4
      ],
      [
        -1.984651,
        55.012606,
        201.2
      ],
      [
        -1.98484,
        55.012542,
        199.6
      ],
      [
        -1.985116,
        55.012417,
        202.2
      ],
      [
        -1.985408,
        55.012369,
        201.2
      ],
      [
        -1.985495,
        55.012339,
        199.8
      ],
      [
        -1.985926,
        55.012275,
        197.2
      ],
      [
        -1.985965,
        55.012268,
        197.2
      ],
      [
        -1.986091,
        55.012266,
        198
      ],
      [
        -1.986125,
        55.012269,
        195.6
      ],
      [
        -1.986172,
        55.012257,
        194.8
      ],
      [
        -1.986204,
        55.012239,
        194.6
      ],
      [
        -1.986261,
        55.012219,
        194.2
      ],
      [
        -1.986422,
        55.012189,
        195.6
      ],
      [
        -1.986796,
        55.012122,
        195.8
      ],
      [
        -1.987078,
        55.012085,
        196.4
      ],
      [
        -1.987219,
        55.012057,
        196.2
      ],
      [
        -1.987268,
        55.012048,
        196.2
      ],
      [
        -1.987543,
        55.012013,
        196.8
      ],
      [
        -1.9882,
        55.011888,
        199.2
      ],
      [
        -1.988974,
        55.011773,
        199.8
      ],
      [
        -1.989209,
        55.01173,
        197.8
      ],
      [
        -1.989732,
        55.011602,
        198.4
      ],
      [
        -1.989835,
        55.011571,
        198.2
      ],
      [
        -1.990009,
        55.011524,
        198.4
      ],
      [
        -1.990103,
        55.011505,
        198.6
      ],
      [
        -1.990773,
        55.011258,
        200.4
      ],
      [
        -1.990986,
        55.011144,
        201.4
      ],
      [
        -1.991289,
        55.011007,
        202.6
      ],
      [
        -1.991421,
        55.010944,
        202.6
      ],
      [
        -1.991491,
        55.010907,
        203
      ],
      [
        -1.991714,
        55.010803,
        203.6
      ],
      [
        -1.9918,
        55.010779,
        205.4
      ],
      [
        -1.991877,
        55.010796,
        204.4
      ],
      [
        -1.991883,
        55.010783,
        204
      ],
      [
        -1.9919,
        55.010773,
        204
      ],
      [
        -1.991953,
        55.010754,
        203.6
      ],
      [
        -1.992026,
        55.010711,
        202.2
      ],
      [
        -1.992456,
        55.010538,
        199.2
      ],
      [
        -1.992916,
        55.01046,
        203.6
      ],
      [
        -1.992958,
        55.01046,
        203.4
      ],
      [
        -1.992979,
        55.01046,
        203.6
      ],
      [
        -1.993043,
        55.010462,
        203.6
      ],
      [
        -1.993179,
        55.010457,
        201.8
      ],
      [
        -1.993216,
        55.010448,
        201.2
      ],
      [
        -1.993374,
        55.010375,
        197.8
      ],
      [
        -1.993816,
        55.010425,
        192
      ],
      [
        -1.994085,
        55.010499,
        190.8
      ],
      [
        -1.994138,
        55.01052,
        190.2
      ],
      [
        -1.994585,
        55.010637,
        194.6
      ],
      [
        -1.994605,
        55.01064,
        194.4
      ],
      [
        -1.994627,
        55.010644,
        194.4
      ],
      [
        -1.994684,
        55.010653,
        195.4
      ],
      [
        -1.994736,
        55.010667,
        195.8
      ],
      [
        -1.994785,
        55.010682,
        196
      ],
      [
        -1.994824,
        55.010702,
        196.2
      ],
      [
        -1.994984,
        55.010784,
        194.6
      ],
      [
        -1.995162,
        55.01086,
        193.4
      ],
      [
        -1.995392,
        55.010926,
        192.4
      ],
      [
        -1.995511,
        55.01094,
        191.8
      ],
      [
        -1.995814,
        55.011037,
        192.8
      ],
      [
        -1.995971,
        55.011103,
        192.6
      ],
      [
        -1.996105,
        55.011144,
        191.6
      ],
      [
        -1.996192,
        55.011145,
        190.2
      ],
      [
        -1.996266,
        55.011134,
        189.8
      ],
      [
        -1.996689,
        55.011113,
        187.8
      ],
      [
        -1.996786,
        55.011114,
        187.6
      ],
      [
        -1.997221,
        55.01111,
        186.2
      ],
      [
        -1.998009,
        55.01108,
        187.4
      ],
      [
        -1.998205,
        55.011071,
        188.8
      ],
      [
        -1.99833,
        55.011054,
        189.2
      ],
      [
        -1.998383,
        55.01105,
        188.4
      ],
      [
        -1.998763,
        55.011026,
        185.6
      ],
      [
        -1.99885,
        55.01102,
        187.4
      ],
      [
        -1.999313,
        55.010996,
        187.2
      ],
      [
        -1.999379,
        55.010993,
        186.6
      ],
      [
        -1.999739,
        55.011011,
        189.2
      ],
      [
        -2.000016,
        55.010997,
        188.2
      ],
      [
        -2.000247,
        55.01099,
        188
      ],
      [
        -2.000509,
        55.010988,
        187.6
      ],
      [
        -2.00061,
        55.010994,
        190
      ],
      [
        -2.000671,
        55.010994,
        190
      ],
      [
        -2.00084,
        55.010963,
        188.4
      ],
      [
        -2.000932,
        55.010962,
        189.8
      ],
      [
        -2.001156,
        55.010899,
        190.6
      ],
      [
        -2.001207,
        55.010898,
        191
      ],
      [
        -2.001257,
        55.010902,
        191.4
      ],
      [
        -2.001432,
        55.010908,
        190.2
      ],
      [
        -2.001525,
        55.010895,
        189.2
      ],
      [
        -2.001588,
        55.010884,
        188.8
      ],
      [
        -2.001667,
        55.010875,
        189
      ],
      [
        -2.001711,
        55.010875,
        188.6
      ],
      [
        -2.002438,
        55.010906,
        184.4
      ],
      [
        -2.002724,
        55.010867,
        181.6
      ],
      [
        -2.002824,
        55.010839,
        179.4
      ],
      [
        -2.003598,
        55.010861,
        180.2
      ],
      [
        -2.003672,
        55.010857,
        179.8
      ],
      [
        -2.003707,
        55.010847,
        180
      ],
      [
        -2.003751,
        55.010851,
        184.2
      ],
      [
        -2.003917,
        55.010815,
        186.4
      ],
      [
        -2.004443,
        55.01075,
        187
      ],
      [
        -2.004475,
        55.010747,
        185.2
      ],
      [
        -2.004956,
        55.010749,
        182.4
      ],
      [
        -2.004998,
        55.010747,
        182.4
      ],
      [
        -2.005215,
        55.010735,
        183.4
      ],
      [
        -2.005899,
        55.010636,
        183.4
      ],
      [
        -2.006185,
        55.010653,
        183.2
      ],
      [
        -2.006642,
        55.010698,
        186
      ],
      [
        -2.006765,
        55.010707,
        185.8
      ],
      [
        -2.006829,
        55.010703,
        186
      ],
      [
        -2.007007,
        55.010717,
        186
      ],
      [
        -2.00729,
        55.010803,
        185.2
      ],
      [
        -2.007333,
        55.010789,
        184.8
      ],
      [
        -2.007908,
        55.010866,
        184.6
      ],
      [
        -2.007955,
        55.010867,
        184.6
      ],
      [
        -2.008041,
        55.010866,
        184.4
      ],
      [
        -2.00819,
        55.010857,
        182.2
      ],
      [
        -2.00842,
        55.010769,
        181.2
      ],
      [
        -2.008939,
        55.010629,
        178.6
      ],
      [
        -2.009072,
        55.010604,
        177
      ],
      [
        -2.00916,
        55.010576,
        177.2
      ],
      [
        -2.009224,
        55.010554,
        177
      ],
      [
        -2.009244,
        55.010547,
        176.8
      ],
      [
        -2.009266,
        55.010549,
        176.6
      ],
      [
        -2.009298,
        55.01053,
        176.4
      ],
      [
        -2.00933,
        55.010515,
        176.2
      ],
      [
        -2.00934,
        55.010512,
        175.8
      ],
      [
        -2.009355,
        55.010514,
        175
      ],
      [
        -2.009376,
        55.010519,
        174.8
      ],
      [
        -2.00946,
        55.010523,
        175.2
      ],
      [
        -2.009618,
        55.010608,
        175.2
      ],
      [
        -2.010107,
        55.01085,
        177.6
      ],
      [
        -2.010392,
        55.010899,
        178.4
      ],
      [
        -2.010433,
        55.010905,
        178.6
      ],
      [
        -2.010799,
        55.011032,
        182.8
      ],
      [
        -2.011174,
        55.011185,
        182.8
      ],
      [
        -2.011234,
        55.011198,
        183.2
      ],
      [
        -2.01138,
        55.011214,
        184
      ],
      [
        -2.011826,
        55.011312,
        183.8
      ],
      [
        -2.012211,
        55.011369,
        182.2
      ],
      [
        -2.012273,
        55.011359,
        182
      ],
      [
        -2.012473,
        55.011388,
        181.6
      ],
      [
        -2.01266,
        55.01142,
        181
      ],
      [
        -2.013145,
        55.011496,
        180.4
      ],
      [
        -2.013194,
        55.011495,
        181.2
      ],
      [
        -2.01346,
        55.011519,
        181.8
      ],
      [
        -2.0136,
        55.011537,
        182.4
      ],
      [
        -2.013632,
        55.011535,
        183
      ],
      [
        -2.01409,
        55.01161,
        188.8
      ],
      [
        -2.014209,
        55.011613,
        190
      ],
      [
        -2.014393,
        55.011633,
        189.4
      ],
      [
        -2.014674,
        55.011679,
        190.8
      ],
      [
        -2.014746,
        55.011684,
        190.8
      ],
      [
        -2.014978,
        55.011711,
        190.6
      ],
      [
        -2.015109,
        55.011724,
        190
      ],
      [
        -2.015862,
        55.01185,
        189.8
      ],
      [
        -2.016202,
        55.011878,
        191.2
      ],
      [
        -2.016338,
        55.011904,
        192.8
      ],
      [
        -2.016384,
        55.011907,
        193.6
      ],
      [
        -2.016518,
        55.011934,
        194.8
      ],
      [
        -2.016909,
        55.011985,
        198.2
      ],
      [
        -2.017138,
        55.012019,
        199.2
      ],
      [
        -2.0172,
        55.012038,
        199.8
      ],
      [
        -2.017273,
        55.012099,
        200.8
      ],
      [
        -2.017312,
        55.012128,
        199.6
      ],
      [
        -2.017345,
        55.012139,
        199.6
      ],
      [
        -2.017573,
        55.012181,
        199.2
      ],
      [
        -2.017885,
        55.012225,
        200.4
      ],
      [
        -2.017924,
        55.012225,
        200.6
      ],
      [
        -2.01824,
        55.012258,
        203
      ],
      [
        -2.019012,
        55.012365,
        207
      ],
      [
        -2.01937,
        55.012474,
        207.8
      ],
      [
        -2.019403,
        55.012479,
        208
      ],
      [
        -2.019765,
        55.012558,
        208
      ],
      [
        -2.019884,
        55.01258,
        209.4
      ],
      [
        -2.020099,
        55.012647,
        209.6
      ],
      [
        -2.020549,
        55.012777,
        210
      ],
      [
        -2.020771,
        55.012708,
        210.2
      ],
      [
        -2.020923,
        55.012615,
        211.4
      ],
      [
        -2.020964,
        55.012568,
        211.2
      ],
      [
        -2.020985,
        55.012536,
        210.8
      ],
      [
        -2.021035,
        55.01243,
        211.4
      ],
      [
        -2.021075,
        55.012419,
        211.4
      ],
      [
        -2.021208,
        55.012412,
        211.4
      ],
      [
        -2.021312,
        55.01244,
        213.2
      ],
      [
        -2.021344,
        55.012454,
        213.8
      ],
      [
        -2.021369,
        55.012468,
        214.6
      ]
    ]
  }
}
