{
  "type": "Feature",
  "properties": {
    "id": "strava-954372029",
    "activity": "hiking",
    "name": "MiniTrek",
    "date": "2017-04-23T08:22:04.000Z",
    "distanceKm": 12.92,
    "movingTimeSeconds": 9757,
    "elapsedTimeSeconds": 10844,
    "ascentM": 194,
    "descentM": 143,
    "providers": [
      "Garmin",
      "Strava"
    ]
  },
  "geometry": {
    "type": "LineString",
    "coordinates": [
      [
        0.17690526321530342,
        51.482117073610425,
        7
      ],
      [
        0.17691993154585361,
        51.48211338557303,
        7
      ],
      [
        0.17703727819025517,
        51.48210357874632,
        4.199999999999989
      ],
      [
        0.1776484027504921,
        51.48237179964781,
        -1
      ],
      [
        0.1779075711965561,
        51.482707327231765,
        -0.19999999999998863
      ],
      [
        0.17825902439653873,
        51.482708835974336,
        -0.8000000000000114
      ],
      [
        0.1782631315290928,
        51.48278418928385,
        -0.6000000000000227
      ],
      [
        0.1782598625868559,
        51.48278494365513,
        0
      ],
      [
        0.17825097776949406,
        51.48278586566448,
        0.39999999999997726
      ],
      [
        0.1782402489334345,
        51.48278930224478,
        0.6000000000000227
      ],
      [
        0.1782076433300972,
        51.48281268775463,
        0.8000000000000114
      ],
      [
        0.1781874429434538,
        51.48282056674361,
        0.8000000000000114
      ],
      [
        0.1781113352626562,
        51.48284780792892,
        1.3999999999999773
      ],
      [
        0.17809775657951832,
        51.482856860384345,
        1.3999999999999773
      ],
      [
        0.17808065749704838,
        51.48286549374461,
        1.6000000000000227
      ],
      [
        0.17804687842726707,
        51.4828815869987,
        1.8000000000000114
      ],
      [
        0.1779925636947155,
        51.48290639743209,
        2.3999999999999773
      ],
      [
        0.17783892340958118,
        51.4829439483583,
        3.1999999999999886
      ],
      [
        0.17769752070307732,
        51.4829730335623,
        4.399999999999977
      ],
      [
        0.17781847156584263,
        51.48293472826481,
        5
      ],
      [
        0.17784537747502327,
        51.482912097126245,
        5.399999999999977
      ],
      [
        0.17797362059354782,
        51.4829006139189,
        7.600000000000023
      ],
      [
        0.17792207188904285,
        51.482929196208715,
        7.800000000000011
      ],
      [
        0.17765468917787075,
        51.4832026977092,
        4.800000000000011
      ],
      [
        0.17767748795449734,
        51.4832251612097,
        3.3999999999999773
      ],
      [
        0.1777159608900547,
        51.48327914066613,
        2.8000000000000114
      ],
      [
        0.17788452096283436,
        51.48342305794358,
        1.1999999999999886
      ],
      [
        0.17806456424295902,
        51.483559515327215,
        -0.39999999999997726
      ],
      [
        0.17806649208068848,
        51.48355909623206,
        -0.39999999999997726
      ],
      [
        0.17805651761591434,
        51.48356379009783,
        -0.8000000000000114
      ],
      [
        0.17804528586566448,
        51.483568735420704,
        -0.8000000000000114
      ],
      [
        0.178009495139122,
        51.48359823971987,
        -0.8000000000000114
      ],
      [
        0.17800144851207733,
        51.48360469378531,
        -0.8000000000000114
      ],
      [
        0.17798158340156078,
        51.48361500352621,
        -1
      ],
      [
        0.17796984873712063,
        51.48362288251519,
        -1
      ],
      [
        0.17786214128136635,
        51.48368222638965,
        -1
      ],
      [
        0.17761982046067715,
        51.48385749198496,
        -1.3999999999999773
      ],
      [
        0.1775471493601799,
        51.483941143378615,
        -1.3999999999999773
      ],
      [
        0.1774180680513382,
        51.484044156968594,
        -2.3999999999999773
      ],
      [
        0.1769683789461851,
        51.48440181277692,
        -4
      ],
      [
        0.17654676921665668,
        51.48476701229811,
        -4.399999999999977
      ],
      [
        0.17609138041734695,
        51.48512634448707,
        -0.39999999999997726
      ],
      [
        0.1759331300854683,
        51.48522533476353,
        -2.6000000000000227
      ],
      [
        0.17593011260032654,
        51.48525634780526,
        3.1999999999999886
      ],
      [
        0.17587998881936073,
        51.485235979780555,
        3.3999999999999773
      ],
      [
        0.17578694969415665,
        51.48521410301328,
        3.8000000000000114
      ],
      [
        0.17560740932822227,
        51.48516406305134,
        4.199999999999989
      ],
      [
        0.1754517573863268,
        51.485229609534144,
        5.199999999999989
      ],
      [
        0.17541822977364063,
        51.485232124105096,
        5.199999999999989
      ],
      [
        0.1753658428788185,
        51.48522851988673,
        5.199999999999989
      ],
      [
        0.17533650621771812,
        51.485220892354846,
        4.800000000000011
      ],
      [
        0.17531102523207664,
        51.485204296186566,
        4.199999999999989
      ],
      [
        0.17521630972623825,
        51.48520060814917,
        3.6000000000000227
      ],
      [
        0.17520633526146412,
        51.48520890623331,
        3.8000000000000114
      ],
      [
        0.17519904300570488,
        51.485217874869704,
        4.199999999999989
      ],
      [
        0.1750471629202366,
        51.48553613573313,
        13.600000000000023
      ],
      [
        0.17495881766080856,
        51.48563152179122,
        14.600000000000023
      ],
      [
        0.17496485263109207,
        51.48563294671476,
        11.600000000000023
      ],
      [
        0.17495345324277878,
        51.48563504219055,
        11.199999999999989
      ],
      [
        0.17490768805146217,
        51.485684998333454,
        11
      ],
      [
        0.1748098712414503,
        51.485936623066664,
        6.199999999999989
      ],
      [
        0.17495663836598396,
        51.486011892557144,
        1.1999999999999886
      ],
      [
        0.17518864944577217,
        51.48610250093043,
        2.8000000000000114
      ],
      [
        0.1752106100320816,
        51.48610367439687,
        3
      ],
      [
        0.1752258650958538,
        51.48610954172909,
        2.8000000000000114
      ],
      [
        0.1752334088087082,
        51.486116498708725,
        2.8000000000000114
      ],
      [
        0.1752062514424324,
        51.48615832440555,
        2.8000000000000114
      ],
      [
        0.17518420703709126,
        51.48617994971573,
        2.8000000000000114
      ],
      [
        0.17514070495963097,
        51.486244071274996,
        3.8000000000000114
      ],
      [
        0.17501916736364365,
        51.48634255863726,
        4.399999999999977
      ],
      [
        0.17464843578636646,
        51.48673550225794,
        0.8000000000000114
      ],
      [
        0.1745408959686756,
        51.48684882558882,
        -1
      ],
      [
        0.1744667999446392,
        51.4868588000536,
        -1.1999999999999886
      ],
      [
        0.1740425918251276,
        51.48687648586929,
        5.399999999999977
      ],
      [
        0.1737778913229704,
        51.4870660007,
        9.399999999999977
      ],
      [
        0.17371326684951782,
        51.48711360991001,
        9.199999999999989
      ],
      [
        0.17370086163282394,
        51.48712324909866,
        9.399999999999977
      ],
      [
        0.1736892107874155,
        51.487133391201496,
        9.600000000000023
      ],
      [
        0.17365300096571445,
        51.48716541007161,
        9.600000000000023
      ],
      [
        0.1735993567854166,
        51.487209498882294,
        9.199999999999989
      ],
      [
        0.1735911425203085,
        51.48720530793071,
        6.399999999999977
      ],
      [
        0.17359105870127678,
        51.48720539174974,
        6.399999999999977
      ],
      [
        0.17359047196805477,
        51.48720597848296,
        6.399999999999977
      ],
      [
        0.1735872868448496,
        51.48720849305391,
        6.399999999999977
      ],
      [
        0.1735421922057867,
        51.48724352940917,
        6
      ],
      [
        0.1734872069209814,
        51.4872851036489,
        5.800000000000011
      ],
      [
        0.17333918251097202,
        51.487476378679276,
        6
      ],
      [
        0.17331445589661598,
        51.48753915913403,
        5.399999999999977
      ],
      [
        0.1732949260622263,
        51.48760696873069,
        5
      ],
      [
        0.17325779423117638,
        51.48765164427459,
        5.399999999999977
      ],
      [
        0.1731365080922842,
        51.4878118224442,
        6.199999999999989
      ],
      [
        0.17301094718277454,
        51.48782221600413,
        6.600000000000023
      ],
      [
        0.17233855091035366,
        51.487651811912656,
        12.399999999999977
      ],
      [
        0.17204426229000092,
        51.4875665679574,
        14.799999999999955
      ],
      [
        0.17154143191874027,
        51.48741510696709,
        13
      ],
      [
        0.17138276249170303,
        51.48737512528896,
        13
      ],
      [
        0.17094271257519722,
        51.487209498882294,
        12.399999999999977
      ],
      [
        0.17091890797019005,
        51.48718385025859,
        13.200000000000045
      ],
      [
        0.17090641893446445,
        51.48717018775642,
        13.600000000000023
      ],
      [
        0.17089292407035828,
        51.48715644143522,
        14.200000000000045
      ],
      [
        0.1708827819675207,
        51.48714336566627,
        14
      ],
      [
        0.1707868091762066,
        51.48698838427663,
        13.200000000000045
      ],
      [
        0.17040878534317017,
        51.486943792551756,
        17
      ],
      [
        0.1697032805532217,
        51.48703574202955,
        16.600000000000023
      ],
      [
        0.16947261057794094,
        51.48707396350801,
        14.399999999999977
      ],
      [
        0.16931151039898396,
        51.487046889960766,
        12.600000000000023
      ],
      [
        0.16922090202569962,
        51.4870176371187,
        9.199999999999989
      ],
      [
        0.16935082152485847,
        51.48691864684224,
        10.800000000000011
      ],
      [
        0.16937152482569218,
        51.48689207620919,
        11.399999999999977
      ],
      [
        0.16939792782068253,
        51.48688009008765,
        11.600000000000023
      ],
      [
        0.1694069802761078,
        51.48687363602221,
        11.399999999999977
      ],
      [
        0.1694141048938036,
        51.4868656732142,
        11.399999999999977
      ],
      [
        0.1694167871028185,
        51.486859219148755,
        11.399999999999977
      ],
      [
        0.169412512332201,
        51.486854357644916,
        10.800000000000011
      ],
      [
        0.16938401386141777,
        51.48685703985393,
        9.800000000000011
      ],
      [
        0.16931695863604546,
        51.486884197220206,
        11
      ],
      [
        0.16929902136325836,
        51.48688914254308,
        11.399999999999977
      ],
      [
        0.1692545134574175,
        51.486875396221876,
        12.600000000000023
      ],
      [
        0.169196929782629,
        51.48684513755143,
        13.600000000000023
      ],
      [
        0.1691445428878069,
        51.48681906983256,
        14.200000000000045
      ],
      [
        0.1691287849098444,
        51.486809849739075,
        14.399999999999977
      ],
      [
        0.16911277547478676,
        51.48680071346462,
        15
      ],
      [
        0.16909802332520485,
        51.48679283447564,
        15.600000000000023
      ],
      [
        0.16908000223338604,
        51.48678386583924,
        15.600000000000023
      ],
      [
        0.1688702031970024,
        51.48667783476412,
        15
      ],
      [
        0.16884522512555122,
        51.486689653247595,
        15.200000000000045
      ],
      [
        0.16878764145076275,
        51.48673005402088,
        15
      ],
      [
        0.16875327564775944,
        51.48676274344325,
        12.399999999999977
      ],
      [
        0.16864129342138767,
        51.486861230805516,
        6.800000000000011
      ],
      [
        0.1686174888163805,
        51.48687908425927,
        6.800000000000011
      ],
      [
        0.16857356764376163,
        51.48687656968832,
        6.800000000000011
      ],
      [
        0.16851983964443207,
        51.486847987398505,
        7.399999999999977
      ],
      [
        0.168481282889843,
        51.48682904429734,
        7.399999999999977
      ],
      [
        0.16836242750287056,
        51.486784452572465,
        7.399999999999977
      ],
      [
        0.1682351902127266,
        51.48671639151871,
        9.399999999999977
      ],
      [
        0.16812236979603767,
        51.48664589971304,
        17
      ],
      [
        0.16808314248919487,
        51.486615389585495,
        20.600000000000023
      ],
      [
        0.16747252084314823,
        51.48685494437814,
        11.399999999999977
      ],
      [
        0.1669643260538578,
        51.48706373758614,
        14.600000000000023
      ],
      [
        0.16635806299746037,
        51.487308321520686,
        13.799999999999955
      ],
      [
        0.16594198532402515,
        51.487373281270266,
        14.200000000000045
      ],
      [
        0.16582002863287926,
        51.48740069009364,
        15.399999999999977
      ],
      [
        0.16579488292336464,
        51.48741175420582,
        15.200000000000045
      ],
      [
        0.1654286775738001,
        51.487481240183115,
        14.799999999999955
      ],
      [
        0.16516816802322865,
        51.487532537430525,
        15.799999999999955
      ],
      [
        0.1644737273454666,
        51.48757545277476,
        19
      ],
      [
        0.16425655223429203,
        51.487620966508985,
        21
      ],
      [
        0.16369412653148174,
        51.487660612910986,
        23.600000000000023
      ],
      [
        0.16300253570079803,
        51.487816935405135,
        25.600000000000023
      ],
      [
        0.16236341558396816,
        51.487871166318655,
        26
      ],
      [
        0.16235972754657269,
        51.48787250742316,
        23.600000000000023
      ],
      [
        0.16204087994992733,
        51.487921960651875,
        17.399999999999977
      ],
      [
        0.16202428378164768,
        51.48791919462383,
        17.200000000000045
      ],
      [
        0.16167442314326763,
        51.487953811883926,
        12.600000000000023
      ],
      [
        0.1615206990391016,
        51.487965043634176,
        12
      ],
      [
        0.16136865131556988,
        51.48796462453902,
        14
      ],
      [
        0.16130587086081505,
        51.487972503528,
        14.799999999999955
      ],
      [
        0.16121333464980125,
        51.487983483821154,
        15.200000000000045
      ],
      [
        0.1611395739018917,
        51.487997230142355,
        14.399999999999977
      ],
      [
        0.16109498217701912,
        51.48799890652299,
        14.799999999999955
      ],
      [
        0.16049249097704887,
        51.48807618767023,
        18.200000000000045
      ],
      [
        0.16046231612563133,
        51.48808884434402,
        19.600000000000023
      ],
      [
        0.1604365836828947,
        51.48810393176973,
        19.399999999999977
      ],
      [
        0.16028277575969696,
        51.48815791122615,
        22.200000000000045
      ],
      [
        0.16020826064050198,
        51.48817199282348,
        24.399999999999977
      ],
      [
        0.16001002863049507,
        51.488256147131324,
        26.799999999999955
      ],
      [
        0.15995102003216743,
        51.488263523206115,
        27
      ],
      [
        0.15932598151266575,
        51.488426802679896,
        30.799999999999955
      ],
      [
        0.15890722163021564,
        51.48851992562413,
        25.799999999999955
      ],
      [
        0.15861419029533863,
        51.48853434249759,
        28.600000000000023
      ],
      [
        0.15862835571169853,
        51.48854624480009,
        29.799999999999955
      ],
      [
        0.15856800600886345,
        51.488562505692244,
        27.799999999999955
      ],
      [
        0.15833172015845776,
        51.48856367915869,
        23.600000000000023
      ],
      [
        0.15817372128367424,
        51.488546412438154,
        31.600000000000023
      ],
      [
        0.15813239850103855,
        51.48855705745518,
        31.200000000000045
      ],
      [
        0.15800750814378262,
        51.48859469220042,
        28.799999999999955
      ],
      [
        0.15772176906466484,
        51.48868655785918,
        15.799999999999955
      ],
      [
        0.15773308463394642,
        51.48867222480476,
        13.200000000000045
      ],
      [
        0.1577280554920435,
        51.48867172189057,
        13.600000000000023
      ],
      [
        0.15772554092109203,
        51.48867289535701,
        14.399999999999977
      ],
      [
        0.15772562474012375,
        51.48867130279541,
        14.200000000000045
      ],
      [
        0.15770995058119297,
        51.48867532610893,
        12
      ],
      [
        0.15758556313812733,
        51.48869946599007,
        11.199999999999989
      ],
      [
        0.1575783547013998,
        51.488696029409766,
        11.199999999999989
      ],
      [
        0.15742873772978783,
        51.488739950582385,
        11.600000000000023
      ],
      [
        0.15740593895316124,
        51.48873676545918,
        10.399999999999977
      ],
      [
        0.1573758479207754,
        51.488731652498245,
        10.399999999999977
      ],
      [
        0.15725732780992985,
        51.48878890089691,
        13.399999999999977
      ],
      [
        0.15721960924565792,
        51.488805916160345,
        15.600000000000023
      ],
      [
        0.15715565532445908,
        51.48882368579507,
        18.399999999999977
      ],
      [
        0.1569521427154541,
        51.48882871493697,
        16.600000000000023
      ],
      [
        0.15627538785338402,
        51.48869393393397,
        23.799999999999955
      ],
      [
        0.15620036981999874,
        51.48868538439274,
        26
      ],
      [
        0.15576208010315895,
        51.4886958617717,
        29.399999999999977
      ],
      [
        0.15504366718232632,
        51.48878797888756,
        30.600000000000023
      ],
      [
        0.15453815460205078,
        51.48888763971627,
        30
      ],
      [
        0.15429306775331497,
        51.48892301134765,
        27
      ],
      [
        0.15375344082713127,
        51.48889132775366,
        25.600000000000023
      ],
      [
        0.15367708168923855,
        51.488901637494564,
        23.600000000000023
      ],
      [
        0.15363961458206177,
        51.48889669217169,
        22.799999999999955
      ],
      [
        0.15359586104750633,
        51.48889132775366,
        22.200000000000045
      ],
      [
        0.15353391878306866,
        51.48888621479273,
        22.399999999999977
      ],
      [
        0.1528441719710827,
        51.48879887536168,
        24.799999999999955
      ],
      [
        0.1524690818041563,
        51.48878504522145,
        30
      ],
      [
        0.15239599160850048,
        51.48877741768956,
        31
      ],
      [
        0.15168244019150734,
        51.48879166692495,
        31.600000000000023
      ],
      [
        0.1509825512766838,
        51.48870315402746,
        29.399999999999977
      ],
      [
        0.15073922462761402,
        51.48868597112596,
        29
      ],
      [
        0.15063227154314518,
        51.48868102580309,
        29.600000000000023
      ],
      [
        0.15022935345768929,
        51.488652527332306,
        31.399999999999977
      ],
      [
        0.14993137679994106,
        51.488690664991736,
        29
      ],
      [
        0.14984437264502048,
        51.488695023581386,
        29.799999999999955
      ],
      [
        0.14947171323001385,
        51.48855638690293,
        33.39999999999998
      ],
      [
        0.14945000410079956,
        51.488562505692244,
        37.39999999999998
      ],
      [
        0.14937733300030231,
        51.48853300139308,
        37.799999999999955
      ],
      [
        0.14913585036993027,
        51.48855898529291,
        27.200000000000045
      ],
      [
        0.14887760393321514,
        51.488595865666866,
        22.399999999999977
      ],
      [
        0.14874198473989964,
        51.48860734887421,
        20.200000000000045
      ],
      [
        0.1484597660601139,
        51.4886287227273,
        16
      ],
      [
        0.14773297123610973,
        51.48874665610492,
        20.399999999999977
      ],
      [
        0.14703568071126938,
        51.48886148817837,
        22.799999999999955
      ],
      [
        0.1463175192475319,
        51.48894723504782,
        27.200000000000045
      ],
      [
        0.1455883774906397,
        51.488984702154994,
        30.399999999999977
      ],
      [
        0.14505461789667606,
        51.48886928334832,
        21.399999999999977
      ],
      [
        0.14485906809568405,
        51.48877548985183,
        26
      ],
      [
        0.1445450820028782,
        51.48867918178439,
        35.200000000000045
      ],
      [
        0.14449646696448326,
        51.48867264389992,
        35
      ],
      [
        0.14379573985934258,
        51.48877825587988,
        25.399999999999977
      ],
      [
        0.14323323033750057,
        51.48888076655567,
        23
      ],
      [
        0.14299392700195312,
        51.48928594775498,
        20.799999999999955
      ],
      [
        0.1428740657866001,
        51.489361049607396,
        16
      ],
      [
        0.14240828342735767,
        51.48925124667585,
        17.799999999999955
      ],
      [
        0.1421950478106737,
        51.48920481093228,
        17
      ],
      [
        0.14218943193554878,
        51.48920279927552,
        17.399999999999977
      ],
      [
        0.1421361230313778,
        51.48918871767819,
        18.200000000000045
      ],
      [
        0.14189304783940315,
        51.48921260610223,
        16.600000000000023
      ],
      [
        0.14185943640768528,
        51.489211432635784,
        16.200000000000045
      ],
      [
        0.14183797873556614,
        51.489208079874516,
        16.399999999999977
      ],
      [
        0.14181802980601788,
        51.489208498969674,
        16.399999999999977
      ],
      [
        0.14180059544742107,
        51.48920782841742,
        16.399999999999977
      ],
      [
        0.14178802259266376,
        51.489206152036786,
        16.399999999999977
      ],
      [
        0.1417587697505951,
        51.489208079874516,
        17
      ],
      [
        0.14158316887915134,
        51.48919307626784,
        15
      ],
      [
        0.14127488248050213,
        51.48911118507385,
        17.399999999999977
      ],
      [
        0.14112149365246296,
        51.489079501479864,
        18.600000000000023
      ],
      [
        0.14110741205513477,
        51.489078076556325,
        18.399999999999977
      ],
      [
        0.141006326302886,
        51.48908235132694,
        19.799999999999955
      ],
      [
        0.14091018587350845,
        51.48911562748253,
        18.799999999999955
      ],
      [
        0.14089476317167282,
        51.48912124335766,
        18.799999999999955
      ],
      [
        0.140714468434453,
        51.48918050341308,
        15.799999999999955
      ],
      [
        0.1407002191990614,
        51.489186035469174,
        15.600000000000023
      ],
      [
        0.1406660210341215,
        51.489193914458156,
        15.200000000000045
      ],
      [
        0.14056501910090446,
        51.489213444292545,
        16
      ],
      [
        0.14054330997169018,
        51.48921470157802,
        15.799999999999955
      ],
      [
        0.14048488810658455,
        51.48921989835799,
        16
      ],
      [
        0.1404029130935669,
        51.489222580567,
        16.200000000000045
      ],
      [
        0.14039411209523678,
        51.48922090418637,
        16.200000000000045
      ],
      [
        0.14038732275366783,
        51.48921889252961,
        15.799999999999955
      ],
      [
        0.1402940321713686,
        51.489227106794715,
        20
      ],
      [
        0.1401698123663664,
        51.48923808708787,
        21.200000000000045
      ],
      [
        0.1399744302034378,
        51.489225095137954,
        19.600000000000023
      ],
      [
        0.13991785235702991,
        51.489199278876185,
        18.799999999999955
      ],
      [
        0.13975859619677067,
        51.489101964980364,
        20.399999999999977
      ],
      [
        0.1395693328231573,
        51.48877155035734,
        35.200000000000045
      ],
      [
        0.13956690207123756,
        51.48875931277871,
        35.799999999999955
      ],
      [
        0.13956204056739807,
        51.488745315000415,
        36.39999999999998
      ],
      [
        0.13954460620880127,
        51.488658813759685,
        38.39999999999998
      ],
      [
        0.13953756541013718,
        51.48862235248089,
        39.200000000000045
      ],
      [
        0.13950873166322708,
        51.488503916189075,
        41.200000000000045
      ],
      [
        0.13945969752967358,
        51.48843141272664,
        40.39999999999998
      ],
      [
        0.1394010242074728,
        51.488382294774055,
        40.200000000000045
      ],
      [
        0.13927772641181946,
        51.48829646408558,
        41.200000000000045
      ],
      [
        0.1392550952732563,
        51.48825681768358,
        42.799999999999955
      ],
      [
        0.1391745451837778,
        51.48817936889827,
        44.200000000000045
      ],
      [
        0.1391200628131628,
        51.48815288208425,
        44.39999999999998
      ],
      [
        0.13862687163054943,
        51.487841410562396,
        47.200000000000045
      ],
      [
        0.13824809342622757,
        51.48747059516609,
        47.39999999999998
      ],
      [
        0.13822227716445923,
        51.48743254132569,
        47.60000000000002
      ],
      [
        0.13817869126796722,
        51.48738652467728,
        47.60000000000002
      ],
      [
        0.1380119752138853,
        51.48716289550066,
        54.39999999999998
      ],
      [
        0.13782070018351078,
        51.48693323135376,
        57.60000000000002
      ],
      [
        0.1377706602215767,
        51.48687154054642,
        58.39999999999998
      ],
      [
        0.13756689615547657,
        51.48661463521421,
        60.60000000000002
      ],
      [
        0.13753311708569527,
        51.48655906319618,
        62.200000000000045
      ],
      [
        0.13743991032242775,
        51.48646057583392,
        62.60000000000002
      ],
      [
        0.13728794641792774,
        51.48633987642825,
        62.799999999999955
      ],
      [
        0.1367458887398243,
        51.48637566715479,
        61.60000000000002
      ],
      [
        0.13608531095087528,
        51.48637097328901,
        59
      ],
      [
        0.13602747581899166,
        51.48633727803826,
        63.60000000000002
      ],
      [
        0.13570544309914112,
        51.486135106533766,
        59
      ],
      [
        0.13565179891884327,
        51.4861470926553,
        57.60000000000002
      ],
      [
        0.13558465987443924,
        51.48622085340321,
        57.200000000000045
      ],
      [
        0.13558206148445606,
        51.48623309098184,
        57.60000000000002
      ],
      [
        0.13558164238929749,
        51.48623485118151,
        57.60000000000002
      ],
      [
        0.1355778705328703,
        51.48623686283827,
        57.39999999999998
      ],
      [
        0.13558273203670979,
        51.4862385392189,
        57.60000000000002
      ],
      [
        0.13558021746575832,
        51.48623594082892,
        57.39999999999998
      ],
      [
        0.1355719193816185,
        51.48623116314411,
        57.60000000000002
      ],
      [
        0.13556797988712788,
        51.48622630164027,
        57.60000000000002
      ],
      [
        0.13556689023971558,
        51.48621850647032,
        57.200000000000045
      ],
      [
        0.13559957966208458,
        51.48620459251106,
        55.799999999999955
      ],
      [
        0.1356350351125002,
        51.48618967272341,
        54.60000000000002
      ],
      [
        0.13564970344305038,
        51.48618724197149,
        54.200000000000045
      ],
      [
        0.13569152913987637,
        51.48618824779987,
        54
      ],
      [
        0.13574408367276192,
        51.4862023293972,
        53.799999999999955
      ],
      [
        0.13574408367276192,
        51.4862023293972,
        53.799999999999955
      ],
      [
        0.13579378835856915,
        51.48621297441423,
        53.39999999999998
      ],
      [
        0.135815916582942,
        51.486216243356466,
        53.39999999999998
      ],
      [
        0.1358522940427065,
        51.48620476014912,
        52.60000000000002
      ],
      [
        0.13592069037258625,
        51.48615840822458,
        53.39999999999998
      ],
      [
        0.1359308324754238,
        51.486144326627254,
        54
      ],
      [
        0.1359710656106472,
        51.486075008288026,
        55.60000000000002
      ],
      [
        0.13607969507575035,
        51.48595254868269,
        60.39999999999998
      ],
      [
        0.13613702729344368,
        51.48591298609972,
        61.200000000000045
      ],
      [
        0.13618052937090397,
        51.48588448762894,
        58.799999999999955
      ],
      [
        0.13619880191981792,
        51.48587929084897,
        57.200000000000045
      ],
      [
        0.13619989156723022,
        51.48588063195348,
        57.39999999999998
      ],
      [
        0.13619821518659592,
        51.485880967229605,
        57.39999999999998
      ],
      [
        0.13620047830045223,
        51.4858759380877,
        57.799999999999955
      ],
      [
        0.13617541640996933,
        51.48590401746333,
        58
      ],
      [
        0.13607257045805454,
        51.48584609851241,
        59
      ],
      [
        0.1360510289669037,
        51.48576789535582,
        60.799999999999955
      ],
      [
        0.1359596662223339,
        51.48545893840492,
        66.39999999999998
      ],
      [
        0.1359645277261734,
        51.48544292896986,
        66.20000000000005
      ],
      [
        0.13598456047475338,
        51.48541619069874,
        66.20000000000005
      ],
      [
        0.13600794598460197,
        51.48528719320893,
        65.79999999999995
      ],
      [
        0.13586905784904957,
        51.48507026955485,
        62.799999999999955
      ],
      [
        0.13579772785305977,
        51.48505115881562,
        61.200000000000045
      ],
      [
        0.135783227160573,
        51.485048308968544,
        61
      ],
      [
        0.13576830737292767,
        51.4850455429405,
        60.799999999999955
      ],
      [
        0.1355397328734398,
        51.4849884621799,
        56.200000000000045
      ],
      [
        0.1355109829455614,
        51.48499491624534,
        56
      ],
      [
        0.1354967337101698,
        51.48500623181462,
        56.39999999999998
      ],
      [
        0.13548441231250763,
        51.485009333118796,
        57
      ],
      [
        0.13547351583838463,
        51.48501260206103,
        57.60000000000002
      ],
      [
        0.13544099405407906,
        51.48501159623265,
        58.799999999999955
      ],
      [
        0.1352518144994974,
        51.48493708111346,
        58.39999999999998
      ],
      [
        0.13523203320801258,
        51.4849261008203,
        58.39999999999998
      ],
      [
        0.13521711342036724,
        51.484916880726814,
        58.39999999999998
      ],
      [
        0.13520286418497562,
        51.48490749299526,
        58.39999999999998
      ],
      [
        0.1351744495332241,
        51.48489207029343,
        58.200000000000045
      ],
      [
        0.1351591106504202,
        51.484874384477735,
        58
      ],
      [
        0.13513857498764992,
        51.484863152727485,
        57.60000000000002
      ],
      [
        0.13512281700968742,
        51.48483708500862,
        57.60000000000002
      ],
      [
        0.1351150218397379,
        51.48483230732381,
        57.60000000000002
      ],
      [
        0.13511301018297672,
        51.48483113385737,
        57.60000000000002
      ],
      [
        0.13510370627045631,
        51.4848330616951,
        57.60000000000002
      ],
      [
        0.13511099852621555,
        51.484817303717136,
        57.39999999999998
      ],
      [
        0.13509155251085758,
        51.48479073308408,
        56.200000000000045
      ],
      [
        0.13509088195860386,
        51.484778579324484,
        55.799999999999955
      ],
      [
        0.13506129384040833,
        51.48469970561564,
        54
      ],
      [
        0.13503019697964191,
        51.48466693237424,
        52.799999999999955
      ],
      [
        0.13498149812221527,
        51.4846152998507,
        52.60000000000002
      ],
      [
        0.13497286476194859,
        51.48460775613785,
        52.39999999999998
      ],
      [
        0.13490891084074974,
        51.48459107615054,
        52.39999999999998
      ],
      [
        0.13488326221704483,
        51.484587136656046,
        52.60000000000002
      ],
      [
        0.13481352478265762,
        51.48458747193217,
        52.60000000000002
      ],
      [
        0.1347944140434265,
        51.48458738811314,
        52.39999999999998
      ],
      [
        0.13467337936162949,
        51.484585124999285,
        52.799999999999955
      ],
      [
        0.13457237742841244,
        51.48459677584469,
        53
      ],
      [
        0.1345481537282467,
        51.484598871320486,
        53.200000000000045
      ],
      [
        0.1345133688300848,
        51.48460390046239,
        53.200000000000045
      ],
      [
        0.13445167802274227,
        51.48460775613785,
        53
      ],
      [
        0.13442208990454674,
        51.48460557684302,
        52.200000000000045
      ],
      [
        0.1343995425850153,
        51.48460390046239,
        51.39999999999998
      ],
      [
        0.1343723013997078,
        51.48460457101464,
        50.799999999999955
      ],
      [
        0.13435243628919125,
        51.48460348136723,
        50.39999999999998
      ],
      [
        0.1343282125890255,
        51.48460239171982,
        50.200000000000045
      ],
      [
        0.13430415652692318,
        51.48460633121431,
        49.60000000000002
      ],
      [
        0.13425839133560658,
        51.48461630567908,
        48.60000000000002
      ],
      [
        0.13414733111858368,
        51.48464706726372,
        49
      ],
      [
        0.13412528671324253,
        51.484650587663054,
        48.39999999999998
      ],
      [
        0.1341033261269331,
        51.484652515500784,
        48
      ],
      [
        0.13408253900706768,
        51.4846533536911,
        47.799999999999955
      ],
      [
        0.133835943415761,
        51.48463290184736,
        44.799999999999955
      ],
      [
        0.13382806442677975,
        51.48462988436222,
        44.60000000000002
      ],
      [
        0.1337781921029091,
        51.48459954187274,
        44.60000000000002
      ],
      [
        0.13371826149523258,
        51.484575318172574,
        45.200000000000045
      ],
      [
        0.13318047858774662,
        51.484454870224,
        33.39999999999998
      ],
      [
        0.1328542549163103,
        51.484417989850044,
        34.39999999999998
      ],
      [
        0.13265627436339855,
        51.484417486935854,
        34.200000000000045
      ],
      [
        0.13256952166557312,
        51.484428299590945,
        35.39999999999998
      ],
      [
        0.1324023026973009,
        51.484485967084765,
        37.799999999999955
      ],
      [
        0.13191799633204937,
        51.4848190639168,
        35.799999999999955
      ],
      [
        0.1315185148268938,
        51.485142605379224,
        53
      ],
      [
        0.13121265918016434,
        51.48541887290776,
        48.60000000000002
      ],
      [
        0.1309570949524641,
        51.48552691563964,
        49.200000000000045
      ],
      [
        0.13095139525830746,
        51.4855307713151,
        49.39999999999998
      ],
      [
        0.13089263811707497,
        51.485573099926114,
        60.200000000000045
      ],
      [
        0.13089741580188274,
        51.485579973086715,
        60.200000000000045
      ],
      [
        0.1308874413371086,
        51.48557787761092,
        60.60000000000002
      ],
      [
        0.1308742817491293,
        51.48555583320558,
        61.799999999999955
      ],
      [
        0.130851985886693,
        51.48554049432278,
        63.200000000000045
      ],
      [
        0.13084838166832924,
        51.485535968095064,
        63.60000000000002
      ],
      [
        0.13084368780255318,
        51.48553135804832,
        64
      ],
      [
        0.13082407414913177,
        51.48552406579256,
        64.79999999999995
      ],
      [
        0.13080823235213757,
        51.48551828227937,
        65
      ],
      [
        0.13079557567834854,
        51.48551484569907,
        65
      ],
      [
        0.13077872805297375,
        51.48548643104732,
        59.799999999999955
      ],
      [
        0.13075978495180607,
        51.48549020290375,
        58.799999999999955
      ],
      [
        0.13077110052108765,
        51.48549363948405,
        57.60000000000002
      ],
      [
        0.13078082352876663,
        51.485492046922445,
        55.60000000000002
      ],
      [
        0.13081074692308903,
        51.48560327477753,
        44.200000000000045
      ],
      [
        0.13080940581858158,
        51.48562112823129,
        43.200000000000045
      ],
      [
        0.13082340359687805,
        51.4856515545398,
        43.200000000000045
      ],
      [
        0.13083823956549168,
        51.48567024618387,
        43.39999999999998
      ],
      [
        0.13085341081023216,
        51.485693380236626,
        43.39999999999998
      ],
      [
        0.13085676357150078,
        51.48570578545332,
        43.200000000000045
      ],
      [
        0.1308627985417843,
        51.48572724312544,
        43.39999999999998
      ],
      [
        0.13087528757750988,
        51.48576588369906,
        43.60000000000002
      ],
      [
        0.13088693842291832,
        51.48579656146467,
        44
      ],
      [
        0.13090143911540508,
        51.48583838716149,
        43.60000000000002
      ],
      [
        0.13090931810438633,
        51.4858656283468,
        43.200000000000045
      ],
      [
        0.13092909939587116,
        51.48590359836817,
        42.39999999999998
      ],
      [
        0.13093488290905952,
        51.48591432720423,
        42.39999999999998
      ],
      [
        0.13096547685563564,
        51.486030500382185,
        42.39999999999998
      ],
      [
        0.13099020346999168,
        51.486225882545114,
        44.39999999999998
      ],
      [
        0.13100512325763702,
        51.486354460939765,
        46.60000000000002
      ],
      [
        0.13101576827466488,
        51.48641883395612,
        47.60000000000002
      ],
      [
        0.13107779435813427,
        51.486594853922725,
        51.200000000000045
      ],
      [
        0.13103538192808628,
        51.486855279654264,
        50.60000000000002
      ],
      [
        0.13090990483760834,
        51.48728610947728,
        45.799999999999955
      ],
      [
        0.13087830506265163,
        51.48773512803018,
        37.39999999999998
      ],
      [
        0.13084745965898037,
        51.48791768588126,
        34
      ],
      [
        0.13083756901323795,
        51.48837374523282,
        34.200000000000045
      ],
      [
        0.13090780936181545,
        51.48882754147053,
        29.200000000000045
      ],
      [
        0.1304359920322895,
        51.48916105739772,
        20.799999999999955
      ],
      [
        0.13024077750742435,
        51.48921084590256,
        21.799999999999955
      ],
      [
        0.130203478038311,
        51.48920455947518,
        21.799999999999955
      ],
      [
        0.13006090186536312,
        51.48907556198537,
        21.200000000000045
      ],
      [
        0.12986786663532257,
        51.48900909349322,
        20.399999999999977
      ],
      [
        0.12961506843566895,
        51.4887928403914,
        19.600000000000023
      ],
      [
        0.12951917946338654,
        51.48869485594332,
        14.799999999999955
      ],
      [
        0.12920443899929523,
        51.48872712627053,
        11.199999999999989
      ],
      [
        0.12917577289044857,
        51.488736514002085,
        9.800000000000011
      ],
      [
        0.12916806153953075,
        51.488739028573036,
        9.399999999999977
      ],
      [
        0.12916747480630875,
        51.488740872591734,
        9.399999999999977
      ],
      [
        0.12916688807308674,
        51.488741459324956,
        9.399999999999977
      ],
      [
        0.12916789390146732,
        51.48874246515334,
        9.399999999999977
      ],
      [
        0.1291677262634039,
        51.48874271661043,
        9.199999999999989
      ],
      [
        0.12916512787342072,
        51.48874204605818,
        9.199999999999989
      ],
      [
        0.12919647619128227,
        51.488744309172034,
        9
      ],
      [
        0.12921340763568878,
        51.48874003440142,
        9.199999999999989
      ],
      [
        0.12921642512083054,
        51.48874120786786,
        9.800000000000011
      ],
      [
        0.12921558693051338,
        51.48874120786786,
        9.800000000000011
      ],
      [
        0.12913470156490803,
        51.48873643018305,
        8.800000000000011
      ],
      [
        0.128937978297472,
        51.4887201692909,
        9.600000000000023
      ],
      [
        0.12881895527243614,
        51.48870876990259,
        11
      ],
      [
        0.12879615649580956,
        51.48871371522546,
        11.399999999999977
      ],
      [
        0.12879380956292152,
        51.48871337994933,
        11.399999999999977
      ],
      [
        0.12878861278295517,
        51.48871622979641,
        11.600000000000023
      ],
      [
        0.12878199107944965,
        51.488717989996076,
        11.600000000000023
      ],
      [
        0.12877394445240498,
        51.488725785166025,
        12
      ],
      [
        0.1287741120904684,
        51.488728215917945,
        12.200000000000045
      ],
      [
        0.12876556254923344,
        51.48873240686953,
        11.800000000000011
      ],
      [
        0.12875525280833244,
        51.48874992504716,
        10.800000000000011
      ],
      [
        0.12875298969447613,
        51.48875227198005,
        10.800000000000011
      ],
      [
        0.12875860556960106,
        51.48876157589257,
        11
      ],
      [
        0.1287511456757784,
        51.48876124061644,
        11.199999999999989
      ],
      [
        0.12875592336058617,
        51.48875780403614,
        12
      ],
      [
        0.128765981644392,
        51.48874816484749,
        12.600000000000023
      ],
      [
        0.12876992113888264,
        51.48874816484749,
        14.200000000000045
      ],
      [
        0.12877042405307293,
        51.488749673590064,
        14.600000000000023
      ],
      [
        0.12877042405307293,
        51.48875093087554,
        14.600000000000023
      ],
      [
        0.12877092696726322,
        51.48875101469457,
        15
      ],
      [
        0.1287707593291998,
        51.48874942213297,
        15.600000000000023
      ],
      [
        0.128775117918849,
        51.48874539881945,
        15.799999999999955
      ],
      [
        0.12876908294856548,
        51.48874204605818,
        17
      ],
      [
        0.12876774184405804,
        51.48874162696302,
        17.200000000000045
      ],
      [
        0.12876564636826515,
        51.48874296806753,
        17.399999999999977
      ],
      [
        0.128764221444726,
        51.48874254897237,
        17.799999999999955
      ],
      [
        0.12876288034021854,
        51.488742381334305,
        17.799999999999955
      ],
      [
        0.1287627127021551,
        51.48874280042946,
        18
      ],
      [
        0.12876220978796482,
        51.488743303343654,
        18.600000000000023
      ],
      [
        0.12876288034021854,
        51.48874598555267,
        18.799999999999955
      ],
      [
        0.1287632156163454,
        51.48874657228589,
        19
      ],
      [
        0.1287632156163454,
        51.48874665610492,
        18.799999999999955
      ],
      [
        0.12876329943537712,
        51.488746739923954,
        19
      ],
      [
        0.12876355089247227,
        51.488746823742986,
        19
      ],
      [
        0.12876363471150398,
        51.488746823742986,
        19
      ],
      [
        0.1287638023495674,
        51.488746739923954,
        19
      ],
      [
        0.12876405380666256,
        51.48874665610492,
        19
      ],
      [
        0.12876681983470917,
        51.48874372243881,
        19
      ],
      [
        0.1286411751061678,
        51.488747242838144,
        19.200000000000045
      ],
      [
        0.12843523174524307,
        51.488598715513945,
        17.200000000000045
      ],
      [
        0.12843355536460876,
        51.488598212599754,
        17
      ],
      [
        0.1284332200884819,
        51.48859854787588,
        16.799999999999955
      ],
      [
        0.12843187898397446,
        51.48859670385718,
        17
      ],
      [
        0.12843120843172073,
        51.48859511129558,
        17.200000000000045
      ],
      [
        0.12843070551753044,
        51.488592932000756,
        17
      ],
      [
        0.12843565084040165,
        51.48859670385718,
        16.799999999999955
      ],
      [
        0.12843581847846508,
        51.488597290590405,
        16.799999999999955
      ],
      [
        0.1284343097358942,
        51.48859745822847,
        16.600000000000023
      ],
      [
        0.1284310407936573,
        51.488598799332976,
        16.600000000000023
      ],
      [
        0.1284310407936573,
        51.488597709685564,
        16.600000000000023
      ],
      [
        0.1284528337419033,
        51.48855010047555,
        16
      ],
      [
        0.12846456840634346,
        51.48852730169892,
        15.799999999999955
      ],
      [
        0.12850153259932995,
        51.488479021936655,
        15.399999999999977
      ],
      [
        0.1285269297659397,
        51.488459995016456,
        15.399999999999977
      ],
      [
        0.12859943322837353,
        51.48842361755669,
        15.399999999999977
      ],
      [
        0.1286591961979866,
        51.48840794339776,
        15.200000000000045
      ],
      [
        0.1288694143295288,
        51.48835622705519,
        15.399999999999977
      ],
      [
        0.12886790558695793,
        51.48811097256839,
        13
      ],
      [
        0.1288753654807806,
        51.48785054683685,
        9.800000000000011
      ],
      [
        0.12886639684438705,
        51.48782221600413,
        10.199999999999989
      ],
      [
        0.12887544929981232,
        51.48778231814504,
        9.399999999999977
      ],
      [
        0.12888332828879356,
        51.487761279568076,
        9.800000000000011
      ],
      [
        0.1288912072777748,
        51.487714257091284,
        10
      ],
      [
        0.12888911180198193,
        51.487663462758064,
        10.399999999999977
      ],
      [
        0.12885994277894497,
        51.487640496343374,
        10.399999999999977
      ],
      [
        0.12855224311351776,
        51.487485598772764,
        12.399999999999977
      ],
      [
        0.12851695530116558,
        51.48747419938445,
        14.600000000000023
      ],
      [
        0.12856489978730679,
        51.487488867715,
        16.600000000000023
      ],
      [
        0.12874008156359196,
        51.48754879832268,
        18.399999999999977
      ],
      [
        0.12891660444438457,
        51.48755374364555,
        18.200000000000045
      ],
      [
        0.12891224585473537,
        51.48732307367027,
        15.799999999999955
      ],
      [
        0.1289183646440506,
        51.48725174367428,
        14.799999999999955
      ],
      [
        0.1289069652557373,
        51.48713397793472,
        12.799999999999955
      ],
      [
        0.12904593721032143,
        51.486848909407854,
        33.60000000000002
      ],
      [
        0.1291236374527216,
        51.486704321578145,
        38
      ],
      [
        0.12913252227008343,
        51.48657767102122,
        35
      ],
      [
        0.12915448285639286,
        51.48647197522223,
        31.200000000000045
      ],
      [
        0.12887896969914436,
        51.4861127268523,
        36.200000000000045
      ],
      [
        0.1287599466741085,
        51.48608800023794,
        38.200000000000045
      ],
      [
        0.1286711823195219,
        51.48607266135514,
        38.200000000000045
      ],
      [
        0.12862776406109333,
        51.486073499545455,
        38
      ],
      [
        0.12846549041569233,
        51.48605715483427,
        40.200000000000045
      ],
      [
        0.12839382514357567,
        51.486031506210566,
        41.200000000000045
      ],
      [
        0.12820137664675713,
        51.485946010798216,
        38.39999999999998
      ],
      [
        0.12812484987080097,
        51.48591600358486,
        35.39999999999998
      ],
      [
        0.1278554555028677,
        51.48579044267535,
        30
      ],
      [
        0.12735631316900253,
        51.48586261086166,
        25.200000000000045
      ],
      [
        0.12722304090857506,
        51.48590862751007,
        26.600000000000023
      ],
      [
        0.12702078558504581,
        51.48588499054313,
        31.200000000000045
      ],
      [
        0.12685700319707394,
        51.48579572327435,
        34.799999999999955
      ],
      [
        0.12661971151828766,
        51.4856222178787,
        29.600000000000023
      ],
      [
        0.1265877764672041,
        51.48559531196952,
        30.200000000000045
      ],
      [
        0.12654393911361694,
        51.48555633611977,
        30.600000000000023
      ],
      [
        0.12646841816604137,
        51.485448544844985,
        36
      ],
      [
        0.12643405236303806,
        51.48539221845567,
        38.39999999999998
      ],
      [
        0.12623364105820656,
        51.48519708774984,
        38
      ],
      [
        0.12621788308024406,
        51.48515962064266,
        40.39999999999998
      ],
      [
        0.12623037211596966,
        51.48508141748607,
        43.60000000000002
      ],
      [
        0.1262322999536991,
        51.48503581993282,
        44.799999999999955
      ],
      [
        0.1262197270989418,
        51.48500857874751,
        46.39999999999998
      ],
      [
        0.12620782479643822,
        51.48498544469476,
        47.60000000000002
      ],
      [
        0.12618569657206535,
        51.48495954461396,
        48
      ],
      [
        0.12617924250662327,
        51.4849485643208,
        48.39999999999998
      ],
      [
        0.12607346288859844,
        51.484798444435,
        52.60000000000002
      ],
      [
        0.12591403909027576,
        51.484551848843694,
        49.39999999999998
      ],
      [
        0.12574883177876472,
        51.484375577419996,
        47.60000000000002
      ],
      [
        0.12572896666824818,
        51.48435772396624,
        47.60000000000002
      ],
      [
        0.12567758560180664,
        51.48432067595422,
        48.39999999999998
      ],
      [
        0.12566660530865192,
        51.484309528023005,
        48.60000000000002
      ],
      [
        0.12561648152768612,
        51.48432059213519,
        47.200000000000045
      ],
      [
        0.12561488896608353,
        51.48431967012584,
        47.200000000000045
      ],
      [
        0.12561497278511524,
        51.484320089221,
        47.200000000000045
      ],
      [
        0.12561514042317867,
        51.484320340678096,
        47.200000000000045
      ],
      [
        0.1256202533841133,
        51.48428061045706,
        48
      ],
      [
        0.12559426948428154,
        51.48427256383002,
        48.60000000000002
      ],
      [
        0.12558882124722004,
        51.484263092279434,
        49.60000000000002
      ],
      [
        0.1255788467824459,
        51.48415748029947,
        56.60000000000002
      ],
      [
        0.12559259310364723,
        51.484130155295134,
        58.60000000000002
      ],
      [
        0.12561606243252754,
        51.48411883972585,
        59.799999999999955
      ],
      [
        0.12561606243252754,
        51.48411883972585,
        59.799999999999955
      ],
      [
        0.1256147213280201,
        51.48411372676492,
        60.200000000000045
      ],
      [
        0.1256158109754324,
        51.484110709279776,
        60.799999999999955
      ],
      [
        0.12561061419546604,
        51.484082881361246,
        60.39999999999998
      ],
      [
        0.125619163736701,
        51.48402085527778,
        61
      ],
      [
        0.1256218459457159,
        51.48398548364639,
        62.200000000000045
      ],
      [
        0.125618577003479,
        51.48397358134389,
        62.39999999999998
      ],
      [
        0.12561505660414696,
        51.483961595222354,
        63
      ],
      [
        0.1256000529974699,
        51.483925469219685,
        63.60000000000002
      ],
      [
        0.1255826186388731,
        51.48390367627144,
        64
      ],
      [
        0.12557725422084332,
        51.48389345034957,
        64
      ],
      [
        0.12555747292935848,
        51.48386352695525,
        64.39999999999998
      ],
      [
        0.1255401223897934,
        51.48384558968246,
        64.39999999999998
      ],
      [
        0.12552469968795776,
        51.48382589221001,
        63.799999999999955
      ],
      [
        0.1254470832645893,
        51.48375808261335,
        60.200000000000045
      ],
      [
        0.12542990036308765,
        51.483748611062765,
        59.799999999999955
      ],
      [
        0.12541514821350574,
        51.48373905569315,
        59.60000000000002
      ],
      [
        0.12535982765257359,
        51.48372497409582,
        58.799999999999955
      ],
      [
        0.1252760924398899,
        51.4837037678808,
        59.799999999999955
      ],
      [
        0.1252128928899765,
        51.48371525108814,
        59.60000000000002
      ],
      [
        0.1250212825834751,
        51.48375908844173,
        59.39999999999998
      ],
      [
        0.12475021183490753,
        51.483806278556585,
        56.799999999999955
      ],
      [
        0.1246896106749773,
        51.48374802432954,
        56.39999999999998
      ],
      [
        0.12468541972339153,
        51.4837365411222,
        56.39999999999998
      ],
      [
        0.12467829510569572,
        51.48372639901936,
        56.200000000000045
      ],
      [
        0.12467200867831707,
        51.483718771487474,
        56.200000000000045
      ],
      [
        0.12466588988900185,
        51.48371030576527,
        56.200000000000045
      ],
      [
        0.12465851381421089,
        51.483704103156924,
        56.39999999999998
      ],
      [
        0.12465063482522964,
        51.48369010537863,
        56.799999999999955
      ],
      [
        0.1246433425694704,
        51.48368247784674,
        57
      ],
      [
        0.12463663704693317,
        51.48367619141936,
        57.200000000000045
      ],
      [
        0.12462180107831955,
        51.48363503627479,
        58
      ],
      [
        0.12458961457014084,
        51.48348709568381,
        60.60000000000002
      ],
      [
        0.12458751909434795,
        51.48344057612121,
        61.39999999999998
      ],
      [
        0.12455742806196213,
        51.4833599422127,
        62.39999999999998
      ],
      [
        0.12449431233108044,
        51.48315366357565,
        64.79999999999995
      ],
      [
        0.12448400259017944,
        51.4831183757633,
        64.79999999999995
      ],
      [
        0.12447318993508816,
        51.48302089422941,
        66.20000000000005
      ],
      [
        0.12421435676515102,
        51.4826778229326,
        70.20000000000005
      ],
      [
        0.12416473589837551,
        51.48254404775798,
        68.39999999999998
      ],
      [
        0.12413565069437027,
        51.48249643854797,
        67
      ],
      [
        0.12379107065498829,
        51.482471795752645,
        60.60000000000002
      ],
      [
        0.1231562253087759,
        51.48257531225681,
        60.799999999999955
      ],
      [
        0.12315639294683933,
        51.48257598280907,
        60.60000000000002
      ],
      [
        0.12315630912780762,
        51.48257531225681,
        60.60000000000002
      ],
      [
        0.12314935214817524,
        51.48258553817868,
        61
      ],
      [
        0.12314817868173122,
        51.48258939385414,
        61.60000000000002
      ],
      [
        0.12311615981161594,
        51.48254337720573,
        63.200000000000045
      ],
      [
        0.1231186743825674,
        51.48253566585481,
        63.200000000000045
      ],
      [
        0.12312822975218296,
        51.482491241768,
        63.39999999999998
      ],
      [
        0.1231268048286438,
        51.48248135112226,
        63.39999999999998
      ],
      [
        0.12312118895351887,
        51.482467437162995,
        63.39999999999998
      ],
      [
        0.12314616702497005,
        51.48241505026817,
        63.799999999999955
      ],
      [
        0.12314993888139725,
        51.48240063339472,
        63.799999999999955
      ],
      [
        0.12315320782363415,
        51.48236844688654,
        64.39999999999998
      ],
      [
        0.12315723113715649,
        51.48235528729856,
        64.60000000000002
      ],
      [
        0.12316066771745682,
        51.482342882081866,
        64.79999999999995
      ],
      [
        0.12318740598857403,
        51.48225847631693,
        65.20000000000005
      ],
      [
        0.12320618145167828,
        51.482192343100905,
        67.20000000000005
      ],
      [
        0.12321749702095985,
        51.48216878995299,
        67.60000000000002
      ],
      [
        0.12321623973548412,
        51.48208664730191,
        68
      ],
      [
        0.12320743873715401,
        51.48205026984215,
        68.20000000000005
      ],
      [
        0.12320039793848991,
        51.48201573640108,
        68.20000000000005
      ],
      [
        0.12319997884333134,
        51.482002744451165,
        68.39999999999998
      ],
      [
        0.12320391833782196,
        51.48197961039841,
        68.39999999999998
      ],
      [
        0.12321154586970806,
        51.48195253685117,
        68.60000000000002
      ],
      [
        0.12321674264967442,
        51.481935773044825,
        68.60000000000002
      ],
      [
        0.12316611595451832,
        51.48172052577138,
        69.20000000000005
      ],
      [
        0.12312923558056355,
        51.4817158319056,
        69.39999999999998
      ],
      [
        0.12248366139829159,
        51.48170828819275,
        65.60000000000002
      ],
      [
        0.12240814045071602,
        51.48163544945419,
        64.20000000000005
      ],
      [
        0.12242356315255165,
        51.48153620772064,
        64.20000000000005
      ],
      [
        0.12230613268911839,
        51.481487760320306,
        62.60000000000002
      ],
      [
        0.12226388789713383,
        51.4815017580986,
        63.39999999999998
      ],
      [
        0.12227361090481281,
        51.481494884938,
        65.79999999999995
      ],
      [
        0.12228433974087238,
        51.48157250136137,
        74.39999999999998
      ],
      [
        0.12223622761666775,
        51.48164047859609,
        75.39999999999998
      ],
      [
        0.12221284210681915,
        51.481685070320964,
        76
      ],
      [
        0.12219708412885666,
        51.481710467487574,
        76.20000000000005
      ],
      [
        0.1221526600420475,
        51.48177190683782,
        76.60000000000002
      ],
      [
        0.12211527675390244,
        51.48181884549558,
        76.20000000000005
      ],
      [
        0.12206951156258583,
        51.48187265731394,
        76.39999999999998
      ],
      [
        0.12204185128211975,
        51.48189696483314,
        75.79999999999995
      ],
      [
        0.12202081270515919,
        51.48191632702947,
        75.39999999999998
      ],
      [
        0.12194445356726646,
        51.48196485824883,
        73.60000000000002
      ],
      [
        0.12143701314926147,
        51.482275323942304,
        60.60000000000002
      ],
      [
        0.12132829986512661,
        51.48225403390825,
        60
      ],
      [
        0.12129921466112137,
        51.48224154487252,
        59.799999999999955
      ],
      [
        0.12102806009352207,
        51.48204850964248,
        58.799999999999955
      ],
      [
        0.12052766047418118,
        51.481717340648174,
        68.39999999999998
      ],
      [
        0.12020085006952286,
        51.48153830319643,
        68.39999999999998
      ],
      [
        0.1200508140027523,
        51.48150796070695,
        67.60000000000002
      ],
      [
        0.11997554451227188,
        51.481513073667884,
        67.60000000000002
      ],
      [
        0.11992684565484524,
        51.481516091153026,
        67.79999999999995
      ],
      [
        0.11990094557404518,
        51.48151793517172,
        67.79999999999995
      ],
      [
        0.11974873021245003,
        51.481512570753694,
        69
      ],
      [
        0.11927238665521145,
        51.48125038482249,
        69.79999999999995
      ],
      [
        0.11892235837876797,
        51.48091343231499,
        61.60000000000002
      ],
      [
        0.11878439225256443,
        51.48073749616742,
        65.79999999999995
      ],
      [
        0.11874021962285042,
        51.480715703219175,
        67.79999999999995
      ],
      [
        0.11864181607961655,
        51.48066365160048,
        68.79999999999995
      ],
      [
        0.11800152249634266,
        51.480461647734046,
        63.39999999999998
      ],
      [
        0.11728051118552685,
        51.48046860471368,
        58.39999999999998
      ],
      [
        0.11718437075614929,
        51.48051663301885,
        59
      ],
      [
        0.11649202555418015,
        51.480627190321684,
        65.20000000000005
      ],
      [
        0.11645648628473282,
        51.48061444982886,
        64.79999999999995
      ],
      [
        0.11619689874351025,
        51.48052392527461,
        63
      ],
      [
        0.11618625372648239,
        51.48053599521518,
        62.60000000000002
      ],
      [
        0.11619186960160732,
        51.48055711761117,
        62.60000000000002
      ],
      [
        0.11619145050644875,
        51.48058259859681,
        62.200000000000045
      ],
      [
        0.11620544828474522,
        51.4806711114943,
        61.799999999999955
      ],
      [
        0.11619614437222481,
        51.480682427063584,
        62
      ],
      [
        0.11620569974184036,
        51.480685863643885,
        62.200000000000045
      ],
      [
        0.11620603501796722,
        51.48068334907293,
        62.60000000000002
      ],
      [
        0.11619279161095619,
        51.48068083450198,
        62.39999999999998
      ],
      [
        0.1161481998860836,
        51.480664908885956,
        62.39999999999998
      ],
      [
        0.11612724512815475,
        51.48065929301083,
        62.200000000000045
      ],
      [
        0.1161264069378376,
        51.48065811954439,
        62.200000000000045
      ],
      [
        0.11612674221396446,
        51.48065837100148,
        62.200000000000045
      ],
      [
        0.1161274965852499,
        51.480659460648894,
        62.60000000000002
      ],
      [
        0.11613034643232822,
        51.48065979592502,
        62.799999999999955
      ],
      [
        0.11613789014518261,
        51.48066155612469,
        63.39999999999998
      ],
      [
        0.11613931506872177,
        51.48066055029631,
        63.200000000000045
      ],
      [
        0.11609489098191261,
        51.48059123195708,
        63.39999999999998
      ],
      [
        0.11608097702264786,
        51.48053607903421,
        63.60000000000002
      ],
      [
        0.11607368476688862,
        51.48051604628563,
        63.60000000000002
      ],
      [
        0.11607259511947632,
        51.48050632327795,
        63.60000000000002
      ],
      [
        0.11606806889176369,
        51.48049567826092,
        63.799999999999955
      ],
      [
        0.11606278829276562,
        51.4804742205888,
        64
      ],
      [
        0.11604074388742447,
        51.48041202686727,
        64.60000000000002
      ],
      [
        0.11601727455854416,
        51.480371709913015,
        64.79999999999995
      ],
      [
        0.11600746773183346,
        51.480349246412516,
        65
      ],
      [
        0.11596446856856346,
        51.48019568994641,
        66.20000000000005
      ],
      [
        0.1159608643501997,
        51.48018512874842,
        66.20000000000005
      ],
      [
        0.11595826596021652,
        51.4801274612546,
        66.20000000000005
      ],
      [
        0.1159347128123045,
        51.480091754347086,
        66
      ],
      [
        0.1158465351909399,
        51.48000776767731,
        66.20000000000005
      ],
      [
        0.11583379469811916,
        51.47999720647931,
        66
      ],
      [
        0.11582164093852043,
        51.47998698055744,
        66.20000000000005
      ],
      [
        0.11579431593418121,
        51.47996242158115,
        66
      ],
      [
        0.11577671393752098,
        51.479938784614205,
        66.20000000000005
      ],
      [
        0.11575575917959213,
        51.47991447709501,
        66.20000000000005
      ],
      [
        0.11570613831281662,
        51.479876758530736,
        66
      ],
      [
        0.11574184522032738,
        51.47987122647464,
        65.79999999999995
      ],
      [
        0.11575249023735523,
        51.47987944073975,
        65.60000000000002
      ],
      [
        0.11576741002500057,
        51.47990173660219,
        62.200000000000045
      ],
      [
        0.11576347053050995,
        51.47990324534476,
        60.200000000000045
      ],
      [
        0.11575877666473389,
        51.47989930585027,
        60.200000000000045
      ],
      [
        0.11575902812182903,
        51.47989796474576,
        59.799999999999955
      ],
      [
        0.11574913747608662,
        51.47989469580352,
        60.200000000000045
      ],
      [
        0.11574762873351574,
        51.47989452816546,
        60.39999999999998
      ],
      [
        0.11573195457458496,
        51.4798819553107,
        60.60000000000002
      ],
      [
        0.11568761430680752,
        51.47988270968199,
        61
      ],
      [
        0.11566255241632462,
        51.479887906461954,
        61
      ],
      [
        0.11563765816390514,
        51.47988815791905,
        61
      ],
      [
        0.11559901759028435,
        51.47990525700152,
        61
      ],
      [
        0.11556548997759819,
        51.4799131359905,
        60.799999999999955
      ],
      [
        0.11549273505806923,
        51.47991858422756,
        60.60000000000002
      ],
      [
        0.11525996960699558,
        51.4799115434289,
        59.799999999999955
      ],
      [
        0.11524002067744732,
        51.479898719117045,
        60
      ],
      [
        0.11521697044372559,
        51.479893270879984,
        60
      ],
      [
        0.11513231322169304,
        51.4798631798476,
        60.200000000000045
      ],
      [
        0.1148418802767992,
        51.47979226894677,
        56.799999999999955
      ],
      [
        0.11481983587145805,
        51.47979335859418,
        56.39999999999998
      ],
      [
        0.11474523693323135,
        51.47980115376413,
        54.60000000000002
      ],
      [
        0.11470525525510311,
        51.47980366833508,
        53.60000000000002
      ],
      [
        0.114643145352602,
        51.479803835973144,
        52.60000000000002
      ],
      [
        0.11453066021203995,
        51.47978355176747,
        51.200000000000045
      ],
      [
        0.11436888948082924,
        51.47972026839852,
        50.39999999999998
      ],
      [
        0.1143523771315813,
        51.479714065790176,
        50.39999999999998
      ],
      [
        0.11433519423007965,
        51.47970283403993,
        50.60000000000002
      ],
      [
        0.1142815500497818,
        51.47967525757849,
        50.200000000000045
      ],
      [
        0.11355157010257244,
        51.479655895382166,
        43.60000000000002
      ],
      [
        0.11341536417603493,
        51.47963502444327,
        45.39999999999998
      ],
      [
        0.11332517489790916,
        51.479619685560465,
        47
      ],
      [
        0.11311545968055725,
        51.47957241162658,
        49.799999999999955
      ],
      [
        0.1130558643490076,
        51.4795383810997,
        49.39999999999998
      ],
      [
        0.11301018297672272,
        51.47948398254812,
        49.39999999999998
      ],
      [
        0.11296584270894527,
        51.47942597977817,
        49.799999999999955
      ],
      [
        0.11288981884717941,
        51.4793589245528,
        50.39999999999998
      ],
      [
        0.11256619356572628,
        51.478981487452984,
        54.39999999999998
      ],
      [
        0.11236393824219704,
        51.47874243557453,
        51.60000000000002
      ],
      [
        0.11215472593903542,
        51.47852685302496,
        49.60000000000002
      ],
      [
        0.11170419864356518,
        51.478244215250015,
        44.60000000000002
      ],
      [
        0.11169129051268101,
        51.47824362851679,
        45
      ],
      [
        0.11168072931468487,
        51.4782449696213,
        44.60000000000002
      ],
      [
        0.11159950867295265,
        51.47824966348708,
        43.39999999999998
      ],
      [
        0.11158701963722706,
        51.47824924439192,
        43.39999999999998
      ],
      [
        0.11156388558447361,
        51.478248154744506,
        42.799999999999955
      ],
      [
        0.11154100298881531,
        51.47824597544968,
        42
      ],
      [
        0.11152650229632854,
        51.47824505344033,
        42
      ],
      [
        0.1114778034389019,
        51.47822233848274,
        42
      ],
      [
        0.11140035465359688,
        51.478179171681404,
        39.39999999999998
      ],
      [
        0.11121503077447414,
        51.47816685028374,
        38.799999999999955
      ],
      [
        0.11112475767731667,
        51.47815369069576,
        38.200000000000045
      ],
      [
        0.1110426988452673,
        51.478132316842675,
        36
      ],
      [
        0.11086366139352322,
        51.47812485694885,
        33.60000000000002
      ],
      [
        0.11078202165663242,
        51.478076074272394,
        35.799999999999955
      ],
      [
        0.11061379685997963,
        51.47805646061897,
        38.39999999999998
      ],
      [
        0.1105510164052248,
        51.47803097963333,
        38.39999999999998
      ],
      [
        0.11047842912375927,
        51.47801295854151,
        37.200000000000045
      ],
      [
        0.1103364396840334,
        51.478017484769225,
        33.200000000000045
      ],
      [
        0.11004609055817127,
        51.477990662679076,
        32.200000000000045
      ],
      [
        0.1100353617221117,
        51.477970546111465,
        32.39999999999998
      ],
      [
        0.11000451631844044,
        51.477869963273406,
        32.39999999999998
      ],
      [
        0.11007341556251049,
        51.47746687754989,
        33.60000000000002
      ],
      [
        0.11013074778020382,
        51.477329917252064,
        35
      ],
      [
        0.11021875776350498,
        51.4769531507045,
        22.799999999999955
      ],
      [
        0.11028874665498734,
        51.47681853733957,
        24.799999999999955
      ],
      [
        0.1104971207678318,
        51.47646574303508,
        30
      ],
      [
        0.11053098365664482,
        51.47644445300102,
        30.399999999999977
      ],
      [
        0.1105728093534708,
        51.47632358595729,
        34.799999999999955
      ],
      [
        0.11037885211408138,
        51.47616273723543,
        36.799999999999955
      ],
      [
        0.11037466116249561,
        51.47616324014962,
        37
      ],
      [
        0.11030794121325016,
        51.47613750770688,
        35.200000000000045
      ],
      [
        0.10961794294416904,
        51.47602376528084,
        29.600000000000023
      ],
      [
        0.1089092530310154,
        51.47591111250222,
        26.799999999999955
      ],
      [
        0.10850407183170319,
        51.47594640031457,
        24.600000000000023
      ],
      [
        0.10840541683137417,
        51.47596660070121,
        24.399999999999977
      ],
      [
        0.1082651037722826,
        51.47594757378101,
        22
      ],
      [
        0.10827658697962761,
        51.47592972032726,
        22
      ],
      [
        0.10870255529880524,
        51.475545996800065,
        36
      ],
      [
        0.108511783182621,
        51.475167805328965,
        34
      ],
      [
        0.1083233579993248,
        51.47500821389258,
        34
      ],
      [
        0.10816862806677818,
        51.47479707375169,
        33.799999999999955
      ],
      [
        0.10812998749315739,
        51.47478458471596,
        33.200000000000045
      ],
      [
        0.10811758227646351,
        51.47477335296571,
        33
      ],
      [
        0.10810375213623047,
        51.47476295940578,
        33
      ],
      [
        0.10808933526277542,
        51.47475424222648,
        32.799999999999955
      ],
      [
        0.10774827562272549,
        51.47452793084085,
        36
      ],
      [
        0.10759069584310055,
        51.47440086118877,
        38
      ],
      [
        0.10728643275797367,
        51.47412174381316,
        43.200000000000045
      ],
      [
        0.10723513551056385,
        51.47401940077543,
        43.200000000000045
      ],
      [
        0.10722247883677483,
        51.47398201748729,
        43.200000000000045
      ],
      [
        0.10691679082810879,
        51.47356568835676,
        49
      ],
      [
        0.10674177668988705,
        51.47312915883958,
        49.60000000000002
      ],
      [
        0.10667790658771992,
        51.472894633188844,
        46.799999999999955
      ],
      [
        0.10668125934898853,
        51.47289429791272,
        46.799999999999955
      ],
      [
        0.10668285191059113,
        51.472895052284,
        46.799999999999955
      ],
      [
        0.10668335482478142,
        51.47289580665529,
        46.799999999999955
      ],
      [
        0.10668134316802025,
        51.472895722836256,
        47
      ],
      [
        0.10667799040675163,
        51.47289446555078,
        46.799999999999955
      ],
      [
        0.10667916387319565,
        51.47289304062724,
        46.799999999999955
      ],
      [
        0.10667933151125908,
        51.472892202436924,
        46.799999999999955
      ],
      [
        0.10668025352060795,
        51.47289253771305,
        47
      ],
      [
        0.10666608810424805,
        51.47285440005362,
        47
      ],
      [
        0.1066669262945652,
        51.472850209102035,
        46.799999999999955
      ],
      [
        0.10666709393262863,
        51.47284995764494,
        46.60000000000002
      ],
      [
        0.10666784830391407,
        51.47284844890237,
        46.39999999999998
      ],
      [
        0.10666701011359692,
        51.47284836508334,
        46.39999999999998
      ],
      [
        0.10666684247553349,
        51.472848281264305,
        46.39999999999998
      ],
      [
        0.10666633956134319,
        51.4728485327214,
        46.39999999999998
      ],
      [
        0.10666524991393089,
        51.47284652106464,
        46.60000000000002
      ],
      [
        0.10666382499039173,
        51.47284761071205,
        46.60000000000002
      ],
      [
        0.10666340589523315,
        51.47284601815045,
        46.60000000000002
      ],
      [
        0.10666332207620144,
        51.47284459322691,
        46.60000000000002
      ],
      [
        0.10665594600141048,
        51.47284551523626,
        46.799999999999955
      ],
      [
        0.10665611363947392,
        51.47284568287432,
        46.799999999999955
      ],
      [
        0.10665619745850563,
        51.472845766693354,
        46.799999999999955
      ],
      [
        0.10665485635399818,
        51.47284476086497,
        46.799999999999955
      ],
      [
        0.10661730542778969,
        51.47282296791673,
        46.39999999999998
      ],
      [
        0.10660146363079548,
        51.47281886078417,
        46.39999999999998
      ],
      [
        0.10649090632796288,
        51.47279782220721,
        46.200000000000045
      ],
      [
        0.10646852664649487,
        51.472794553264976,
        46.200000000000045
      ],
      [
        0.10642410255968571,
        51.472783740609884,
        46
      ],
      [
        0.10634925216436386,
        51.472774017602205,
        45.799999999999955
      ],
      [
        0.10620835237205029,
        51.47274015471339,
        46
      ],
      [
        0.1061065960675478,
        51.4727050345391,
        45.799999999999955
      ],
      [
        0.10544090531766415,
        51.47262481972575,
        43.60000000000002
      ],
      [
        0.10501015931367874,
        51.472668908536434,
        43.799999999999955
      ],
      [
        0.10429183021187782,
        51.47269036620855,
        36.60000000000002
      ],
      [
        0.10357584804296494,
        51.47272640839219,
        41
      ],
      [
        0.1033191941678524,
        51.47274945862591,
        41
      ],
      [
        0.10261880233883858,
        51.47286529652774,
        43
      ],
      [
        0.10245191864669323,
        51.472902093082666,
        42.60000000000002
      ],
      [
        0.10180877521634102,
        51.47296546027064,
        40.799999999999955
      ],
      [
        0.1015548873692751,
        51.47284643724561,
        43
      ],
      [
        0.10122598148882389,
        51.472621047869325,
        41.39999999999998
      ],
      [
        0.10057051666080952,
        51.47266496904194,
        41.39999999999998
      ],
      [
        0.0999093521386385,
        51.47287049330771,
        34
      ],
      [
        0.09920468553900719,
        51.47303452715278,
        30
      ],
      [
        0.09848191402852535,
        51.47315279580653,
        29
      ],
      [
        0.09776484221220016,
        51.473245583474636,
        33
      ],
      [
        0.09747005067765713,
        51.47327835671604,
        34.200000000000045
      ],
      [
        0.09738740511238575,
        51.47327123209834,
        33.200000000000045
      ],
      [
        0.09719319641590118,
        51.47322387434542,
        35.39999999999998
      ],
      [
        0.09712513536214828,
        51.47301742807031,
        37.200000000000045
      ],
      [
        0.09687652811408043,
        51.47287451662123,
        38.39999999999998
      ],
      [
        0.09616222232580185,
        51.47282900288701,
        34.799999999999955
      ],
      [
        0.09557289071381092,
        51.47281860932708,
        37.799999999999955
      ],
      [
        0.09491834789514542,
        51.47282296791673,
        38.39999999999998
      ],
      [
        0.0942229013890028,
        51.47272347472608,
        37.60000000000002
      ],
      [
        0.0935885589569807,
        51.472500348463655,
        38
      ],
      [
        0.09334171190857887,
        51.47232877090573,
        39.60000000000002
      ],
      [
        0.09321967139840126,
        51.47219407372177,
        40
      ],
      [
        0.09321455843746662,
        51.47217362187803,
        40
      ],
      [
        0.0931267999112606,
        51.472176890820265,
        43.799999999999955
      ],
      [
        0.0935591384768486,
        51.47180708125234,
        47
      ],
      [
        0.09385275654494762,
        51.47148781456053,
        46.799999999999955
      ],
      [
        0.0941347237676382,
        51.471248511224985,
        49
      ],
      [
        0.09456831961870193,
        51.47092530503869,
        50.60000000000002
      ],
      [
        0.0943960715085268,
        51.47049154154956,
        51.39999999999998
      ],
      [
        0.0943541619926691,
        51.47039908915758,
        51.799999999999955
      ],
      [
        0.0942071434110403,
        51.470084600150585,
        54.200000000000045
      ],
      [
        0.09380657225847244,
        51.46970950998366,
        55.799999999999955
      ],
      [
        0.093524856492877,
        51.46928337402642,
        57.799999999999955
      ],
      [
        0.09313618764281273,
        51.46890467964113,
        59.200000000000045
      ],
      [
        0.09286335669457912,
        51.46848516538739,
        59.60000000000002
      ],
      [
        0.09263545274734497,
        51.468062130734324,
        60.200000000000045
      ],
      [
        0.0926094688475132,
        51.467600958421826,
        66.20000000000005
      ],
      [
        0.09251165203750134,
        51.46715403534472,
        62.60000000000002
      ],
      [
        0.09239992126822472,
        51.466705687344074,
        55
      ],
      [
        0.0923121627420187,
        51.466266475617886,
        56.200000000000045
      ],
      [
        0.0922892801463604,
        51.46603069268167,
        55.799999999999955
      ],
      [
        0.09225667454302311,
        51.46594016812742,
        56
      ],
      [
        0.09216472506523132,
        51.46549651399255,
        57.200000000000045
      ],
      [
        0.09212616831064224,
        51.46527514792979,
        55.200000000000045
      ],
      [
        0.09183372370898724,
        51.46492696367204,
        59
      ],
      [
        0.09184411726891994,
        51.464914474636316,
        59.60000000000002
      ],
      [
        0.09187395684421062,
        51.46492495201528,
        54
      ],
      [
        0.09188150055706501,
        51.46493819542229,
        52.60000000000002
      ],
      [
        0.09181779809296131,
        51.46494875662029,
        52.799999999999955
      ],
      [
        0.09167606011033058,
        51.46496484987438,
        52.39999999999998
      ],
      [
        0.09130465798079967,
        51.46502176299691,
        51.39999999999998
      ],
      [
        0.09125880897045135,
        51.46502620540559,
        51.39999999999998
      ],
      [
        0.0911936815828085,
        51.465033078566194,
        52.200000000000045
      ],
      [
        0.0910793524235487,
        51.46505109965801,
        52.60000000000002
      ],
      [
        0.09094130247831345,
        51.46507968194783,
        53
      ],
      [
        0.09089679457247257,
        51.465091835707426,
        53.799999999999955
      ],
      [
        0.09085035882890224,
        51.465101977810264,
        53.799999999999955
      ],
      [
        0.09080124087631702,
        51.4651086833328,
        53.799999999999955
      ],
      [
        0.09035054594278336,
        51.465180683881044,
        53.60000000000002
      ],
      [
        0.08963967673480511,
        51.46530884318054,
        52.200000000000045
      ],
      [
        0.08894347585737705,
        51.46544245071709,
        49.60000000000002
      ],
      [
        0.0882440060377121,
        51.46555510349572,
        55
      ],
      [
        0.08766867220401764,
        51.46563481539488,
        58.39999999999998
      ],
      [
        0.08765014819800854,
        51.46563590504229,
        58.60000000000002
      ],
      [
        0.08763061836361885,
        51.465638587251306,
        59
      ],
      [
        0.08760966360569,
        51.46563691087067,
        59
      ],
      [
        0.08758602663874626,
        51.46563682705164,
        58.60000000000002
      ],
      [
        0.08756113238632679,
        51.4656388387084,
        58.60000000000002
      ],
      [
        0.08742190897464752,
        51.465662056580186,
        57.60000000000002
      ],
      [
        0.08739927783608437,
        51.46566666662693,
        57.39999999999998
      ],
      [
        0.08737505413591862,
        51.46567068994045,
        57.200000000000045
      ],
      [
        0.08701211772859097,
        51.46571352146566,
        57
      ],
      [
        0.08694782853126526,
        51.465730285272,
        58
      ],
      [
        0.0867596548050642,
        51.46575501188636,
        58.39999999999998
      ],
      [
        0.08646897040307522,
        51.46579331718385,
        57.799999999999955
      ],
      [
        0.08576522581279278,
        51.465923404321074,
        57.200000000000045
      ],
      [
        0.08546029217541218,
        51.46597604267299,
        58.39999999999998
      ],
      [
        0.08475587703287601,
        51.466086097061634,
        59.799999999999955
      ],
      [
        0.08461656980216503,
        51.466101268306375,
        60.60000000000002
      ],
      [
        0.0843686331063509,
        51.466163294389844,
        60.200000000000045
      ],
      [
        0.0837462767958641,
        51.46626865491271,
        58.799999999999955
      ],
      [
        0.0837037805467844,
        51.46627653390169,
        59.200000000000045
      ],
      [
        0.08367637172341347,
        51.46627745591104,
        59.799999999999955
      ],
      [
        0.08298637345433235,
        51.46642858162522,
        58
      ],
      [
        0.08228673599660397,
        51.46653478033841,
        59.200000000000045
      ],
      [
        0.08227307349443436,
        51.46653151139617,
        59.200000000000045
      ],
      [
        0.0822085328400135,
        51.46648759022355,
        59.39999999999998
      ],
      [
        0.08205153979361057,
        51.46635012701154,
        54.799999999999955
      ],
      [
        0.08201952092349529,
        51.46634015254676,
        55
      ],
      [
        0.08195196278393269,
        51.46632674150169,
        54.200000000000045
      ],
      [
        0.08187920786440372,
        51.466331016272306,
        53.200000000000045
      ],
      [
        0.081143444404006,
        51.4663537312299,
        59.39999999999998
      ],
      [
        0.08076709695160389,
        51.46636722609401,
        64.79999999999995
      ],
      [
        0.08072820492088795,
        51.46636974066496,
        65.60000000000002
      ],
      [
        0.08065050467848778,
        51.466375440359116,
        65.20000000000005
      ],
      [
        0.08048663847148418,
        51.46639388054609,
        67.20000000000005
      ],
      [
        0.0803582277148962,
        51.46637284196913,
        68
      ],
      [
        0.08022495545446873,
        51.46640159189701,
        67.39999999999998
      ],
      [
        0.08006502874195576,
        51.46642346866429,
        67.20000000000005
      ],
      [
        0.07955457083880901,
        51.46647434681654,
        66.79999999999995
      ],
      [
        0.0794733501970768,
        51.466494211927056,
        66
      ],
      [
        0.07907613180577755,
        51.466517094522715,
        66
      ],
      [
        0.0785993691533804,
        51.46632531657815,
        71
      ],
      [
        0.07858176715672016,
        51.46632003597915,
        71.60000000000002
      ],
      [
        0.07819821126759052,
        51.4661016035825,
        75.39999999999998
      ],
      [
        0.07789973169565201,
        51.46596807986498,
        79
      ],
      [
        0.07778322324156761,
        51.46590940654278,
        79.39999999999998
      ],
      [
        0.07720629684627056,
        51.465636575594544,
        77.39999999999998
      ],
      [
        0.07689759135246277,
        51.46547723561525,
        81
      ],
      [
        0.07670036517083645,
        51.4653935842216,
        80.39999999999998
      ],
      [
        0.07612084038555622,
        51.4651293028146,
        76.79999999999995
      ],
      [
        0.07592394948005676,
        51.464998964220285,
        78
      ],
      [
        0.0757558923214674,
        51.46490961313248,
        80.60000000000002
      ],
      [
        0.07525582797825336,
        51.46459721960127,
        76
      ],
      [
        0.07519816048443317,
        51.46460157819092,
        78.39999999999998
      ],
      [
        0.07518676109611988,
        51.46460392512381,
        78
      ],
      [
        0.07506371475756168,
        51.46452773362398,
        79.39999999999998
      ],
      [
        0.07456976920366287,
        51.464197067543864,
        81.79999999999995
      ],
      [
        0.07405403070151806,
        51.46386715583503,
        85.79999999999995
      ],
      [
        0.07383953779935837,
        51.4636754617095,
        84.60000000000002
      ],
      [
        0.0742154661566019,
        51.46336424164474,
        73
      ],
      [
        0.07442526519298553,
        51.4631141256541,
        71.20000000000005
      ],
      [
        0.07467487826943398,
        51.46295621059835,
        72.60000000000002
      ],
      [
        0.07473849691450596,
        51.46296065300703,
        73.20000000000005
      ],
      [
        0.07476406171917915,
        51.462953109294176,
        81
      ],
      [
        0.07479566149413586,
        51.46294246427715,
        89
      ],
      [
        0.07479834370315075,
        51.46294355392456,
        89.20000000000005
      ],
      [
        0.07482281886041164,
        51.4629468228668,
        89.39999999999998
      ],
      [
        0.07480588741600513,
        51.46293852478266,
        89.39999999999998
      ],
      [
        0.07481577806174755,
        51.462976075708866,
        82.79999999999995
      ],
      [
        0.07493924349546432,
        51.46291170269251,
        81.79999999999995
      ],
      [
        0.07494653575122356,
        51.462905667722225,
        81.39999999999998
      ],
      [
        0.07498442195355892,
        51.46288773044944,
        81.60000000000002
      ],
      [
        0.07509665563702583,
        51.4628223516047,
        77.39999999999998
      ],
      [
        0.07511710748076439,
        51.46281690336764,
        77.20000000000005
      ],
      [
        0.07511383853852749,
        51.46281078457832,
        77
      ],
      [
        0.0752238929271698,
        51.46276166662574,
        80.39999999999998
      ],
      [
        0.07528122514486313,
        51.46274481900036,
        80.60000000000002
      ],
      [
        0.07538625039160252,
        51.462706262245774,
        80.20000000000005
      ],
      [
        0.0754046905785799,
        51.46269871853292,
        79.79999999999995
      ],
      [
        0.07547400891780853,
        51.462536193430424,
        77.79999999999995
      ],
      [
        0.07547241635620594,
        51.462519681081176,
        77.79999999999995
      ],
      [
        0.07547585293650627,
        51.462488332763314,
        77
      ],
      [
        0.07547736167907715,
        51.4624650310725,
        76.60000000000002
      ],
      [
        0.07548482157289982,
        51.46238984540105,
        75.60000000000002
      ],
      [
        0.07551658898591995,
        51.46223251707852,
        73.60000000000002
      ],
      [
        0.07553368806838989,
        51.462220530956984,
        74.79999999999995
      ],
      [
        0.07553829811513424,
        51.46221734583378,
        74.79999999999995
      ],
      [
        0.0755217857658863,
        51.462127743288875,
        72
      ],
      [
        0.07555631920695305,
        51.461894139647484,
        70.79999999999995
      ],
      [
        0.0759502686560154,
        51.461507230997086,
        67.20000000000005
      ],
      [
        0.076407166197896,
        51.46114295348525,
        63.200000000000045
      ],
      [
        0.0768416840583086,
        51.46078487858176,
        63.60000000000002
      ],
      [
        0.07697981782257557,
        51.46065613254905,
        62.799999999999955
      ],
      [
        0.07739882916212082,
        51.460291938856244,
        61
      ],
      [
        0.07786720991134644,
        51.459927996620536,
        60.39999999999998
      ],
      [
        0.07837523706257343,
        51.4595967438072,
        60.200000000000045
      ],
      [
        0.07880338467657566,
        51.459228862077,
        59.799999999999955
      ],
      [
        0.07898753508925438,
        51.45909123122692,
        61.60000000000002
      ],
      [
        0.07923346012830734,
        51.45897229202092,
        62.60000000000002
      ],
      [
        0.07950620725750923,
        51.458966340869665,
        64.20000000000005
      ],
      [
        0.07995706982910633,
        51.45886894315481,
        66.20000000000005
      ],
      [
        0.08003217168152332,
        51.45885720849037,
        67.20000000000005
      ],
      [
        0.07982916198670864,
        51.45890020765364,
        67.79999999999995
      ],
      [
        0.07982639595866203,
        51.4589748904109,
        67.79999999999995
      ],
      [
        0.07985967211425304,
        51.459042029455304,
        71.20000000000005
      ],
      [
        0.0797739252448082,
        51.45897598005831,
        71.39999999999998
      ],
      [
        0.07972698658704758,
        51.45890146493912,
        66.79999999999995
      ],
      [
        0.07971039041876793,
        51.458911104127765,
        66
      ],
      [
        0.07969672791659832,
        51.45893029868603,
        60.39999999999998
      ],
      [
        0.07963109761476517,
        51.45890850573778,
        60.200000000000045
      ],
      [
        0.07959631271660328,
        51.458912109956145,
        60.39999999999998
      ],
      [
        0.07958089001476765,
        51.45891319960356,
        61.200000000000045
      ],
      [
        0.07954618893563747,
        51.45892007276416,
        62.60000000000002
      ],
      [
        0.0795180257409811,
        51.458929711952806,
        63.60000000000002
      ],
      [
        0.07949606515467167,
        51.45895712077618,
        64
      ],
      [
        0.07951291278004646,
        51.45896751433611,
        64.60000000000002
      ],
      [
        0.07959078066051006,
        51.45898126065731,
        63.200000000000045
      ],
      [
        0.07958600297570229,
        51.45914738997817,
        59.200000000000045
      ],
      [
        0.07958541624248028,
        51.4591561909765,
        60.799999999999955
      ],
      [
        0.07971935905516148,
        51.459236992523074,
        62.799999999999955
      ],
      [
        0.07979672402143478,
        51.45925920456648,
        61
      ],
      [
        0.08008179254829884,
        51.45937747322023,
        54.200000000000045
      ],
      [
        0.08012973703444004,
        51.459362553432584,
        54.799999999999955
      ],
      [
        0.08014893159270287,
        51.45936733111739,
        58
      ]
    ]
  }
}
