{
  "type": "Feature",
  "properties": {
    "id": "strava-477398329",
    "activity": "walking",
    "name": "Lunch Ride",
    "date": "2016-01-24T12:34:08.000Z",
    "distanceKm": 7.64,
    "movingTimeSeconds": 4768,
    "elapsedTimeSeconds": 5261,
    "ascentM": 70,
    "descentM": 87,
    "providers": [
      "Strava"
    ]
  },
  "geometry": {
    "type": "LineString",
    "coordinates": [
      [
        -0.051001785323023796,
        51.51691655628383,
        41
      ],
      [
        -0.05120253190398216,
        51.516978330910206,
        27.600000000000023
      ],
      [
        -0.051257768645882607,
        51.5169907361269,
        25
      ],
      [
        -0.05127587355673313,
        51.516998363658786,
        25
      ],
      [
        -0.05189672112464905,
        51.51706608943641,
        27.799999999999955
      ],
      [
        -0.05211615934967995,
        51.517053013667464,
        24.600000000000023
      ],
      [
        -0.05245110020041466,
        51.51705075055361,
        19.399999999999977
      ],
      [
        -0.05248001776635647,
        51.51705712080002,
        19.399999999999977
      ],
      [
        -0.05249745212495327,
        51.51706013828516,
        19.600000000000023
      ],
      [
        -0.05263407714664936,
        51.51707237586379,
        18.799999999999955
      ],
      [
        -0.05274421535432339,
        51.51707589626312,
        18
      ],
      [
        -0.05300531163811684,
        51.51702627539635,
        15.600000000000023
      ],
      [
        -0.05355382338166237,
        51.51728452183306,
        14
      ],
      [
        -0.054057659581303596,
        51.51736666448414,
        11.399999999999977
      ],
      [
        -0.05424139089882374,
        51.51741938665509,
        10.800000000000011
      ],
      [
        -0.054331328719854355,
        51.517442939803004,
        10.199999999999989
      ],
      [
        -0.05450936034321785,
        51.51751846075058,
        9.399999999999977
      ],
      [
        -0.054822592064738274,
        51.51757813990116,
        8.600000000000023
      ],
      [
        -0.05490976385772228,
        51.51752147823572,
        8.199999999999989
      ],
      [
        -0.05501219071447849,
        51.517427852377295,
        7.600000000000023
      ],
      [
        -0.05512249656021595,
        51.51729701086879,
        7.600000000000023
      ],
      [
        -0.055602528154850006,
        51.51729131117463,
        9
      ],
      [
        -0.05577678792178631,
        51.517302710562944,
        9
      ],
      [
        -0.05615422502160072,
        51.51731234975159,
        7.800000000000011
      ],
      [
        -0.05667323246598244,
        51.51732534170151,
        8.800000000000011
      ],
      [
        -0.05713834427297115,
        51.517385356128216,
        8.399999999999977
      ],
      [
        -0.057282764464616776,
        51.517374208197,
        9.600000000000023
      ],
      [
        -0.05731905810534954,
        51.5173120982945,
        10.399999999999977
      ],
      [
        -0.05727505311369896,
        51.516969446092844,
        8.399999999999977
      ],
      [
        -0.057423077523708344,
        51.51698528788984,
        9.399999999999977
      ],
      [
        -0.058011990040540695,
        51.5170285385102,
        15.600000000000023
      ],
      [
        -0.0583833921700716,
        51.51699501089752,
        16.399999999999977
      ],
      [
        -0.05856863223016262,
        51.516974391415715,
        15.600000000000023
      ],
      [
        -0.05877356976270676,
        51.5169579628855,
        14.600000000000023
      ],
      [
        -0.05900004878640175,
        51.51696257293224,
        18.399999999999977
      ],
      [
        -0.05952651612460613,
        51.516831647604704,
        12.399999999999977
      ],
      [
        -0.06028356961905956,
        51.516757886856794,
        24.200000000000045
      ],
      [
        -0.06045514717698097,
        51.51673374697566,
        37.60000000000002
      ],
      [
        -0.06068497896194458,
        51.516715474426746,
        48
      ],
      [
        -0.06075337529182434,
        51.51671027764678,
        40.39999999999998
      ],
      [
        -0.060839876532554626,
        51.516769118607044,
        31.799999999999955
      ],
      [
        -0.06083182990550995,
        51.51677582412958,
        30.799999999999955
      ],
      [
        -0.06084540858864784,
        51.516849249601364,
        22.399999999999977
      ],
      [
        -0.06099754013121128,
        51.516938181594014,
        23.799999999999955
      ],
      [
        -0.0613712053745985,
        51.51697615161538,
        30.399999999999977
      ],
      [
        -0.061447396874427795,
        51.51695553213358,
        38.200000000000045
      ],
      [
        -0.06219648756086826,
        51.51692736893892,
        53.60000000000002
      ],
      [
        -0.06228365935385227,
        51.5169561188668,
        52.799999999999955
      ],
      [
        -0.06249764934182167,
        51.517138089984655,
        43
      ],
      [
        -0.06250460632145405,
        51.51714471168816,
        38
      ],
      [
        -0.06314758211374283,
        51.517239175736904,
        18.600000000000023
      ],
      [
        -0.06347682327032089,
        51.51719173416495,
        17.399999999999977
      ],
      [
        -0.06419540382921696,
        51.51714965701103,
        19.600000000000023
      ],
      [
        -0.06450016982853413,
        51.517128366976976,
        11.800000000000011
      ],
      [
        -0.06456655450165272,
        51.51711738668382,
        11
      ],
      [
        -0.06487995386123657,
        51.51701956987381,
        13.799999999999955
      ],
      [
        -0.0648942869156599,
        51.51705116964877,
        14.799999999999955
      ],
      [
        -0.06499101407825947,
        51.51709727011621,
        13.799999999999955
      ],
      [
        -0.06506955251097679,
        51.51712719351053,
        12.600000000000023
      ],
      [
        -0.06513560190796852,
        51.51714169420302,
        12.399999999999977
      ],
      [
        -0.06524305790662766,
        51.51715938001871,
        11.600000000000023
      ],
      [
        -0.06525822915136814,
        51.517158541828394,
        11.199999999999989
      ],
      [
        -0.06529334932565689,
        51.51715342886746,
        11.199999999999989
      ],
      [
        -0.06529334932565689,
        51.51715342886746,
        11.199999999999989
      ],
      [
        -0.06560850888490677,
        51.51712610386312,
        18.399999999999977
      ],
      [
        -0.0659713614732027,
        51.51710640639067,
        18.399999999999977
      ],
      [
        -0.06658005528151989,
        51.516945976763964,
        14.399999999999977
      ],
      [
        -0.06674115546047688,
        51.51697598397732,
        26.399999999999977
      ],
      [
        -0.06681215018033981,
        51.51699157431722,
        32
      ],
      [
        -0.06700795143842697,
        51.5170821826905,
        44.200000000000045
      ],
      [
        -0.06741782650351524,
        51.517051085829735,
        28.200000000000045
      ],
      [
        -0.06768118590116501,
        51.51699995622039,
        20.399999999999977
      ],
      [
        -0.06779283285140991,
        51.51693759486079,
        20.399999999999977
      ],
      [
        -0.06836389191448689,
        51.516679264605045,
        22.600000000000023
      ],
      [
        -0.06891902536153793,
        51.51638397015631,
        18.399999999999977
      ],
      [
        -0.06940576247870922,
        51.51614743284881,
        20
      ],
      [
        -0.06964783184230328,
        51.516013238579035,
        17.399999999999977
      ],
      [
        -0.06991831585764885,
        51.515888934955,
        14.200000000000045
      ],
      [
        -0.07021008990705013,
        51.51573638431728,
        19.200000000000045
      ],
      [
        -0.0706025306135416,
        51.515550557523966,
        40
      ],
      [
        -0.07075910456478596,
        51.51546724140644,
        75
      ],
      [
        -0.0708219688385725,
        51.51546774432063,
        108.20000000000005
      ],
      [
        -0.07089564576745033,
        51.51544469408691,
        105.39999999999998
      ],
      [
        -0.07095012813806534,
        51.5154401678592,
        95.39999999999998
      ],
      [
        -0.07100536487996578,
        51.51544905267656,
        92.79999999999995
      ],
      [
        -0.07101609371602535,
        51.51545198634267,
        91.39999999999998
      ],
      [
        -0.0710386410355568,
        51.51545785367489,
        90.39999999999998
      ],
      [
        -0.071053896099329,
        51.515455171465874,
        90.20000000000005
      ],
      [
        -0.07107669487595558,
        51.515442095696926,
        87.39999999999998
      ],
      [
        -0.07110117003321648,
        51.51543430052698,
        82.60000000000002
      ],
      [
        -0.07117794826626778,
        51.51541451923549,
        78.60000000000002
      ],
      [
        -0.07128607481718063,
        51.51538057252765,
        74.79999999999995
      ],
      [
        -0.07153015583753586,
        51.51526096276939,
        57.200000000000045
      ],
      [
        -0.07181438617408276,
        51.51514017954469,
        41.200000000000045
      ],
      [
        -0.07190155796706676,
        51.51501478627324,
        7.600000000000023
      ],
      [
        -0.07224488072097301,
        51.51498704217374,
        0.8000000000000114
      ],
      [
        -0.07229131646454334,
        51.514979833737016,
        0.8000000000000114
      ],
      [
        -0.07256590761244297,
        51.51500204578042,
        -3.3999999999999773
      ],
      [
        -0.0732151698321104,
        51.51480037719011,
        -2.3999999999999773
      ],
      [
        -0.07333586923778057,
        51.51461161673069,
        25.200000000000045
      ],
      [
        -0.07387197576463223,
        51.51439578272402,
        25
      ],
      [
        -0.07399904541671276,
        51.514366026967764,
        31.799999999999955
      ],
      [
        -0.07408504374325275,
        51.51436384767294,
        33.799999999999955
      ],
      [
        -0.07413449697196484,
        51.51436275802553,
        33.39999999999998
      ],
      [
        -0.07421496324241161,
        51.514416905120015,
        42
      ],
      [
        -0.07454060018062592,
        51.51449142023921,
        46.200000000000045
      ],
      [
        -0.07482172921299934,
        51.514501897618175,
        46.39999999999998
      ],
      [
        -0.07488635368645191,
        51.51448572054505,
        45.39999999999998
      ],
      [
        -0.0750295165926218,
        51.514473566785455,
        43
      ],
      [
        -0.07506564259529114,
        51.51447046548128,
        41.799999999999955
      ],
      [
        -0.07506564259529114,
        51.51447046548128,
        41.799999999999955
      ],
      [
        -0.07508517242968082,
        51.51446895673871,
        41.200000000000045
      ],
      [
        -0.07510210387408733,
        51.51446518488228,
        40.60000000000002
      ],
      [
        -0.07520855404436588,
        51.514258570969105,
        14.399999999999977
      ],
      [
        -0.0753098912537098,
        51.51408087462187,
        9.800000000000011
      ],
      [
        -0.07535263895988464,
        51.51403569616377,
        10.800000000000011
      ],
      [
        -0.07538155652582645,
        51.51402052491903,
        12.200000000000045
      ],
      [
        -0.07545464672148228,
        51.514006024226546,
        14
      ],
      [
        -0.075488006696105,
        51.51398230344057,
        14.200000000000045
      ],
      [
        -0.07610625587403774,
        51.513741072267294,
        5.199999999999989
      ],
      [
        -0.07641563192009926,
        51.51363638229668,
        12.600000000000023
      ],
      [
        -0.07599435746669769,
        51.51397584937513,
        75.60000000000002
      ],
      [
        -0.07585957646369934,
        51.51401692070067,
        95.60000000000002
      ],
      [
        -0.07604003883898258,
        51.5141898393631,
        164.60000000000002
      ],
      [
        -0.07630071602761745,
        51.51393033564091,
        190.79999999999995
      ],
      [
        -0.0765313021838665,
        51.51368080638349,
        225.79999999999995
      ],
      [
        -0.07663230411708355,
        51.51368918828666,
        238.39999999999998
      ],
      [
        -0.07677228190004826,
        51.5136943012476,
        215.79999999999995
      ],
      [
        -0.07696866989135742,
        51.51336355134845,
        221.20000000000005
      ],
      [
        -0.07709624245762825,
        51.51300170458853,
        260
      ],
      [
        -0.0771896168589592,
        51.51287991553545,
        292
      ],
      [
        -0.0778256356716156,
        51.51256123557687,
        329.79999999999995
      ],
      [
        -0.07824372500181198,
        51.51277447119355,
        271.6
      ],
      [
        -0.07852493785321712,
        51.512767346575856,
        202.60000000000002
      ],
      [
        -0.07864957675337791,
        51.51288301683962,
        154.20000000000005
      ],
      [
        -0.07895233109593391,
        51.51301134377718,
        128.39999999999998
      ],
      [
        -0.07914796471595764,
        51.51299751363695,
        93
      ],
      [
        -0.07917537353932858,
        51.51297018863261,
        83
      ],
      [
        -0.0791270099580288,
        51.512832222506404,
        60
      ],
      [
        -0.07917420007288456,
        51.51255109347403,
        -15.399999999999977
      ],
      [
        -0.07922952063381672,
        51.51252770796418,
        -31
      ],
      [
        -0.07946748286485672,
        51.512336265295744,
        -25.80000000000001
      ],
      [
        -0.07952657528221607,
        51.51230533607304,
        -15.600000000000023
      ],
      [
        -0.07957678288221359,
        51.51229586452246,
        -16.80000000000001
      ],
      [
        -0.07958323694765568,
        51.512301145121455,
        -12.600000000000023
      ],
      [
        -0.0796057004481554,
        51.512323105707765,
        -13.800000000000011
      ],
      [
        -0.07960477843880653,
        51.51232235133648,
        -14.800000000000011
      ],
      [
        -0.0796345341950655,
        51.51233416981995,
        -15.600000000000023
      ],
      [
        -0.08017541840672493,
        51.51219737716019,
        31.600000000000023
      ],
      [
        -0.08021942339837551,
        51.51221648789942,
        31.600000000000023
      ],
      [
        -0.08044187910854816,
        51.51226418092847,
        92.20000000000005
      ],
      [
        -0.0804578885436058,
        51.512285973876715,
        98.39999999999998
      ],
      [
        -0.08081185631453991,
        51.51271613314748,
        122.79999999999995
      ],
      [
        -0.08162917569279671,
        51.512433579191566,
        133.60000000000002
      ],
      [
        -0.08164728060364723,
        51.51242259889841,
        133.60000000000002
      ],
      [
        -0.08169623091816902,
        51.512366021052,
        138.39999999999998
      ],
      [
        -0.08206277154386044,
        51.51224632747471,
        128
      ],
      [
        -0.08234272710978985,
        51.51242209598422,
        130.60000000000002
      ],
      [
        -0.08238748647272587,
        51.51246760971844,
        143
      ],
      [
        -0.08242067880928516,
        51.51249099522829,
        152.60000000000002
      ],
      [
        -0.0824812799692154,
        51.51248965412378,
        165
      ],
      [
        -0.08254003711044788,
        51.51243282482028,
        172.39999999999998
      ],
      [
        -0.082949073985219,
        51.51182354427874,
        173.39999999999998
      ],
      [
        -0.08356556296348572,
        51.511760680004954,
        127.60000000000002
      ],
      [
        -0.0837620347738266,
        51.51165305636823,
        109.20000000000005
      ],
      [
        -0.08383453823626041,
        51.51162858121097,
        98.20000000000005
      ],
      [
        -0.08386353962123394,
        51.511534955352545,
        84.60000000000002
      ],
      [
        -0.0839602667838335,
        51.51164551265538,
        74
      ],
      [
        -0.08441716432571411,
        51.51199026033282,
        34.200000000000045
      ],
      [
        -0.08459930308163166,
        51.51212210766971,
        32.60000000000002
      ],
      [
        -0.08470793254673481,
        51.51216016151011,
        32
      ],
      [
        -0.0851641595363617,
        51.511828657239676,
        31.799999999999955
      ],
      [
        -0.08523020893335342,
        51.51143713854253,
        22
      ],
      [
        -0.08544419892132282,
        51.5111140999943,
        28.799999999999955
      ],
      [
        -0.08558585308492184,
        51.51098099537194,
        40.39999999999998
      ],
      [
        -0.08610645309090614,
        51.51083322241902,
        73.60000000000002
      ],
      [
        -0.08659771643579006,
        51.51078670285642,
        64.79999999999995
      ],
      [
        -0.08682134561240673,
        51.5109105873853,
        53
      ],
      [
        -0.08683542720973492,
        51.51092919521034,
        52.200000000000045
      ],
      [
        -0.08717916905879974,
        51.51114829815924,
        49.60000000000002
      ],
      [
        -0.08736717514693737,
        51.51117562316358,
        40
      ],
      [
        -0.08741377852857113,
        51.51115785352886,
        34.60000000000002
      ],
      [
        -0.08744990453124046,
        51.511146035045385,
        33
      ],
      [
        -0.08748217485845089,
        51.511135222390294,
        30.600000000000023
      ],
      [
        -0.08751067332923412,
        51.51105668395758,
        24
      ],
      [
        -0.08751369081437588,
        51.511008655652404,
        24.799999999999955
      ],
      [
        -0.08751620538532734,
        51.51094897650182,
        26.399999999999977
      ],
      [
        -0.08751721121370792,
        51.51094160042703,
        26.799999999999955
      ],
      [
        -0.08752609603106976,
        51.510930033400655,
        29.399999999999977
      ],
      [
        -0.08752609603106976,
        51.510930033400655,
        29.399999999999977
      ],
      [
        -0.08778601884841919,
        51.510696010664105,
        22.399999999999977
      ],
      [
        -0.08790831081569195,
        51.51052627712488,
        18.799999999999955
      ],
      [
        -0.08787168189883232,
        51.51031597517431,
        25.200000000000045
      ],
      [
        -0.08767956867814064,
        51.51005429215729,
        21.600000000000023
      ],
      [
        -0.08764989674091339,
        51.51000785641372,
        23.200000000000045
      ],
      [
        -0.08760731667280197,
        51.50993577204645,
        26.200000000000045
      ],
      [
        -0.08760077878832817,
        51.50991096161306,
        27.200000000000045
      ],
      [
        -0.08753456175327301,
        51.50968624278903,
        32.60000000000002
      ],
      [
        -0.08756783790886402,
        51.50964173488319,
        36.60000000000002
      ],
      [
        -0.08762349374592304,
        51.50962354615331,
        46.39999999999998
      ],
      [
        -0.08793622255325317,
        51.50977266021073,
        101
      ],
      [
        -0.0881454348564148,
        51.50933621451259,
        38.39999999999998
      ],
      [
        -0.08821140043437481,
        51.50930411182344,
        21.600000000000023
      ],
      [
        -0.08850837126374245,
        51.50913404300809,
        12.799999999999955
      ],
      [
        -0.08873602375388145,
        51.50899968110025,
        14.399999999999977
      ],
      [
        -0.08942987769842148,
        51.50909146293998,
        -4.600000000000023
      ],
      [
        -0.08951730094850063,
        51.50907402858138,
        -3.3999999999999773
      ],
      [
        -0.0896031316369772,
        51.50906916707754,
        -3.3999999999999773
      ],
      [
        -0.09031039662659168,
        51.50914334692061,
        4
      ],
      [
        -0.09078246541321278,
        51.50942095555365,
        -1
      ],
      [
        -0.09204897098243237,
        51.50911945849657,
        41.799999999999955
      ],
      [
        -0.09208098985254765,
        51.50938784703612,
        19.600000000000023
      ],
      [
        -0.09251902811229229,
        51.5096272341907,
        5.399999999999977
      ],
      [
        -0.09254928678274155,
        51.5096274856478,
        4.600000000000023
      ],
      [
        -0.09322134777903557,
        51.50978548452258,
        3.1999999999999886
      ],
      [
        -0.09337104856967926,
        51.509875087067485,
        8.800000000000011
      ],
      [
        -0.09474777616560459,
        51.508065266534686,
        167.60000000000002
      ],
      [
        -0.09413824416697025,
        51.50944501161575,
        79
      ],
      [
        -0.09421552531421185,
        51.509492956101894,
        69
      ],
      [
        -0.09436648339033127,
        51.50959521532059,
        41
      ],
      [
        -0.094853974878788,
        51.509427996352315,
        68.60000000000002
      ],
      [
        -0.09503385052084923,
        51.50971172377467,
        62
      ],
      [
        -0.09507676586508751,
        51.50977383367717,
        58.60000000000002
      ],
      [
        -0.09517843835055828,
        51.509815994650126,
        52.39999999999998
      ],
      [
        -0.0952226109802723,
        51.50983200408518,
        44.60000000000002
      ],
      [
        -0.09523401036858559,
        51.5098637714982,
        41
      ],
      [
        -0.09522613137960434,
        51.5102559607476,
        18.200000000000045
      ],
      [
        -0.09521238505840302,
        51.5102749876678,
        17.799999999999955
      ],
      [
        -0.09518740698695183,
        51.51030985638499,
        17.399999999999977
      ],
      [
        -0.09518740698695183,
        51.51030985638499,
        17.399999999999977
      ],
      [
        -0.09519235230982304,
        51.510481517761946,
        18.799999999999955
      ],
      [
        -0.09487828239798546,
        51.510731633752584,
        30.399999999999977
      ],
      [
        -0.0949372909963131,
        51.51073808781803,
        28.799999999999955
      ],
      [
        -0.095265693962574,
        51.51101728901267,
        17.200000000000045
      ],
      [
        -0.09574815630912781,
        51.51106950826943,
        45.39999999999998
      ],
      [
        -0.0962871965020895,
        51.511361533775926,
        50
      ],
      [
        -0.09644745849072933,
        51.51141752488911,
        53.60000000000002
      ],
      [
        -0.09647570550441742,
        51.51146002113819,
        56.799999999999955
      ],
      [
        -0.09667695499956608,
        51.51140076108277,
        57
      ],
      [
        -0.09680804796516895,
        51.51093514636159,
        7.199999999999989
      ],
      [
        -0.09695162996649742,
        51.510690143331885,
        -2.1999999999999886
      ],
      [
        -0.09766291826963425,
        51.51071839034557,
        -1.8000000000000114
      ],
      [
        -0.09827261790633202,
        51.5107773989439,
        2.1999999999999886
      ],
      [
        -0.0987554993480444,
        51.51079835370183,
        0.39999999999997726
      ],
      [
        -0.09878215380012989,
        51.51079022325575,
        0.6000000000000227
      ],
      [
        -0.09884929284453392,
        51.51081210002303,
        4
      ],
      [
        -0.09886538609862328,
        51.51081922464073,
        4
      ],
      [
        -0.09888282045722008,
        51.510824002325535,
        4.199999999999989
      ],
      [
        -0.09915514849126339,
        51.510839173570275,
        -0.6000000000000227
      ],
      [
        -0.09919085539877415,
        51.51084026321769,
        -1
      ],
      [
        -0.09920761920511723,
        51.51084118522704,
        -1.1999999999999886
      ],
      [
        -0.09922396391630173,
        51.51083992794156,
        -1.1999999999999886
      ],
      [
        -0.09929420426487923,
        51.51084084995091,
        -2.6000000000000227
      ],
      [
        -0.09953384287655354,
        51.51085945777595,
        -3.8000000000000114
      ],
      [
        -0.10008503682911396,
        51.51086708530784,
        1.6000000000000227
      ],
      [
        -0.10074502788484097,
        51.51087546721101,
        1.3999999999999773
      ],
      [
        -0.1008078083395958,
        51.510874377563596,
        2.3999999999999773
      ],
      [
        -0.10083161294460297,
        51.51087462902069,
        3.1999999999999886
      ],
      [
        -0.10134483687579632,
        51.51088351383805,
        3.1999999999999886
      ],
      [
        -0.10138104669749737,
        51.510882675647736,
        2.8000000000000114
      ],
      [
        -0.10174959897994995,
        51.51090404950082,
        -1.1999999999999886
      ],
      [
        -0.10176887735724449,
        51.51090404950082,
        -1.3999999999999773
      ],
      [
        -0.10178916156291962,
        51.510903211310506,
        -1.8000000000000114
      ],
      [
        -0.10189385153353214,
        51.51088619604707,
        -3.3999999999999773
      ],
      [
        -0.10192360728979111,
        51.51087177917361,
        -2
      ],
      [
        -0.10192402638494968,
        51.51086758822203,
        0.6000000000000227
      ],
      [
        -0.10191950015723705,
        51.510859709233046,
        1
      ],
      [
        -0.10191732086241245,
        51.51085618883371,
        1.3999999999999773
      ],
      [
        -0.10190349072217941,
        51.51084411889315,
        3.8000000000000114
      ],
      [
        -0.10192235000431538,
        51.51088451966643,
        4.600000000000023
      ],
      [
        -0.10194607079029083,
        51.51090522296727,
        2.1999999999999886
      ],
      [
        -0.10195721872150898,
        51.51090782135725,
        0.19999999999998863
      ],
      [
        -0.10195830836892128,
        51.510903714224696,
        -0.6000000000000227
      ],
      [
        -0.10195210576057434,
        51.51090497151017,
        -1
      ],
      [
        -0.1019638404250145,
        51.51090145111084,
        -0.6000000000000227
      ],
      [
        -0.10211094282567501,
        51.510866582393646,
        -0.8000000000000114
      ],
      [
        -0.10222745127975941,
        51.51086859405041,
        -3.1999999999999886
      ],
      [
        -0.10224740020930767,
        51.51086825877428,
        -3.3999999999999773
      ],
      [
        -0.1022698637098074,
        51.510871443897486,
        -3
      ],
      [
        -0.10229182429611683,
        51.510872449725866,
        -3
      ],
      [
        -0.10232057422399521,
        51.510874880477786,
        -2
      ],
      [
        -0.10239492170512676,
        51.51088058017194,
        -0.6000000000000227
      ],
      [
        -0.10245786979794502,
        51.51088988408446,
        -0.39999999999997726
      ],
      [
        -0.10279281064867973,
        51.5109190531075,
        -1.3999999999999773
      ],
      [
        -0.10312833823263645,
        51.51109457015991,
        4.399999999999977
      ],
      [
        -0.10321224108338356,
        51.51110999286175,
        -2.1999999999999886
      ],
      [
        -0.10328658856451511,
        51.51111150160432,
        -10
      ],
      [
        -0.10335867293179035,
        51.51103924959898,
        -12.600000000000023
      ],
      [
        -0.10391749441623688,
        51.51083992794156,
        10.199999999999989
      ],
      [
        -0.10397122241556644,
        51.51082023046911,
        8.800000000000011
      ],
      [
        -0.10404925793409348,
        51.510817715898156,
        6.800000000000011
      ],
      [
        -0.10412209667265415,
        51.51081352494657,
        6.399999999999977
      ],
      [
        -0.1043445523828268,
        51.51071562431753,
        -1.1999999999999886
      ],
      [
        -0.10471385903656483,
        51.510679917410016,
        -0.6000000000000227
      ],
      [
        -0.10496565140783787,
        51.51060875505209,
        -4.800000000000011
      ],
      [
        -0.10524711571633816,
        51.510679414495826,
        -3
      ],
      [
        -0.10554509237408638,
        51.5107911452651,
        -2.6000000000000227
      ],
      [
        -0.10604348033666611,
        51.5109190531075,
        1
      ],
      [
        -0.10620994493365288,
        51.51090480387211,
        0.39999999999997726
      ],
      [
        -0.1062939316034317,
        51.51090974919498,
        -0.6000000000000227
      ],
      [
        -0.10631756857037544,
        51.51090924628079,
        -0.8000000000000114
      ],
      [
        -0.1064828597009182,
        51.510902708396316,
        -1.3999999999999773
      ],
      [
        -0.10707579553127289,
        51.510899774730206,
        3.6000000000000227
      ],
      [
        -0.10731032118201256,
        51.510882591828704,
        0.19999999999998863
      ],
      [
        -0.10742096230387688,
        51.51091159321368,
        0.39999999999997726
      ],
      [
        -0.1075621135532856,
        51.51091771200299,
        -0.19999999999998863
      ],
      [
        -0.10795782320201397,
        51.51099004782736,
        -0.39999999999997726
      ],
      [
        -0.10797861032187939,
        51.51119356043637,
        0.39999999999997726
      ],
      [
        -0.1079944521188736,
        51.511276960372925,
        1.8000000000000114
      ],
      [
        -0.1082051731646061,
        51.51142540387809,
        16.600000000000023
      ],
      [
        -0.10827130638062954,
        51.51151182129979,
        22.600000000000023
      ],
      [
        -0.1082378625869751,
        51.5116667188704,
        28
      ],
      [
        -0.10801389813423157,
        51.51192203164101,
        30.399999999999977
      ],
      [
        -0.1080004870891571,
        51.51202864944935,
        33.799999999999955
      ],
      [
        -0.10803510434925556,
        51.5121934376657,
        34.60000000000002
      ],
      [
        -0.10803627781569958,
        51.51222210377455,
        35
      ],
      [
        -0.1080336794257164,
        51.51224280707538,
        36.200000000000045
      ],
      [
        -0.10804390534758568,
        51.512281615287066,
        38
      ],
      [
        -0.10810626670718193,
        51.51241706684232,
        36.799999999999955
      ],
      [
        -0.10810408741235733,
        51.51242846623063,
        38.200000000000045
      ],
      [
        -0.10811548680067062,
        51.512482864782214,
        40
      ],
      [
        -0.10808958671987057,
        51.512537179514766,
        36.799999999999955
      ],
      [
        -0.10809352621436119,
        51.51257992722094,
        30.200000000000045
      ],
      [
        -0.10809168219566345,
        51.51258445344865,
        29.200000000000045
      ],
      [
        -0.10810123756527901,
        51.512597193941474,
        27
      ],
      [
        -0.10816066525876522,
        51.51262938044965,
        23.600000000000023
      ],
      [
        -0.10839259251952171,
        51.51274563744664,
        11.800000000000011
      ],
      [
        -0.10842226445674896,
        51.51275091804564,
        7.800000000000011
      ],
      [
        -0.10844246484339237,
        51.5127373393625,
        7
      ],
      [
        -0.10844020172953606,
        51.512734070420265,
        6.399999999999977
      ],
      [
        -0.10843550786376,
        51.512730633839965,
        6
      ],
      [
        -0.10843374766409397,
        51.512722335755825,
        7.600000000000023
      ],
      [
        -0.10845797136425972,
        51.51271177455783,
        8.399999999999977
      ],
      [
        -0.10849426500499249,
        51.51272250339389,
        9.399999999999977
      ],
      [
        -0.10851840488612652,
        51.5126046538353,
        3.1999999999999886
      ],
      [
        -0.10846350342035294,
        51.51269995607436,
        0.8000000000000114
      ],
      [
        -0.10850993916392326,
        51.51285887695849,
        -2.6000000000000227
      ],
      [
        -0.1085101068019867,
        51.51288041844964,
        -6.399999999999977
      ],
      [
        -0.10856215842068195,
        51.51294621638954,
        -5.399999999999977
      ],
      [
        -0.10855067521333694,
        51.51298586279154,
        -4.199999999999989
      ],
      [
        -0.10838965885341167,
        51.51329565793276,
        20.600000000000023
      ],
      [
        -0.1085074245929718,
        51.51364518329501,
        23.200000000000045
      ],
      [
        -0.10841874405741692,
        51.513924300670624,
        15.799999999999955
      ],
      [
        -0.10851245373487473,
        51.51412655599415,
        28.600000000000023
      ],
      [
        -0.10890472680330276,
        51.51438061147928,
        6.800000000000011
      ],
      [
        -0.10896826162934303,
        51.5143936034292,
        5.600000000000023
      ],
      [
        -0.1091118436306715,
        51.51438698172569,
        3.3999999999999773
      ],
      [
        -0.10936254635453224,
        51.514449175447226,
        2
      ],
      [
        -0.10939372703433037,
        51.514458982273936,
        2.6000000000000227
      ],
      [
        -0.10948886163532734,
        51.51446853764355,
        7.800000000000011
      ],
      [
        -0.10951216332614422,
        51.51446979492903,
        8.600000000000023
      ],
      [
        -0.10977711528539658,
        51.51457825675607,
        5.399999999999977
      ],
      [
        -0.11022772639989853,
        51.514657801017165,
        10.600000000000023
      ],
      [
        -0.11067599058151245,
        51.51430224068463,
        17
      ],
      [
        -0.11081580072641373,
        51.51424968615174,
        14.799999999999955
      ],
      [
        -0.11100506410002708,
        51.51410208083689,
        13.799999999999955
      ],
      [
        -0.11116373352706432,
        51.514005940407515,
        22.799999999999955
      ],
      [
        -0.11116993613541126,
        51.513982051983476,
        17
      ],
      [
        -0.11122358031570911,
        51.51406000368297,
        7.600000000000023
      ],
      [
        -0.11135903187096119,
        51.5140931122005,
        3.8000000000000114
      ],
      [
        -0.11138040572404861,
        51.51410065591335,
        3.6000000000000227
      ],
      [
        -0.11139675043523312,
        51.5140999853611,
        3
      ],
      [
        -0.11149699799716473,
        51.514072911813855,
        1.6000000000000227
      ],
      [
        -0.11156036518514156,
        51.5140497777611,
        1.8000000000000114
      ],
      [
        -0.11171325109899044,
        51.51398624293506,
        5
      ],
      [
        -0.11173906736075878,
        51.513979118317366,
        4
      ],
      [
        -0.11175775900483131,
        51.513974256813526,
        3.8000000000000114
      ],
      [
        -0.11177703738212585,
        51.51398045942187,
        3.6000000000000227
      ],
      [
        -0.1117870956659317,
        51.513972748070955,
        3.6000000000000227
      ],
      [
        -0.11180578731000423,
        51.513973753899336,
        4
      ],
      [
        -0.11218230240046978,
        51.513835871592164,
        9
      ],
      [
        -0.11240123771131039,
        51.51376420632005,
        6
      ],
      [
        -0.11249695904552937,
        51.51374626904726,
        9.800000000000011
      ],
      [
        -0.11312182992696762,
        51.51371106505394,
        14.399999999999977
      ],
      [
        -0.11330732144415379,
        51.51327705010772,
        26.799999999999955
      ],
      [
        -0.11335417628288269,
        51.513313092291355,
        23
      ],
      [
        -0.11347169056534767,
        51.51324008591473,
        19.799999999999955
      ],
      [
        -0.11351821012794971,
        51.51324922218919,
        16.799999999999955
      ],
      [
        -0.11367252096533775,
        51.513311583548784,
        11.199999999999989
      ],
      [
        -0.11369473300874233,
        51.5133177023381,
        10.399999999999977
      ],
      [
        -0.11372222565114498,
        51.51333371177316,
        9.199999999999989
      ],
      [
        -0.11399069800972939,
        51.51334024965763,
        3.6000000000000227
      ],
      [
        -0.11415473185479641,
        51.51326489634812,
        11.600000000000023
      ],
      [
        -0.11453233659267426,
        51.51320295408368,
        -0.6000000000000227
      ],
      [
        -0.1147133857011795,
        51.51317805983126,
        0.19999999999998863
      ],
      [
        -0.11490315198898315,
        51.51321401819587,
        3.1999999999999886
      ],
      [
        -0.1157082337886095,
        51.51322893798351,
        16
      ],
      [
        -0.11579615995287895,
        51.513164062052965,
        22
      ],
      [
        -0.1161198690533638,
        51.51308795437217,
        33.799999999999955
      ],
      [
        -0.11621483601629734,
        51.51309440843761,
        35
      ],
      [
        -0.11631214991211891,
        51.513142520561814,
        35.60000000000002
      ],
      [
        -0.11647568084299564,
        51.51322893798351,
        34.799999999999955
      ],
      [
        -0.11666620150208473,
        51.51333966292441,
        44.60000000000002
      ],
      [
        -0.11677633970975876,
        51.51332993991673,
        43
      ],
      [
        -0.11686342768371105,
        51.51332063600421,
        41
      ],
      [
        -0.1169834565371275,
        51.513287192210555,
        36.799999999999955
      ],
      [
        -0.11706543155014515,
        51.513270596042275,
        32.39999999999998
      ],
      [
        -0.11714598163962364,
        51.51327084749937,
        28.200000000000045
      ],
      [
        -0.11731789447367191,
        51.513283755630255,
        22.200000000000045
      ],
      [
        -0.11743029579520226,
        51.51329859159887,
        18.799999999999955
      ],
      [
        -0.11741294525563717,
        51.513251569122076,
        21.200000000000045
      ],
      [
        -0.11755459941923618,
        51.51323463767767,
        19.799999999999955
      ],
      [
        -0.11771234683692455,
        51.513189459219575,
        24.799999999999955
      ],
      [
        -0.11773355305194855,
        51.513170432299376,
        25.399999999999977
      ],
      [
        -0.11820570565760136,
        51.512863067910075,
        28.799999999999955
      ],
      [
        -0.11825239285826683,
        51.51287128217518,
        31.600000000000023
      ],
      [
        -0.11826496571302414,
        51.51288377121091,
        26
      ],
      [
        -0.11825348250567913,
        51.51292568072677,
        12.399999999999977
      ],
      [
        -0.11828206479549408,
        51.512949066236615,
        12.200000000000045
      ],
      [
        -0.11829187162220478,
        51.51295728050172,
        10.600000000000023
      ],
      [
        -0.11829229071736336,
        51.51296339929104,
        7.199999999999989
      ],
      [
        -0.11829044669866562,
        51.5129638183862,
        5.399999999999977
      ],
      [
        -0.11824543587863445,
        51.51295518502593,
        -4
      ],
      [
        -0.11818986386060715,
        51.51298779062927,
        -2.6000000000000227
      ],
      [
        -0.11819531209766865,
        51.513012601062655,
        -2.6000000000000227
      ],
      [
        -0.11837778612971306,
        51.51319658383727,
        10.600000000000023
      ],
      [
        -0.11844752356410027,
        51.51325223967433,
        13.600000000000023
      ],
      [
        -0.11845867149531841,
        51.513266656547785,
        14.200000000000045
      ],
      [
        -0.11847233399748802,
        51.513277972117066,
        14.600000000000023
      ],
      [
        -0.11848415248095989,
        51.51329716667533,
        15.799999999999955
      ],
      [
        -0.11849764734506607,
        51.51331560686231,
        16.399999999999977
      ],
      [
        -0.11851223185658455,
        51.513351146131754,
        17.200000000000045
      ],
      [
        -0.11852304451167583,
        51.51336413808167,
        17.600000000000023
      ],
      [
        -0.1190319936722517,
        51.51334159076214,
        15.600000000000023
      ],
      [
        -0.11903811246156693,
        51.51332155801356,
        14.399999999999977
      ],
      [
        -0.11932083405554295,
        51.51291009038687,
        16
      ],
      [
        -0.11932678520679474,
        51.51290028356016,
        16
      ],
      [
        -0.11955535970628262,
        51.51257783174515,
        21.399999999999977
      ],
      [
        -0.11977924033999443,
        51.512443386018276,
        12.600000000000023
      ],
      [
        -0.12044208124279976,
        51.51261848397553,
        22.600000000000023
      ],
      [
        -0.12049421668052673,
        51.5126562025398,
        23
      ],
      [
        -0.12051391415297985,
        51.51265771128237,
        23.200000000000045
      ],
      [
        -0.12062665075063705,
        51.5127045661211,
        26.600000000000023
      ],
      [
        -0.12066512368619442,
        51.512703811749816,
        27.200000000000045
      ],
      [
        -0.12084399349987507,
        51.512719402089715,
        26.399999999999977
      ],
      [
        -0.12108329683542252,
        51.51270691305399,
        9.399999999999977
      ],
      [
        -0.12135126627981663,
        51.51260322891176,
        17.600000000000023
      ],
      [
        -0.12146668508648872,
        51.512554697692394,
        17.200000000000045
      ],
      [
        -0.12184621766209602,
        51.51236870326102,
        20.200000000000045
      ],
      [
        -0.12211200781166553,
        51.512303575873375,
        28.399999999999977
      ],
      [
        -0.1221695076674223,
        51.5122988820076,
        28.200000000000045
      ],
      [
        -0.1223557535558939,
        51.51231522671878,
        21.799999999999955
      ],
      [
        -0.1224706694483757,
        51.51238923892379,
        19.799999999999955
      ],
      [
        -0.12255624867975712,
        51.51245537213981,
        16
      ],
      [
        -0.12259555980563164,
        51.51248764246702,
        13.200000000000045
      ],
      [
        -0.12264559976756573,
        51.512548830360174,
        10.399999999999977
      ],
      [
        -0.12273863889276981,
        51.51263549923897,
        0.39999999999997726
      ],
      [
        -0.12277375906705856,
        51.512646060436964,
        -1.6000000000000227
      ],
      [
        -0.12282329611480236,
        51.51259887032211,
        0.39999999999997726
      ],
      [
        -0.12301155366003513,
        51.51246853172779,
        14.799999999999955
      ],
      [
        -0.1234692893922329,
        51.512118922546506,
        24.200000000000045
      ],
      [
        -0.12389433570206165,
        51.511937538161874,
        24.399999999999977
      ],
      [
        -0.12409189715981483,
        51.51179026812315,
        19.799999999999955
      ],
      [
        -0.12421083636581898,
        51.511762188747525,
        19.600000000000023
      ],
      [
        -0.1243171188980341,
        51.51169689372182,
        21.399999999999977
      ],
      [
        -0.12437679804861546,
        51.511713825166225,
        23.600000000000023
      ],
      [
        -0.12469170615077019,
        51.51155523955822,
        31.600000000000023
      ],
      [
        -0.1248104777187109,
        51.51149312965572,
        33
      ],
      [
        -0.12491047382354736,
        51.51146010495722,
        34
      ],
      [
        -0.12501809746026993,
        51.511379554867744,
        35.200000000000045
      ],
      [
        -0.12509889900684357,
        51.5113733522594,
        23
      ],
      [
        -0.12519805692136288,
        51.51132456958294,
        20.799999999999955
      ],
      [
        -0.1252160780131817,
        51.51132356375456,
        20.799999999999955
      ],
      [
        -0.12541833333671093,
        51.51135792955756,
        22.600000000000023
      ],
      [
        -0.12581043876707554,
        51.51133764535189,
        26.399999999999977
      ],
      [
        -0.12591931968927383,
        51.51129766367376,
        26.600000000000023
      ],
      [
        -0.12597313150763512,
        51.51128861121833,
        26.399999999999977
      ],
      [
        -0.12604856863617897,
        51.51128810830414,
        27.399999999999977
      ],
      [
        -0.1263989321887493,
        51.5111193805933,
        32.60000000000002
      ],
      [
        -0.1265349704772234,
        51.51104746386409,
        28.200000000000045
      ],
      [
        -0.1270599290728569,
        51.51097722351551,
        29.399999999999977
      ],
      [
        -0.12701969593763351,
        51.510889548808336,
        33.60000000000002
      ],
      [
        -0.12699882499873638,
        51.510701375082135,
        27
      ],
      [
        -0.1269080489873886,
        51.51053692214191,
        21.200000000000045
      ],
      [
        -0.12688650749623775,
        51.51050163432956,
        20.399999999999977
      ],
      [
        -0.12677980586886406,
        51.510534323751926,
        26.200000000000045
      ],
      [
        -0.1267756149172783,
        51.51055008172989,
        25.200000000000045
      ],
      [
        -0.12692146003246307,
        51.51076801121235,
        23.799999999999955
      ],
      [
        -0.12705028988420963,
        51.51087169535458,
        23.600000000000023
      ]
    ]
  }
}
