{
  "type": "Feature",
  "properties": {
    "id": "strava-1597815503",
    "activity": "hiking",
    "name": "Hadrian's Wall — stage 2",
    "date": "2018-05-26T13:37:30.000Z",
    "distanceKm": 7.2,
    "movingTimeSeconds": 5032,
    "elapsedTimeSeconds": 5388,
    "ascentM": 142,
    "descentM": 0,
    "providers": [
      "Strava"
    ]
  },
  "geometry": {
    "type": "LineString",
    "coordinates": [
      [
        -1.745496,
        54.980715,
        -151.2
      ],
      [
        -1.744889,
        54.981869,
        -9.8
      ],
      [
        -1.745422,
        54.981998,
        -2.2
      ],
      [
        -1.746128,
        54.982194,
        0.2
      ],
      [
        -1.746869,
        54.982333,
        -0.8
      ],
      [
        -1.747626,
        54.982487,
        -1.2
      ],
      [
        -1.748206,
        54.982607,
        -1.4
      ],
      [
        -1.748427,
        54.982661,
        -0.6
      ],
      [
        -1.748837,
        54.982716,
        -3.2
      ],
      [
        -1.749577,
        54.982862,
        -6
      ],
      [
        -1.75033,
        54.982988,
        -5.6
      ],
      [
        -1.750669,
        54.983242,
        -4.2
      ],
      [
        -1.751368,
        54.983096,
        0.4
      ],
      [
        -1.751823,
        54.983106,
        0.2
      ],
      [
        -1.751967,
        54.98311,
        0.2
      ],
      [
        -1.752278,
        54.983443,
        -4.8
      ],
      [
        -1.752309,
        54.983517,
        -6
      ],
      [
        -1.752315,
        54.983528,
        -6.2
      ],
      [
        -1.752329,
        54.983549,
        -6.4
      ],
      [
        -1.752408,
        54.983607,
        -7.6
      ],
      [
        -1.752587,
        54.983587,
        -6.4
      ],
      [
        -1.752609,
        54.983587,
        -6.2
      ],
      [
        -1.752632,
        54.983587,
        -5.6
      ],
      [
        -1.752652,
        54.983586,
        -5.6
      ],
      [
        -1.752993,
        54.983573,
        -2.4
      ],
      [
        -1.75302,
        54.983564,
        -2.4
      ],
      [
        -1.753119,
        54.983467,
        -3.2
      ],
      [
        -1.753256,
        54.98328,
        -2
      ],
      [
        -1.753667,
        54.983119,
        -3
      ],
      [
        -1.753708,
        54.983114,
        -3
      ],
      [
        -1.754496,
        54.983044,
        -0.8
      ],
      [
        -1.754646,
        54.983036,
        -1.8
      ],
      [
        -1.755427,
        54.982961,
        -6.4
      ],
      [
        -1.756188,
        54.982846,
        -0.4
      ],
      [
        -1.756938,
        54.982693,
        2.6
      ],
      [
        -1.757689,
        54.982548,
        2.8
      ],
      [
        -1.757773,
        54.982533,
        2.6
      ],
      [
        -1.758437,
        54.98242,
        4.6
      ],
      [
        -1.758462,
        54.982415,
        4.6
      ],
      [
        -1.758484,
        54.982408,
        5
      ],
      [
        -1.758507,
        54.982401,
        5
      ],
      [
        -1.758533,
        54.982394,
        5.2
      ],
      [
        -1.758638,
        54.982363,
        5.6
      ],
      [
        -1.758695,
        54.982344,
        5.4
      ],
      [
        -1.758723,
        54.982334,
        5.4
      ],
      [
        -1.758889,
        54.982287,
        7.4
      ],
      [
        -1.758912,
        54.98228,
        7.6
      ],
      [
        -1.759043,
        54.982243,
        9.2
      ],
      [
        -1.759109,
        54.982229,
        9.4
      ],
      [
        -1.759359,
        54.982199,
        9.2
      ],
      [
        -1.759513,
        54.982177,
        6.6
      ],
      [
        -1.759688,
        54.982139,
        4.6
      ],
      [
        -1.759796,
        54.982117,
        1.8
      ],
      [
        -1.759928,
        54.982098,
        2.4
      ],
      [
        -1.760167,
        54.982042,
        3.2
      ],
      [
        -1.760335,
        54.982009,
        2.4
      ],
      [
        -1.761076,
        54.981842,
        6
      ],
      [
        -1.76182,
        54.981681,
        4
      ],
      [
        -1.762572,
        54.981538,
        5
      ],
      [
        -1.763338,
        54.981408,
        2.2
      ],
      [
        -1.763604,
        54.981372,
        2
      ],
      [
        -1.763779,
        54.981365,
        2.4
      ],
      [
        -1.764159,
        54.981376,
        -0.6
      ],
      [
        -1.764939,
        54.981381,
        -0.4
      ],
      [
        -1.765599,
        54.981394,
        2.8
      ],
      [
        -1.766153,
        54.981701,
        0.2
      ],
      [
        -1.766288,
        54.98185,
        -2.6
      ],
      [
        -1.766288,
        54.982301,
        -4.6
      ],
      [
        -1.766319,
        54.982761,
        -6.8
      ],
      [
        -1.766358,
        54.983157,
        -5.4
      ],
      [
        -1.766381,
        54.983219,
        -4.4
      ],
      [
        -1.766391,
        54.983283,
        -3
      ],
      [
        -1.766447,
        54.983535,
        0
      ],
      [
        -1.766499,
        54.983555,
        0.4
      ],
      [
        -1.767206,
        54.983522,
        1.6
      ],
      [
        -1.767996,
        54.983519,
        -3
      ],
      [
        -1.768634,
        54.983553,
        -3
      ],
      [
        -1.76868,
        54.983556,
        -3.4
      ],
      [
        -1.769403,
        54.983611,
        -2
      ],
      [
        -1.77019,
        54.983689,
        -1
      ],
      [
        -1.770916,
        54.983851,
        -3
      ],
      [
        -1.771697,
        54.98394,
        -3.2
      ],
      [
        -1.772479,
        54.984032,
        -3
      ],
      [
        -1.773137,
        54.984121,
        -1.2
      ],
      [
        -1.773296,
        54.984154,
        -2.2
      ],
      [
        -1.77381,
        54.984267,
        -6
      ],
      [
        -1.774012,
        54.984279,
        -3
      ],
      [
        -1.77477,
        54.984416,
        0.2
      ],
      [
        -1.774941,
        54.984419,
        -3.8
      ],
      [
        -1.775129,
        54.98441,
        -4.4
      ],
      [
        -1.775333,
        54.984424,
        -1
      ],
      [
        -1.775367,
        54.984425,
        0.4
      ],
      [
        -1.776117,
        54.984564,
        -1.4
      ],
      [
        -1.776886,
        54.984688,
        -2.8
      ],
      [
        -1.777665,
        54.984739,
        2.2
      ],
      [
        -1.777979,
        54.984792,
        7.2
      ],
      [
        -1.778742,
        54.984926,
        5
      ],
      [
        -1.779151,
        54.984974,
        0.6
      ],
      [
        -1.779928,
        54.985075,
        7
      ],
      [
        -1.780675,
        54.985207,
        4
      ],
      [
        -1.781441,
        54.985329,
        -0.8
      ],
      [
        -1.781784,
        54.985381,
        0.4
      ],
      [
        -1.78224,
        54.985434,
        1.6
      ],
      [
        -1.782987,
        54.985558,
        -0.6
      ],
      [
        -1.7833,
        54.985616,
        -0.6
      ],
      [
        -1.783684,
        54.985656,
        0.4
      ],
      [
        -1.784452,
        54.985775,
        -0.2
      ],
      [
        -1.785259,
        54.985782,
        3.6
      ],
      [
        -1.786047,
        54.985715,
        2.2
      ],
      [
        -1.786401,
        54.985681,
        1.2
      ],
      [
        -1.786891,
        54.985609,
        1.8
      ],
      [
        -1.787644,
        54.98548,
        -0.2
      ],
      [
        -1.788345,
        54.985273,
        1
      ],
      [
        -1.789058,
        54.985066,
        2.6
      ],
      [
        -1.789756,
        54.984861,
        6.8
      ],
      [
        -1.789896,
        54.9848,
        4.4
      ],
      [
        -1.790474,
        54.984648,
        3.6
      ],
      [
        -1.791145,
        54.984431,
        0.4
      ],
      [
        -1.791342,
        54.984468,
        -2
      ],
      [
        -1.791759,
        54.984805,
        -2.8
      ],
      [
        -1.792219,
        54.9848,
        -3.4
      ],
      [
        -1.793018,
        54.984805,
        3.4
      ],
      [
        -1.793804,
        54.984797,
        7.8
      ],
      [
        -1.794596,
        54.984781,
        5.6
      ],
      [
        -1.794719,
        54.984789,
        5.4
      ],
      [
        -1.794997,
        54.984925,
        5.6
      ],
      [
        -1.795162,
        54.985083,
        6.6
      ],
      [
        -1.795523,
        54.98548,
        3.8
      ],
      [
        -1.795689,
        54.985618,
        2.8
      ],
      [
        -1.795772,
        54.985767,
        4.4
      ],
      [
        -1.795857,
        54.985848,
        4
      ],
      [
        -1.796526,
        54.986067,
        2.4
      ],
      [
        -1.797274,
        54.986021,
        1
      ],
      [
        -1.79768,
        54.985945,
        -0.2
      ],
      [
        -1.797731,
        54.985953,
        -0.6
      ],
      [
        -1.798144,
        54.986172,
        2.4
      ],
      [
        -1.798266,
        54.986221,
        2
      ],
      [
        -1.798367,
        54.986262,
        5.4
      ],
      [
        -1.798579,
        54.986352,
        8.4
      ],
      [
        -1.798609,
        54.986398,
        10.8
      ],
      [
        -1.798663,
        54.986464,
        12.4
      ],
      [
        -1.79871,
        54.986508,
        14.8
      ],
      [
        -1.798758,
        54.98662,
        18
      ],
      [
        -1.798782,
        54.986711,
        18.6
      ],
      [
        -1.798809,
        54.986764,
        18.2
      ],
      [
        -1.798872,
        54.986853,
        16.2
      ],
      [
        -1.798968,
        54.986917,
        17.2
      ],
      [
        -1.799386,
        54.98724,
        27
      ],
      [
        -1.79939,
        54.987338,
        29.6
      ],
      [
        -1.799408,
        54.98741,
        29.4
      ],
      [
        -1.799444,
        54.987543,
        30.8
      ],
      [
        -1.799458,
        54.987565,
        30.6
      ],
      [
        -1.799467,
        54.987578,
        31.2
      ],
      [
        -1.799478,
        54.987591,
        31.6
      ],
      [
        -1.799486,
        54.987601,
        31.6
      ],
      [
        -1.799518,
        54.987629,
        32.2
      ],
      [
        -1.799667,
        54.987765,
        31.2
      ],
      [
        -1.799681,
        54.987781,
        31
      ],
      [
        -1.799716,
        54.987843,
        31
      ],
      [
        -1.799755,
        54.987931,
        31
      ],
      [
        -1.799842,
        54.987985,
        31.6
      ],
      [
        -1.799868,
        54.987998,
        31.2
      ],
      [
        -1.799893,
        54.988006,
        31.6
      ],
      [
        -1.800164,
        54.988042,
        34
      ],
      [
        -1.800273,
        54.98804,
        34.4
      ],
      [
        -1.80035,
        54.988039,
        34
      ],
      [
        -1.800367,
        54.988046,
        33.2
      ],
      [
        -1.800421,
        54.988075,
        31.8
      ],
      [
        -1.80051,
        54.988077,
        28.4
      ],
      [
        -1.800683,
        54.988057,
        28
      ],
      [
        -1.800841,
        54.988059,
        28
      ],
      [
        -1.800911,
        54.988058,
        29
      ],
      [
        -1.801171,
        54.988042,
        32.2
      ],
      [
        -1.801248,
        54.988038,
        34.6
      ],
      [
        -1.80129,
        54.988031,
        35
      ],
      [
        -1.801307,
        54.98803,
        34.8
      ],
      [
        -1.80137,
        54.988029,
        35.2
      ],
      [
        -1.801422,
        54.988028,
        35.4
      ],
      [
        -1.801722,
        54.988015,
        34.6
      ],
      [
        -1.802018,
        54.988,
        36.2
      ],
      [
        -1.802216,
        54.987964,
        35
      ],
      [
        -1.802299,
        54.98795,
        34.6
      ],
      [
        -1.802394,
        54.987935,
        33.8
      ],
      [
        -1.80248,
        54.987934,
        32.2
      ],
      [
        -1.802513,
        54.987938,
        31.6
      ],
      [
        -1.802543,
        54.987938,
        31
      ],
      [
        -1.803308,
        54.98786,
        33.2
      ],
      [
        -1.80333,
        54.987872,
        33
      ],
      [
        -1.803441,
        54.987902,
        30.8
      ],
      [
        -1.803622,
        54.98793,
        31.4
      ],
      [
        -1.803468,
        54.987977,
        36.8
      ],
      [
        -1.803165,
        54.988117,
        36.8
      ],
      [
        -1.802841,
        54.988399,
        37.2
      ],
      [
        -1.802796,
        54.988533,
        44.4
      ],
      [
        -1.802794,
        54.988545,
        45
      ],
      [
        -1.802814,
        54.988567,
        45.6
      ],
      [
        -1.802847,
        54.988582,
        46.8
      ],
      [
        -1.802922,
        54.98863,
        50
      ],
      [
        -1.802941,
        54.988632,
        50
      ],
      [
        -1.802956,
        54.988637,
        51
      ],
      [
        -1.802973,
        54.988642,
        52.2
      ],
      [
        -1.802984,
        54.988647,
        53.4
      ],
      [
        -1.802999,
        54.988656,
        54.2
      ],
      [
        -1.803029,
        54.988687,
        56.4
      ],
      [
        -1.803061,
        54.988716,
        57
      ],
      [
        -1.803073,
        54.988725,
        57.6
      ],
      [
        -1.803081,
        54.988732,
        57.8
      ],
      [
        -1.803142,
        54.98878,
        56.6
      ],
      [
        -1.803158,
        54.988785,
        56.6
      ],
      [
        -1.803218,
        54.988812,
        56.2
      ],
      [
        -1.803243,
        54.988828,
        56
      ],
      [
        -1.803322,
        54.988904,
        50.8
      ],
      [
        -1.803365,
        54.988983,
        50.6
      ],
      [
        -1.803378,
        54.989,
        51
      ],
      [
        -1.803386,
        54.989018,
        52
      ],
      [
        -1.803439,
        54.989086,
        55.8
      ],
      [
        -1.803491,
        54.989145,
        55.8
      ],
      [
        -1.803533,
        54.989187,
        54.6
      ],
      [
        -1.803594,
        54.989308,
        54
      ],
      [
        -1.803609,
        54.989374,
        57.8
      ],
      [
        -1.803641,
        54.989474,
        59.8
      ],
      [
        -1.803633,
        54.98966,
        62.2
      ],
      [
        -1.803632,
        54.9897,
        61.6
      ],
      [
        -1.803666,
        54.990157,
        66.2
      ],
      [
        -1.803634,
        54.990345,
        66.8
      ],
      [
        -1.803641,
        54.990431,
        68.4
      ],
      [
        -1.803655,
        54.990593,
        66.2
      ],
      [
        -1.803654,
        54.990732,
        65.4
      ],
      [
        -1.803606,
        54.990931,
        71.6
      ],
      [
        -1.803586,
        54.990975,
        72.4
      ],
      [
        -1.803575,
        54.990994,
        71.8
      ],
      [
        -1.803566,
        54.991061,
        75.8
      ],
      [
        -1.803471,
        54.991062,
        85
      ],
      [
        -1.802767,
        54.99128,
        80.6
      ],
      [
        -1.801984,
        54.991343,
        82.8
      ],
      [
        -1.801508,
        54.991375,
        79
      ],
      [
        -1.801444,
        54.99138,
        79
      ],
      [
        -1.801379,
        54.991388,
        79.2
      ],
      [
        -1.800923,
        54.991371,
        83.2
      ],
      [
        -1.800877,
        54.991371,
        83.2
      ],
      [
        -1.800858,
        54.991369,
        83.2
      ],
      [
        -1.800841,
        54.991367,
        83.2
      ],
      [
        -1.800825,
        54.991368,
        83.2
      ],
      [
        -1.800789,
        54.991366,
        82.6
      ],
      [
        -1.80039,
        54.99142,
        81.2
      ],
      [
        -1.800257,
        54.991458,
        80.6
      ],
      [
        -1.800121,
        54.991495,
        81
      ],
      [
        -1.799961,
        54.991521,
        79.4
      ],
      [
        -1.799888,
        54.991526,
        78.2
      ],
      [
        -1.799786,
        54.991542,
        76
      ],
      [
        -1.79977,
        54.991545,
        75.6
      ],
      [
        -1.799594,
        54.991573,
        76.6
      ],
      [
        -1.799333,
        54.991667,
        73.8
      ],
      [
        -1.799316,
        54.991674,
        73.2
      ],
      [
        -1.799299,
        54.991682,
        72.6
      ],
      [
        -1.799278,
        54.99169,
        72.2
      ],
      [
        -1.798897,
        54.991803,
        75.4
      ],
      [
        -1.798686,
        54.991839,
        78.6
      ],
      [
        -1.798559,
        54.991863,
        80.8
      ],
      [
        -1.797863,
        54.992027,
        85.2
      ],
      [
        -1.797769,
        54.992028,
        86.4
      ],
      [
        -1.797621,
        54.992032,
        88.6
      ],
      [
        -1.797175,
        54.992067,
        88.8
      ],
      [
        -1.796788,
        54.992149,
        83.2
      ],
      [
        -1.796663,
        54.992166,
        85.4
      ],
      [
        -1.796663,
        54.992166,
        85.6
      ],
      [
        -1.79665,
        54.992148,
        86.4
      ],
      [
        -1.796632,
        54.99212,
        86.6
      ],
      [
        -1.796634,
        54.992119,
        86.8
      ],
      [
        -1.796633,
        54.992119,
        86.6
      ],
      [
        -1.796633,
        54.992119,
        86.8
      ],
      [
        -1.796633,
        54.992122,
        87.2
      ],
      [
        -1.796583,
        54.992124,
        87.8
      ],
      [
        -1.7964,
        54.992167,
        88.6
      ],
      [
        -1.79636,
        54.992182,
        88.6
      ],
      [
        -1.796318,
        54.992191,
        88.4
      ],
      [
        -1.796194,
        54.992209,
        88.6
      ],
      [
        -1.796139,
        54.992227,
        88.8
      ],
      [
        -1.796081,
        54.992245,
        88.4
      ],
      [
        -1.795865,
        54.99229,
        88.2
      ],
      [
        -1.795824,
        54.992297,
        88.8
      ],
      [
        -1.795626,
        54.992368,
        88.2
      ],
      [
        -1.795478,
        54.992403,
        88
      ],
      [
        -1.795027,
        54.992563,
        84.2
      ],
      [
        -1.794613,
        54.992778,
        89
      ],
      [
        -1.794581,
        54.9928,
        90.2
      ],
      [
        -1.794287,
        54.993222,
        96.6
      ],
      [
        -1.794275,
        54.993254,
        96.8
      ],
      [
        -1.79427,
        54.993267,
        96.8
      ],
      [
        -1.794258,
        54.993285,
        96.8
      ],
      [
        -1.794251,
        54.993294,
        96.8
      ],
      [
        -1.794244,
        54.993303,
        96.8
      ],
      [
        -1.794179,
        54.993374,
        99
      ],
      [
        -1.794169,
        54.993381,
        99.4
      ],
      [
        -1.794062,
        54.993496,
        102.4
      ],
      [
        -1.794031,
        54.993531,
        102.8
      ],
      [
        -1.793962,
        54.993616,
        104.2
      ],
      [
        -1.79393,
        54.993669,
        105.4
      ],
      [
        -1.793875,
        54.993754,
        106.8
      ],
      [
        -1.793852,
        54.99388,
        107
      ],
      [
        -1.793881,
        54.994332,
        113.4
      ],
      [
        -1.793984,
        54.994686,
        117.2
      ],
      [
        -1.793982,
        54.994699,
        117
      ],
      [
        -1.793978,
        54.994734,
        117.4
      ],
      [
        -1.793989,
        54.994812,
        118.6
      ],
      [
        -1.794142,
        54.994987,
        120.2
      ],
      [
        -1.794156,
        54.994996,
        121.2
      ],
      [
        -1.794142,
        54.995039,
        121.8
      ],
      [
        -1.794113,
        54.995094,
        123.4
      ],
      [
        -1.794106,
        54.995105,
        123.4
      ],
      [
        -1.794077,
        54.995134,
        123.4
      ],
      [
        -1.793722,
        54.995541,
        123.2
      ],
      [
        -1.793433,
        54.995956,
        126
      ],
      [
        -1.793414,
        54.995997,
        126.8
      ],
      [
        -1.79336,
        54.995996,
        127.2
      ],
      [
        -1.793073,
        54.99594,
        127.4
      ],
      [
        -1.792887,
        54.995848,
        128.2
      ],
      [
        -1.792829,
        54.995826,
        129
      ],
      [
        -1.792789,
        54.995816,
        129
      ],
      [
        -1.792672,
        54.995807,
        129.2
      ],
      [
        -1.792561,
        54.995821,
        129.8
      ],
      [
        -1.792426,
        54.99584,
        130.2
      ],
      [
        -1.79208,
        54.995931,
        131
      ],
      [
        -1.791339,
        54.996057,
        134.4
      ],
      [
        -1.790867,
        54.996143,
        130.6
      ],
      [
        -1.790462,
        54.996256,
        130.4
      ],
      [
        -1.790307,
        54.996324,
        131.2
      ],
      [
        -1.790195,
        54.996429,
        131.4
      ],
      [
        -1.790194,
        54.996578,
        133
      ],
      [
        -1.790486,
        54.996704,
        132.8
      ],
      [
        -1.790519,
        54.996715,
        132.6
      ],
      [
        -1.7911,
        54.996884,
        134.6
      ],
      [
        -1.791751,
        54.997032,
        123.4
      ],
      [
        -1.791982,
        54.997044,
        121.8
      ],
      [
        -1.792753,
        54.996981,
        124.6
      ],
      [
        -1.792997,
        54.996974,
        122.6
      ],
      [
        -1.793299,
        54.996899,
        120.6
      ],
      [
        -1.793299,
        54.996896,
        120.6
      ],
      [
        -1.793302,
        54.996898,
        120.6
      ],
      [
        -1.793302,
        54.996899,
        120.6
      ],
      [
        -1.793303,
        54.996898,
        120.8
      ],
      [
        -1.793308,
        54.996891,
        122.4
      ],
      [
        -1.793309,
        54.996891,
        122.2
      ],
      [
        -1.793311,
        54.996893,
        122.2
      ],
      [
        -1.79331,
        54.996893,
        122.4
      ],
      [
        -1.793288,
        54.996904,
        121.8
      ],
      [
        -1.793303,
        54.996957,
        122
      ],
      [
        -1.793319,
        54.997004,
        122
      ],
      [
        -1.793316,
        54.997033,
        122.2
      ],
      [
        -1.793317,
        54.997035,
        122.2
      ],
      [
        -1.79333,
        54.997039,
        121.6
      ],
      [
        -1.79333,
        54.997033,
        121.6
      ],
      [
        -1.79333,
        54.997035,
        121.4
      ],
      [
        -1.793334,
        54.997037,
        121.4
      ],
      [
        -1.793332,
        54.99704,
        121.2
      ],
      [
        -1.793326,
        54.997041,
        121
      ],
      [
        -1.793325,
        54.997041,
        121
      ],
      [
        -1.793325,
        54.997041,
        121
      ],
      [
        -1.793323,
        54.997042,
        121
      ],
      [
        -1.79332,
        54.997045,
        120.6
      ],
      [
        -1.793334,
        54.997054,
        121
      ],
      [
        -1.793475,
        54.997106,
        120.6
      ],
      [
        -1.793574,
        54.997147,
        119.6
      ],
      [
        -1.793623,
        54.997153,
        119.6
      ],
      [
        -1.793669,
        54.997155,
        119.4
      ],
      [
        -1.793688,
        54.997154,
        119.6
      ],
      [
        -1.793708,
        54.997153,
        119.4
      ],
      [
        -1.793732,
        54.997158,
        119.6
      ],
      [
        -1.7939,
        54.997161,
        121.2
      ],
      [
        -1.793925,
        54.997162,
        121.6
      ],
      [
        -1.793988,
        54.997164,
        121.4
      ],
      [
        -1.794145,
        54.997157,
        122.8
      ],
      [
        -1.794653,
        54.997199,
        128.4
      ],
      [
        -1.794979,
        54.997248,
        131.6
      ],
      [
        -1.795529,
        54.997296,
        129
      ],
      [
        -1.795641,
        54.997365,
        129.6
      ],
      [
        -1.796306,
        54.997357,
        126.6
      ],
      [
        -1.797081,
        54.997305,
        129
      ],
      [
        -1.797599,
        54.997279,
        125.4
      ],
      [
        -1.79762,
        54.997278,
        125.4
      ],
      [
        -1.797642,
        54.99728,
        125.4
      ],
      [
        -1.797685,
        54.997277,
        125
      ],
      [
        -1.797703,
        54.997276,
        124.8
      ],
      [
        -1.797746,
        54.997272,
        123.6
      ],
      [
        -1.798413,
        54.997173,
        122.4
      ],
      [
        -1.798665,
        54.997103,
        122.2
      ],
      [
        -1.7987,
        54.997098,
        122.4
      ],
      [
        -1.79875,
        54.99709,
        122.6
      ],
      [
        -1.799276,
        54.996962,
        126
      ],
      [
        -1.79987,
        54.996797,
        125.8
      ],
      [
        -1.800258,
        54.996692,
        124.4
      ],
      [
        -1.800457,
        54.996627,
        123.6
      ],
      [
        -1.801188,
        54.99648,
        124.8
      ],
      [
        -1.80196,
        54.996316,
        132
      ],
      [
        -1.802671,
        54.996077,
        121
      ],
      [
        -1.803189,
        54.995972,
        119.8
      ],
      [
        -1.803292,
        54.995959,
        121.6
      ],
      [
        -1.803549,
        54.995871,
        123
      ],
      [
        -1.804125,
        54.995773,
        122.2
      ],
      [
        -1.804303,
        54.995739,
        125
      ],
      [
        -1.804349,
        54.99573,
        124.6
      ],
      [
        -1.804472,
        54.99569,
        127.6
      ],
      [
        -1.804779,
        54.99562,
        128.4
      ],
      [
        -1.805035,
        54.995552,
        128.8
      ],
      [
        -1.805266,
        54.99549,
        128.8
      ],
      [
        -1.805311,
        54.995484,
        128.6
      ],
      [
        -1.805585,
        54.995423,
        127.4
      ],
      [
        -1.805596,
        54.995426,
        127.2
      ]
    ]
  }
}
