{
  "type": "Feature",
  "properties": {
    "id": "strava-1603950758",
    "activity": "hiking",
    "name": "Hadrian's Wall — stage 5",
    "date": "2018-05-29T13:00:27.000Z",
    "distanceKm": 17.19,
    "movingTimeSeconds": 11704,
    "elapsedTimeSeconds": 12891,
    "ascentM": 166,
    "descentM": 184,
    "providers": [
      "Strava"
    ]
  },
  "geometry": {
    "type": "LineString",
    "coordinates": [
      [
        -2.697422,
        54.965844,
        41.2
      ],
      [
        -2.697422,
        54.965844,
        41.2
      ],
      [
        -2.697422,
        54.965844,
        41.2
      ],
      [
        -2.697422,
        54.965844,
        41.2
      ],
      [
        -2.697452,
        54.965902,
        40.8
      ],
      [
        -2.697513,
        54.966011,
        40.8
      ],
      [
        -2.697514,
        54.966033,
        40.8
      ],
      [
        -2.697666,
        54.966229,
        40.4
      ],
      [
        -2.697718,
        54.966308,
        40
      ],
      [
        -2.697722,
        54.96632,
        39.8
      ],
      [
        -2.697875,
        54.966559,
        41.8
      ],
      [
        -2.697934,
        54.966839,
        42.6
      ],
      [
        -2.697934,
        54.966935,
        41.2
      ],
      [
        -2.697998,
        54.967293,
        40.2
      ],
      [
        -2.698003,
        54.96766,
        45
      ],
      [
        -2.698199,
        54.967854,
        46
      ],
      [
        -2.698518,
        54.967989,
        48.2
      ],
      [
        -2.698551,
        54.96803,
        48.4
      ],
      [
        -2.698521,
        54.968172,
        48.2
      ],
      [
        -2.698511,
        54.968182,
        48.2
      ],
      [
        -2.698472,
        54.968278,
        48.2
      ],
      [
        -2.698474,
        54.968307,
        48.8
      ],
      [
        -2.698462,
        54.968414,
        50.4
      ],
      [
        -2.698454,
        54.968833,
        57.6
      ],
      [
        -2.698412,
        54.969223,
        63.8
      ],
      [
        -2.698413,
        54.969372,
        64.2
      ],
      [
        -2.698381,
        54.969567,
        66.8
      ],
      [
        -2.698324,
        54.970013,
        71.4
      ],
      [
        -2.698281,
        54.970148,
        75.2
      ],
      [
        -2.69828,
        54.970354,
        79.6
      ],
      [
        -2.698197,
        54.970648,
        81.4
      ],
      [
        -2.698124,
        54.9708,
        81.8
      ],
      [
        -2.698083,
        54.970998,
        83.2
      ],
      [
        -2.698066,
        54.971046,
        82.8
      ],
      [
        -2.698041,
        54.971349,
        87.2
      ],
      [
        -2.698013,
        54.971528,
        87.6
      ],
      [
        -2.6979,
        54.971975,
        85.8
      ],
      [
        -2.697936,
        54.972107,
        86.6
      ],
      [
        -2.698169,
        54.972533,
        85.6
      ],
      [
        -2.698371,
        54.972781,
        87
      ],
      [
        -2.698649,
        54.972891,
        86.6
      ],
      [
        -2.698698,
        54.972904,
        87.4
      ],
      [
        -2.698698,
        54.972904,
        87.4
      ],
      [
        -2.698739,
        54.972918,
        87.4
      ],
      [
        -2.69876,
        54.972926,
        87.4
      ],
      [
        -2.698959,
        54.972992,
        87.8
      ],
      [
        -2.699005,
        54.97302,
        88.4
      ],
      [
        -2.699079,
        54.973067,
        88
      ],
      [
        -2.699121,
        54.973075,
        88
      ],
      [
        -2.699367,
        54.973056,
        91.4
      ],
      [
        -2.699438,
        54.973045,
        91.6
      ],
      [
        -2.700042,
        54.972975,
        95.2
      ],
      [
        -2.70048,
        54.972938,
        93.2
      ],
      [
        -2.700523,
        54.972935,
        93
      ],
      [
        -2.70061,
        54.972929,
        92.4
      ],
      [
        -2.700703,
        54.972924,
        91.6
      ],
      [
        -2.700802,
        54.972923,
        91.6
      ],
      [
        -2.701269,
        54.972838,
        90.6
      ],
      [
        -2.701302,
        54.972833,
        91.2
      ],
      [
        -2.70205,
        54.972692,
        91.4
      ],
      [
        -2.702587,
        54.97264,
        88.8
      ],
      [
        -2.702696,
        54.972637,
        89
      ],
      [
        -2.70274,
        54.972638,
        89
      ],
      [
        -2.703256,
        54.972598,
        85.6
      ],
      [
        -2.703459,
        54.972585,
        82
      ],
      [
        -2.703626,
        54.972585,
        78.8
      ],
      [
        -2.703819,
        54.972566,
        78.2
      ],
      [
        -2.703948,
        54.972558,
        77.2
      ],
      [
        -2.704094,
        54.97255,
        74.8
      ],
      [
        -2.704547,
        54.972507,
        71
      ],
      [
        -2.704711,
        54.972479,
        71.2
      ],
      [
        -2.704827,
        54.97246,
        71.2
      ],
      [
        -2.704935,
        54.972454,
        70.4
      ],
      [
        -2.704961,
        54.972451,
        70
      ],
      [
        -2.704984,
        54.972451,
        69.8
      ],
      [
        -2.705271,
        54.972444,
        68.2
      ],
      [
        -2.705542,
        54.972403,
        69.2
      ],
      [
        -2.70574,
        54.972394,
        66.8
      ],
      [
        -2.705946,
        54.97238,
        66
      ],
      [
        -2.706733,
        54.972314,
        61.4
      ],
      [
        -2.706824,
        54.972323,
        59.2
      ],
      [
        -2.707005,
        54.972335,
        52.6
      ],
      [
        -2.707354,
        54.972309,
        50.2
      ],
      [
        -2.707995,
        54.97223,
        52
      ],
      [
        -2.708504,
        54.972195,
        55.6
      ],
      [
        -2.708537,
        54.972198,
        56.4
      ],
      [
        -2.708754,
        54.972166,
        57.8
      ],
      [
        -2.708889,
        54.97215,
        58.6
      ],
      [
        -2.709026,
        54.97214,
        59.8
      ],
      [
        -2.709334,
        54.972101,
        62
      ],
      [
        -2.709539,
        54.972084,
        61.6
      ],
      [
        -2.709792,
        54.9721,
        61.6
      ],
      [
        -2.709823,
        54.972107,
        61.8
      ],
      [
        -2.709941,
        54.972092,
        60.4
      ],
      [
        -2.710258,
        54.972055,
        62.6
      ],
      [
        -2.710916,
        54.972012,
        67.2
      ],
      [
        -2.711138,
        54.972014,
        66.6
      ],
      [
        -2.711558,
        54.972021,
        68.8
      ],
      [
        -2.711758,
        54.97202,
        70
      ],
      [
        -2.711915,
        54.97202,
        71.4
      ],
      [
        -2.712111,
        54.97201,
        72.2
      ],
      [
        -2.712365,
        54.972002,
        69.4
      ],
      [
        -2.712593,
        54.972025,
        71.4
      ],
      [
        -2.712693,
        54.972029,
        69.2
      ],
      [
        -2.712802,
        54.972031,
        67.4
      ],
      [
        -2.712822,
        54.972032,
        67
      ],
      [
        -2.71297,
        54.972054,
        68.4
      ],
      [
        -2.713079,
        54.972061,
        69.6
      ],
      [
        -2.713345,
        54.972062,
        71.2
      ],
      [
        -2.71342,
        54.972068,
        71.6
      ],
      [
        -2.713504,
        54.972084,
        72.6
      ],
      [
        -2.713567,
        54.972076,
        73.8
      ],
      [
        -2.713923,
        54.972078,
        73.6
      ],
      [
        -2.714573,
        54.972093,
        76
      ],
      [
        -2.714919,
        54.972114,
        73.6
      ],
      [
        -2.714914,
        54.972226,
        74.2
      ],
      [
        -2.715007,
        54.972552,
        70
      ],
      [
        -2.715019,
        54.972573,
        70.2
      ],
      [
        -2.715029,
        54.972598,
        70.4
      ],
      [
        -2.71509,
        54.972828,
        71
      ],
      [
        -2.715213,
        54.972826,
        72.4
      ],
      [
        -2.715504,
        54.972792,
        73.8
      ],
      [
        -2.715595,
        54.972788,
        74.2
      ],
      [
        -2.715734,
        54.972789,
        74.6
      ],
      [
        -2.716293,
        54.972793,
        75.6
      ],
      [
        -2.716438,
        54.972792,
        75.6
      ],
      [
        -2.717097,
        54.972763,
        75.2
      ],
      [
        -2.717295,
        54.972766,
        76.2
      ],
      [
        -2.717726,
        54.972768,
        75.4
      ],
      [
        -2.718046,
        54.972769,
        77
      ],
      [
        -2.718081,
        54.972757,
        77
      ],
      [
        -2.718148,
        54.97267,
        77.6
      ],
      [
        -2.718131,
        54.972496,
        78.4
      ],
      [
        -2.718154,
        54.972271,
        74.8
      ],
      [
        -2.718194,
        54.972247,
        73.8
      ],
      [
        -2.718209,
        54.972191,
        73.4
      ],
      [
        -2.718342,
        54.97218,
        75
      ],
      [
        -2.718508,
        54.972165,
        73
      ],
      [
        -2.718782,
        54.97213,
        70
      ],
      [
        -2.718839,
        54.972129,
        68.4
      ],
      [
        -2.71903,
        54.972088,
        64
      ],
      [
        -2.719243,
        54.972081,
        62.8
      ],
      [
        -2.719493,
        54.972075,
        65.8
      ],
      [
        -2.71974,
        54.972067,
        69.4
      ],
      [
        -2.719859,
        54.972061,
        70.4
      ],
      [
        -2.719933,
        54.972069,
        72
      ],
      [
        -2.720271,
        54.972077,
        72
      ],
      [
        -2.72035,
        54.972093,
        73.4
      ],
      [
        -2.720794,
        54.972106,
        73
      ],
      [
        -2.720906,
        54.972099,
        72.6
      ],
      [
        -2.721069,
        54.972088,
        75.4
      ],
      [
        -2.721123,
        54.972088,
        76
      ],
      [
        -2.721472,
        54.972068,
        75.4
      ],
      [
        -2.721677,
        54.972051,
        76.6
      ],
      [
        -2.722209,
        54.972022,
        69
      ],
      [
        -2.722314,
        54.972004,
        69.4
      ],
      [
        -2.722394,
        54.972009,
        69.6
      ],
      [
        -2.7227,
        54.972015,
        69.8
      ],
      [
        -2.722838,
        54.972017,
        68.8
      ],
      [
        -2.723193,
        54.972026,
        70.2
      ],
      [
        -2.723777,
        54.971996,
        70.6
      ],
      [
        -2.723882,
        54.972001,
        72
      ],
      [
        -2.724033,
        54.971997,
        72.6
      ],
      [
        -2.72483,
        54.972004,
        75.6
      ],
      [
        -2.725078,
        54.971998,
        75
      ],
      [
        -2.725117,
        54.971995,
        74.8
      ],
      [
        -2.725589,
        54.971982,
        70
      ],
      [
        -2.725901,
        54.971966,
        69
      ],
      [
        -2.726681,
        54.971971,
        71.8
      ],
      [
        -2.726884,
        54.971947,
        69.4
      ],
      [
        -2.726969,
        54.971948,
        69.2
      ],
      [
        -2.727353,
        54.971957,
        69.8
      ],
      [
        -2.727959,
        54.971934,
        66
      ],
      [
        -2.728686,
        54.971938,
        63.8
      ],
      [
        -2.729229,
        54.971886,
        65
      ],
      [
        -2.729682,
        54.971783,
        67.8
      ],
      [
        -2.730255,
        54.97147,
        67.6
      ],
      [
        -2.730953,
        54.971265,
        68.6
      ],
      [
        -2.73104,
        54.971237,
        68.4
      ],
      [
        -2.731742,
        54.971016,
        63.4
      ],
      [
        -2.731975,
        54.970932,
        62.2
      ],
      [
        -2.732702,
        54.970744,
        60.8
      ],
      [
        -2.733508,
        54.970696,
        62.6
      ],
      [
        -2.733656,
        54.970678,
        62
      ],
      [
        -2.7344,
        54.970566,
        57.2
      ],
      [
        -2.735153,
        54.970445,
        52.2
      ],
      [
        -2.735944,
        54.970426,
        44.2
      ],
      [
        -2.736137,
        54.970434,
        41.8
      ],
      [
        -2.736913,
        54.970558,
        43.6
      ],
      [
        -2.736997,
        54.970576,
        43.4
      ],
      [
        -2.737388,
        54.970672,
        44
      ],
      [
        -2.737499,
        54.970714,
        44.2
      ],
      [
        -2.737762,
        54.970973,
        41.6
      ],
      [
        -2.738138,
        54.97119,
        42
      ],
      [
        -2.738313,
        54.971302,
        42.6
      ],
      [
        -2.738469,
        54.971326,
        42
      ],
      [
        -2.738564,
        54.971341,
        42.2
      ],
      [
        -2.739345,
        54.97134,
        42.2
      ],
      [
        -2.739482,
        54.971335,
        42.8
      ],
      [
        -2.739687,
        54.971322,
        44.2
      ],
      [
        -2.740454,
        54.971414,
        41.6
      ],
      [
        -2.740613,
        54.971423,
        42.6
      ],
      [
        -2.74068,
        54.971424,
        43.6
      ],
      [
        -2.74082,
        54.971416,
        45.4
      ],
      [
        -2.741614,
        54.971352,
        51.8
      ],
      [
        -2.742009,
        54.97133,
        53
      ],
      [
        -2.742265,
        54.971342,
        52.8
      ],
      [
        -2.743047,
        54.971323,
        52.8
      ],
      [
        -2.743353,
        54.971313,
        54.6
      ],
      [
        -2.743523,
        54.971303,
        54.6
      ],
      [
        -2.744285,
        54.971393,
        56.6
      ],
      [
        -2.744344,
        54.9714,
        56.6
      ],
      [
        -2.744756,
        54.971451,
        58.4
      ],
      [
        -2.744901,
        54.971472,
        58.4
      ],
      [
        -2.744921,
        54.971474,
        58.4
      ],
      [
        -2.745384,
        54.971536,
        63
      ],
      [
        -2.745519,
        54.971559,
        62.6
      ],
      [
        -2.745519,
        54.971559,
        62.6
      ],
      [
        -2.745571,
        54.97157,
        62
      ],
      [
        -2.745571,
        54.97157,
        62
      ],
      [
        -2.745589,
        54.971572,
        61.8
      ],
      [
        -2.745895,
        54.97159,
        63
      ],
      [
        -2.746129,
        54.971582,
        66
      ],
      [
        -2.746301,
        54.971582,
        68
      ],
      [
        -2.746803,
        54.971637,
        69.6
      ],
      [
        -2.747463,
        54.971883,
        73.6
      ],
      [
        -2.747829,
        54.971795,
        75
      ],
      [
        -2.747856,
        54.971777,
        75.2
      ],
      [
        -2.748228,
        54.971535,
        77.2
      ],
      [
        -2.748469,
        54.971397,
        78.2
      ],
      [
        -2.748676,
        54.971275,
        77.4
      ],
      [
        -2.748921,
        54.971143,
        77.2
      ],
      [
        -2.749059,
        54.971035,
        76.4
      ],
      [
        -2.749482,
        54.970798,
        76
      ],
      [
        -2.749968,
        54.97069,
        70.4
      ],
      [
        -2.750058,
        54.970668,
        69.6
      ],
      [
        -2.750282,
        54.970604,
        70.8
      ],
      [
        -2.75098,
        54.97039,
        71.8
      ],
      [
        -2.751079,
        54.970364,
        71.6
      ],
      [
        -2.751522,
        54.970247,
        70.4
      ],
      [
        -2.751542,
        54.970243,
        70
      ],
      [
        -2.751603,
        54.970229,
        69.8
      ],
      [
        -2.752015,
        54.97013,
        69.8
      ],
      [
        -2.752434,
        54.970026,
        68
      ],
      [
        -2.752653,
        54.969968,
        67.6
      ],
      [
        -2.752713,
        54.969952,
        67.6
      ],
      [
        -2.753077,
        54.96986,
        67.4
      ],
      [
        -2.753335,
        54.969795,
        66.8
      ],
      [
        -2.753377,
        54.969784,
        67
      ],
      [
        -2.753397,
        54.969778,
        67
      ],
      [
        -2.753476,
        54.969759,
        67
      ],
      [
        -2.753514,
        54.969746,
        67.2
      ],
      [
        -2.753829,
        54.969642,
        65.6
      ],
      [
        -2.753928,
        54.96961,
        65.6
      ],
      [
        -2.754516,
        54.969405,
        64.6
      ],
      [
        -2.75483,
        54.969289,
        62.6
      ],
      [
        -2.755522,
        54.969057,
        59
      ],
      [
        -2.755603,
        54.969038,
        58
      ],
      [
        -2.755958,
        54.969044,
        57.2
      ],
      [
        -2.755963,
        54.96906,
        57.6
      ],
      [
        -2.755963,
        54.969072,
        58
      ],
      [
        -2.755971,
        54.969084,
        58.4
      ],
      [
        -2.755977,
        54.969092,
        58.8
      ],
      [
        -2.755982,
        54.969103,
        58.8
      ],
      [
        -2.756044,
        54.969285,
        60.4
      ],
      [
        -2.75608,
        54.969369,
        58.8
      ],
      [
        -2.756078,
        54.969388,
        58.8
      ],
      [
        -2.756078,
        54.969446,
        59
      ],
      [
        -2.756122,
        54.969536,
        59.8
      ],
      [
        -2.756566,
        54.969685,
        63.2
      ],
      [
        -2.756696,
        54.969713,
        63.2
      ],
      [
        -2.756993,
        54.96972,
        61.4
      ],
      [
        -2.757171,
        54.969697,
        60.2
      ],
      [
        -2.757691,
        54.969544,
        59.2
      ],
      [
        -2.757902,
        54.969567,
        64.6
      ],
      [
        -2.757944,
        54.969595,
        64.8
      ],
      [
        -2.758104,
        54.969802,
        64.2
      ],
      [
        -2.758535,
        54.970173,
        63.6
      ],
      [
        -2.758729,
        54.970269,
        65.4
      ],
      [
        -2.759309,
        54.970559,
        65.2
      ],
      [
        -2.759349,
        54.970524,
        65
      ],
      [
        -2.759455,
        54.970446,
        66
      ],
      [
        -2.759538,
        54.970363,
        67.2
      ],
      [
        -2.759769,
        54.970052,
        69.2
      ],
      [
        -2.759816,
        54.970025,
        70
      ],
      [
        -2.759971,
        54.969835,
        70.6
      ],
      [
        -2.760083,
        54.969712,
        70.8
      ],
      [
        -2.760285,
        54.969407,
        68.4
      ],
      [
        -2.760363,
        54.969349,
        65.6
      ],
      [
        -2.76044,
        54.969206,
        64.8
      ],
      [
        -2.760527,
        54.969095,
        65.8
      ],
      [
        -2.760578,
        54.969031,
        68
      ],
      [
        -2.760764,
        54.968713,
        65.4
      ],
      [
        -2.760804,
        54.968677,
        63.8
      ],
      [
        -2.760856,
        54.968614,
        60.6
      ],
      [
        -2.760858,
        54.968603,
        60.4
      ],
      [
        -2.760861,
        54.968571,
        59.8
      ],
      [
        -2.760963,
        54.968474,
        59.4
      ],
      [
        -2.761445,
        54.968382,
        56.6
      ],
      [
        -2.761724,
        54.968349,
        55.6
      ],
      [
        -2.761792,
        54.968347,
        55.4
      ],
      [
        -2.76216,
        54.968289,
        57.2
      ],
      [
        -2.762161,
        54.96829,
        57.6
      ],
      [
        -2.762163,
        54.968291,
        57.8
      ],
      [
        -2.762196,
        54.968288,
        59
      ],
      [
        -2.762478,
        54.968195,
        58.6
      ],
      [
        -2.762837,
        54.968087,
        58
      ],
      [
        -2.762894,
        54.968076,
        56.8
      ],
      [
        -2.763162,
        54.968015,
        55.2
      ],
      [
        -2.76346,
        54.967958,
        51.8
      ],
      [
        -2.764089,
        54.967815,
        47.2
      ],
      [
        -2.764465,
        54.967769,
        44.2
      ],
      [
        -2.764569,
        54.967756,
        45.4
      ],
      [
        -2.764652,
        54.967742,
        46.2
      ],
      [
        -2.764712,
        54.967742,
        50.8
      ],
      [
        -2.764879,
        54.967773,
        49.8
      ],
      [
        -2.764897,
        54.967778,
        49.4
      ],
      [
        -2.764913,
        54.967785,
        49
      ],
      [
        -2.764931,
        54.967786,
        48.8
      ],
      [
        -2.765059,
        54.967764,
        47
      ],
      [
        -2.765155,
        54.967762,
        45.8
      ],
      [
        -2.765169,
        54.967765,
        45.4
      ],
      [
        -2.7652,
        54.967767,
        44.6
      ],
      [
        -2.765327,
        54.967639,
        44.8
      ],
      [
        -2.765336,
        54.967635,
        45.2
      ],
      [
        -2.765339,
        54.967633,
        45.2
      ],
      [
        -2.765338,
        54.967629,
        44.8
      ],
      [
        -2.765347,
        54.967628,
        44.2
      ],
      [
        -2.765354,
        54.967628,
        44.8
      ],
      [
        -2.765346,
        54.967627,
        45
      ],
      [
        -2.765351,
        54.967647,
        40.8
      ],
      [
        -2.765345,
        54.96764,
        40.6
      ],
      [
        -2.765372,
        54.967643,
        39.4
      ],
      [
        -2.765394,
        54.967638,
        38.4
      ],
      [
        -2.765395,
        54.967636,
        38.4
      ],
      [
        -2.765384,
        54.967634,
        36.6
      ],
      [
        -2.765319,
        54.967665,
        36.2
      ],
      [
        -2.76532,
        54.967675,
        36
      ],
      [
        -2.765329,
        54.967702,
        35.8
      ],
      [
        -2.765339,
        54.967712,
        35.8
      ],
      [
        -2.765362,
        54.967729,
        36.6
      ],
      [
        -2.765374,
        54.96774,
        37
      ],
      [
        -2.765388,
        54.967747,
        36.8
      ],
      [
        -2.7654,
        54.967756,
        36.8
      ],
      [
        -2.765416,
        54.967767,
        36.8
      ],
      [
        -2.765448,
        54.967785,
        37.8
      ],
      [
        -2.765508,
        54.967816,
        36.6
      ],
      [
        -2.765569,
        54.967848,
        39
      ],
      [
        -2.765573,
        54.96785,
        39.8
      ],
      [
        -2.765578,
        54.967855,
        40.6
      ],
      [
        -2.765603,
        54.967875,
        43.4
      ],
      [
        -2.76563,
        54.967894,
        43.8
      ],
      [
        -2.76563,
        54.967894,
        43.8
      ],
      [
        -2.765659,
        54.967911,
        44.6
      ],
      [
        -2.765697,
        54.967928,
        45
      ],
      [
        -2.765726,
        54.967924,
        45.8
      ],
      [
        -2.765761,
        54.967902,
        47.6
      ],
      [
        -2.765782,
        54.967893,
        47.8
      ],
      [
        -2.765808,
        54.967883,
        48
      ],
      [
        -2.765819,
        54.967877,
        48.2
      ],
      [
        -2.765843,
        54.967865,
        48.2
      ],
      [
        -2.765851,
        54.96786,
        48
      ],
      [
        -2.765858,
        54.967853,
        47.6
      ],
      [
        -2.765876,
        54.967832,
        46.8
      ],
      [
        -2.765885,
        54.967828,
        46.8
      ],
      [
        -2.765913,
        54.967747,
        47.4
      ],
      [
        -2.765969,
        54.967573,
        45.2
      ],
      [
        -2.766018,
        54.967508,
        43.4
      ],
      [
        -2.766253,
        54.967426,
        40.2
      ],
      [
        -2.766488,
        54.967293,
        44.2
      ],
      [
        -2.766772,
        54.967191,
        46.8
      ],
      [
        -2.767001,
        54.967084,
        46
      ],
      [
        -2.767,
        54.967095,
        43.4
      ],
      [
        -2.767107,
        54.967046,
        43
      ],
      [
        -2.767277,
        54.96696,
        43.8
      ],
      [
        -2.767312,
        54.966945,
        44
      ],
      [
        -2.767349,
        54.96693,
        44
      ],
      [
        -2.7674,
        54.96691,
        44.2
      ],
      [
        -2.767529,
        54.966831,
        44.8
      ],
      [
        -2.767603,
        54.966778,
        46.2
      ],
      [
        -2.767685,
        54.966737,
        46
      ],
      [
        -2.767742,
        54.966711,
        45.8
      ],
      [
        -2.767915,
        54.966635,
        45.4
      ],
      [
        -2.768147,
        54.96654,
        44.6
      ],
      [
        -2.76832,
        54.966457,
        44.4
      ],
      [
        -2.768338,
        54.966457,
        44.4
      ],
      [
        -2.768389,
        54.966442,
        45
      ],
      [
        -2.768454,
        54.966405,
        45.2
      ],
      [
        -2.768534,
        54.966368,
        45.4
      ],
      [
        -2.768864,
        54.966214,
        44.2
      ],
      [
        -2.769462,
        54.965919,
        44
      ],
      [
        -2.769517,
        54.965882,
        44.8
      ],
      [
        -2.769945,
        54.965679,
        44.6
      ],
      [
        -2.770427,
        54.9655,
        44.4
      ],
      [
        -2.770459,
        54.965471,
        44.2
      ],
      [
        -2.770786,
        54.9652,
        51.4
      ],
      [
        -2.771211,
        54.964964,
        52
      ],
      [
        -2.771276,
        54.964927,
        48.6
      ],
      [
        -2.771316,
        54.964898,
        48.2
      ],
      [
        -2.771908,
        54.964606,
        47.4
      ],
      [
        -2.77203,
        54.964539,
        47
      ],
      [
        -2.772181,
        54.964449,
        45.8
      ],
      [
        -2.772494,
        54.964276,
        44.8
      ],
      [
        -2.773123,
        54.964014,
        43.4
      ],
      [
        -2.773224,
        54.963982,
        43.4
      ],
      [
        -2.773561,
        54.963854,
        43.4
      ],
      [
        -2.773725,
        54.96359,
        42.6
      ],
      [
        -2.773818,
        54.963559,
        42
      ],
      [
        -2.773935,
        54.963593,
        41.4
      ],
      [
        -2.774181,
        54.96361,
        40.8
      ],
      [
        -2.774215,
        54.963585,
        40.2
      ],
      [
        -2.774527,
        54.963303,
        41.2
      ],
      [
        -2.774609,
        54.963176,
        40.4
      ],
      [
        -2.774748,
        54.962925,
        42.2
      ],
      [
        -2.774752,
        54.962863,
        42.2
      ],
      [
        -2.774789,
        54.962747,
        42.6
      ],
      [
        -2.774816,
        54.962602,
        42.2
      ],
      [
        -2.774802,
        54.962542,
        41.8
      ],
      [
        -2.774924,
        54.962396,
        40.8
      ],
      [
        -2.775072,
        54.962265,
        41.6
      ],
      [
        -2.775122,
        54.962188,
        42.2
      ],
      [
        -2.775504,
        54.961822,
        44.2
      ],
      [
        -2.775729,
        54.961576,
        43.6
      ],
      [
        -2.775909,
        54.961318,
        45.2
      ],
      [
        -2.776072,
        54.961115,
        51
      ],
      [
        -2.776363,
        54.960863,
        58.6
      ],
      [
        -2.776377,
        54.96086,
        60.4
      ],
      [
        -2.777013,
        54.960596,
        62.8
      ],
      [
        -2.777329,
        54.960495,
        58.8
      ],
      [
        -2.777501,
        54.960455,
        58.2
      ],
      [
        -2.777614,
        54.960394,
        57.2
      ],
      [
        -2.777645,
        54.960357,
        57.4
      ],
      [
        -2.777857,
        54.960092,
        57.4
      ],
      [
        -2.778038,
        54.959968,
        57.8
      ],
      [
        -2.778103,
        54.959909,
        57.4
      ],
      [
        -2.778369,
        54.959778,
        51
      ],
      [
        -2.778649,
        54.959538,
        53.8
      ],
      [
        -2.77879,
        54.959428,
        54.8
      ],
      [
        -2.779151,
        54.959068,
        59.6
      ],
      [
        -2.779328,
        54.958912,
        60.2
      ],
      [
        -2.779447,
        54.958808,
        59.4
      ],
      [
        -2.779539,
        54.958734,
        60.2
      ],
      [
        -2.779655,
        54.958645,
        62.2
      ],
      [
        -2.779761,
        54.958587,
        62.8
      ],
      [
        -2.78012,
        54.958342,
        66
      ],
      [
        -2.780135,
        54.958333,
        66
      ],
      [
        -2.78056,
        54.957956,
        69
      ],
      [
        -2.780615,
        54.957898,
        69.6
      ],
      [
        -2.78085,
        54.957782,
        66.4
      ],
      [
        -2.780926,
        54.957766,
        64.4
      ],
      [
        -2.780947,
        54.957762,
        64.2
      ],
      [
        -2.780976,
        54.95775,
        64.8
      ],
      [
        -2.78101,
        54.957746,
        65.4
      ],
      [
        -2.781034,
        54.957745,
        65.4
      ],
      [
        -2.781109,
        54.957739,
        66.2
      ],
      [
        -2.78118,
        54.957732,
        66.8
      ],
      [
        -2.781265,
        54.957695,
        67
      ],
      [
        -2.781296,
        54.957644,
        66.8
      ],
      [
        -2.781337,
        54.957618,
        66.2
      ],
      [
        -2.781409,
        54.957567,
        66.6
      ],
      [
        -2.781519,
        54.957448,
        66.8
      ],
      [
        -2.781664,
        54.957376,
        67
      ],
      [
        -2.781755,
        54.957309,
        65.8
      ],
      [
        -2.782332,
        54.957001,
        65.4
      ],
      [
        -2.78292,
        54.956708,
        67.2
      ],
      [
        -2.783583,
        54.956456,
        64.8
      ],
      [
        -2.783828,
        54.956378,
        66.6
      ],
      [
        -2.784419,
        54.956253,
        68
      ],
      [
        -2.784581,
        54.956216,
        68.2
      ],
      [
        -2.784741,
        54.956171,
        67
      ],
      [
        -2.785052,
        54.956046,
        64.8
      ],
      [
        -2.785071,
        54.956039,
        64.8
      ],
      [
        -2.785091,
        54.956032,
        64.8
      ],
      [
        -2.785107,
        54.956026,
        65
      ],
      [
        -2.78514,
        54.95601,
        65
      ],
      [
        -2.785174,
        54.955995,
        65
      ],
      [
        -2.785263,
        54.955962,
        65.8
      ],
      [
        -2.785321,
        54.955942,
        66.2
      ],
      [
        -2.785797,
        54.955717,
        66.4
      ],
      [
        -2.78627,
        54.955492,
        65
      ],
      [
        -2.786426,
        54.955423,
        64.8
      ],
      [
        -2.786614,
        54.955335,
        64.2
      ],
      [
        -2.786645,
        54.955316,
        64.6
      ],
      [
        -2.786719,
        54.955285,
        64.8
      ],
      [
        -2.786949,
        54.955184,
        63.8
      ],
      [
        -2.787276,
        54.955045,
        65.4
      ],
      [
        -2.787928,
        54.95479,
        69.6
      ],
      [
        -2.788465,
        54.954464,
        65.6
      ],
      [
        -2.788652,
        54.954283,
        64.8
      ],
      [
        -2.788991,
        54.953929,
        67
      ],
      [
        -2.789068,
        54.953856,
        67.2
      ],
      [
        -2.789262,
        54.953642,
        66.4
      ],
      [
        -2.789318,
        54.953622,
        66.2
      ],
      [
        -2.789387,
        54.953596,
        65.8
      ],
      [
        -2.789437,
        54.953593,
        66
      ],
      [
        -2.789528,
        54.953571,
        66.8
      ],
      [
        -2.789655,
        54.953515,
        67.8
      ],
      [
        -2.789771,
        54.953453,
        67.2
      ],
      [
        -2.79016,
        54.953236,
        66.6
      ],
      [
        -2.790311,
        54.953173,
        66.8
      ],
      [
        -2.790387,
        54.953156,
        66.6
      ],
      [
        -2.790456,
        54.953117,
        65.8
      ],
      [
        -2.790534,
        54.953069,
        65.2
      ],
      [
        -2.790623,
        54.953023,
        64
      ],
      [
        -2.790697,
        54.952974,
        63.8
      ],
      [
        -2.790875,
        54.952854,
        62.6
      ],
      [
        -2.791157,
        54.952729,
        61
      ],
      [
        -2.791373,
        54.952547,
        61.8
      ],
      [
        -2.791772,
        54.952292,
        60.2
      ],
      [
        -2.791823,
        54.952278,
        59.4
      ],
      [
        -2.791867,
        54.95226,
        59.2
      ],
      [
        -2.791902,
        54.952248,
        59
      ],
      [
        -2.791938,
        54.952229,
        58.8
      ],
      [
        -2.792283,
        54.952043,
        60
      ],
      [
        -2.792481,
        54.951913,
        58
      ],
      [
        -2.793047,
        54.95159,
        55.2
      ],
      [
        -2.793227,
        54.951521,
        55.6
      ],
      [
        -2.793356,
        54.951458,
        55.4
      ],
      [
        -2.793811,
        54.951153,
        58
      ],
      [
        -2.793986,
        54.951053,
        57.4
      ],
      [
        -2.794209,
        54.950965,
        57.6
      ],
      [
        -2.794347,
        54.950839,
        58.8
      ],
      [
        -2.794756,
        54.950465,
        61.2
      ],
      [
        -2.795187,
        54.950209,
        60.4
      ],
      [
        -2.795757,
        54.949895,
        59.4
      ],
      [
        -2.796336,
        54.949577,
        62
      ],
      [
        -2.796527,
        54.949451,
        61.8
      ],
      [
        -2.796773,
        54.949316,
        62.2
      ],
      [
        -2.797093,
        54.949145,
        61
      ],
      [
        -2.797402,
        54.948985,
        61.8
      ],
      [
        -2.797954,
        54.948668,
        62.2
      ],
      [
        -2.798083,
        54.94861,
        61.4
      ],
      [
        -2.798651,
        54.948335,
        61
      ],
      [
        -2.798923,
        54.948249,
        59
      ],
      [
        -2.799186,
        54.948219,
        55.8
      ],
      [
        -2.799447,
        54.948247,
        56.6
      ],
      [
        -2.799799,
        54.948274,
        58.2
      ],
      [
        -2.799879,
        54.948278,
        58.4
      ],
      [
        -2.800663,
        54.948232,
        54.6
      ],
      [
        -2.801221,
        54.948033,
        55.6
      ],
      [
        -2.80127,
        54.948034,
        54.8
      ],
      [
        -2.801978,
        54.947994,
        58.6
      ],
      [
        -2.802172,
        54.947986,
        59.4
      ],
      [
        -2.802966,
        54.947973,
        57
      ],
      [
        -2.803751,
        54.947907,
        57.6
      ],
      [
        -2.803796,
        54.947899,
        57.6
      ],
      [
        -2.803859,
        54.947901,
        56.6
      ],
      [
        -2.803979,
        54.947892,
        56
      ],
      [
        -2.804201,
        54.947878,
        56.6
      ],
      [
        -2.804597,
        54.947856,
        56.2
      ],
      [
        -2.804675,
        54.947854,
        55.4
      ],
      [
        -2.805047,
        54.947834,
        55
      ],
      [
        -2.805833,
        54.94783,
        54.4
      ],
      [
        -2.806301,
        54.947813,
        54.4
      ],
      [
        -2.807088,
        54.947736,
        59.2
      ],
      [
        -2.807121,
        54.947733,
        59.4
      ],
      [
        -2.807183,
        54.94773,
        60.2
      ],
      [
        -2.807213,
        54.947725,
        60
      ],
      [
        -2.807245,
        54.947725,
        60.2
      ],
      [
        -2.80733,
        54.947717,
        60.6
      ],
      [
        -2.807866,
        54.947717,
        55.2
      ],
      [
        -2.808657,
        54.947699,
        49.8
      ],
      [
        -2.809242,
        54.94769,
        48.8
      ],
      [
        -2.8093,
        54.947689,
        49.2
      ],
      [
        -2.809331,
        54.94769,
        49.2
      ],
      [
        -2.809362,
        54.947691,
        49.6
      ],
      [
        -2.809658,
        54.947677,
        53.8
      ],
      [
        -2.810098,
        54.947626,
        49.8
      ],
      [
        -2.810139,
        54.947617,
        49.2
      ],
      [
        -2.810208,
        54.947605,
        49
      ],
      [
        -2.810421,
        54.947573,
        47.4
      ],
      [
        -2.810725,
        54.947541,
        46.2
      ],
      [
        -2.810829,
        54.947531,
        45.6
      ],
      [
        -2.810962,
        54.947495,
        46.4
      ],
      [
        -2.811227,
        54.947402,
        48.4
      ],
      [
        -2.81155,
        54.947316,
        50.6
      ],
      [
        -2.811996,
        54.947223,
        50
      ],
      [
        -2.812149,
        54.947203,
        48.2
      ],
      [
        -2.812234,
        54.947214,
        46.8
      ],
      [
        -2.812726,
        54.94713,
        44.6
      ],
      [
        -2.81275,
        54.94712,
        44.8
      ],
      [
        -2.81279,
        54.947096,
        44.8
      ],
      [
        -2.812835,
        54.947075,
        45
      ],
      [
        -2.812902,
        54.947044,
        45.4
      ],
      [
        -2.812928,
        54.947034,
        45.4
      ],
      [
        -2.812973,
        54.947021,
        45.4
      ],
      [
        -2.812998,
        54.947016,
        45.2
      ],
      [
        -2.813119,
        54.946993,
        45.4
      ],
      [
        -2.813169,
        54.946978,
        45.2
      ],
      [
        -2.813633,
        54.946874,
        43.4
      ],
      [
        -2.813987,
        54.946821,
        42.2
      ],
      [
        -2.814161,
        54.946791,
        45.4
      ],
      [
        -2.814248,
        54.946767,
        46
      ],
      [
        -2.81493,
        54.946624,
        43.8
      ],
      [
        -2.815094,
        54.946585,
        44.2
      ],
      [
        -2.815819,
        54.946417,
        45.8
      ],
      [
        -2.816076,
        54.94635,
        43.2
      ],
      [
        -2.816216,
        54.946313,
        42.8
      ],
      [
        -2.816687,
        54.946242,
        38
      ],
      [
        -2.816965,
        54.946191,
        37.6
      ],
      [
        -2.817006,
        54.946177,
        37.2
      ],
      [
        -2.81706,
        54.946162,
        36.6
      ],
      [
        -2.817204,
        54.94613,
        37
      ],
      [
        -2.817295,
        54.94611,
        37.4
      ],
      [
        -2.817716,
        54.946031,
        36.2
      ],
      [
        -2.817803,
        54.946004,
        37.6
      ],
      [
        -2.817993,
        54.946009,
        38.6
      ],
      [
        -2.81834,
        54.945984,
        38.8
      ],
      [
        -2.819074,
        54.945811,
        43.2
      ],
      [
        -2.819492,
        54.94574,
        39.2
      ],
      [
        -2.819597,
        54.945723,
        38.2
      ],
      [
        -2.820294,
        54.945572,
        40.8
      ],
      [
        -2.820397,
        54.945552,
        41.6
      ],
      [
        -2.820761,
        54.945488,
        41.4
      ],
      [
        -2.820925,
        54.945453,
        41
      ],
      [
        -2.82118,
        54.945412,
        40.6
      ],
      [
        -2.82132,
        54.945389,
        40
      ],
      [
        -2.821416,
        54.945377,
        39.8
      ],
      [
        -2.821548,
        54.945348,
        40.4
      ],
      [
        -2.822165,
        54.945224,
        40.4
      ],
      [
        -2.822233,
        54.945207,
        40.6
      ],
      [
        -2.822548,
        54.945144,
        42
      ],
      [
        -2.822632,
        54.945139,
        42.2
      ],
      [
        -2.822752,
        54.94511,
        42.8
      ],
      [
        -2.822734,
        54.945077,
        42.8
      ],
      [
        -2.822727,
        54.945075,
        42.6
      ],
      [
        -2.822726,
        54.945075,
        42.4
      ],
      [
        -2.822726,
        54.945075,
        42.4
      ],
      [
        -2.822727,
        54.945075,
        42.4
      ],
      [
        -2.822778,
        54.945076,
        42.4
      ],
      [
        -2.82341,
        54.944988,
        39.8
      ],
      [
        -2.823547,
        54.944962,
        39.4
      ],
      [
        -2.823547,
        54.944962,
        39.4
      ],
      [
        -2.823592,
        54.944956,
        39.2
      ],
      [
        -2.823634,
        54.944947,
        39
      ],
      [
        -2.823675,
        54.944938,
        39
      ],
      [
        -2.823836,
        54.944914,
        39.6
      ],
      [
        -2.823904,
        54.944906,
        40.2
      ],
      [
        -2.823924,
        54.944904,
        40.4
      ],
      [
        -2.823943,
        54.944896,
        40.6
      ],
      [
        -2.824059,
        54.944871,
        40.6
      ],
      [
        -2.824145,
        54.94485,
        40.4
      ],
      [
        -2.824174,
        54.944844,
        40
      ],
      [
        -2.824259,
        54.944826,
        40.6
      ],
      [
        -2.824303,
        54.944815,
        41
      ],
      [
        -2.824507,
        54.944775,
        41.2
      ],
      [
        -2.824532,
        54.944768,
        41.4
      ],
      [
        -2.824576,
        54.944753,
        41.6
      ],
      [
        -2.824766,
        54.944713,
        42.4
      ],
      [
        -2.82479,
        54.944704,
        42.4
      ],
      [
        -2.825034,
        54.94468,
        40
      ],
      [
        -2.825075,
        54.944688,
        39.8
      ],
      [
        -2.825089,
        54.944694,
        39.8
      ],
      [
        -2.825092,
        54.9447,
        40
      ],
      [
        -2.825092,
        54.9447,
        40
      ],
      [
        -2.825091,
        54.9447,
        40
      ],
      [
        -2.825108,
        54.944703,
        40.2
      ],
      [
        -2.825185,
        54.9447,
        40
      ],
      [
        -2.825234,
        54.944697,
        40
      ],
      [
        -2.825298,
        54.944685,
        40
      ],
      [
        -2.825403,
        54.944678,
        40.2
      ],
      [
        -2.825459,
        54.944678,
        40.2
      ],
      [
        -2.825525,
        54.944673,
        40.4
      ],
      [
        -2.82563,
        54.94466,
        40.6
      ],
      [
        -2.825715,
        54.944646,
        39.8
      ],
      [
        -2.8258,
        54.944625,
        39.4
      ],
      [
        -2.825854,
        54.944602,
        39.4
      ],
      [
        -2.825871,
        54.944597,
        39.6
      ],
      [
        -2.82598,
        54.944584,
        39.8
      ],
      [
        -2.826086,
        54.944569,
        39.2
      ],
      [
        -2.826136,
        54.944554,
        39.2
      ],
      [
        -2.826193,
        54.944543,
        38.6
      ],
      [
        -2.82642,
        54.944482,
        38
      ],
      [
        -2.826601,
        54.944433,
        39
      ],
      [
        -2.827168,
        54.944301,
        39.6
      ],
      [
        -2.827345,
        54.944275,
        40.8
      ],
      [
        -2.827544,
        54.944229,
        42
      ],
      [
        -2.827747,
        54.944219,
        38.2
      ],
      [
        -2.827828,
        54.944213,
        36.2
      ],
      [
        -2.827879,
        54.944194,
        36.2
      ],
      [
        -2.828098,
        54.944131,
        35.4
      ],
      [
        -2.828325,
        54.944089,
        35.4
      ],
      [
        -2.828929,
        54.943959,
        36.4
      ],
      [
        -2.829663,
        54.943807,
        34.8
      ],
      [
        -2.830413,
        54.943649,
        36
      ],
      [
        -2.830482,
        54.94363,
        35.6
      ],
      [
        -2.831103,
        54.94348,
        40.6
      ],
      [
        -2.831855,
        54.943367,
        36.6
      ],
      [
        -2.832441,
        54.943191,
        37.6
      ],
      [
        -2.832532,
        54.94318,
        37.8
      ],
      [
        -2.832555,
        54.943175,
        37.8
      ],
      [
        -2.832576,
        54.943171,
        38
      ],
      [
        -2.832732,
        54.943147,
        40.6
      ],
      [
        -2.833212,
        54.943052,
        38.4
      ],
      [
        -2.833349,
        54.943001,
        38.2
      ],
      [
        -2.833385,
        54.943005,
        39.4
      ],
      [
        -2.833409,
        54.942977,
        40
      ],
      [
        -2.833637,
        54.942948,
        39.6
      ],
      [
        -2.834079,
        54.94282,
        38.2
      ],
      [
        -2.834411,
        54.942765,
        37.4
      ],
      [
        -2.834772,
        54.942709,
        38
      ],
      [
        -2.835186,
        54.942632,
        37.8
      ],
      [
        -2.835413,
        54.942582,
        36.2
      ],
      [
        -2.836163,
        54.942423,
        35.4
      ],
      [
        -2.836936,
        54.942314,
        33.6
      ],
      [
        -2.837234,
        54.942264,
        32.2
      ],
      [
        -2.83734,
        54.94226,
        31.2
      ],
      [
        -2.837363,
        54.942254,
        30.8
      ],
      [
        -2.837501,
        54.942211,
        30.8
      ],
      [
        -2.837737,
        54.942138,
        33.2
      ],
      [
        -2.837934,
        54.942109,
        35.8
      ],
      [
        -2.838621,
        54.942012,
        32.8
      ],
      [
        -2.838643,
        54.942006,
        32.8
      ],
      [
        -2.838748,
        54.941982,
        32.2
      ],
      [
        -2.838772,
        54.941975,
        31.8
      ],
      [
        -2.838894,
        54.941957,
        30.4
      ],
      [
        -2.839066,
        54.941926,
        30.4
      ],
      [
        -2.839417,
        54.941852,
        30.4
      ],
      [
        -2.839622,
        54.941824,
        30.6
      ],
      [
        -2.84037,
        54.941695,
        30
      ],
      [
        -2.840458,
        54.94168,
        30.2
      ],
      [
        -2.840594,
        54.941661,
        30.4
      ],
      [
        -2.840733,
        54.941643,
        31.4
      ],
      [
        -2.840937,
        54.941616,
        30.8
      ],
      [
        -2.841528,
        54.941512,
        28
      ],
      [
        -2.841992,
        54.941424,
        28.6
      ],
      [
        -2.842445,
        54.941349,
        28.6
      ],
      [
        -2.842735,
        54.941305,
        30
      ],
      [
        -2.842902,
        54.941272,
        29.4
      ],
      [
        -2.843064,
        54.941257,
        29.6
      ],
      [
        -2.843764,
        54.94111,
        30.4
      ],
      [
        -2.843782,
        54.941109,
        30.6
      ],
      [
        -2.84399,
        54.941042,
        30.2
      ],
      [
        -2.844707,
        54.940925,
        28.4
      ],
      [
        -2.845176,
        54.940865,
        28.2
      ],
      [
        -2.84532,
        54.940829,
        29.6
      ],
      [
        -2.845371,
        54.94082,
        30.4
      ],
      [
        -2.845832,
        54.940721,
        31.8
      ],
      [
        -2.846446,
        54.940612,
        29
      ],
      [
        -2.8472,
        54.940457,
        32
      ],
      [
        -2.847835,
        54.940344,
        30.4
      ],
      [
        -2.84823,
        54.940276,
        33.2
      ],
      [
        -2.848633,
        54.94016,
        34
      ],
      [
        -2.848978,
        54.940101,
        35.8
      ],
      [
        -2.849351,
        54.940038,
        38
      ],
      [
        -2.849426,
        54.940027,
        37.4
      ],
      [
        -2.85002,
        54.939919,
        34.6
      ],
      [
        -2.850151,
        54.939891,
        33.4
      ],
      [
        -2.8503,
        54.939851,
        32.2
      ],
      [
        -2.85056,
        54.939822,
        34.2
      ],
      [
        -2.850653,
        54.939806,
        34.2
      ],
      [
        -2.850674,
        54.939801,
        33.8
      ],
      [
        -2.850811,
        54.939773,
        32.6
      ],
      [
        -2.851228,
        54.939659,
        33.8
      ],
      [
        -2.851352,
        54.939641,
        35
      ],
      [
        -2.851522,
        54.939626,
        34.2
      ],
      [
        -2.851733,
        54.939589,
        34.8
      ],
      [
        -2.851754,
        54.939589,
        34.6
      ],
      [
        -2.851891,
        54.939572,
        32.6
      ],
      [
        -2.852111,
        54.939528,
        33.4
      ],
      [
        -2.852252,
        54.939502,
        33.4
      ],
      [
        -2.852483,
        54.939461,
        31
      ],
      [
        -2.853227,
        54.939311,
        29
      ],
      [
        -2.853514,
        54.939274,
        26.2
      ],
      [
        -2.853644,
        54.939252,
        25.6
      ],
      [
        -2.853909,
        54.939183,
        27.8
      ],
      [
        -2.85452,
        54.939088,
        27
      ],
      [
        -2.854948,
        54.939005,
        27.4
      ],
      [
        -2.855013,
        54.93893,
        26.6
      ],
      [
        -2.855014,
        54.938909,
        26.4
      ],
      [
        -2.855013,
        54.938794,
        25.8
      ],
      [
        -2.854838,
        54.938352,
        26.4
      ],
      [
        -2.854756,
        54.938154,
        26.6
      ],
      [
        -2.85469,
        54.938008,
        29.8
      ],
      [
        -2.854534,
        54.937759,
        30
      ],
      [
        -2.854446,
        54.937545,
        29.8
      ],
      [
        -2.854392,
        54.937413,
        28
      ],
      [
        -2.854309,
        54.93735,
        26.2
      ],
      [
        -2.854286,
        54.937323,
        27
      ],
      [
        -2.854202,
        54.937264,
        28.2
      ],
      [
        -2.854151,
        54.937209,
        29.2
      ],
      [
        -2.854123,
        54.937196,
        29
      ],
      [
        -2.854096,
        54.937179,
        28.8
      ],
      [
        -2.853831,
        54.937021,
        29.6
      ],
      [
        -2.853646,
        54.936905,
        31.2
      ],
      [
        -2.853637,
        54.936898,
        31
      ],
      [
        -2.853601,
        54.936866,
        31.4
      ],
      [
        -2.853573,
        54.936851,
        31.8
      ],
      [
        -2.853561,
        54.936843,
        31.8
      ],
      [
        -2.853549,
        54.936834,
        31.8
      ],
      [
        -2.853534,
        54.936825,
        31.8
      ],
      [
        -2.853364,
        54.936709,
        31.8
      ],
      [
        -2.853313,
        54.936666,
        32.4
      ],
      [
        -2.853249,
        54.936626,
        32.8
      ],
      [
        -2.853172,
        54.936569,
        32.4
      ],
      [
        -2.852893,
        54.936261,
        31.2
      ],
      [
        -2.852875,
        54.936226,
        30
      ],
      [
        -2.852825,
        54.936113,
        30.4
      ],
      [
        -2.852742,
        54.935969,
        30.6
      ],
      [
        -2.852717,
        54.935945,
        30.6
      ],
      [
        -2.852704,
        54.935917,
        31.8
      ],
      [
        -2.852552,
        54.935695,
        30.6
      ],
      [
        -2.852332,
        54.935389,
        36
      ],
      [
        -2.851998,
        54.934988,
        29.2
      ],
      [
        -2.851967,
        54.93493,
        28.2
      ],
      [
        -2.851951,
        54.934902,
        27.8
      ],
      [
        -2.851856,
        54.934698,
        27
      ],
      [
        -2.851833,
        54.934645,
        27.4
      ],
      [
        -2.851685,
        54.934479,
        32.6
      ],
      [
        -2.851558,
        54.93429,
        35.8
      ],
      [
        -2.851497,
        54.934226,
        35
      ],
      [
        -2.851294,
        54.933888,
        32.8
      ],
      [
        -2.851201,
        54.933784,
        34.4
      ],
      [
        -2.851031,
        54.933345,
        31.8
      ],
      [
        -2.851032,
        54.932933,
        38.4
      ],
      [
        -2.851052,
        54.932899,
        39.6
      ],
      [
        -2.851059,
        54.932889,
        40
      ],
      [
        -2.851109,
        54.93279,
        39.8
      ],
      [
        -2.851037,
        54.932516,
        37.2
      ],
      [
        -2.851034,
        54.932455,
        36.4
      ],
      [
        -2.851023,
        54.932331,
        36.4
      ],
      [
        -2.850962,
        54.932227,
        35
      ],
      [
        -2.850896,
        54.931948,
        31.2
      ],
      [
        -2.850817,
        54.931808,
        29.6
      ],
      [
        -2.85085,
        54.931731,
        29
      ],
      [
        -2.850953,
        54.931682,
        28.2
      ],
      [
        -2.850999,
        54.931648,
        27.8
      ],
      [
        -2.8512,
        54.931535,
        26.8
      ],
      [
        -2.851475,
        54.931398,
        26.2
      ],
      [
        -2.852087,
        54.931176,
        25
      ],
      [
        -2.852244,
        54.93112,
        24.6
      ],
      [
        -2.852335,
        54.931085,
        24.6
      ],
      [
        -2.85255,
        54.931001,
        25.4
      ],
      [
        -2.852992,
        54.930948,
        25.8
      ],
      [
        -2.853195,
        54.930968,
        26
      ],
      [
        -2.853733,
        54.93105,
        29.4
      ],
      [
        -2.853731,
        54.931022,
        27.8
      ],
      [
        -2.853605,
        54.930921,
        27.4
      ],
      [
        -2.853585,
        54.930878,
        28.8
      ],
      [
        -2.853487,
        54.930571,
        33.6
      ],
      [
        -2.853351,
        54.930128,
        34
      ],
      [
        -2.853233,
        54.929965,
        30.4
      ],
      [
        -2.853195,
        54.929897,
        28.8
      ],
      [
        -2.853086,
        54.929691,
        29.4
      ],
      [
        -2.853091,
        54.929664,
        30.8
      ],
      [
        -2.853092,
        54.929664,
        30.8
      ],
      [
        -2.853095,
        54.929664,
        30.8
      ],
      [
        -2.853086,
        54.929662,
        30.8
      ],
      [
        -2.853076,
        54.929657,
        30.8
      ],
      [
        -2.852977,
        54.929541,
        31
      ],
      [
        -2.852985,
        54.92953,
        30.8
      ],
      [
        -2.852957,
        54.92947,
        31.4
      ],
      [
        -2.852946,
        54.929456,
        32.2
      ],
      [
        -2.852932,
        54.929416,
        32
      ],
      [
        -2.852911,
        54.929371,
        31.4
      ],
      [
        -2.852845,
        54.929231,
        30.8
      ],
      [
        -2.852918,
        54.929216,
        29.8
      ],
      [
        -2.852955,
        54.929213,
        30
      ],
      [
        -2.853117,
        54.92918,
        30.6
      ],
      [
        -2.853453,
        54.929116,
        33.8
      ],
      [
        -2.854191,
        54.929029,
        29.4
      ],
      [
        -2.854966,
        54.928932,
        26.6
      ],
      [
        -2.855014,
        54.928922,
        26.2
      ],
      [
        -2.855063,
        54.928907,
        26.6
      ],
      [
        -2.855115,
        54.928905,
        27.2
      ],
      [
        -2.855876,
        54.928784,
        26.8
      ],
      [
        -2.856643,
        54.928706,
        30.4
      ],
      [
        -2.85689,
        54.928683,
        31.8
      ],
      [
        -2.857313,
        54.928652,
        28.2
      ],
      [
        -2.857774,
        54.928621,
        21.8
      ],
      [
        -2.858057,
        54.928572,
        24.8
      ],
      [
        -2.858254,
        54.928544,
        26
      ],
      [
        -2.858379,
        54.928531,
        24.4
      ],
      [
        -2.858705,
        54.92849,
        25
      ],
      [
        -2.858906,
        54.928456,
        25.2
      ],
      [
        -2.859079,
        54.928427,
        25.2
      ],
      [
        -2.859142,
        54.928415,
        25.6
      ],
      [
        -2.859869,
        54.928259,
        28.6
      ],
      [
        -2.860068,
        54.928218,
        26.8
      ],
      [
        -2.860516,
        54.928087,
        21.8
      ],
      [
        -2.861263,
        54.927982,
        20
      ],
      [
        -2.861722,
        54.927877,
        24.2
      ],
      [
        -2.861859,
        54.927878,
        22.6
      ],
      [
        -2.861857,
        54.927868,
        23.4
      ],
      [
        -2.861906,
        54.927856,
        22.2
      ],
      [
        -2.861978,
        54.927845,
        22.4
      ],
      [
        -2.862115,
        54.927824,
        21.6
      ],
      [
        -2.862139,
        54.927819,
        21.6
      ],
      [
        -2.862161,
        54.927812,
        21.6
      ],
      [
        -2.862214,
        54.927804,
        21.4
      ],
      [
        -2.862328,
        54.927791,
        21.4
      ],
      [
        -2.862433,
        54.927783,
        22.6
      ],
      [
        -2.862513,
        54.927769,
        22.6
      ],
      [
        -2.862605,
        54.927742,
        20.4
      ],
      [
        -2.86275,
        54.927712,
        18.2
      ],
      [
        -2.862774,
        54.927708,
        18.2
      ],
      [
        -2.862816,
        54.9277,
        18.2
      ],
      [
        -2.862956,
        54.927673,
        20
      ],
      [
        -2.863331,
        54.927616,
        20.8
      ],
      [
        -2.863828,
        54.927516,
        22
      ],
      [
        -2.864274,
        54.92737,
        22.8
      ],
      [
        -2.864418,
        54.927313,
        23.4
      ],
      [
        -2.864436,
        54.927307,
        23.4
      ],
      [
        -2.864457,
        54.927301,
        23.2
      ],
      [
        -2.865218,
        54.927175,
        25.4
      ],
      [
        -2.865344,
        54.927171,
        24.2
      ],
      [
        -2.86536,
        54.927171,
        23.6
      ],
      [
        -2.865411,
        54.927165,
        23.4
      ],
      [
        -2.865524,
        54.927168,
        22.6
      ],
      [
        -2.865648,
        54.927177,
        22.6
      ],
      [
        -2.86565,
        54.927175,
        22
      ],
      [
        -2.865651,
        54.927175,
        21.8
      ],
      [
        -2.865661,
        54.927176,
        22.2
      ],
      [
        -2.865702,
        54.927174,
        21.4
      ],
      [
        -2.865785,
        54.927172,
        21
      ],
      [
        -2.865847,
        54.927177,
        20.2
      ],
      [
        -2.865866,
        54.927176,
        20.6
      ],
      [
        -2.865888,
        54.927169,
        21.2
      ],
      [
        -2.865864,
        54.927142,
        21.6
      ],
      [
        -2.865848,
        54.927133,
        21.8
      ],
      [
        -2.86579,
        54.92712,
        23.6
      ],
      [
        -2.865701,
        54.927093,
        24
      ],
      [
        -2.865688,
        54.927082,
        24
      ],
      [
        -2.865677,
        54.927059,
        23.2
      ],
      [
        -2.865672,
        54.927031,
        23
      ],
      [
        -2.865671,
        54.927003,
        22.6
      ],
      [
        -2.865699,
        54.926981,
        22
      ],
      [
        -2.865716,
        54.926972,
        21.8
      ],
      [
        -2.865979,
        54.926834,
        19.6
      ],
      [
        -2.866421,
        54.926585,
        21.2
      ],
      [
        -2.866675,
        54.92644,
        23.8
      ],
      [
        -2.867016,
        54.926273,
        20.8
      ],
      [
        -2.867027,
        54.926267,
        20
      ],
      [
        -2.86704,
        54.926252,
        19.6
      ],
      [
        -2.867067,
        54.926228,
        19.6
      ],
      [
        -2.86708,
        54.926222,
        19.6
      ],
      [
        -2.867094,
        54.926215,
        19.2
      ],
      [
        -2.867167,
        54.926171,
        19.2
      ],
      [
        -2.867634,
        54.925815,
        22.6
      ],
      [
        -2.867715,
        54.925726,
        19.6
      ],
      [
        -2.867782,
        54.925639,
        23.2
      ],
      [
        -2.867788,
        54.925578,
        22.4
      ],
      [
        -2.867922,
        54.92527,
        21.4
      ],
      [
        -2.868036,
        54.925179,
        21.2
      ],
      [
        -2.868279,
        54.925097,
        23.8
      ],
      [
        -2.868341,
        54.925092,
        23.4
      ],
      [
        -2.868472,
        54.925071,
        22.4
      ],
      [
        -2.868516,
        54.925062,
        22.6
      ],
      [
        -2.868708,
        54.925035,
        22.2
      ],
      [
        -2.868991,
        54.924976,
        22.8
      ],
      [
        -2.869344,
        54.924919,
        23.2
      ],
      [
        -2.869818,
        54.924846,
        23.6
      ],
      [
        -2.870032,
        54.924819,
        22.6
      ],
      [
        -2.870174,
        54.924793,
        22.2
      ],
      [
        -2.87093,
        54.924668,
        21.6
      ],
      [
        -2.871117,
        54.924642,
        21
      ],
      [
        -2.871514,
        54.92456,
        21
      ],
      [
        -2.871577,
        54.924546,
        21
      ],
      [
        -2.871821,
        54.924482,
        21.4
      ],
      [
        -2.871967,
        54.924441,
        21.2
      ],
      [
        -2.872098,
        54.924405,
        22
      ],
      [
        -2.872223,
        54.924375,
        22.4
      ],
      [
        -2.872914,
        54.924155,
        21
      ],
      [
        -2.873301,
        54.924027,
        20.6
      ],
      [
        -2.873698,
        54.923899,
        20.2
      ],
      [
        -2.873974,
        54.923822,
        19.6
      ],
      [
        -2.874748,
        54.923722,
        19.2
      ],
      [
        -2.874994,
        54.923887,
        19.2
      ],
      [
        -2.875052,
        54.924273,
        18.4
      ],
      [
        -2.875118,
        54.924294,
        18.6
      ],
      [
        -2.875904,
        54.924314,
        17.2
      ],
      [
        -2.876433,
        54.924344,
        18
      ],
      [
        -2.876475,
        54.924342,
        18.4
      ],
      [
        -2.876703,
        54.924331,
        20.8
      ],
      [
        -2.876725,
        54.924328,
        20.6
      ],
      [
        -2.876885,
        54.924298,
        20.2
      ],
      [
        -2.877058,
        54.92426,
        19.6
      ],
      [
        -2.877162,
        54.924236,
        19.8
      ],
      [
        -2.877703,
        54.924124,
        20.6
      ],
      [
        -2.877969,
        54.924073,
        20.6
      ],
      [
        -2.878113,
        54.92404,
        22.4
      ],
      [
        -2.878395,
        54.923973,
        20.4
      ],
      [
        -2.878772,
        54.923886,
        19
      ],
      [
        -2.879507,
        54.923716,
        17
      ],
      [
        -2.880188,
        54.923484,
        16.4
      ],
      [
        -2.880827,
        54.923207,
        15.8
      ],
      [
        -2.881375,
        54.922892,
        15
      ],
      [
        -2.881828,
        54.922517,
        14.6
      ],
      [
        -2.882064,
        54.922235,
        16.6
      ],
      [
        -2.882086,
        54.922196,
        16.8
      ],
      [
        -2.88218,
        54.92205,
        15.8
      ],
      [
        -2.882193,
        54.922023,
        15.6
      ],
      [
        -2.882259,
        54.921565,
        17.6
      ],
      [
        -2.882202,
        54.921357,
        19.6
      ],
      [
        -2.882231,
        54.921096,
        17.2
      ],
      [
        -2.882224,
        54.921068,
        16.8
      ],
      [
        -2.882204,
        54.920999,
        16.8
      ],
      [
        -2.882296,
        54.920769,
        14.6
      ],
      [
        -2.882174,
        54.920315,
        15.8
      ],
      [
        -2.882309,
        54.920036,
        16.6
      ],
      [
        -2.882448,
        54.919992,
        16.8
      ],
      [
        -2.883066,
        54.920113,
        15
      ],
      [
        -2.883592,
        54.920246,
        14.6
      ],
      [
        -2.883821,
        54.920306,
        14
      ],
      [
        -2.88387,
        54.92032,
        13
      ],
      [
        -2.88415,
        54.920406,
        12.6
      ],
      [
        -2.884663,
        54.920555,
        13.4
      ],
      [
        -2.884809,
        54.920592,
        13
      ],
      [
        -2.885117,
        54.920686,
        14.2
      ],
      [
        -2.885308,
        54.920749,
        15
      ],
      [
        -2.885609,
        54.920856,
        12.8
      ],
      [
        -2.886287,
        54.921082,
        13.8
      ],
      [
        -2.886579,
        54.92134,
        13.2
      ],
      [
        -2.886685,
        54.921728,
        14.2
      ],
      [
        -2.886429,
        54.92211,
        18
      ],
      [
        -2.886539,
        54.922342,
        19
      ],
      [
        -2.886662,
        54.92241,
        21.4
      ],
      [
        -2.886721,
        54.922438,
        21.6
      ],
      [
        -2.886826,
        54.922487,
        21
      ],
      [
        -2.886953,
        54.922632,
        20
      ],
      [
        -2.887058,
        54.922754,
        21
      ],
      [
        -2.887213,
        54.922999,
        20.8
      ],
      [
        -2.88744,
        54.923256,
        20
      ],
      [
        -2.887773,
        54.923663,
        20.2
      ],
      [
        -2.887789,
        54.923707,
        20.6
      ],
      [
        -2.888267,
        54.924078,
        14.6
      ],
      [
        -2.888847,
        54.924338,
        18.8
      ],
      [
        -2.888938,
        54.924341,
        19.4
      ],
      [
        -2.888986,
        54.924338,
        19.6
      ],
      [
        -2.889073,
        54.924317,
        20
      ],
      [
        -2.889146,
        54.924301,
        20
      ],
      [
        -2.889175,
        54.924296,
        20.8
      ],
      [
        -2.88915,
        54.924328,
        22.4
      ],
      [
        -2.889157,
        54.924354,
        23
      ],
      [
        -2.889184,
        54.924392,
        23.4
      ]
    ]
  }
}
