{
  "type": "Feature",
  "properties": {
    "id": "strava-2711028768",
    "activity": "hiking",
    "name": "Morning Activity",
    "date": "2019-09-15T09:32:35.000Z",
    "distanceKm": 16.47,
    "movingTimeSeconds": 12824,
    "elapsedTimeSeconds": 16067,
    "ascentM": 306,
    "descentM": 841,
    "providers": [
      "Strava"
    ]
  },
  "geometry": {
    "type": "LineString",
    "coordinates": [
      [
        0.30686658807098866,
        51.2929727230221,
        78.39999999999998
      ],
      [
        0.3068712819367647,
        51.292972806841135,
        78.39999999999998
      ],
      [
        0.306902714073658,
        51.29293869249523,
        84
      ],
      [
        0.3068882133811712,
        51.29290365613997,
        85
      ],
      [
        0.3067981079220772,
        51.29282746464014,
        86
      ],
      [
        0.3067802544683218,
        51.29280642606318,
        86
      ],
      [
        0.3067618142813444,
        51.29278446547687,
        86
      ],
      [
        0.3067121934145689,
        51.29274004139006,
        86
      ],
      [
        0.30669283121824265,
        51.29273325204849,
        85.60000000000002
      ],
      [
        0.3066594712436199,
        51.29271791316569,
        85.60000000000002
      ],
      [
        0.3065576311200857,
        51.292702574282885,
        84.79999999999995
      ],
      [
        0.30627910047769547,
        51.292717242613435,
        83.60000000000002
      ],
      [
        0.3062579780817032,
        51.292718248441815,
        83.60000000000002
      ],
      [
        0.3062340896576643,
        51.29272202029824,
        83.60000000000002
      ],
      [
        0.30621095560491085,
        51.292724618688226,
        83.60000000000002
      ],
      [
        0.3060496039688587,
        51.292741633951664,
        82.39999999999998
      ],
      [
        0.3060092031955719,
        51.29274004139006,
        82.20000000000005
      ],
      [
        0.3059356939047575,
        51.292733335867524,
        80.60000000000002
      ],
      [
        0.3059144038707018,
        51.292732916772366,
        80.39999999999998
      ],
      [
        0.30589403584599495,
        51.292733335867524,
        79.79999999999995
      ],
      [
        0.30584164895117283,
        51.292724115774035,
        78.39999999999998
      ],
      [
        0.3058253042399883,
        51.29273015074432,
        77.39999999999998
      ],
      [
        0.3057348635047674,
        51.292732832953334,
        76.60000000000002
      ],
      [
        0.30502650886774063,
        51.29270969890058,
        79.79999999999995
      ],
      [
        0.30464882031083107,
        51.2927361857146,
        79.20000000000005
      ],
      [
        0.3042596485465765,
        51.29272277466953,
        77.79999999999995
      ],
      [
        0.30407105572521687,
        51.29271405749023,
        79
      ],
      [
        0.3039510268718004,
        51.292696287855506,
        80.39999999999998
      ],
      [
        0.3039094526320696,
        51.29269067198038,
        80.79999999999995
      ],
      [
        0.3037587460130453,
        51.29268069751561,
        80.20000000000005
      ],
      [
        0.30343713238835335,
        51.292662089690566,
        83.20000000000005
      ],
      [
        0.30323194339871407,
        51.292659156024456,
        81.79999999999995
      ],
      [
        0.3025073278695345,
        51.292682625353336,
        78.20000000000005
      ],
      [
        0.3023119457066059,
        51.29260660149157,
        77.20000000000005
      ],
      [
        0.3021316509693861,
        51.292440136894584,
        79.20000000000005
      ],
      [
        0.3021317347884178,
        51.29244005307555,
        79.20000000000005
      ],
      [
        0.30213181860744953,
        51.29243996925652,
        79.20000000000005
      ],
      [
        0.30213190242648125,
        51.29243996925652,
        79.20000000000005
      ],
      [
        0.3021320700645447,
        51.29244005307555,
        79.20000000000005
      ],
      [
        0.3021321538835764,
        51.29244005307555,
        79.20000000000005
      ],
      [
        0.3021322377026081,
        51.292440220713615,
        79.20000000000005
      ],
      [
        0.3021892346441746,
        51.29239898175001,
        79.60000000000002
      ],
      [
        0.3022978641092777,
        51.29235925152898,
        79.20000000000005
      ],
      [
        0.3023150470107794,
        51.292351204901934,
        78.79999999999995
      ],
      [
        0.30234656296670437,
        51.292338129132986,
        78.79999999999995
      ],
      [
        0.30252845026552677,
        51.29225607030094,
        75.79999999999995
      ],
      [
        0.30275191180408,
        51.29219823516905,
        76.39999999999998
      ],
      [
        0.30282676219940186,
        51.292135789990425,
        78
      ],
      [
        0.30336747877299786,
        51.29195088520646,
        78
      ],
      [
        0.3040331695228815,
        51.291775703430176,
        81.79999999999995
      ],
      [
        0.304515715688467,
        51.291668666526675,
        85
      ],
      [
        0.30449300073087215,
        51.29162114113569,
        85.79999999999995
      ],
      [
        0.3046755585819483,
        51.291548470035195,
        84.20000000000005
      ],
      [
        0.3046801686286926,
        51.29152868874371,
        84.20000000000005
      ],
      [
        0.3042955230921507,
        51.29120858386159,
        85.60000000000002
      ],
      [
        0.30428999103605747,
        51.29121093079448,
        85
      ],
      [
        0.30428068712353706,
        51.291220234707,
        83.60000000000002
      ],
      [
        0.3042411245405674,
        51.29118469543755,
        81.79999999999995
      ],
      [
        0.30424791388213634,
        51.291043711826205,
        81.60000000000002
      ],
      [
        0.3043008875101805,
        51.29070491530001,
        85
      ],
      [
        0.30430231243371964,
        51.29067063331604,
        85.60000000000002
      ],
      [
        0.3042938467115164,
        51.29045211710036,
        81.60000000000002
      ],
      [
        0.3043117839843035,
        51.290109967812896,
        73.79999999999995
      ],
      [
        0.30437263660132885,
        51.28971258178353,
        77.60000000000002
      ],
      [
        0.3043882269412279,
        51.289485013112426,
        74.79999999999995
      ],
      [
        0.3043887298554182,
        51.289484929293394,
        75
      ],
      [
        0.3043874725699425,
        51.289487360045314,
        75.39999999999998
      ],
      [
        0.304375234991312,
        51.28948719240725,
        74.79999999999995
      ],
      [
        0.3043621592223644,
        51.28946456126869,
        74.39999999999998
      ],
      [
        0.3043615724891424,
        51.2893929798156,
        74
      ],
      [
        0.30441286973655224,
        51.289278734475374,
        72.60000000000002
      ],
      [
        0.30441789887845516,
        51.289263144135475,
        72.60000000000002
      ],
      [
        0.3044229280203581,
        51.28925610333681,
        72.39999999999998
      ],
      [
        0.30442644841969013,
        51.28924839198589,
        72.20000000000005
      ],
      [
        0.3044365905225277,
        51.28922089934349,
        71.60000000000002
      ],
      [
        0.30444715172052383,
        51.28920522518456,
        71.60000000000002
      ],
      [
        0.3044611494988203,
        51.28918066620827,
        71.79999999999995
      ],
      [
        0.304470956325531,
        51.28916482441127,
        71.60000000000002
      ],
      [
        0.3044849541038275,
        51.28909232094884,
        71
      ],
      [
        0.30453105457127094,
        51.28878554329276,
        70
      ],
      [
        0.30454404652118683,
        51.28871890716255,
        69.79999999999995
      ],
      [
        0.30454731546342373,
        51.28870474174619,
        69.79999999999995
      ],
      [
        0.3045461419969797,
        51.2886918336153,
        69.60000000000002
      ],
      [
        0.3045464772731066,
        51.28867708146572,
        69.60000000000002
      ],
      [
        0.3045477345585823,
        51.28854129463434,
        71
      ],
      [
        0.30452778562903404,
        51.28814239986241,
        73.39999999999998
      ],
      [
        0.30451915226876736,
        51.28803502768278,
        72.39999999999998
      ],
      [
        0.30451102182269096,
        51.287860767915845,
        76.79999999999995
      ],
      [
        0.30446022748947144,
        51.28746908158064,
        79.79999999999995
      ],
      [
        0.30412327498197556,
        51.287068761885166,
        82.60000000000002
      ],
      [
        0.3036845661699772,
        51.286706663668156,
        83.79999999999995
      ],
      [
        0.30345188453793526,
        51.28658269532025,
        86.79999999999995
      ],
      [
        0.3029783070087433,
        51.286232667043805,
        89
      ],
      [
        0.3024708665907383,
        51.28590367734432,
        88.20000000000005
      ],
      [
        0.30214556492865086,
        51.28559480421245,
        79.79999999999995
      ],
      [
        0.3022760711610317,
        51.28528291359544,
        75.60000000000002
      ],
      [
        0.30238344334065914,
        51.285169338807464,
        74.60000000000002
      ],
      [
        0.3025090880692005,
        51.28504889085889,
        71
      ],
      [
        0.3028286900371313,
        51.2846495769918,
        53.60000000000002
      ],
      [
        0.30283003114163876,
        51.28438252955675,
        49.60000000000002
      ],
      [
        0.30290840193629265,
        51.28398849628866,
        50.200000000000045
      ],
      [
        0.3029343858361244,
        51.283748522400856,
        50.200000000000045
      ],
      [
        0.30293555930256844,
        51.28368222154677,
        50.799999999999955
      ],
      [
        0.30293505638837814,
        51.28368188627064,
        50.799999999999955
      ],
      [
        0.30293229036033154,
        51.283682473003864,
        50.60000000000002
      ],
      [
        0.30293296091258526,
        51.28368180245161,
        50.60000000000002
      ],
      [
        0.30293011106550694,
        51.283681048080325,
        50.39999999999998
      ],
      [
        0.3029298596084118,
        51.28368088044226,
        50.39999999999998
      ],
      [
        0.3029284346848726,
        51.283680545166135,
        50.39999999999998
      ],
      [
        0.3029270935803652,
        51.28368096426129,
        50
      ],
      [
        0.3029275964945555,
        51.283681550994515,
        50
      ],
      [
        0.3029292728751898,
        51.28367979079485,
        49.799999999999955
      ],
      [
        0.30292809940874577,
        51.28368272446096,
        50
      ],
      [
        0.30292483046650887,
        51.28368280827999,
        50.200000000000045
      ],
      [
        0.3029275964945555,
        51.28367987461388,
        50.39999999999998
      ],
      [
        0.3029223158955574,
        51.283663446083665,
        50
      ],
      [
        0.30292851850390434,
        51.28362958319485,
        49.60000000000002
      ],
      [
        0.3029273450374603,
        51.28361424431205,
        49.39999999999998
      ],
      [
        0.3029289375990629,
        51.283555487170815,
        50.60000000000002
      ],
      [
        0.3029550891369581,
        51.28348181024194,
        51.39999999999998
      ],
      [
        0.3030068054795265,
        51.28332112915814,
        53
      ],
      [
        0.30282843858003616,
        51.28290421329439,
        50.799999999999955
      ],
      [
        0.3027758002281189,
        51.28277630545199,
        49.799999999999955
      ],
      [
        0.3026188910007477,
        51.28260967321694,
        50
      ],
      [
        0.30259902589023113,
        51.282587461173534,
        50
      ],
      [
        0.3023925796151161,
        51.28215227276087,
        53.200000000000045
      ],
      [
        0.3021545335650444,
        51.28172529861331,
        52.200000000000045
      ],
      [
        0.30211069621145725,
        51.281620441004634,
        58.60000000000002
      ],
      [
        0.30212930403649807,
        51.281160190701485,
        63
      ],
      [
        0.3023005463182926,
        51.28075593151152,
        43.39999999999998
      ],
      [
        0.30231647193431854,
        51.280737491324544,
        42.39999999999998
      ],
      [
        0.3027585335075855,
        51.28036349080503,
        51
      ],
      [
        0.3028400056064129,
        51.28015419468284,
        56.200000000000045
      ],
      [
        0.3028721082955599,
        51.28008252941072,
        57.799999999999955
      ],
      [
        0.3030985873192549,
        51.27964231185615,
        53.60000000000002
      ],
      [
        0.303130941465497,
        51.27955924719572,
        52.200000000000045
      ],
      [
        0.3031511418521404,
        51.27951247617602,
        51.799999999999955
      ],
      [
        0.3031542431563139,
        51.27950216643512,
        51.39999999999998
      ],
      [
        0.303152147680521,
        51.279423628002405,
        48.799999999999955
      ],
      [
        0.3031015209853649,
        51.27932480536401,
        47.200000000000045
      ],
      [
        0.3029379900544882,
        51.27887855283916,
        47.200000000000045
      ],
      [
        0.3029217291623354,
        51.27877838909626,
        48
      ],
      [
        0.30291812494397163,
        51.27854101359844,
        47.799999999999955
      ],
      [
        0.30289088375866413,
        51.278085708618164,
        44.60000000000002
      ],
      [
        0.30266012996435165,
        51.27767105586827,
        48.200000000000045
      ],
      [
        0.30229576863348484,
        51.27727258019149,
        47.60000000000002
      ],
      [
        0.3017814550548792,
        51.27695146948099,
        47.39999999999998
      ],
      [
        0.3016857337206602,
        51.27689472399652,
        48.799999999999955
      ],
      [
        0.3011143393814564,
        51.27661217004061,
        43.200000000000045
      ],
      [
        0.30054839327931404,
        51.27631821669638,
        40.60000000000002
      ],
      [
        0.30002125538885593,
        51.27599903382361,
        43.200000000000045
      ],
      [
        0.2996257971972227,
        51.275658728554845,
        51.39999999999998
      ],
      [
        0.29957374557852745,
        51.27559058368206,
        49.200000000000045
      ],
      [
        0.2995226997882128,
        51.27553383819759,
        47.39999999999998
      ],
      [
        0.29932597652077675,
        51.275163693353534,
        53.39999999999998
      ],
      [
        0.2993010822683573,
        51.275069983676076,
        48
      ],
      [
        0.2991445083171129,
        51.27482682466507,
        51.60000000000002
      ],
      [
        0.29889263212680817,
        51.274402029812336,
        49.200000000000045
      ],
      [
        0.2987926360219717,
        51.27409843727946,
        50.200000000000045
      ],
      [
        0.299009894952178,
        51.27391571179032,
        48.200000000000045
      ],
      [
        0.29922807589173317,
        51.27374907955527,
        46
      ],
      [
        0.2992795407772064,
        51.27372359856963,
        45.60000000000002
      ],
      [
        0.299829812720418,
        51.273422269150615,
        47.200000000000045
      ],
      [
        0.30041662976145744,
        51.27315605990589,
        50
      ],
      [
        0.30095189809799194,
        51.272857915610075,
        45.200000000000045
      ],
      [
        0.3013000823557377,
        51.27260151319206,
        38.799999999999955
      ],
      [
        0.30149973928928375,
        51.27216984517872,
        43
      ],
      [
        0.30123998410999775,
        51.271819649264216,
        45.799999999999955
      ],
      [
        0.3011581767350435,
        51.2718082498759,
        46.60000000000002
      ],
      [
        0.30092800967395306,
        51.271804394200444,
        47
      ],
      [
        0.3002056572586298,
        51.27183540724218,
        52.39999999999998
      ],
      [
        0.3000787552446127,
        51.271804478019476,
        55.39999999999998
      ],
      [
        0.30006324872374535,
        51.27173985354602,
        53.799999999999955
      ],
      [
        0.30007196590304375,
        51.271545980125666,
        55.39999999999998
      ],
      [
        0.3000601474195719,
        51.27151899039745,
        55
      ],
      [
        0.30002955347299576,
        51.27106016501784,
        52.39999999999998
      ],
      [
        0.3000102750957012,
        51.27067090943456,
        48.200000000000045
      ],
      [
        0.29999040998518467,
        51.270371759310365,
        48
      ],
      [
        0.3001843672245741,
        51.27004721201956,
        51
      ],
      [
        0.3001842834055424,
        51.27004712820053,
        51
      ],
      [
        0.3001821879297495,
        51.27004662528634,
        50.799999999999955
      ],
      [
        0.30018202029168606,
        51.27003824338317,
        51.200000000000045
      ],
      [
        0.30018310993909836,
        51.26994235441089,
        48.60000000000002
      ],
      [
        0.30019928701221943,
        51.269826432690024,
        48.39999999999998
      ],
      [
        0.3002029750496149,
        51.26981805078685,
        48.200000000000045
      ],
      [
        0.300210602581501,
        51.26979801803827,
        49
      ],
      [
        0.3002017177641392,
        51.269762981683016,
        49.200000000000045
      ],
      [
        0.30019056983292103,
        51.269718976691365,
        49.200000000000045
      ],
      [
        0.30017875134944916,
        51.2696722894907,
        49
      ],
      [
        0.3001845348626375,
        51.269659297540784,
        49
      ],
      [
        0.30018151737749577,
        51.26964312046766,
        49.200000000000045
      ],
      [
        0.30014983378350735,
        51.26959467306733,
        49.39999999999998
      ],
      [
        0.299808606505394,
        51.26922804862261,
        55.200000000000045
      ],
      [
        0.29977683909237385,
        51.26919108442962,
        56.39999999999998
      ],
      [
        0.29975286684930325,
        51.269171722233295,
        56.39999999999998
      ],
      [
        0.2997396234422922,
        51.26916367560625,
        56.39999999999998
      ],
      [
        0.2997287269681692,
        51.269152192398906,
        56.39999999999998
      ],
      [
        0.2994284871965647,
        51.26887961290777,
        57.39999999999998
      ],
      [
        0.2993305865675211,
        51.26881021074951,
        59
      ],
      [
        0.29932438395917416,
        51.26879964955151,
        59
      ],
      [
        0.299126822501421,
        51.26862924546003,
        60
      ],
      [
        0.2989647164940834,
        51.26853905618191,
        62.799999999999955
      ],
      [
        0.29895951971411705,
        51.26853469759226,
        63.200000000000045
      ],
      [
        0.2989348769187927,
        51.26852103509009,
        63
      ],
      [
        0.29892632737755775,
        51.26851382665336,
        62.60000000000002
      ],
      [
        0.2988668158650398,
        51.26845850609243,
        62.799999999999955
      ],
      [
        0.298794312402606,
        51.26838264986873,
        63.799999999999955
      ],
      [
        0.2987844217568636,
        51.26837485469878,
        64
      ],
      [
        0.29876296408474445,
        51.26836219802499,
        64.39999999999998
      ],
      [
        0.2987518161535263,
        51.26835264265537,
        64.79999999999995
      ],
      [
        0.29874552972614765,
        51.26834719441831,
        65
      ],
      [
        0.29873563908040524,
        51.26834233291447,
        65
      ],
      [
        0.2987075597047806,
        51.26831886358559,
        65.20000000000005
      ],
      [
        0.2986988425254822,
        51.26831190660596,
        65
      ],
      [
        0.2986879460513592,
        51.26830511726439,
        65.20000000000005
      ],
      [
        0.2986243274062872,
        51.26825675368309,
        64
      ],
      [
        0.2984332200139761,
        51.268105879426,
        62.39999999999998
      ],
      [
        0.29835660941898823,
        51.268018037080765,
        63.39999999999998
      ],
      [
        0.29832341708242893,
        51.26798811368644,
        63.799999999999955
      ],
      [
        0.2982999477535486,
        51.26796397380531,
        64.60000000000002
      ],
      [
        0.2982436213642359,
        51.26792977564037,
        65.60000000000002
      ],
      [
        0.2981970179826021,
        51.26789130270481,
        65.20000000000005
      ],
      [
        0.29809148982167244,
        51.26780605874956,
        67.20000000000005
      ],
      [
        0.2979904878884554,
        51.267733136191964,
        69.20000000000005
      ],
      [
        0.2979705389589071,
        51.267727268859744,
        69.39999999999998
      ],
      [
        0.29794673435389996,
        51.26771645620465,
        69.39999999999998
      ],
      [
        0.29790683649480343,
        51.26770405098796,
        70
      ],
      [
        0.2978472411632538,
        51.26768762245774,
        70.39999999999998
      ],
      [
        0.2977721393108368,
        51.267684772610664,
        71.39999999999998
      ],
      [
        0.2973675448447466,
        51.26768762245774,
        72.79999999999995
      ],
      [
        0.2970321010798216,
        51.267647724598646,
        73.79999999999995
      ],
      [
        0.29693822376430035,
        51.267592404037714,
        76.20000000000005
      ],
      [
        0.296836718916893,
        51.26749609597027,
        77.20000000000005
      ],
      [
        0.2967827394604683,
        51.267397021874785,
        76.60000000000002
      ],
      [
        0.29677427373826504,
        51.26738604158163,
        76.20000000000005
      ],
      [
        0.2966575976461172,
        51.267099464312196,
        80.79999999999995
      ],
      [
        0.2965558413416147,
        51.26664927229285,
        79.39999999999998
      ],
      [
        0.2964675799012184,
        51.26653670333326,
        80.20000000000005
      ],
      [
        0.29620589688420296,
        51.266119703650475,
        87.79999999999995
      ],
      [
        0.2961935754865408,
        51.26597302034497,
        87.60000000000002
      ],
      [
        0.29620044864714146,
        51.26596245914698,
        87.60000000000002
      ],
      [
        0.2962229121476412,
        51.26589381136,
        89.20000000000005
      ],
      [
        0.29655500315129757,
        51.26549734733999,
        90.39999999999998
      ],
      [
        0.29669104143977165,
        51.265161735937,
        93.20000000000005
      ],
      [
        0.29667369090020657,
        51.26509686000645,
        92.60000000000002
      ],
      [
        0.29647587798535824,
        51.26484305597842,
        94
      ],
      [
        0.29646229930222034,
        51.264834674075246,
        94.39999999999998
      ],
      [
        0.29635501094162464,
        51.264782873913646,
        95.20000000000005
      ],
      [
        0.29610020108520985,
        51.26467365771532,
        96.39999999999998
      ],
      [
        0.29593960382044315,
        51.264596208930016,
        98
      ],
      [
        0.2955901622772217,
        51.264451034367085,
        99.39999999999998
      ],
      [
        0.2951469272375107,
        51.26409647986293,
        104.39999999999998
      ],
      [
        0.29512781649827957,
        51.26404685899615,
        105.20000000000005
      ],
      [
        0.2949988190084696,
        51.263897912576795,
        101.60000000000002
      ],
      [
        0.294866468757391,
        51.26375148072839,
        96
      ],
      [
        0.294761611148715,
        51.263653580099344,
        92
      ],
      [
        0.29475524090230465,
        51.26364419236779,
        91.79999999999995
      ],
      [
        0.2947396505624056,
        51.263584261760116,
        91.60000000000002
      ],
      [
        0.29471601359546185,
        51.263538831844926,
        91.60000000000002
      ],
      [
        0.2946792170405388,
        51.2634140253067,
        92.60000000000002
      ],
      [
        0.2946978248655796,
        51.263274466618896,
        91.60000000000002
      ],
      [
        0.2947494573891163,
        51.26294765621424,
        95.39999999999998
      ],
      [
        0.2948588412255049,
        51.262670047581196,
        95.39999999999998
      ],
      [
        0.29487459920346737,
        51.26264397986233,
        95.20000000000005
      ],
      [
        0.29487728141248226,
        51.262632831931114,
        95.20000000000005
      ],
      [
        0.2948849927634001,
        51.26262000761926,
        95
      ],
      [
        0.29489463195204735,
        51.262608440592885,
        95.39999999999998
      ],
      [
        0.29490225948393345,
        51.262596203014255,
        95.20000000000005
      ],
      [
        0.29502756893634796,
        51.262363605201244,
        96.79999999999995
      ],
      [
        0.29507651925086975,
        51.2622416485101,
        98.39999999999998
      ],
      [
        0.29512018896639347,
        51.26214601099491,
        100.20000000000005
      ],
      [
        0.29515983536839485,
        51.262041153386235,
        100.39999999999998
      ],
      [
        0.2951964642852545,
        51.26187829300761,
        97
      ],
      [
        0.2952194306999445,
        51.261826576665044,
        97.60000000000002
      ],
      [
        0.2951899264007807,
        51.26137336716056,
        96.39999999999998
      ],
      [
        0.2951252181082964,
        51.26113305799663,
        91.39999999999998
      ],
      [
        0.2949732542037964,
        51.26069409772754,
        91.79999999999995
      ],
      [
        0.2950162533670664,
        51.26046250574291,
        99.20000000000005
      ],
      [
        0.29494752176105976,
        51.2600745074451,
        97.20000000000005
      ],
      [
        0.2949314285069704,
        51.260028490796685,
        96.60000000000002
      ],
      [
        0.2948972303420305,
        51.259718192741275,
        95.39999999999998
      ],
      [
        0.29478457756340504,
        51.25935257412493,
        97.20000000000005
      ],
      [
        0.2945138420909643,
        51.259257942438126,
        94
      ],
      [
        0.2944441884756088,
        51.25925224274397,
        93.79999999999995
      ],
      [
        0.29440563172101974,
        51.25925215892494,
        94.20000000000005
      ],
      [
        0.2942746225744486,
        51.25925031490624,
        96.20000000000005
      ],
      [
        0.29419055208563805,
        51.25925224274397,
        97.39999999999998
      ],
      [
        0.2940879575908184,
        51.25924981199205,
        99.20000000000005
      ],
      [
        0.29361546970903873,
        51.259235898032784,
        103.39999999999998
      ],
      [
        0.2930216956883669,
        51.259276969358325,
        104.39999999999998
      ],
      [
        0.2928078733384609,
        51.25930613838136,
        103.20000000000005
      ],
      [
        0.2927054464817047,
        51.25931477174163,
        104.39999999999998
      ],
      [
        0.29222801327705383,
        51.259349724277854,
        113.20000000000005
      ],
      [
        0.29193347319960594,
        51.25939263962209,
        111
      ],
      [
        0.2918167132884264,
        51.25941610895097,
        111.79999999999995
      ],
      [
        0.29112881049513817,
        51.259554075077176,
        117
      ],
      [
        0.29063855297863483,
        51.25949121080339,
        110.20000000000005
      ],
      [
        0.29060041531920433,
        51.25919164158404,
        107.79999999999995
      ],
      [
        0.29057753272354603,
        51.25896306708455,
        106.60000000000002
      ],
      [
        0.2905647084116936,
        51.258759973570704,
        103.20000000000005
      ],
      [
        0.29055414721369743,
        51.25872049480677,
        101.79999999999995
      ],
      [
        0.2905485313385725,
        51.258702306076884,
        101.20000000000005
      ],
      [
        0.29049329459667206,
        51.258466355502605,
        99
      ],
      [
        0.28997101821005344,
        51.25819830223918,
        98.39999999999998
      ],
      [
        0.28993564657866955,
        51.258203415200114,
        100.60000000000002
      ],
      [
        0.28980824165046215,
        51.25811674632132,
        98.39999999999998
      ],
      [
        0.2896043937653303,
        51.258035860955715,
        96.79999999999995
      ],
      [
        0.2895045652985573,
        51.25795262865722,
        96.60000000000002
      ],
      [
        0.28907792642712593,
        51.25764023512602,
        95.60000000000002
      ],
      [
        0.2889531198889017,
        51.25746295787394,
        96
      ],
      [
        0.2885217871516943,
        51.25709407031536,
        91.20000000000005
      ],
      [
        0.2882457710802555,
        51.25691846944392,
        93.39999999999998
      ],
      [
        0.2877201419323683,
        51.25660473480821,
        93.79999999999995
      ],
      [
        0.28758443892002106,
        51.256521167233586,
        93.20000000000005
      ],
      [
        0.2871941775083542,
        51.25628873705864,
        92.60000000000002
      ],
      [
        0.2870658505707979,
        51.25625361688435,
        92
      ],
      [
        0.2869214303791523,
        51.25618916004896,
        92.60000000000002
      ],
      [
        0.2868763357400894,
        51.256162421777844,
        93.20000000000005
      ],
      [
        0.28663753531873226,
        51.25596871599555,
        92.79999999999995
      ],
      [
        0.2862528897821903,
        51.25568867661059,
        88
      ],
      [
        0.2857034560292959,
        51.25544677488506,
        88.20000000000005
      ],
      [
        0.28520590625703335,
        51.25542716123164,
        84.39999999999998
      ],
      [
        0.28489988297224045,
        51.255416348576546,
        84
      ],
      [
        0.28419085778295994,
        51.25545792281628,
        85.60000000000002
      ],
      [
        0.2840381395071745,
        51.255481308326125,
        86
      ],
      [
        0.2839222177863121,
        51.255494048818946,
        84.20000000000005
      ],
      [
        0.2836613729596138,
        51.255577616393566,
        80.79999999999995
      ],
      [
        0.2836216427385807,
        51.2555843219161,
        80.20000000000005
      ],
      [
        0.28358912095427513,
        51.255603432655334,
        80.20000000000005
      ],
      [
        0.28357394970953465,
        51.25561357475817,
        79.79999999999995
      ],
      [
        0.28337965719401836,
        51.25574198551476,
        76.79999999999995
      ],
      [
        0.2833255100995302,
        51.25574634410441,
        76.39999999999998
      ],
      [
        0.28320799581706524,
        51.25582354143262,
        74.39999999999998
      ],
      [
        0.28307137079536915,
        51.25586268492043,
        74.79999999999995
      ],
      [
        0.28305829502642155,
        51.255840891972184,
        75.20000000000005
      ],
      [
        0.28270005248486996,
        51.255464712157845,
        77.39999999999998
      ],
      [
        0.2820393070578575,
        51.25554895028472,
        78
      ],
      [
        0.28167419135570526,
        51.25560770742595,
        78
      ],
      [
        0.2813584450632334,
        51.25569521449506,
        84.60000000000002
      ],
      [
        0.28119700960814953,
        51.2557362858206,
        87.20000000000005
      ],
      [
        0.28112140484154224,
        51.25573402270675,
        87.60000000000002
      ],
      [
        0.28102719224989414,
        51.25574734993279,
        88.20000000000005
      ],
      [
        0.2809250168502331,
        51.2557812128216,
        88
      ],
      [
        0.28054598718881607,
        51.255862852558494,
        86.39999999999998
      ],
      [
        0.2801812905818224,
        51.25590962357819,
        91
      ],
      [
        0.2797142509371042,
        51.25597374513745,
        89.79999999999995
      ],
      [
        0.2796080522239208,
        51.255987491458654,
        89.39999999999998
      ],
      [
        0.27950537391006947,
        51.25599419698119,
        89
      ],
      [
        0.2791446167975664,
        51.25606116838753,
        89.39999999999998
      ],
      [
        0.27894269675016403,
        51.256314972415566,
        87.39999999999998
      ],
      [
        0.27901411056518555,
        51.25639300793409,
        87.20000000000005
      ],
      [
        0.2791091613471508,
        51.256726356223226,
        85.60000000000002
      ],
      [
        0.27922768145799637,
        51.25717956572771,
        93.20000000000005
      ],
      [
        0.2792473789304495,
        51.257395818829536,
        99.79999999999995
      ],
      [
        0.27910027652978897,
        51.25747368671,
        98.60000000000002
      ],
      [
        0.2783848810940981,
        51.25751811079681,
        90.79999999999995
      ],
      [
        0.2783064264804125,
        51.25751584768295,
        90.60000000000002
      ],
      [
        0.27822788804769516,
        51.257520373910666,
        89.79999999999995
      ],
      [
        0.278138117864728,
        51.257529677823186,
        88
      ],
      [
        0.2776428312063217,
        51.25757686793804,
        83.79999999999995
      ],
      [
        0.27755146846175194,
        51.257592625916004,
        84.60000000000002
      ],
      [
        0.27707395143806934,
        51.25769547186792,
        87.20000000000005
      ],
      [
        0.2769957482814789,
        51.257699662819505,
        87.60000000000002
      ],
      [
        0.2769129350781441,
        51.257720198482275,
        87.60000000000002
      ],
      [
        0.2766571193933487,
        51.257759761065245,
        90
      ],
      [
        0.27653859928250313,
        51.25775414519012,
        91.20000000000005
      ],
      [
        0.27615537866950035,
        51.25782539136708,
        88.20000000000005
      ],
      [
        0.27609611861407757,
        51.257831091061234,
        89.60000000000002
      ],
      [
        0.2760293986648321,
        51.25783385708928,
        89.39999999999998
      ],
      [
        0.2758457511663437,
        51.25788381323218,
        87.39999999999998
      ],
      [
        0.2757564838975668,
        51.25789965502918,
        86
      ],
      [
        0.27511862106621265,
        51.25812688842416,
        82.39999999999998
      ],
      [
        0.27452501468360424,
        51.25838119536638,
        89.39999999999998
      ],
      [
        0.27384323067963123,
        51.25853684730828,
        85.39999999999998
      ],
      [
        0.27324752882122993,
        51.25879383645952,
        84.60000000000002
      ],
      [
        0.273143844678998,
        51.25884002074599,
        84
      ],
      [
        0.27260405011475086,
        51.258831303566694,
        85.20000000000005
      ],
      [
        0.2722784969955683,
        51.25876089558005,
        89.20000000000005
      ],
      [
        0.2720521856099367,
        51.25870599411428,
        89.39999999999998
      ],
      [
        0.2713610138744116,
        51.258563585579395,
        94.60000000000002
      ],
      [
        0.2709733508527279,
        51.258496614173055,
        92.20000000000005
      ],
      [
        0.27095130644738674,
        51.25844640657306,
        90.20000000000005
      ],
      [
        0.2709667291492224,
        51.2584510166198,
        89.60000000000002
      ],
      [
        0.27009811252355576,
        51.258989134803414,
        78.20000000000005
      ],
      [
        0.2701691910624504,
        51.25905677676201,
        103
      ],
      [
        0.2700998727232218,
        51.25913833267987,
        98.79999999999995
      ],
      [
        0.27009920217096806,
        51.25914679840207,
        99
      ],
      [
        0.27009978890419006,
        51.25915300101042,
        99.20000000000005
      ],
      [
        0.27011655271053314,
        51.25918719917536,
        98.60000000000002
      ],
      [
        0.27002560906112194,
        51.259315526112914,
        97.39999999999998
      ],
      [
        0.2699697855859995,
        51.259405966848135,
        96.79999999999995
      ],
      [
        0.26992427185177803,
        51.259531527757645,
        96.60000000000002
      ],
      [
        0.26990910060703754,
        51.25956170260906,
        97.20000000000005
      ],
      [
        0.26985914446413517,
        51.259593134745955,
        97.60000000000002
      ],
      [
        0.26978890411555767,
        51.25966236926615,
        98
      ],
      [
        0.26975722052156925,
        51.25982187688351,
        99
      ],
      [
        0.26970600709319115,
        51.26026703976095,
        105.20000000000005
      ],
      [
        0.26966460049152374,
        51.26045152544975,
        105.39999999999998
      ],
      [
        0.2696190867573023,
        51.26058756373823,
        106.60000000000002
      ],
      [
        0.26939285919070244,
        51.26101470552385,
        112.79999999999995
      ],
      [
        0.26936025358736515,
        51.26104622147977,
        113.39999999999998
      ],
      [
        0.26891760528087616,
        51.261154767125845,
        117
      ],
      [
        0.2686315309256315,
        51.261143535375595,
        117.39999999999998
      ],
      [
        0.2683134377002716,
        51.26112115569413,
        117.20000000000005
      ],
      [
        0.26758999563753605,
        51.26113540492952,
        113.39999999999998
      ],
      [
        0.26688055135309696,
        51.2612125184387,
        99.60000000000002
      ],
      [
        0.2661951631307602,
        51.26109014265239,
        97.79999999999995
      ],
      [
        0.2656012214720249,
        51.260824520140886,
        102.60000000000002
      ],
      [
        0.2650812081992626,
        51.26050709746778,
        107.39999999999998
      ],
      [
        0.26440512388944626,
        51.260375417768955,
        105
      ],
      [
        0.2637272793799639,
        51.260219011455774,
        106.20000000000005
      ],
      [
        0.26300618425011635,
        51.26019193790853,
        108
      ],
      [
        0.262341583147645,
        51.260206773877144,
        107.20000000000005
      ],
      [
        0.26201301254332066,
        51.26018615439534,
        108.20000000000005
      ],
      [
        0.26171947829425335,
        51.26014810055494,
        108.20000000000005
      ],
      [
        0.26161118410527706,
        51.26013770699501,
        108
      ],
      [
        0.26153926737606525,
        51.26012580469251,
        108.60000000000002
      ],
      [
        0.26135352440178394,
        51.260122284293175,
        110.20000000000005
      ],
      [
        0.26124908588826656,
        51.260121278464794,
        110.39999999999998
      ],
      [
        0.26101112365722656,
        51.26011616550386,
        111.20000000000005
      ],
      [
        0.2609956171363592,
        51.26011976972222,
        111.39999999999998
      ],
      [
        0.26098153553903103,
        51.26012018881738,
        111.79999999999995
      ],
      [
        0.260967118665576,
        51.2601173389703,
        112
      ],
      [
        0.26095236651599407,
        51.2601123098284,
        112.20000000000005
      ],
      [
        0.2609191741794348,
        51.260113986209035,
        112.60000000000002
      ],
      [
        0.2609009016305208,
        51.260111052542925,
        112.60000000000002
      ],
      [
        0.2608851436525583,
        51.260106107220054,
        112.39999999999998
      ],
      [
        0.2608649432659149,
        51.260104263201356,
        112.60000000000002
      ],
      [
        0.26083183474838734,
        51.26009806059301,
        112.60000000000002
      ],
      [
        0.26081775315105915,
        51.26009923405945,
        113.20000000000005
      ],
      [
        0.2608028333634138,
        51.2600969709456,
        114
      ],
      [
        0.260784225538373,
        51.260091019794345,
        114.39999999999998
      ],
      [
        0.26076871901750565,
        51.26008942723274,
        114.79999999999995
      ],
      [
        0.26075338013470173,
        51.26008749939501,
        115.39999999999998
      ],
      [
        0.2607227861881256,
        51.260083643719554,
        115.79999999999995
      ],
      [
        0.2606910187751055,
        51.26007962040603,
        116.39999999999998
      ],
      [
        0.2606590837240219,
        51.26007509417832,
        117.20000000000005
      ],
      [
        0.26062823832035065,
        51.260070065036416,
        117.39999999999998
      ],
      [
        0.26050795800983906,
        51.26006352715194,
        118.60000000000002
      ],
      [
        0.26038055308163166,
        51.26003419049084,
        120.39999999999998
      ],
      [
        0.2602456044405699,
        51.26002916134894,
        122.60000000000002
      ],
      [
        0.2602316066622734,
        51.26002480275929,
        122.39999999999998
      ],
      [
        0.2602178603410721,
        51.2600192707032,
        122.20000000000005
      ],
      [
        0.26010177098214626,
        51.259989682585,
        123.39999999999998
      ],
      [
        0.25975266471505165,
        51.259977109730244,
        121.60000000000002
      ],
      [
        0.259466003626585,
        51.26000837422907,
        114.79999999999995
      ],
      [
        0.25922561064362526,
        51.26001566648483,
        115.79999999999995
      ],
      [
        0.25918537750840187,
        51.26002195291221,
        114.60000000000002
      ],
      [
        0.2590484172105789,
        51.26001784577966,
        110.79999999999995
      ],
      [
        0.2589954435825348,
        51.26001021824777,
        110.20000000000005
      ],
      [
        0.2588402945548296,
        51.26001080498099,
        110.60000000000002
      ],
      [
        0.258652875199914,
        51.260140389204025,
        118.39999999999998
      ],
      [
        0.2585064433515072,
        51.26036887988448,
        133.39999999999998
      ],
      [
        0.2584720775485039,
        51.26054037362337,
        126.39999999999998
      ],
      [
        0.2584465127438307,
        51.260605584830046,
        127.60000000000002
      ],
      [
        0.2583781164139509,
        51.26066601835191,
        131.60000000000002
      ],
      [
        0.258374847471714,
        51.26066165976226,
        132.39999999999998
      ],
      [
        0.2583752665668726,
        51.260665180161595,
        133.20000000000005
      ],
      [
        0.2583746798336506,
        51.260668616741896,
        134.20000000000005
      ],
      [
        0.25840376503765583,
        51.26075956039131,
        134.20000000000005
      ],
      [
        0.25839622132480145,
        51.260780934244394,
        134.60000000000002
      ],
      [
        0.25837996043264866,
        51.260818066075444,
        135.39999999999998
      ],
      [
        0.2583708241581917,
        51.2608359195292,
        136.20000000000005
      ],
      [
        0.25837610475718975,
        51.260851761326194,
        136.60000000000002
      ],
      [
        0.25836965069174767,
        51.260857125744224,
        136.60000000000002
      ],
      [
        0.25836311280727386,
        51.260881181806326,
        137.60000000000002
      ],
      [
        0.25835934095084667,
        51.260890904814005,
        137.79999999999995
      ],
      [
        0.25834442116320133,
        51.260934825986624,
        138.79999999999995
      ],
      [
        0.2583349496126175,
        51.260956954211,
        139.60000000000002
      ],
      [
        0.2583116479218006,
        51.2610137835145,
        137.20000000000005
      ],
      [
        0.2583049423992634,
        51.26102853566408,
        136.39999999999998
      ],
      [
        0.258297398686409,
        51.26103909686208,
        135.79999999999995
      ],
      [
        0.2582975663244724,
        51.261049238964915,
        136
      ],
      [
        0.25823880918323994,
        51.26115744933486,
        139
      ],
      [
        0.25823294185101986,
        51.261166920885444,
        139.20000000000005
      ],
      [
        0.2582216262817383,
        51.26118812710047,
        139.20000000000005
      ],
      [
        0.2581912837922573,
        51.26123405992985,
        139.79999999999995
      ],
      [
        0.25815817527472973,
        51.261284267529845,
        142
      ],
      [
        0.25814141146838665,
        51.26133380457759,
        143
      ],
      [
        0.258135125041008,
        51.26134763471782,
        143.60000000000002
      ],
      [
        0.2581307664513588,
        51.26136381179094,
        144
      ],
      [
        0.2580850012600422,
        51.261469507589936,
        151
      ],
      [
        0.2579871006309986,
        51.261558858677745,
        153.79999999999995
      ],
      [
        0.2577818278223276,
        51.26165734604001,
        152.20000000000005
      ],
      [
        0.2577625494450331,
        51.261666817590594,
        152
      ],
      [
        0.25775098241865635,
        51.26166522502899,
        151.60000000000002
      ],
      [
        0.2577343862503767,
        51.26166572794318,
        151.20000000000005
      ],
      [
        0.25770957581698895,
        51.26166505739093,
        151.20000000000005
      ],
      [
        0.25769708678126335,
        51.26166572794318,
        151.39999999999998
      ],
      [
        0.2576890401542187,
        51.26166757196188,
        151.20000000000005
      ],
      [
        0.2576630562543869,
        51.26166011206806,
        151
      ],
      [
        0.25765685364603996,
        51.26166061498225,
        151.20000000000005
      ],
      [
        0.2576411794871092,
        51.26165818423033,
        150.79999999999995
      ],
      [
        0.25762617588043213,
        51.261652149260044,
        150.79999999999995
      ],
      [
        0.25762307457625866,
        51.261654580011964,
        151.20000000000005
      ],
      [
        0.25761603377759457,
        51.261654663830996,
        151.60000000000002
      ],
      [
        0.25759407319128513,
        51.26166178844869,
        152.79999999999995
      ],
      [
        0.25755375623703003,
        51.26166748814285,
        154.20000000000005
      ],
      [
        0.25747379288077354,
        51.26169187948108,
        155.60000000000002
      ],
      [
        0.2574540115892887,
        51.26169883646071,
        155.79999999999995
      ],
      [
        0.2574343141168356,
        51.26170705072582,
        156.20000000000005
      ],
      [
        0.25737304240465164,
        51.261759269982576,
        159.39999999999998
      ],
      [
        0.25734144262969494,
        51.26178374513984,
        160.60000000000002
      ],
      [
        0.2573395986109972,
        51.26178860664368,
        160.39999999999998
      ],
      [
        0.2573269419372082,
        51.261798329651356,
        160.60000000000002
      ],
      [
        0.2573204040527344,
        51.26180143095553,
        161
      ],
      [
        0.2573036402463913,
        51.261807549744844,
        161.60000000000002
      ],
      [
        0.2572938334196806,
        51.261812914162874,
        162
      ],
      [
        0.25708839297294617,
        51.261922381818295,
        164.60000000000002
      ],
      [
        0.25701907463371754,
        51.2619461864233,
        164.39999999999998
      ],
      [
        0.2570080105215311,
        51.26195481978357,
        164.60000000000002
      ],
      [
        0.2569993771612644,
        51.26196135766804,
        164.39999999999998
      ],
      [
        0.25696459226310253,
        51.261983988806605,
        163.20000000000005
      ],
      [
        0.256915558129549,
        51.262036208063364,
        161.79999999999995
      ],
      [
        0.2568212617188692,
        51.262105610221624,
        161.39999999999998
      ],
      [
        0.25673375464975834,
        51.26214316114783,
        161
      ],
      [
        0.25664331391453743,
        51.26224474981427,
        162.20000000000005
      ],
      [
        0.2564874943345785,
        51.26253576949239,
        165
      ],
      [
        0.2563038468360901,
        51.262975819408894,
        164.39999999999998
      ],
      [
        0.2562607638537884,
        51.2630722951144,
        166
      ],
      [
        0.25625204667449,
        51.263099536299706,
        165.60000000000002
      ],
      [
        0.2562158368527889,
        51.26321017742157,
        166.60000000000002
      ],
      [
        0.256199324503541,
        51.2632673420012,
        166
      ],
      [
        0.2561853267252445,
        51.263300366699696,
        165.79999999999995
      ],
      [
        0.256168395280838,
        51.263348646461964,
        166
      ],
      [
        0.2561313472688198,
        51.26341695897281,
        166.20000000000005
      ],
      [
        0.25611357763409615,
        51.26343707554042,
        166.20000000000005
      ],
      [
        0.25604995898902416,
        51.26355844549835,
        166.79999999999995
      ],
      [
        0.255950465798378,
        51.263757264241576,
        167.60000000000002
      ],
      [
        0.255736643448472,
        51.26415858976543,
        167.60000000000002
      ],
      [
        0.2557080611586571,
        51.264201421290636,
        167.60000000000002
      ],
      [
        0.25557562708854675,
        51.264396384358406,
        169.20000000000005
      ],
      [
        0.2555693406611681,
        51.26440593972802,
        168.60000000000002
      ],
      [
        0.2553476393222809,
        51.26484230160713,
        166
      ],
      [
        0.2550302166491747,
        51.265251589939,
        166.60000000000002
      ],
      [
        0.2549539413303137,
        51.26535787247121,
        165.39999999999998
      ],
      [
        0.25473969988524914,
        51.265613436698914,
        164.20000000000005
      ],
      [
        0.25470650754868984,
        51.26564537175,
        163.79999999999995
      ],
      [
        0.2546676993370056,
        51.26568937674165,
        163.60000000000002
      ],
      [
        0.2543565630912781,
        51.266105622053146,
        159.20000000000005
      ],
      [
        0.2542237099260092,
        51.266320617869496,
        160.20000000000005
      ],
      [
        0.25396822951734066,
        51.26674063503742,
        153.39999999999998
      ],
      [
        0.2538845781236887,
        51.26690911129117,
        152.39999999999998
      ],
      [
        0.2537005115300417,
        51.26734555698931,
        157.39999999999998
      ],
      [
        0.25357771664857864,
        51.26779449172318,
        158.20000000000005
      ],
      [
        0.2534499764442444,
        51.26823973841965,
        152.79999999999995
      ],
      [
        0.2534277644008398,
        51.268292628228664,
        153.60000000000002
      ],
      [
        0.25341703556478024,
        51.26831928268075,
        155.39999999999998
      ],
      [
        0.2533939015120268,
        51.268389439210296,
        155.79999999999995
      ],
      [
        0.2533529978245497,
        51.26842388883233,
        155.60000000000002
      ],
      [
        0.25332139804959297,
        51.26841592602432,
        155.60000000000002
      ],
      [
        0.25323196314275265,
        51.26839304342866,
        155.60000000000002
      ],
      [
        0.2531637344509363,
        51.26838566735387,
        155.20000000000005
      ],
      [
        0.2530263550579548,
        51.268371837213635,
        156.39999999999998
      ],
      [
        0.25229050777852535,
        51.268368819728494,
        154.39999999999998
      ],
      [
        0.2516372222453356,
        51.268397737294436,
        155.39999999999998
      ],
      [
        0.25091998279094696,
        51.268431851640344,
        156.39999999999998
      ],
      [
        0.25073809549212456,
        51.26844341866672,
        157
      ],
      [
        0.2501906733959913,
        51.26847208477557,
        159.39999999999998
      ],
      [
        0.24988465011119843,
        51.26849186606705,
        159.79999999999995
      ],
      [
        0.24958382360637188,
        51.26850611530244,
        159.60000000000002
      ],
      [
        0.2492855954915285,
        51.26853670924902,
        159.20000000000005
      ],
      [
        0.24862485006451607,
        51.26858063042164,
        160.60000000000002
      ],
      [
        0.2483799308538437,
        51.26860594376922,
        157.20000000000005
      ],
      [
        0.24818547070026398,
        51.26863041892648,
        155.60000000000002
      ],
      [
        0.2477891743183136,
        51.268627904355526,
        154.79999999999995
      ],
      [
        0.24742682464420795,
        51.268621534109116,
        155.39999999999998
      ],
      [
        0.2471423428505659,
        51.2686325982213,
        155.60000000000002
      ],
      [
        0.2469440270215273,
        51.268621031194925,
        156.39999999999998
      ],
      [
        0.2462672721594572,
        51.26858205534518,
        157.39999999999998
      ],
      [
        0.24558959528803825,
        51.2684565782547,
        154.20000000000005
      ],
      [
        0.2452702447772026,
        51.26857191324234,
        150.79999999999995
      ],
      [
        0.24515063501894474,
        51.26863150857389,
        149.20000000000005
      ],
      [
        0.24459977634251118,
        51.26893191598356,
        143.39999999999998
      ],
      [
        0.2440183237195015,
        51.26919301226735,
        143.60000000000002
      ],
      [
        0.24339395575225353,
        51.269416054710746,
        134.60000000000002
      ],
      [
        0.24300310760736465,
        51.26966063864529,
        132.60000000000002
      ],
      [
        0.24256691336631775,
        51.269839592278004,
        134.20000000000005
      ],
      [
        0.24254352785646915,
        51.26984428614378,
        134.60000000000002
      ],
      [
        0.2424926497042179,
        51.26986465416849,
        135
      ],
      [
        0.24201027117669582,
        51.270016115158796,
        131.60000000000002
      ],
      [
        0.2417929284274578,
        51.27011887729168,
        127
      ],
      [
        0.2412711549550295,
        51.27024971880019,
        126.20000000000005
      ],
      [
        0.2412543911486864,
        51.2702524010092,
        126.39999999999998
      ],
      [
        0.24122538976371288,
        51.270261872559786,
        126.39999999999998
      ],
      [
        0.24110611528158188,
        51.27030168659985,
        126.60000000000002
      ],
      [
        0.24108583107590675,
        51.270311661064625,
        126.79999999999995
      ],
      [
        0.2408796362578869,
        51.27031140960753,
        128.79999999999995
      ],
      [
        0.24063530378043652,
        51.27036924473941,
        130.60000000000002
      ],
      [
        0.24049809202551842,
        51.27040528692305,
        128.60000000000002
      ],
      [
        0.2403690107166767,
        51.270468989387155,
        129.20000000000005
      ],
      [
        0.24028594605624676,
        51.27048835158348,
        128.39999999999998
      ],
      [
        0.23956988006830215,
        51.27051617950201,
        126
      ],
      [
        0.23901835083961487,
        51.27024452202022,
        121.39999999999998
      ],
      [
        0.2388992439955473,
        51.27019674517214,
        124.79999999999995
      ],
      [
        0.23872909136116505,
        51.2701712641865,
        125.39999999999998
      ],
      [
        0.23871769197285175,
        51.27016883343458,
        125.39999999999998
      ],
      [
        0.2385671529918909,
        51.27017989754677,
        129
      ],
      [
        0.23815786466002464,
        51.270098593086004,
        133.39999999999998
      ],
      [
        0.23756803013384342,
        51.27000002190471,
        125.20000000000005
      ],
      [
        0.23684827610850334,
        51.270057605579495,
        134
      ],
      [
        0.23653135634958744,
        51.27004662528634,
        135
      ],
      [
        0.23637277074158192,
        51.270075207576156,
        137.79999999999995
      ],
      [
        0.23634100332856178,
        51.270082080736756,
        137.39999999999998
      ],
      [
        0.23628476075828075,
        51.270087361335754,
        137.79999999999995
      ],
      [
        0.23627436719834805,
        51.27008970826864,
        138.20000000000005
      ],
      [
        0.2362669911235571,
        51.27009415067732,
        138.20000000000005
      ],
      [
        0.23621066473424435,
        51.27010119147599,
        138.39999999999998
      ],
      [
        0.23618778213858604,
        51.270097671076655,
        139
      ],
      [
        0.2361695095896721,
        51.270096246153116,
        139.39999999999998
      ],
      [
        0.23608049377799034,
        51.27008384093642,
        140.79999999999995
      ],
      [
        0.23604621179401875,
        51.27007948234677,
        141.79999999999995
      ],
      [
        0.23565092124044895,
        51.27005777321756,
        144.20000000000005
      ],
      [
        0.23546576499938965,
        51.270053246989846,
        148.39999999999998
      ],
      [
        0.23503392934799194,
        51.26991108991206,
        148
      ],
      [
        0.23492781445384026,
        51.269868509843946,
        149.39999999999998
      ],
      [
        0.23480258882045746,
        51.26982098445296,
        149
      ],
      [
        0.23466705344617367,
        51.269799610599875,
        148.39999999999998
      ],
      [
        0.23413404822349548,
        51.26971981488168,
        148.39999999999998
      ],
      [
        0.23398359306156635,
        51.269671032205224,
        152
      ],
      [
        0.23395266383886337,
        51.2696688529104,
        151.60000000000002
      ],
      [
        0.23379039019346237,
        51.269622249528766,
        148.60000000000002
      ],
      [
        0.23360825143754482,
        51.26960481517017,
        151
      ],
      [
        0.23356365971267223,
        51.26960238441825,
        152.20000000000005
      ],
      [
        0.233340784907341,
        51.269573299214244,
        151.39999999999998
      ],
      [
        0.2330755814909935,
        51.26955217681825,
        159.60000000000002
      ],
      [
        0.23274642415344715,
        51.26958779990673,
        163.20000000000005
      ],
      [
        0.232669897377491,
        51.26962685957551,
        163.20000000000005
      ],
      [
        0.2325468510389328,
        51.269657369703054,
        162.79999999999995
      ],
      [
        0.23185056634247303,
        51.269729705527425,
        155.60000000000002
      ],
      [
        0.23147975094616413,
        51.26976122148335,
        153
      ],
      [
        0.2310543693602085,
        51.26970154233277,
        146.79999999999995
      ],
      [
        0.23093517869710922,
        51.26967195421457,
        146.20000000000005
      ],
      [
        0.23074574768543243,
        51.26969223842025,
        150.20000000000005
      ],
      [
        0.2305566519498825,
        51.2697637360543,
        149.60000000000002
      ],
      [
        0.2304383832961321,
        51.26984730362892,
        146.60000000000002
      ],
      [
        0.23011400364339352,
        51.270115273073316,
        144
      ],
      [
        0.2301025204360485,
        51.27013974823058,
        143.39999999999998
      ],
      [
        0.22988350130617619,
        51.270334208384156,
        142.60000000000002
      ],
      [
        0.22957337088882923,
        51.27058759331703,
        139.39999999999998
      ],
      [
        0.22925670258700848,
        51.27072463743389,
        150
      ],
      [
        0.2291550301015377,
        51.270763613283634,
        150
      ],
      [
        0.22913801483809948,
        51.27077283337712,
        150.60000000000002
      ],
      [
        0.2288837917149067,
        51.27087366767228,
        153.79999999999995
      ],
      [
        0.22872989997267723,
        51.27105404622853,
        160.20000000000005
      ],
      [
        0.2285658661276102,
        51.271293852478266,
        157
      ],
      [
        0.22845723666250706,
        51.27173298038542,
        147.79999999999995
      ],
      [
        0.22822530940175056,
        51.2720500677824,
        148.39999999999998
      ],
      [
        0.22824265994131565,
        51.27207730896771,
        148.79999999999995
      ],
      [
        0.2281846571713686,
        51.27215115353465,
        146.79999999999995
      ],
      [
        0.22813428193330765,
        51.27221116796136,
        146.60000000000002
      ],
      [
        0.22812447510659695,
        51.27222357317805,
        146.39999999999998
      ],
      [
        0.22810393944382668,
        51.272243773564696,
        146.20000000000005
      ],
      [
        0.22806387394666672,
        51.27226824872196,
        146
      ],
      [
        0.22791811265051365,
        51.27239699475467,
        142.79999999999995
      ],
      [
        0.22782649844884872,
        51.27244971692562,
        143.60000000000002
      ],
      [
        0.22770403884351254,
        51.2725199572742,
        144
      ],
      [
        0.227685933932662,
        51.27252574078739,
        143.60000000000002
      ],
      [
        0.22758442908525467,
        51.272581312805414,
        142.39999999999998
      ],
      [
        0.22704488597810268,
        51.2728772778064,
        141.79999999999995
      ],
      [
        0.2265178319066763,
        51.27318891696632,
        128
      ],
      [
        0.22637818939983845,
        51.27325052395463,
        129
      ],
      [
        0.22621138952672482,
        51.27322412095964,
        132.60000000000002
      ],
      [
        0.22599714808166027,
        51.2730741687119,
        135.79999999999995
      ],
      [
        0.22591902874410152,
        51.27276931889355,
        141.20000000000005
      ],
      [
        0.22590276785194874,
        51.27253110520542,
        143.20000000000005
      ],
      [
        0.2258650492876768,
        51.27207688987255,
        145.20000000000005
      ],
      [
        0.22575784474611282,
        51.27169232815504,
        146.60000000000002
      ],
      [
        0.22569120861589909,
        51.271499460563064,
        144.79999999999995
      ],
      [
        0.22569313645362854,
        51.2714873906225,
        144.60000000000002
      ],
      [
        0.22569498047232628,
        51.27147582359612,
        144.39999999999998
      ],
      [
        0.22569984197616577,
        51.27141731791198,
        144.20000000000005
      ],
      [
        0.22570889443159103,
        51.2713766656816,
        144.60000000000002
      ],
      [
        0.22571006789803505,
        51.27135545946658,
        144.60000000000002
      ],
      [
        0.22573303431272507,
        51.27117080613971,
        144.79999999999995
      ],
      [
        0.22581861354410648,
        51.27081315033138,
        148
      ],
      [
        0.2258186973631382,
        51.27070778980851,
        149
      ],
      [
        0.22584887221455574,
        51.27057870849967,
        147.39999999999998
      ],
      [
        0.22597761824727058,
        51.270443089306355,
        148.39999999999998
      ],
      [
        0.2262396365404129,
        51.27013027667999,
        156.60000000000002
      ],
      [
        0.22636729292571545,
        51.269969679415226,
        158.20000000000005
      ],
      [
        0.22648497484624386,
        51.26980631612241,
        159
      ],
      [
        0.22671790793538094,
        51.269501047208905,
        161.79999999999995
      ],
      [
        0.22674690932035446,
        51.26945176161826,
        162
      ],
      [
        0.22673601284623146,
        51.269360734149814,
        157.79999999999995
      ],
      [
        0.22666032426059246,
        51.26929963007569,
        158.39999999999998
      ],
      [
        0.22665462456643581,
        51.26926090568304,
        158
      ],
      [
        0.2267526090145111,
        51.26898229122162,
        160.39999999999998
      ],
      [
        0.22674405947327614,
        51.26890417188406,
        160
      ],
      [
        0.2263800334185362,
        51.26881767064333,
        155.79999999999995
      ],
      [
        0.22622404620051384,
        51.268789088353515,
        155.60000000000002
      ],
      [
        0.22589740343391895,
        51.2687224522233,
        152.20000000000005
      ],
      [
        0.2258126623928547,
        51.26871163956821,
        154.20000000000005
      ],
      [
        0.2257735189050436,
        51.26870476640761,
        154.60000000000002
      ],
      [
        0.22515141405165195,
        51.26847803592682,
        152
      ],
      [
        0.2246218454092741,
        51.268203193321824,
        151
      ],
      [
        0.22449402138590813,
        51.26818651333451,
        153
      ],
      [
        0.22442872636020184,
        51.26821165904403,
        153.39999999999998
      ],
      [
        0.22441422566771507,
        51.26822062768042,
        153.39999999999998
      ],
      [
        0.22440207190811634,
        51.26823169179261,
        153.39999999999998
      ],
      [
        0.22438832558691502,
        51.26824191771448,
        153.20000000000005
      ],
      [
        0.2243087813258171,
        51.26828449778259,
        153.39999999999998
      ],
      [
        0.2242700569331646,
        51.268292628228664,
        153.60000000000002
      ],
      [
        0.22426125593483448,
        51.26830126158893,
        153.60000000000002
      ],
      [
        0.22422580048441887,
        51.268300507217646,
        153.60000000000002
      ],
      [
        0.2240037638694048,
        51.26839212141931,
        151.20000000000005
      ],
      [
        0.22392690181732178,
        51.26841760240495,
        151.20000000000005
      ],
      [
        0.22388390265405178,
        51.26845272257924,
        152
      ],
      [
        0.2233640570193529,
        51.268763272091746,
        152
      ],
      [
        0.2232398372143507,
        51.268839379772544,
        150.20000000000005
      ],
      [
        0.22323422133922577,
        51.26884222961962,
        148.60000000000002
      ],
      [
        0.2232322096824646,
        51.26884147524834,
        148.20000000000005
      ],
      [
        0.2232332993298769,
        51.26884080469608,
        147.79999999999995
      ],
      [
        0.22322751581668854,
        51.268850192427635,
        144.79999999999995
      ],
      [
        0.22321821190416813,
        51.26884977333248,
        144
      ],
      [
        0.2232125960290432,
        51.268857065588236,
        143.79999999999995
      ],
      [
        0.22317194379866123,
        51.26883787102997,
        143.79999999999995
      ],
      [
        0.2231309562921524,
        51.26880878582597,
        143.60000000000002
      ],
      [
        0.22308527491986752,
        51.26875673420727,
        144.39999999999998
      ],
      [
        0.223047137260437,
        51.2687171716243,
        146.79999999999995
      ],
      [
        0.2230302058160305,
        51.26869856379926,
        147.79999999999995
      ],
      [
        0.22298410534858704,
        51.2686465959996,
        151.20000000000005
      ],
      [
        0.2229660004377365,
        51.268610302358866,
        152.20000000000005
      ],
      [
        0.22258395329117775,
        51.268213503062725,
        156.20000000000005
      ],
      [
        0.22251748479902744,
        51.267868503928185,
        151.39999999999998
      ],
      [
        0.22272233851253986,
        51.26742518506944,
        142.79999999999995
      ],
      [
        0.22288142703473568,
        51.267012879252434,
        145.39999999999998
      ],
      [
        0.22286223247647285,
        51.266970885917544,
        146.60000000000002
      ],
      [
        0.2228157129138708,
        51.2668988853693,
        147
      ],
      [
        0.2228128630667925,
        51.266889329999685,
        146.79999999999995
      ],
      [
        0.2228096779435873,
        51.266880529001355,
        147
      ],
      [
        0.2227531000971794,
        51.26682881265879,
        144.39999999999998
      ],
      [
        0.22245068103075027,
        51.26671649515629,
        141.79999999999995
      ],
      [
        0.22203686647117138,
        51.26655539497733,
        136.60000000000002
      ],
      [
        0.2216863352805376,
        51.266399659216404,
        153
      ],
      [
        0.22132214158773422,
        51.26635414548218,
        151.39999999999998
      ],
      [
        0.22084479220211506,
        51.26624350436032,
        155
      ],
      [
        0.22080237977206707,
        51.26622414216399,
        155.20000000000005
      ],
      [
        0.22078544832766056,
        51.266230093315244,
        155
      ],
      [
        0.22078393958508968,
        51.26623336225748,
        154.79999999999995
      ],
      [
        0.22079450078308582,
        51.266256077215075,
        156.60000000000002
      ],
      [
        0.22074278444051743,
        51.2662339489907,
        157
      ],
      [
        0.22065594792366028,
        51.266198409721255,
        157.60000000000002
      ],
      [
        0.2205122821033001,
        51.26615163870156,
        158
      ],
      [
        0.22046148777008057,
        51.26613663509488,
        158
      ],
      [
        0.2204458974301815,
        51.26613085158169,
        157.79999999999995
      ],
      [
        0.22042888216674328,
        51.26612196676433,
        157.79999999999995
      ],
      [
        0.22041572257876396,
        51.26611467450857,
        157.60000000000002
      ],
      [
        0.22039124742150307,
        51.266104532405734,
        157.20000000000005
      ],
      [
        0.22035797126591206,
        51.26609028317034,
        157
      ],
      [
        0.22034271620213985,
        51.266082655638456,
        156.79999999999995
      ],
      [
        0.22030944004654884,
        51.26606580801308,
        156.39999999999998
      ],
      [
        0.22024322301149368,
        51.26603689044714,
        156.20000000000005
      ],
      [
        0.22022570483386517,
        51.266029849648476,
        156.39999999999998
      ],
      [
        0.2201899141073227,
        51.266016606241465,
        157.20000000000005
      ],
      [
        0.22015579976141453,
        51.26600126735866,
        156.79999999999995
      ],
      [
        0.22012176923453808,
        51.265981988981366,
        156.39999999999998
      ],
      [
        0.2201023232191801,
        51.26597159542143,
        156.39999999999998
      ],
      [
        0.21997525356709957,
        51.265864726155996,
        157.20000000000005
      ],
      [
        0.21984784863889217,
        51.26575970090926,
        157
      ],
      [
        0.21969102323055267,
        51.26565442420542,
        158.20000000000005
      ],
      [
        0.2196807973086834,
        51.26564218662679,
        158.20000000000005
      ],
      [
        0.21933043375611305,
        51.26539919525385,
        156.79999999999995
      ],
      [
        0.21929925307631493,
        51.26538469456136,
        156.60000000000002
      ],
      [
        0.2192794717848301,
        51.26537673175335,
        157
      ],
      [
        0.21923035383224487,
        51.265358962118626,
        157
      ],
      [
        0.21881695836782455,
        51.26511982642114,
        153.20000000000005
      ],
      [
        0.21856147795915604,
        51.264900052919984,
        154.79999999999995
      ],
      [
        0.2183091826736927,
        51.264759907498956,
        152.39999999999998
      ],
      [
        0.21832745522260666,
        51.26477281562984,
        150.60000000000002
      ],
      [
        0.21831555292010307,
        51.26480156555772,
        149.79999999999995
      ],
      [
        0.21828604862093925,
        51.26481531187892,
        148.39999999999998
      ],
      [
        0.21812964230775833,
        51.26494497992098,
        144.39999999999998
      ],
      [
        0.21794532425701618,
        51.26522627659142,
        146.20000000000005
      ],
      [
        0.2180885709822178,
        51.26531520858407,
        147
      ],
      [
        0.21809779107570648,
        51.26532694324851,
        147.39999999999998
      ],
      [
        0.21823248825967312,
        51.26552877947688,
        148.20000000000005
      ],
      [
        0.218233410269022,
        51.26556968316436,
        148.79999999999995
      ],
      [
        0.21818211302161217,
        51.265666326507926,
        149.79999999999995
      ],
      [
        0.21810432896018028,
        51.265660878270864,
        150
      ],
      [
        0.21767408587038517,
        51.265502041205764,
        142.39999999999998
      ],
      [
        0.21748985163867474,
        51.26552416943014,
        138
      ],
      [
        0.21710126660764217,
        51.26549793407321,
        138
      ],
      [
        0.2170784678310156,
        51.26549198292196,
        137.79999999999995
      ],
      [
        0.21704133599996567,
        51.26548821106553,
        137.39999999999998
      ],
      [
        0.21698467433452606,
        51.26548829488456,
        138.79999999999995
      ],
      [
        0.21695181727409363,
        51.265487959608436,
        139
      ],
      [
        0.2168089896440506,
        51.265478655695915,
        138.60000000000002
      ],
      [
        0.21671687252819538,
        51.2654725369066,
        140
      ],
      [
        0.21656591445207596,
        51.26546231098473,
        142.39999999999998
      ],
      [
        0.2164752222597599,
        51.26546524465084,
        142.79999999999995
      ],
      [
        0.2163967676460743,
        51.265469854697585,
        142.20000000000005
      ],
      [
        0.2163624856621027,
        51.26547010615468,
        144.39999999999998
      ],
      [
        0.21630884148180485,
        51.26546557992697,
        145.60000000000002
      ],
      [
        0.21604682318866253,
        51.265466418117285,
        147
      ],
      [
        0.2160096075385809,
        51.26546826213598,
        147.20000000000005
      ],
      [
        0.21598974242806435,
        51.265468429774046,
        147.20000000000005
      ],
      [
        0.21596962586045265,
        51.26546951942146,
        147.39999999999998
      ],
      [
        0.21595043130218983,
        51.265471782535315,
        147.60000000000002
      ],
      [
        0.21580944769084454,
        51.26546977087855,
        148.39999999999998
      ],
      [
        0.21566888317465782,
        51.26547454856336,
        149.20000000000005
      ],
      [
        0.21557358093559742,
        51.265479577705264,
        148.60000000000002
      ],
      [
        0.2155403047800064,
        51.26547982916236,
        148.39999999999998
      ],
      [
        0.21553762257099152,
        51.265479577705264,
        148.79999999999995
      ],
      [
        0.21550736390054226,
        51.26547890715301,
        149
      ],
      [
        0.21546914242208004,
        51.26548024825752,
        152.20000000000005
      ],
      [
        0.21508240140974522,
        51.265438087284565,
        153
      ],
      [
        0.21492666564881802,
        51.26542853191495,
        153.39999999999998
      ],
      [
        0.2144784014672041,
        51.26544043421745,
        153.60000000000002
      ],
      [
        0.2137531992048025,
        51.26551536843181,
        152.79999999999995
      ],
      [
        0.21361364051699638,
        51.26552098430693,
        152.79999999999995
      ],
      [
        0.21357055753469467,
        51.26552542671561,
        152.79999999999995
      ],
      [
        0.21340878680348396,
        51.265539173036814,
        153.79999999999995
      ],
      [
        0.21317878738045692,
        51.26561880111694,
        154.20000000000005
      ],
      [
        0.21313754841685295,
        51.26562927849591,
        154.20000000000005
      ],
      [
        0.21308314986526966,
        51.26565098762512,
        154.20000000000005
      ],
      [
        0.2126695029437542,
        51.26578375697136,
        151.20000000000005
      ],
      [
        0.21263555623590946,
        51.26580085605383,
        150.20000000000005
      ],
      [
        0.2124517410993576,
        51.26588987186551,
        148.20000000000005
      ],
      [
        0.2121222484856844,
        51.26602607779205,
        148
      ],
      [
        0.21177632734179497,
        51.266166139394045,
        149
      ],
      [
        0.2111639454960823,
        51.266403682529926,
        150
      ],
      [
        0.21062255837023258,
        51.26662680879235,
        149.79999999999995
      ],
      [
        0.21002987399697304,
        51.2668920122087,
        149
      ],
      [
        0.2094464935362339,
        51.26715143211186,
        143.39999999999998
      ],
      [
        0.20918321795761585,
        51.2672358378768,
        140.39999999999998
      ],
      [
        0.2091290708631277,
        51.26724413596094,
        140.79999999999995
      ],
      [
        0.20872238092124462,
        51.26718018203974,
        146
      ],
      [
        0.20803590305149555,
        51.267145397141576,
        144.20000000000005
      ],
      [
        0.207907073199749,
        51.26714372076094,
        144.39999999999998
      ],
      [
        0.20754908211529255,
        51.26710457727313,
        145.79999999999995
      ],
      [
        0.20683628506958485,
        51.267057470977306,
        144.60000000000002
      ],
      [
        0.20643286406993866,
        51.26696585677564,
        145.39999999999998
      ],
      [
        0.20620236173272133,
        51.26694289036095,
        144.39999999999998
      ],
      [
        0.20567539148032665,
        51.26694607548416,
        142
      ],
      [
        0.2056499943137169,
        51.26694037579,
        141.39999999999998
      ],
      [
        0.20565401762723923,
        51.26695445738733,
        144.79999999999995
      ],
      [
        0.20563138648867607,
        51.26696870662272,
        145.20000000000005
      ],
      [
        0.2055923268198967,
        51.26698672771454,
        145.79999999999995
      ],
      [
        0.20531798712909222,
        51.26710466109216,
        144.39999999999998
      ],
      [
        0.20527498796582222,
        51.26712754368782,
        144.39999999999998
      ],
      [
        0.2052574697881937,
        51.26713491976261,
        144.60000000000002
      ],
      [
        0.20511765964329243,
        51.267204908654094,
        143.39999999999998
      ],
      [
        0.20498606376349926,
        51.26724564470351,
        143
      ],
      [
        0.20470954477787018,
        51.267258720472455,
        142.20000000000005
      ],
      [
        0.20451433025300503,
        51.2671943474561,
        142.79999999999995
      ],
      [
        0.2044357918202877,
        51.26719166524708,
        142.79999999999995
      ],
      [
        0.20431668497622013,
        51.26726182177663,
        141.79999999999995
      ],
      [
        0.20421207882463932,
        51.26738847233355,
        140.20000000000005
      ],
      [
        0.20392918959259987,
        51.26778267323971,
        143.60000000000002
      ],
      [
        0.20335410721600056,
        51.26805441454053,
        150.20000000000005
      ],
      [
        0.2031882293522358,
        51.268101101741195,
        150
      ],
      [
        0.20312989130616188,
        51.26811292022467,
        149.79999999999995
      ],
      [
        0.20305789075791836,
        51.26812390051782,
        149.20000000000005
      ],
      [
        0.20293165929615498,
        51.26816430129111,
        148.20000000000005
      ],
      [
        0.20258783362805843,
        51.268309224396944,
        146.39999999999998
      ],
      [
        0.20256821997463703,
        51.26831391826272,
        147
      ],
      [
        0.20228407345712185,
        51.26841609366238,
        148
      ],
      [
        0.2016778104007244,
        51.26866092905402,
        137.20000000000005
      ],
      [
        0.20155878737568855,
        51.268737791106105,
        136.39999999999998
      ],
      [
        0.20097339525818825,
        51.269006598740816,
        131.60000000000002
      ],
      [
        0.20082511939108372,
        51.26908463425934,
        133.20000000000005
      ],
      [
        0.20074146799743176,
        51.26911665312946,
        132.60000000000002
      ],
      [
        0.20009782165288925,
        51.26933324150741,
        133.79999999999995
      ],
      [
        0.19986270926892757,
        51.269422424957156,
        134.20000000000005
      ],
      [
        0.19957596436142921,
        51.269473135471344,
        131.79999999999995
      ],
      [
        0.19935945980250835,
        51.26950079575181,
        130
      ],
      [
        0.19893324002623558,
        51.26954949460924,
        119.79999999999995
      ],
      [
        0.19842705689370632,
        51.269639264792204,
        117.39999999999998
      ],
      [
        0.19829696975648403,
        51.269672038033605,
        115.20000000000005
      ],
      [
        0.19825623370707035,
        51.26967614516616,
        115
      ],
      [
        0.19815657287836075,
        51.269682766869664,
        117.20000000000005
      ],
      [
        0.19805515184998512,
        51.26971813850105,
        117.39999999999998
      ],
      [
        0.19803302362561226,
        51.26972744241357,
        116.79999999999995
      ],
      [
        0.1980207860469818,
        51.269731214269996,
        116.60000000000002
      ],
      [
        0.19800687208771706,
        51.26973305828869,
        116.60000000000002
      ],
      [
        0.19796152599155903,
        51.269734064117074,
        117.20000000000005
      ],
      [
        0.1978475321084261,
        51.26973381265998,
        121.79999999999995
      ],
      [
        0.19783277995884418,
        51.26973959617317,
        122.39999999999998
      ],
      [
        0.19781693816184998,
        51.26974420621991,
        122.79999999999995
      ],
      [
        0.1977828238159418,
        51.269742362201214,
        124.79999999999995
      ],
      [
        0.19775968976318836,
        51.26974512822926,
        125
      ],
      [
        0.19774435088038445,
        51.26974940299988,
        125.20000000000005
      ],
      [
        0.19772842526435852,
        51.269756611436605,
        125
      ],
      [
        0.1975394133478403,
        51.26978066749871,
        126.60000000000002
      ],
      [
        0.19748719409108162,
        51.26978552900255,
        126
      ],
      [
        0.19741921685636044,
        51.26980162225664,
        126
      ],
      [
        0.19727018661797047,
        51.26984219066799,
        126
      ],
      [
        0.19689367152750492,
        51.26992047764361,
        126.79999999999995
      ],
      [
        0.1967373490333557,
        51.26999298110604,
        128.20000000000005
      ],
      [
        0.1966490875929594,
        51.27011544071138,
        131.39999999999998
      ],
      [
        0.19661002792418003,
        51.27014335244894,
        131.60000000000002
      ],
      [
        0.19658613950014114,
        51.270155841484666,
        132.60000000000002
      ],
      [
        0.19656451418995857,
        51.270170006901026,
        133.20000000000005
      ],
      [
        0.19653953611850739,
        51.270188111811876,
        134
      ],
      [
        0.19652101211249828,
        51.270197834819555,
        134.20000000000005
      ],
      [
        0.19650760106742382,
        51.270210491493344,
        134.60000000000002
      ],
      [
        0.19631674513220787,
        51.27028366550803,
        138
      ],
      [
        0.19630040042102337,
        51.27028760500252,
        138
      ],
      [
        0.19616654142737389,
        51.27030654810369,
        140.79999999999995
      ],
      [
        0.1960424892604351,
        51.270294561982155,
        145.79999999999995
      ],
      [
        0.1958970632404089,
        51.27028835937381,
        149
      ],
      [
        0.19535659812390804,
        51.270254496484995,
        148.39999999999998
      ],
      [
        0.19520999863743782,
        51.27025868743658,
        145.20000000000005
      ],
      [
        0.19469224847853184,
        51.27029875293374,
        143.39999999999998
      ],
      [
        0.19463550299406052,
        51.27029623836279,
        142.60000000000002
      ],
      [
        0.19441891461610794,
        51.2702870182693,
        139
      ],
      [
        0.19418958574533463,
        51.270361952483654,
        135.39999999999998
      ],
      [
        0.19411255605518818,
        51.27040972933173,
        136.60000000000002
      ],
      [
        0.19405522383749485,
        51.27043847925961,
        138.39999999999998
      ],
      [
        0.19398280419409275,
        51.27046664245427,
        138.39999999999998
      ],
      [
        0.19384232349693775,
        51.2704683188349,
        137.39999999999998
      ],
      [
        0.19335290417075157,
        51.270459685474634,
        138.60000000000002
      ],
      [
        0.19303313456475735,
        51.27043688669801,
        144
      ],
      [
        0.1927997823804617,
        51.27065917477012,
        144.60000000000002
      ],
      [
        0.19253860227763653,
        51.270941644907,
        146.20000000000005
      ],
      [
        0.1924425456672907,
        51.27095413394272,
        143.20000000000005
      ],
      [
        0.19240382127463818,
        51.27096679061651,
        142.79999999999995
      ],
      [
        0.19235319457948208,
        51.271008448675275,
        142
      ],
      [
        0.19234338775277138,
        51.27102789469063,
        140.60000000000002
      ],
      [
        0.192324947565794,
        51.271055890247226,
        140
      ],
      [
        0.19226443022489548,
        51.271065613254905,
        138.79999999999995
      ],
      [
        0.1920402143150568,
        51.27103770151734,
        130.79999999999995
      ],
      [
        0.1916699018329382,
        51.27097408287227,
        137.20000000000005
      ],
      [
        0.1915196981281042,
        51.27108933404088,
        137.39999999999998
      ],
      [
        0.1912686601281166,
        51.27122319303453,
        138.79999999999995
      ],
      [
        0.19107235595583916,
        51.271431650966406,
        142.20000000000005
      ],
      [
        0.1909375749528408,
        51.27152728848159,
        138.79999999999995
      ],
      [
        0.1906897220760584,
        51.27195384353399,
        144.20000000000005
      ],
      [
        0.19035838544368744,
        51.272243270650506,
        148.20000000000005
      ],
      [
        0.19038713537156582,
        51.2723695859313,
        151.60000000000002
      ],
      [
        0.1903326530009508,
        51.27243664115667,
        152.60000000000002
      ],
      [
        0.19024422392249107,
        51.27256262116134,
        149.20000000000005
      ],
      [
        0.19021027721464634,
        51.27262841910124,
        144.79999999999995
      ],
      [
        0.18981590867042542,
        51.273005520924926,
        132.39999999999998
      ],
      [
        0.18954978324472904,
        51.27332520671189,
        134.39999999999998
      ],
      [
        0.18930536694824696,
        51.2734885700047,
        123.39999999999998
      ],
      [
        0.18924091011285782,
        51.27350558526814,
        124.60000000000002
      ],
      [
        0.18898626789450645,
        51.27372493967414,
        124.79999999999995
      ],
      [
        0.18897319212555885,
        51.273733070120215,
        125.39999999999998
      ],
      [
        0.18892516382038593,
        51.27377246506512,
        124
      ],
      [
        0.18888861872255802,
        51.273809261620045,
        123.39999999999998
      ],
      [
        0.1888459548354149,
        51.27384211868048,
        122.79999999999995
      ],
      [
        0.18862291239202023,
        51.274182591587305,
        136
      ],
      [
        0.18804950639605522,
        51.27446514554322,
        124.39999999999998
      ],
      [
        0.18747392110526562,
        51.274742502719164,
        120.39999999999998
      ],
      [
        0.18708550371229649,
        51.275129495188594,
        116.79999999999995
      ],
      [
        0.18688760697841644,
        51.27526855096221,
        123.79999999999995
      ],
      [
        0.18655224703252316,
        51.27544599585235,
        117
      ],
      [
        0.18635745160281658,
        51.27550508826971,
        107.39999999999998
      ],
      [
        0.18626650795340538,
        51.275548255071044,
        105.79999999999995
      ],
      [
        0.18623029813170433,
        51.275562504306436,
        104.39999999999998
      ],
      [
        0.1859823614358902,
        51.27568488009274,
        100.79999999999995
      ],
      [
        0.18536738120019436,
        51.2759461440146,
        105.20000000000005
      ],
      [
        0.18478073179721832,
        51.276211431249976,
        114.60000000000002
      ],
      [
        0.184139097109437,
        51.276438580825925,
        112.79999999999995
      ],
      [
        0.18387003801763058,
        51.27654058858752,
        109.79999999999995
      ],
      [
        0.18363970331847668,
        51.276644775643945,
        105
      ],
      [
        0.18328632228076458,
        51.276820627972484,
        92
      ],
      [
        0.1826129201799631,
        51.27694124355912,
        85.79999999999995
      ],
      [
        0.182452155277133,
        51.27702631987631,
        94.20000000000005
      ],
      [
        0.18243555910885334,
        51.27704878337681,
        99.79999999999995
      ],
      [
        0.18243497237563133,
        51.27704098820686,
        99.20000000000005
      ],
      [
        0.18243463709950447,
        51.27702170982957,
        97.39999999999998
      ],
      [
        0.18244528211653233,
        51.27701936289668,
        97.60000000000002
      ],
      [
        0.1823721919208765,
        51.27700679004192,
        98.79999999999995
      ],
      [
        0.1823214814066887,
        51.27699295990169,
        100
      ],
      [
        0.18227127380669117,
        51.276991702616215,
        102
      ],
      [
        0.18226926214993,
        51.27699337899685,
        102.20000000000005
      ],
      [
        0.1820613071322441,
        51.27714207395911,
        102
      ],
      [
        0.18191328272223473,
        51.277188090607524,
        96.60000000000002
      ],
      [
        0.18234151415526867,
        51.27696395851672,
        63.39999999999998
      ],
      [
        0.1824326254427433,
        51.27698650583625,
        68.79999999999995
      ],
      [
        0.1824696734547615,
        51.27698516473174,
        72
      ],
      [
        0.18266480416059494,
        51.27698365598917,
        83.60000000000002
      ],
      [
        0.1826645527034998,
        51.27697141841054,
        83.20000000000005
      ],
      [
        0.18265843391418457,
        51.276979465037584,
        84
      ],
      [
        0.1826013531535864,
        51.277117766439915,
        92.60000000000002
      ],
      [
        0.1825933065265417,
        51.2771341111511,
        93.60000000000002
      ],
      [
        0.18254284746944904,
        51.27715556882322,
        94.39999999999998
      ],
      [
        0.18246883526444435,
        51.277174428105354,
        94.39999999999998
      ],
      [
        0.1822012010961771,
        51.277271658182144,
        94
      ],
      [
        0.1821364089846611,
        51.2772913556546,
        94.20000000000005
      ],
      [
        0.18153157085180283,
        51.27753468230367,
        89.39999999999998
      ],
      [
        0.18089823424816132,
        51.27776023931801,
        89.60000000000002
      ],
      [
        0.18059397116303444,
        51.277789156883955,
        89.60000000000002
      ],
      [
        0.18053177744150162,
        51.27781388349831,
        90.79999999999995
      ],
      [
        0.18024394288659096,
        51.27788848243654,
        91.79999999999995
      ],
      [
        0.18007940612733364,
        51.277909856289625,
        89.60000000000002
      ],
      [
        0.1795837003737688,
        51.27800205722451,
        81.39999999999998
      ],
      [
        0.1789563149213791,
        51.278172209858894,
        85.79999999999995
      ],
      [
        0.17893762327730656,
        51.2782028876245,
        86.20000000000005
      ],
      [
        0.1786116510629654,
        51.27837773412466,
        86.60000000000002
      ],
      [
        0.17792366445064545,
        51.27854436635971,
        97
      ],
      [
        0.17782735638320446,
        51.27858686260879,
        95.39999999999998
      ],
      [
        0.17779198475182056,
        51.27861217595637,
        94.39999999999998
      ],
      [
        0.17758537083864212,
        51.27876388840377,
        86.20000000000005
      ],
      [
        0.17760020680725574,
        51.2788022775203,
        84.20000000000005
      ],
      [
        0.1776550244539976,
        51.2788178678602,
        81.20000000000005
      ]
    ]
  }
}
