{
  "type": "Feature",
  "properties": {
    "id": "withings-201911101507",
    "activity": "hiking",
    "name": "Blarney Castle grounds",
    "date": "2019-11-10T14:07:16.000Z",
    "distanceKm": 4.19,
    "movingTimeSeconds": null,
    "elapsedTimeSeconds": 3780,
    "ascentM": 63,
    "descentM": null,
    "providers": [
      "Withings",
      "Google Timeline"
    ],
    "provenance": {
      "status": "estimated",
      "method": "withings-google-timeline",
      "metricsSource": "Withings",
      "routeSource": "Google Timeline",
      "label": "Estimated route compiled from Withings activity data and Google Timeline."
    },
    "notes": "Estimated historical walk through the woodland grounds around Blarney Castle, reconstructed from a Withings walking record and Google Timeline breadcrumbs.",
    "references": [
      {
        "label": "Fishermen’s Trail — Rota Vicentina",
        "url": "https://rotavicentina.com/en/fishermens-trail/"
      }
    ]
  },
  "geometry": {
    "type": "LineString",
    "coordinates": [
      [
        -8.571146,
        51.92919
      ],
      [
        -8.57863,
        51.928979
      ],
      [
        -8.582474,
        51.927465
      ],
      [
        -8.574228,
        51.923463
      ],
      [
        -8.568169,
        51.925626
      ],
      [
        -8.568587,
        51.927843
      ],
      [
        -8.569034,
        51.931277
      ],
      [
        -8.567139,
        51.933222
      ],
      [
        -8.566916,
        51.933481
      ]
    ]
  }
}
