{
  "type": "Feature",
  "properties": {
    "id": "withings-4220375244",
    "activity": "hiking",
    "name": "Portugal coast — 15 May 2024",
    "date": "2024-05-15T08:28:00.000Z",
    "distanceKm": 20.39,
    "movingTimeSeconds": 15599,
    "elapsedTimeSeconds": 19620,
    "ascentM": null,
    "descentM": null,
    "providers": [
      "Withings",
      "Google Timeline"
    ],
    "provenance": {
      "status": "estimated",
      "method": "withings-google-timeline",
      "metricsSource": "Withings",
      "routeSource": "Google Timeline",
      "label": "Estimated route compiled from Withings activity data and Google Timeline."
    }
  },
  "geometry": {
    "type": "LineString",
    "coordinates": [
      [
        -8.936003,
        37.008856
      ],
      [
        -8.941454,
        37.007379
      ],
      [
        -8.945012,
        37.007447
      ],
      [
        -8.94852,
        37.009412
      ],
      [
        -8.953113,
        37.014844
      ],
      [
        -8.956625,
        37.019026
      ],
      [
        -8.961177,
        37.024813
      ],
      [
        -8.963666,
        37.027512
      ],
      [
        -8.968787,
        37.027644
      ],
      [
        -8.979804,
        37.026908
      ],
      [
        -8.99024,
        37.025522
      ],
      [
        -8.995822,
        37.023917
      ],
      [
        -8.995695,
        37.023782
      ],
      [
        -8.984966,
        37.027772
      ],
      [
        -8.97987,
        37.02852
      ],
      [
        -8.979984,
        37.02852
      ],
      [
        -8.981868,
        37.029738
      ],
      [
        -8.982895,
        37.032383
      ],
      [
        -8.983888,
        37.034364
      ],
      [
        -8.982656,
        37.036801
      ],
      [
        -8.981032,
        37.038525
      ],
      [
        -8.980445,
        37.040653
      ],
      [
        -8.977931,
        37.045892
      ],
      [
        -8.978266,
        37.049509
      ],
      [
        -8.977959,
        37.05237
      ],
      [
        -8.976587,
        37.055243
      ],
      [
        -8.971267,
        37.059843
      ],
      [
        -8.978019,
        37.050066
      ],
      [
        -8.971267,
        37.059843
      ],
      [
        -8.960081,
        37.063281
      ],
      [
        -8.958499,
        37.065138
      ],
      [
        -8.954493,
        37.06764
      ],
      [
        -8.952182,
        37.074649
      ],
      [
        -8.947952,
        37.082727
      ],
      [
        -8.939013,
        37.082744
      ],
      [
        -8.934514,
        37.083066
      ],
      [
        -8.927475,
        37.08365
      ],
      [
        -8.923432,
        37.083752
      ],
      [
        -8.916775,
        37.083474
      ],
      [
        -8.912126,
        37.083065
      ],
      [
        -8.909162,
        37.082897
      ]
    ]
  }
}
