{
  "type": "Feature",
  "properties": {
    "id": "withings-202404131124",
    "activity": "hiking",
    "name": "Bedfordshire walk — 13 April 2024",
    "date": "2024-04-13T09:24:00.000Z",
    "distanceKm": 9.9,
    "movingTimeSeconds": 7440,
    "elapsedTimeSeconds": 7680,
    "ascentM": null,
    "descentM": null,
    "providers": [
      "Withings",
      "Google Timeline"
    ],
    "provenance": {
      "status": "estimated",
      "method": "withings-google-timeline",
      "metricsSource": "Withings",
      "routeSource": "Google Timeline",
      "label": "Estimated route compiled from Withings activity data and Google Timeline."
    },
    "notes": "Estimated historical walk reconstructed from a Withings walking record and Google Timeline breadcrumbs. An earlier London walking fragment from the same day was excluded.",
    "references": [
      {
        "label": "Fishermen’s Trail — Rota Vicentina",
        "url": "https://rotavicentina.com/en/fishermens-trail/"
      }
    ]
  },
  "geometry": {
    "type": "LineString",
    "coordinates": [
      [
        -0.459541,
        51.905968
      ],
      [
        -0.452114,
        51.908211
      ],
      [
        -0.456494,
        51.907975
      ],
      [
        -0.449859,
        51.906618
      ],
      [
        -0.441686,
        51.908222
      ],
      [
        -0.437612,
        51.910892
      ],
      [
        -0.430981,
        51.915985
      ],
      [
        -0.425213,
        51.917381
      ],
      [
        -0.418608,
        51.9182
      ],
      [
        -0.415905,
        51.919521
      ],
      [
        -0.415619,
        51.924307
      ],
      [
        -0.413499,
        51.927706
      ],
      [
        -0.412932,
        51.931074
      ],
      [
        -0.409676,
        51.93429
      ],
      [
        -0.40304,
        51.936148
      ],
      [
        -0.398171,
        51.937521
      ],
      [
        -0.394834,
        51.942831
      ],
      [
        -0.393713,
        51.947451
      ],
      [
        -0.394571,
        51.943729
      ],
      [
        -0.394147,
        51.945674
      ],
      [
        -0.392441,
        51.948375
      ],
      [
        -0.394147,
        51.945674
      ],
      [
        -0.391295,
        51.951676
      ],
      [
        -0.392768,
        51.956375
      ],
      [
        -0.391158,
        51.959718
      ],
      [
        -0.391073,
        51.963742
      ]
    ]
  }
}
