{
  "type": "Feature",
  "properties": {},
  "geometry": {
    "type": "LineString",
    "coordinates": [
      [
        12.464805,
        58.70192
      ],
      [
        12.464496666666667,
        58.707283333333336
      ],
      [
        12.470886666666667,
        58.71267
      ],
      [
        12.473558333333333,
        58.71368833333333
      ],
      [
        12.4735569,
        58.7137874
      ],
      [
        12.4735833,
        58.7138959
      ],
      [
        12.4735939,
        58.7140071
      ],
      [
        12.4736045,
        58.7141445
      ],
      [
        12.4736257,
        58.7142626
      ],
      [
        12.4736574,
        58.7144769
      ],
      [
        12.4737103,
        58.7147983
      ],
      [
        12.4737952,
        58.715259
      ],
      [
        12.4738164,
        58.715417
      ],
      [
        12.473864,
        58.7157782
      ],
      [
        12.4739301,
        58.7161628
      ],
      [
        12.4739989,
        58.7165378
      ],
      [
        12.4740914,
        58.7171228
      ],
      [
        12.4741364,
        58.7172121
      ],
      [
        12.4742422,
        58.7172739
      ],
      [
        12.4743216,
        58.7172986
      ],
      [
        12.4744088,
        58.7173124
      ],
      [
        12.4744961,
        58.7173261
      ],
      [
        12.4745887,
        58.7173385
      ],
      [
        12.4747315,
        58.7173907
      ],
      [
        12.4747897,
        58.7174264
      ],
      [
        12.4748347,
        58.7174827
      ],
      [
        12.4748929,
        58.7175816
      ],
      [
        12.4753677,
        58.7186186
      ],
      [
        12.4754287,
        58.7187956
      ],
      [
        12.4754805,
        58.7189229
      ],
      [
        12.4756989,
        58.7195341
      ],
      [
        12.4757888,
        58.7198252
      ],
      [
        12.4758391,
        58.7200202
      ],
      [
        12.475847,
        58.720126
      ],
      [
        12.475847,
        58.7202894
      ],
      [
        12.4758338,
        58.7210035
      ],
      [
        12.4758259,
        58.7211038
      ],
      [
        12.475812,
        58.7211883
      ],
      [
        12.4757227,
        58.7214471
      ],
      [
        12.4755561,
        58.721984
      ],
      [
        12.4755058,
        58.7220884
      ],
      [
        12.4754529,
        58.7221818
      ],
      [
        12.4753709,
        58.7222779
      ],
      [
        12.4752572,
        58.7223905
      ],
      [
        12.4749768,
        58.7226144
      ],
      [
        12.4747837,
        58.7227613
      ],
      [
        12.4746938,
        58.7228354
      ],
      [
        12.4746197,
        58.7229123
      ],
      [
        12.4744108,
        58.7231499
      ],
      [
        12.4743579,
        58.7232199
      ],
      [
        12.4743235,
        58.7232872
      ],
      [
        12.4743103,
        58.7233518
      ],
      [
        12.4743103,
        58.7234328
      ],
      [
        12.4743261,
        58.7235083
      ],
      [
        12.4743526,
        58.7235838
      ],
      [
        12.4743632,
        58.7236401
      ],
      [
        12.4743526,
        58.7236937
      ],
      [
        12.4743209,
        58.7237692
      ],
      [
        12.474104,
        58.7242059
      ],
      [
        12.4739823,
        58.7244352
      ],
      [
        12.4739426,
        58.7245204
      ],
      [
        12.4739162,
        58.7245945
      ],
      [
        12.4738977,
        58.7246714
      ],
      [
        12.4738871,
        58.7247538
      ],
      [
        12.4738818,
        58.7248664
      ],
      [
        12.4738895,
        58.7249743
      ],
      [
        12.4738947,
        58.7250464
      ],
      [
        12.473908,
        58.7252523
      ],
      [
        12.4739291,
        58.7253485
      ],
      [
        12.4739721,
        58.725464
      ],
      [
        12.4740376,
        58.7255999
      ],
      [
        12.4741072,
        58.7257167
      ],
      [
        12.4741653,
        58.7258169
      ],
      [
        12.4742182,
        58.7259226
      ],
      [
        12.4742553,
        58.7260187
      ],
      [
        12.4742897,
        58.7261464
      ],
      [
        12.4743169,
        58.7263387
      ],
      [
        12.4743244,
        58.7265659
      ],
      [
        12.4742795,
        58.726795
      ],
      [
        12.4742448,
        58.7269796
      ],
      [
        12.4742315,
        58.727099
      ],
      [
        12.4742263,
        58.727224
      ],
      [
        12.4742289,
        58.7272871
      ],
      [
        12.4742474,
        58.7273517
      ],
      [
        12.4742792,
        58.7274217
      ],
      [
        12.4743162,
        58.7274835
      ],
      [
        12.4743876,
        58.727559
      ],
      [
        12.4744934,
        58.7276359
      ],
      [
        12.4746098,
        58.727699
      ],
      [
        12.4747658,
        58.727754
      ],
      [
        12.4750568,
        58.7278267
      ],
      [
        12.4758609,
        58.7280066
      ],
      [
        12.4760698,
        58.7280492
      ],
      [
        12.476255,
        58.7280862
      ],
      [
        12.4764745,
        58.7281274
      ],
      [
        12.4766729,
        58.7281563
      ],
      [
        12.4769559,
        58.7281933
      ],
      [
        12.4774002,
        58.7282483
      ],
      [
        12.4776479,
        58.72829
      ],
      [
        12.4780227,
        58.728315
      ],
      [
        12.4782052,
        58.728337
      ],
      [
        12.4783877,
        58.7283672
      ],
      [
        12.4785491,
        58.7283946
      ],
      [
        12.4787847,
        58.7284387
      ],
      [
        12.4789167,
        58.7284757
      ],
      [
        12.4791098,
        58.7285512
      ],
      [
        12.4794324,
        58.7286885
      ],
      [
        12.4798765,
        58.7289208
      ],
      [
        12.4800256,
        58.7289935
      ],
      [
        12.4801409,
        58.7290645
      ],
      [
        12.4802723,
        58.7291696
      ],
      [
        12.4803984,
        58.7292803
      ],
      [
        12.480499,
        58.7293701
      ],
      [
        12.4805727,
        58.7294307
      ],
      [
        12.4806988,
        58.7295121
      ],
      [
        12.4808383,
        58.7296089
      ],
      [
        12.4809375,
        58.7296973
      ],
      [
        12.4809844,
        58.7297676
      ],
      [
        12.4810099,
        58.7298428
      ],
      [
        12.4809885,
        58.7299256
      ],
      [
        12.4809496,
        58.730053
      ],
      [
        12.4808503,
        58.730202
      ],
      [
        12.4807793,
        58.7302959
      ],
      [
        12.4806881,
        58.7303934
      ],
      [
        12.4805794,
        58.7304881
      ],
      [
        12.4805258,
        58.7305438
      ],
      [
        12.4805057,
        58.7305974
      ],
      [
        12.4805164,
        58.7306496
      ],
      [
        12.4805768,
        58.7307686
      ],
      [
        12.4806036,
        58.7308716
      ],
      [
        12.480617,
        58.7309621
      ],
      [
        12.4806116,
        58.7310693
      ],
      [
        12.4805741,
        58.731196
      ],
      [
        12.4805285,
        58.7313088
      ],
      [
        12.4805043,
        58.731423
      ],
      [
        12.4805204,
        58.7315357
      ],
      [
        12.4805419,
        58.7316415
      ],
      [
        12.4805553,
        58.7317585
      ],
      [
        12.4805231,
        58.7318629
      ],
      [
        12.4804561,
        58.7320049
      ],
      [
        12.4803675,
        58.7321636
      ],
      [
        12.4802978,
        58.7323362
      ],
      [
        12.4802442,
        58.7324727
      ],
      [
        12.4802147,
        58.7325952
      ],
      [
        12.4802093,
        58.7326801
      ],
      [
        12.4802468,
        58.7327887
      ],
      [
        12.4803166,
        58.7328833
      ],
      [
        12.4804507,
        58.7329905
      ],
      [
        12.4805526,
        58.7330671
      ],
      [
        12.4805499,
        58.7331395
      ],
      [
        12.480507,
        58.7332425
      ],
      [
        12.4804721,
        58.7333274
      ],
      [
        12.4804695,
        58.733404
      ],
      [
        12.4805177,
        58.7334959
      ],
      [
        12.480566,
        58.7336601
      ],
      [
        12.4805902,
        58.7338133
      ],
      [
        12.4805982,
        58.7340806
      ],
      [
        12.4806143,
        58.7342114
      ],
      [
        12.4806143,
        58.7342727
      ],
      [
        12.4805472,
        58.7344161
      ],
      [
        12.4804292,
        58.7345942
      ],
      [
        12.4803354,
        58.7347404
      ],
      [
        12.4802603,
        58.7348072
      ],
      [
        12.4799303,
        58.7350564
      ],
      [
        12.4797801,
        58.7351914
      ],
      [
        12.4795414,
        58.7353877
      ],
      [
        12.4794422,
        58.735474
      ],
      [
        12.479292,
        58.7355617
      ],
      [
        12.4791364,
        58.7356202
      ],
      [
        12.4789352,
        58.7357051
      ],
      [
        12.4787341,
        58.735822
      ],
      [
        12.4783693,
        58.7360322
      ],
      [
        12.4779696,
        58.7362257
      ],
      [
        12.4777685,
        58.7363148
      ],
      [
        12.4776934,
        58.7363983
      ],
      [
        12.4777041,
        58.7364665
      ],
      [
        12.4777953,
        58.7366238
      ],
      [
        12.4779589,
        58.73688
      ],
      [
        12.4780447,
        58.737086
      ],
      [
        12.4780984,
        58.7372321
      ],
      [
        12.478144,
        58.737434
      ],
      [
        12.4781494,
        58.7375634
      ],
      [
        12.478093,
        58.7376984
      ],
      [
        12.4779992,
        58.7378529
      ],
      [
        12.4777658,
        58.7381439
      ],
      [
        12.4775915,
        58.7383471
      ],
      [
        12.477401,
        58.7385141
      ],
      [
        12.4773259,
        58.738599
      ],
      [
        12.4772562,
        58.7387479
      ],
      [
        12.47722,
        58.7388621
      ],
      [
        12.4772495,
        58.7390166
      ],
      [
        12.4773031,
        58.7391669
      ],
      [
        12.4774372,
        58.7393632
      ],
      [
        12.4775365,
        58.7395288
      ],
      [
        12.4776089,
        58.7397028
      ],
      [
        12.4776491,
        58.7398893
      ],
      [
        12.4776733,
        58.7400688
      ],
      [
        12.4777323,
        58.740357
      ],
      [
        12.4778127,
        58.7405114
      ],
      [
        12.4779576,
        58.7406701
      ],
      [
        12.4781534,
        58.7408524
      ],
      [
        12.4783143,
        58.7410055
      ],
      [
        12.4785182,
        58.7412185
      ],
      [
        12.4787515,
        58.7414593
      ],
      [
        12.4789098,
        58.7416012
      ],
      [
        12.4789527,
        58.741714
      ],
      [
        12.4789657,
        58.7417691
      ],
      [
        12.4789402,
        58.7418226
      ],
      [
        12.4788919,
        58.7418679
      ],
      [
        12.4788074,
        58.741918
      ],
      [
        12.4786773,
        58.7419757
      ],
      [
        12.4785834,
        58.7420439
      ],
      [
        12.4784601,
        58.7421483
      ],
      [
        12.4783689,
        58.7422005
      ],
      [
        12.4782951,
        58.7422367
      ],
      [
        12.4781999,
        58.7422645
      ],
      [
        12.4780966,
        58.7422784
      ],
      [
        12.4778727,
        58.7422784
      ],
      [
        12.4776648,
        58.7422798
      ],
      [
        12.4775372,
        58.742275
      ],
      [
        12.4772417,
        58.7420112
      ],
      [
        12.4769359,
        58.7417113
      ],
      [
        12.4768625,
        58.7416486
      ],
      [
        12.4767271,
        58.7415192
      ],
      [
        12.4766373,
        58.7415278
      ],
      [
        12.4765465,
        58.7415586
      ],
      [
        12.4765192,
        58.7416163
      ],
      [
        12.4765936,
        58.7417029
      ],
      [
        12.4766124,
        58.7417868
      ],
      [
        12.4765802,
        58.7418313
      ],
      [
        12.4765547,
        58.7418849
      ],
      [
        12.4766231,
        58.7419127
      ],
      [
        12.4765393,
        58.7419935
      ],
      [
        12.4765285,
        58.7420603
      ],
      [
        12.4765607,
        58.7421327
      ],
      [
        12.4769309,
        58.7424555
      ],
      [
        12.4770355,
        58.7425585
      ],
      [
        12.477124,
        58.742624
      ],
      [
        12.4772393,
        58.7426671
      ],
      [
        12.4772801,
        58.7427355
      ],
      [
        12.477335,
        58.7427723
      ],
      [
        12.477559,
        58.74289
      ],
      [
        12.4777012,
        58.7429818
      ],
      [
        12.4778058,
        58.7430771
      ],
      [
        12.4779479,
        58.7431982
      ],
      [
        12.478082,
        58.7433249
      ],
      [
        12.4782483,
        58.743494
      ],
      [
        12.4782859,
        58.7435747
      ],
      [
        12.4782993,
        58.7436624
      ],
      [
        12.4782845,
        58.7437667
      ],
      [
        12.4782416,
        58.7438732
      ],
      [
        12.4780485,
        58.7443916
      ],
      [
        12.4780918,
        58.7445085
      ],
      [
        12.4781119,
        58.7445544
      ],
      [
        12.4780918,
        58.7446338
      ],
      [
        12.4780582,
        58.7448683
      ],
      [
        12.4780354,
        58.7449977
      ],
      [
        12.4780354,
        58.7450847
      ],
      [
        12.4780542,
        58.7451737
      ],
      [
        12.4780596,
        58.7452447
      ],
      [
        12.4780408,
        58.7453449
      ],
      [
        12.4779818,
        58.7454701
      ],
      [
        12.4779214,
        58.7455648
      ],
      [
        12.4778651,
        58.7456622
      ],
      [
        12.4778477,
        58.7457756
      ],
      [
        12.4778316,
        58.745873
      ],
      [
        12.4778517,
        58.7459823
      ],
      [
        12.4778624,
        58.7460825
      ],
      [
        12.4778691,
        58.7462251
      ],
      [
        12.4778745,
        58.7463309
      ],
      [
        12.4778738,
        58.746429
      ],
      [
        12.4778591,
        58.7465521
      ],
      [
        12.4777208,
        58.7466726
      ],
      [
        12.4775218,
        58.7467365
      ],
      [
        12.4772951,
        58.7468687
      ],
      [
        12.4772133,
        58.7469362
      ],
      [
        12.4771718,
        58.7469995
      ],
      [
        12.4771664,
        58.7470705
      ],
      [
        12.4771905,
        58.7471609
      ],
      [
        12.4771771,
        58.7472472
      ],
      [
        12.4771476,
        58.7473488
      ],
      [
        12.4770832,
        58.7474434
      ],
      [
        12.4770108,
        58.7475158
      ],
      [
        12.4769116,
        58.7475422
      ],
      [
        12.4767936,
        58.7475993
      ],
      [
        12.4767024,
        58.7476703
      ],
      [
        12.4766192,
        58.7477871
      ],
      [
        12.4765897,
        58.7478971
      ],
      [
        12.4765951,
        58.747975
      ],
      [
        12.4766219,
        58.7480599
      ],
      [
        12.4766279,
        58.7481336
      ],
      [
        12.4765917,
        58.7481768
      ],
      [
        12.4765051,
        58.7482933
      ],
      [
        12.476479,
        58.748358
      ],
      [
        12.4764655,
        58.7484081
      ],
      [
        12.4764568,
        58.7484703
      ],
      [
        12.4764307,
        58.7485173
      ],
      [
        12.4763831,
        58.7485803
      ],
      [
        12.4764166,
        58.7486652
      ],
      [
        12.4764937,
        58.7487393
      ],
      [
        12.4765125,
        58.7487998
      ],
      [
        12.4764944,
        58.7488791
      ],
      [
        12.4764964,
        58.7490092
      ],
      [
        12.476495,
        58.749124
      ],
      [
        12.4765018,
        58.7492242
      ],
      [
        12.4764709,
        58.7492812
      ],
      [
        12.4764655,
        58.7493286
      ],
      [
        12.4765058,
        58.7493759
      ],
      [
        12.4765487,
        58.7494503
      ],
      [
        12.4765701,
        58.7495435
      ],
      [
        12.4765769,
        58.7496396
      ],
      [
        12.4765742,
        58.7496987
      ],
      [
        12.4765876,
        58.7497606
      ],
      [
        12.4766225,
        58.7498337
      ],
      [
        12.476668,
        58.7498977
      ],
      [
        12.4767458,
        58.7499617
      ],
      [
        12.4767968,
        58.7500187
      ],
      [
        12.4768424,
        58.7500897
      ],
      [
        12.4769121,
        58.750178
      ],
      [
        12.4769805,
        58.7502434
      ],
      [
        12.4770422,
        58.7503123
      ],
      [
        12.4770771,
        58.7503666
      ],
      [
        12.4771146,
        58.7504751
      ],
      [
        12.477124,
        58.750569
      ],
      [
        12.4771187,
        58.7506866
      ],
      [
        12.4771006,
        58.7507332
      ],
      [
        12.4770509,
        58.7507882
      ],
      [
        12.4769866,
        58.7508411
      ],
      [
        12.4768967,
        58.7509127
      ],
      [
        12.4768498,
        58.7510136
      ],
      [
        12.4768672,
        58.7511034
      ],
      [
        12.4768927,
        58.7513371
      ],
      [
        12.4769262,
        58.7514498
      ],
      [
        12.4769906,
        58.7515827
      ],
      [
        12.4770563,
        58.751703
      ],
      [
        12.4770871,
        58.7517782
      ],
      [
        12.4771234,
        58.7519118
      ],
      [
        12.4771475,
        58.7520551
      ],
      [
        12.4771582,
        58.752165
      ],
      [
        12.4771435,
        58.752254
      ],
      [
        12.4771006,
        58.7523271
      ],
      [
        12.4770469,
        58.7523946
      ],
      [
        12.4769463,
        58.7524676
      ],
      [
        12.4768659,
        58.7525156
      ],
      [
        12.4768069,
        58.7525824
      ],
      [
        12.4768176,
        58.7526471
      ],
      [
        12.4768712,
        58.7528196
      ],
      [
        12.4769356,
        58.7529212
      ],
      [
        12.4770281,
        58.7530499
      ],
      [
        12.4770563,
        58.7531264
      ],
      [
        12.4770509,
        58.7532141
      ],
      [
        12.4770268,
        58.7533135
      ],
      [
        12.4769611,
        58.7534666
      ],
      [
        12.4769155,
        58.7535661
      ],
      [
        12.4768927,
        58.7536669
      ],
      [
        12.4769074,
        58.7537414
      ],
      [
        12.4769477,
        58.7538332
      ],
      [
        12.4769772,
        58.7539431
      ],
      [
        12.4769772,
        58.7540614
      ],
      [
        12.4769557,
        58.75422
      ],
      [
        12.4769155,
        58.7543716
      ],
      [
        12.4768967,
        58.7544941
      ],
      [
        12.4768806,
        58.7546165
      ],
      [
        12.4768967,
        58.7547222
      ],
      [
        12.4769369,
        58.7547974
      ],
      [
        12.4770281,
        58.7548892
      ],
      [
        12.4772427,
        58.7550353
      ],
      [
        12.4774063,
        58.7550909
      ],
      [
        12.4775619,
        58.7551118
      ],
      [
        12.4776427,
        58.7551354
      ],
      [
        12.4777017,
        58.7551716
      ],
      [
        12.4777553,
        58.7552467
      ],
      [
        12.4778559,
        58.7553713
      ],
      [
        12.4779163,
        58.7554881
      ],
      [
        12.4779994,
        58.7556523
      ],
      [
        12.4780128,
        58.7557622
      ],
      [
        12.4780182,
        58.7558192
      ],
      [
        12.4780558,
        58.7558971
      ],
      [
        12.4780933,
        58.7559709
      ],
      [
        12.478104,
        58.7560363
      ],
      [
        12.4780853,
        58.7561907
      ],
      [
        12.4780504,
        58.7563562
      ],
      [
        12.477978,
        58.7565287
      ],
      [
        12.4778814,
        58.756839
      ],
      [
        12.4778197,
        58.7569698
      ],
      [
        12.4777366,
        58.7570602
      ],
      [
        12.4776454,
        58.7571089
      ],
      [
        12.4774603,
        58.757145
      ],
      [
        12.4772994,
        58.7571826
      ],
      [
        12.4771679,
        58.7572299
      ],
      [
        12.477066,
        58.7572981
      ],
      [
        12.4769829,
        58.7573927
      ],
      [
        12.4768327,
        58.7574942
      ],
      [
        12.4766369,
        58.7576013
      ],
      [
        12.4765054,
        58.7576584
      ],
      [
        12.476323,
        58.7576876
      ],
      [
        12.4760226,
        58.7577293
      ],
      [
        12.4757947,
        58.7577516
      ],
      [
        12.4756364,
        58.757778
      ],
      [
        12.4755345,
        58.7578281
      ],
      [
        12.4754755,
        58.757906
      ],
      [
        12.4754621,
        58.7580437
      ],
      [
        12.475387,
        58.758276
      ],
      [
        12.4752877,
        58.7584833
      ],
      [
        12.4752046,
        58.7585835
      ],
      [
        12.4752024,
        58.7586445
      ],
      [
        12.4750635,
        58.7587182
      ],
      [
        12.4748905,
        58.7587999
      ],
      [
        12.4746229,
        58.7587138
      ],
      [
        12.4741575,
        58.7585824
      ],
      [
        12.4738212,
        58.7584836
      ],
      [
        12.4734257,
        58.7584436
      ],
      [
        12.4730205,
        58.7584288
      ],
      [
        12.4724933,
        58.7584508
      ],
      [
        12.4719461,
        58.7584438
      ],
      [
        12.4713654,
        58.7584563
      ],
      [
        12.4709805,
        58.7584904
      ],
      [
        12.470786,
        58.7584988
      ],
      [
        12.4706345,
        58.7584688
      ],
      [
        12.4705339,
        58.7584257
      ],
      [
        12.4704481,
        58.7583896
      ],
      [
        12.4703462,
        58.7583548
      ],
      [
        12.4701504,
        58.7582957
      ],
      [
        12.4699854,
        58.7582289
      ],
      [
        12.4696957,
        58.7581002
      ],
      [
        12.4694999,
        58.7580251
      ],
      [
        12.4693014,
        58.7579646
      ],
      [
        12.4691284,
        58.757927
      ],
      [
        12.4689179,
        58.7578978
      ],
      [
        12.4686027,
        58.7578505
      ],
      [
        12.4682675,
        58.7577969
      ],
      [
        12.4678745,
        58.7577371
      ],
      [
        12.4676137,
        58.757699
      ],
      [
        12.4676426,
        58.7577614
      ],
      [
        12.4676867,
        58.7578339
      ],
      [
        12.4677257,
        58.7579005
      ],
      [
        12.4677786,
        58.7579933
      ],
      [
        12.467829,
        58.758088
      ],
      [
        12.4678705,
        58.7581853
      ],
      [
        12.4678995,
        58.7582709
      ],
      [
        12.4679247,
        58.7583519
      ],
      [
        12.4679373,
        58.7584166
      ],
      [
        12.4679448,
        58.7584799
      ],
      [
        12.4679436,
        58.7585871
      ],
      [
        12.4679433,
        58.7586863
      ],
      [
        12.4679398,
        58.7588018
      ],
      [
        12.4679309,
        58.7589089
      ],
      [
        12.467913,
        58.7589939
      ],
      [
        12.4678988,
        58.7590512
      ],
      [
        12.4678828,
        58.7591029
      ],
      [
        12.4678632,
        58.7591514
      ],
      [
        12.4678347,
        58.7592244
      ],
      [
        12.4678262,
        58.7592728
      ],
      [
        12.4678595,
        58.7593275
      ],
      [
        12.4677628,
        58.7593392
      ],
      [
        12.4671117,
        58.7592282
      ],
      [
        12.4665955,
        58.7591623
      ],
      [
        12.4662036,
        58.7591571
      ],
      [
        12.4660065,
        58.7591368
      ],
      [
        12.4658536,
        58.7591187
      ],
      [
        12.4657413,
        58.7591114
      ],
      [
        12.4656219,
        58.7591152
      ],
      [
        12.4655126,
        58.7591448
      ],
      [
        12.4654804,
        58.7592004
      ],
      [
        12.4655247,
        58.7593187
      ],
      [
        12.4655354,
        58.7593708
      ],
      [
        12.4655233,
        58.7594279
      ],
      [
        12.4654844,
        58.7594946
      ],
      [
        12.4653892,
        58.7595705
      ],
      [
        12.4652471,
        58.7596616
      ],
      [
        12.4651291,
        58.7597666
      ],
      [
        12.4650312,
        58.7598876
      ],
      [
        12.4649601,
        58.7599878
      ],
      [
        12.4649225,
        58.7600719
      ],
      [
        12.4649037,
        58.7602486
      ],
      [
        12.4648903,
        58.7603599
      ],
      [
        12.4648394,
        58.7604364
      ],
      [
        12.4647214,
        58.7604879
      ],
      [
        12.4645068,
        58.7605018
      ],
      [
        12.4642734,
        58.760492
      ],
      [
        12.4640749,
        58.7605379
      ],
      [
        12.4640428,
        58.7606131
      ],
      [
        12.463973,
        58.7608273
      ],
      [
        12.4638637,
        58.7610978
      ],
      [
        12.4637688,
        58.7612978
      ],
      [
        12.4636428,
        58.7614633
      ],
      [
        12.4635462,
        58.7615913
      ],
      [
        12.4634014,
        58.761793
      ],
      [
        12.4633021,
        58.7619154
      ],
      [
        12.4632351,
        58.7620503
      ],
      [
        12.4631922,
        58.7622228
      ],
      [
        12.4631546,
        58.7623994
      ],
      [
        12.463109,
        58.7625177
      ],
      [
        12.46305,
        58.7626178
      ],
      [
        12.4629615,
        58.7627277
      ],
      [
        12.4628783,
        58.7628404
      ],
      [
        12.4628488,
        58.7629099
      ],
      [
        12.4628488,
        58.7629948
      ],
      [
        12.4628596,
        58.7631047
      ],
      [
        12.4628435,
        58.7632006
      ],
      [
        12.4628542,
        58.7632771
      ],
      [
        12.4628998,
        58.7633675
      ],
      [
        12.4629615,
        58.7635609
      ],
      [
        12.4630151,
        58.7637486
      ],
      [
        12.4630205,
        58.7638238
      ],
      [
        12.4629213,
        58.7639921
      ],
      [
        12.4628301,
        58.7641075
      ],
      [
        12.4625693,
        58.7642862
      ],
      [
        12.462561,
        58.7643585
      ],
      [
        12.4625062,
        58.7644317
      ],
      [
        12.4625949,
        58.7645027
      ],
      [
        12.4626767,
        58.7646126
      ],
      [
        12.4627732,
        58.7647614
      ],
      [
        12.4628188,
        58.7649464
      ],
      [
        12.4628322,
        58.765066
      ],
      [
        12.4627759,
        58.765212
      ],
      [
        12.4627223,
        58.7653748
      ],
      [
        12.4626525,
        58.7654735
      ],
      [
        12.4625211,
        58.7655549
      ],
      [
        12.4623146,
        58.7656369
      ],
      [
        12.4620678,
        58.7657315
      ],
      [
        12.4618801,
        58.7658358
      ],
      [
        12.4617979,
        58.7659056
      ],
      [
        12.461881,
        58.7660078
      ],
      [
        12.4619244,
        58.7660723
      ],
      [
        12.4619585,
        58.7661326
      ],
      [
        12.4619867,
        58.7661916
      ],
      [
        12.4620148,
        58.7662433
      ],
      [
        12.4620547,
        58.7663346
      ],
      [
        12.4620747,
        58.7663821
      ],
      [
        12.4621005,
        58.7664351
      ],
      [
        12.4621551,
        58.7665124
      ],
      [
        12.4622414,
        58.7665753
      ],
      [
        12.4623716,
        58.7666331
      ],
      [
        12.4624467,
        58.7666665
      ],
      [
        12.4625395,
        58.7667238
      ],
      [
        12.4625923,
        58.7667852
      ],
      [
        12.4626263,
        58.7668686
      ],
      [
        12.4626287,
        58.7669526
      ],
      [
        12.4626064,
        58.7670287
      ],
      [
        12.4625923,
        58.7670738
      ],
      [
        12.4625993,
        58.7671572
      ],
      [
        12.4626475,
        58.7672405
      ],
      [
        12.462685,
        58.7672856
      ],
      [
        12.4627917,
        58.7673965
      ],
      [
        12.4628398,
        58.7674541
      ],
      [
        12.4628896,
        58.7675265
      ],
      [
        12.4629361,
        58.7676065
      ],
      [
        12.4629842,
        58.7676814
      ],
      [
        12.4631005,
        58.7678863
      ],
      [
        12.4631436,
        58.7679637
      ],
      [
        12.4631785,
        58.7680085
      ],
      [
        12.4632333,
        58.7680472
      ],
      [
        12.4633511,
        58.7680946
      ],
      [
        12.4634906,
        58.7681135
      ],
      [
        12.4636317,
        58.7681445
      ],
      [
        12.4638674,
        58.7680853
      ],
      [
        12.4639734,
        58.7680185
      ],
      [
        12.4640713,
        58.7679434
      ],
      [
        12.4641678,
        58.7679205
      ],
      [
        12.4643757,
        58.7679114
      ],
      [
        12.4645956,
        58.7679017
      ],
      [
        12.4647499,
        58.7679024
      ],
      [
        12.464837,
        58.7679198
      ],
      [
        12.4649001,
        58.7679691
      ],
      [
        12.4649899,
        58.7680234
      ],
      [
        12.4650744,
        58.7680463
      ],
      [
        12.4651669,
        58.7680498
      ],
      [
        12.4652689,
        58.7680707
      ],
      [
        12.4652823,
        58.7681152
      ],
      [
        12.4652943,
        58.7682111
      ],
      [
        12.4653279,
        58.7682821
      ],
      [
        12.4653869,
        58.7683613
      ],
      [
        12.4654901,
        58.76841
      ],
      [
        12.4656323,
        58.7684948
      ],
      [
        12.4658053,
        58.7685651
      ],
      [
        12.4660024,
        58.7686325
      ],
      [
        12.4661151,
        58.7686569
      ],
      [
        12.4662707,
        58.7686923
      ],
      [
        12.4663417,
        58.768732
      ],
      [
        12.4664008,
        58.7688036
      ],
      [
        12.4664745,
        58.7688377
      ],
      [
        12.4665657,
        58.7688481
      ],
      [
        12.4667226,
        58.7688682
      ],
      [
        12.467082,
        58.7689906
      ],
      [
        12.4671732,
        58.7690908
      ],
      [
        12.467251,
        58.7691603
      ],
      [
        12.4673529,
        58.7691895
      ],
      [
        12.4675166,
        58.7691061
      ],
      [
        12.4676507,
        58.7689378
      ],
      [
        12.4677231,
        58.7688321
      ],
      [
        12.467766,
        58.7687055
      ],
      [
        12.4677848,
        58.7686402
      ],
      [
        12.4678545,
        58.7685998
      ],
      [
        12.4679672,
        58.7685859
      ],
      [
        12.4680825,
        58.768643
      ],
      [
        12.4682407,
        58.7687667
      ],
      [
        12.4684205,
        58.768878
      ],
      [
        12.4684848,
        58.7689503
      ],
      [
        12.4685117,
        58.7690546
      ],
      [
        12.4684848,
        58.7691283
      ],
      [
        12.4684795,
        58.7691798
      ],
      [
        12.4685277,
        58.7692173
      ],
      [
        12.4686297,
        58.769227
      ],
      [
        12.4688147,
        58.769202
      ],
      [
        12.4691017,
        58.7691672
      ],
      [
        12.4693029,
        58.7691464
      ],
      [
        12.4694531,
        58.7691492
      ],
      [
        12.4695845,
        58.7691895
      ],
      [
        12.4696865,
        58.7692284
      ],
      [
        12.469834,
        58.7692507
      ],
      [
        12.4700003,
        58.7692549
      ],
      [
        12.4701746,
        58.7692298
      ],
      [
        12.470416,
        58.7691867
      ],
      [
        12.4705179,
        58.7691325
      ],
      [
        12.4706226,
        58.7690449
      ],
      [
        12.4707218,
        58.7690018
      ],
      [
        12.4708479,
        58.7689878
      ],
      [
        12.470982,
        58.7689934
      ],
      [
        12.4710919,
        58.7690379
      ],
      [
        12.4711188,
        58.7691074
      ],
      [
        12.4711268,
        58.7692117
      ],
      [
        12.4711161,
        58.7693466
      ],
      [
        12.4710866,
        58.769444
      ],
      [
        12.4710074,
        58.7695372
      ],
      [
        12.470994,
        58.7696081
      ],
      [
        12.470994,
        58.7697305
      ],
      [
        12.4709967,
        58.7698765
      ],
      [
        12.4710235,
        58.7700406
      ],
      [
        12.4710316,
        58.7702186
      ],
      [
        12.4710611,
        58.7703549
      ],
      [
        12.4711174,
        58.77048
      ],
      [
        12.4711657,
        58.7705955
      ],
      [
        12.4711925,
        58.7707123
      ],
      [
        12.4711577,
        58.7708931
      ],
      [
        12.471163,
        58.771046
      ],
      [
        12.4711389,
        58.7711962
      ],
      [
        12.4710799,
        58.771345
      ],
      [
        12.4710048,
        58.7715299
      ],
      [
        12.4709905,
        58.7716342
      ],
      [
        12.4708752,
        58.771651
      ],
      [
        12.470754,
        58.7716809
      ],
      [
        12.4706414,
        58.7717168
      ],
      [
        12.4704999,
        58.7717707
      ],
      [
        12.4703249,
        58.7718404
      ],
      [
        12.470197,
        58.7718897
      ],
      [
        12.4700107,
        58.7719583
      ],
      [
        12.4698346,
        58.7720092
      ],
      [
        12.469647,
        58.7720406
      ],
      [
        12.4695027,
        58.7720481
      ],
      [
        12.469353,
        58.7720434
      ],
      [
        12.4691718,
        58.772025
      ],
      [
        12.4690759,
        58.7720028
      ],
      [
        12.4689514,
        58.7719551
      ],
      [
        12.4688416,
        58.7719021
      ],
      [
        12.4686662,
        58.7718133
      ],
      [
        12.468589,
        58.7717647
      ],
      [
        12.4683927,
        58.7716665
      ],
      [
        12.4683076,
        58.7716357
      ],
      [
        12.4682134,
        58.7716071
      ],
      [
        12.468098,
        58.7715876
      ],
      [
        12.4679883,
        58.7715801
      ],
      [
        12.4677978,
        58.7715831
      ],
      [
        12.4676721,
        58.7715946
      ],
      [
        12.4673619,
        58.77164
      ],
      [
        12.4670398,
        58.7716847
      ],
      [
        12.4667736,
        58.771733
      ],
      [
        12.4665919,
        58.7717712
      ],
      [
        12.4664776,
        58.7718061
      ],
      [
        12.4663429,
        58.7718538
      ],
      [
        12.4661755,
        58.7719183
      ],
      [
        12.4660173,
        58.7719785
      ],
      [
        12.4659077,
        58.7720199
      ],
      [
        12.4657771,
        58.7720612
      ],
      [
        12.4658016,
        58.7721422
      ],
      [
        12.4658325,
        58.7722098
      ],
      [
        12.4657693,
        58.7723477
      ],
      [
        12.4657424,
        58.7724119
      ],
      [
        12.4657209,
        58.7724697
      ],
      [
        12.4657061,
        58.7725659
      ],
      [
        12.4657075,
        58.7726244
      ],
      [
        12.4657129,
        58.772692
      ],
      [
        12.4657263,
        58.7727456
      ],
      [
        12.4657559,
        58.7728195
      ],
      [
        12.4658856,
        58.7730113
      ],
      [
        12.4659844,
        58.7731808
      ],
      [
        12.4660339,
        58.7733296
      ],
      [
        12.4660567,
        58.7734154
      ],
      [
        12.4660567,
        58.7734952
      ],
      [
        12.4660358,
        58.7735829
      ],
      [
        12.4660358,
        58.7736745
      ],
      [
        12.4660415,
        58.7737662
      ],
      [
        12.4660586,
        58.7738361
      ],
      [
        12.4660814,
        58.7739051
      ],
      [
        12.4661232,
        58.773978
      ],
      [
        12.4661897,
        58.7740756
      ],
      [
        12.4662791,
        58.774182
      ],
      [
        12.4664045,
        58.7743042
      ],
      [
        12.4664445,
        58.7743712
      ],
      [
        12.4664426,
        58.7744757
      ],
      [
        12.4664216,
        58.7748137
      ],
      [
        12.4663969,
        58.7749152
      ],
      [
        12.4663779,
        58.7749783
      ],
      [
        12.4663361,
        58.7750374
      ],
      [
        12.4662886,
        58.7750876
      ],
      [
        12.4662106,
        58.7751478
      ],
      [
        12.4661175,
        58.775202
      ],
      [
        12.4660168,
        58.7752483
      ],
      [
        12.4658951,
        58.7753005
      ],
      [
        12.4658248,
        58.7753389
      ],
      [
        12.4657449,
        58.7753921
      ],
      [
        12.465654,
        58.7754996
      ],
      [
        12.4656137,
        58.775593
      ],
      [
        12.4655975,
        58.7756571
      ],
      [
        12.4656298,
        58.7757435
      ],
      [
        12.4657266,
        58.7759107
      ],
      [
        12.4658717,
        58.7761811
      ],
      [
        12.4660169,
        58.7765086
      ],
      [
        12.4660734,
        58.7765978
      ],
      [
        12.4661459,
        58.7766897
      ],
      [
        12.4662508,
        58.7767956
      ],
      [
        12.4663798,
        58.7769266
      ],
      [
        12.466697,
        58.7772012
      ],
      [
        12.4668046,
        58.7773168
      ],
      [
        12.4668556,
        58.7774116
      ],
      [
        12.4669051,
        58.777561
      ],
      [
        12.4668809,
        58.7776683
      ],
      [
        12.4668379,
        58.7777338
      ],
      [
        12.4667895,
        58.7778202
      ],
      [
        12.4667707,
        58.7778982
      ],
      [
        12.4668083,
        58.7779999
      ],
      [
        12.4668621,
        58.7781142
      ],
      [
        12.4670341,
        58.7783204
      ],
      [
        12.4670606,
        58.7783886
      ],
      [
        12.4670955,
        58.778497
      ],
      [
        12.4670333,
        58.7787063
      ],
      [
        12.4669252,
        58.7790976
      ],
      [
        12.4669118,
        58.7792978
      ],
      [
        12.4669547,
        58.7795119
      ],
      [
        12.4670781,
        58.7797372
      ],
      [
        12.4672283,
        58.7799818
      ],
      [
        12.4673597,
        58.7802529
      ],
      [
        12.467416,
        58.7804281
      ],
      [
        12.4674777,
        58.7806964
      ],
      [
        12.4675056,
        58.7808246
      ],
      [
        12.4675228,
        58.780952
      ],
      [
        12.4675228,
        58.7810354
      ],
      [
        12.4675099,
        58.7811501
      ],
      [
        12.4675056,
        58.7812253
      ],
      [
        12.4675113,
        58.7813132
      ],
      [
        12.4675128,
        58.7813795
      ],
      [
        12.4675076,
        58.7814455
      ],
      [
        12.4675062,
        58.7815021
      ],
      [
        12.4675062,
        58.7815684
      ],
      [
        12.467509,
        58.7816317
      ],
      [
        12.4675191,
        58.7817114
      ],
      [
        12.4675263,
        58.7817792
      ],
      [
        12.467522,
        58.7818499
      ],
      [
        12.4675105,
        58.7819661
      ],
      [
        12.4674947,
        58.782089
      ],
      [
        12.4674789,
        58.7822156
      ],
      [
        12.467463,
        58.7823586
      ],
      [
        12.4674559,
        58.7824674
      ],
      [
        12.4674516,
        58.782559
      ],
      [
        12.4674487,
        58.7826938
      ],
      [
        12.4674516,
        58.7828933
      ],
      [
        12.4674516,
        58.783017
      ],
      [
        12.4674472,
        58.7831279
      ],
      [
        12.4674357,
        58.7832657
      ],
      [
        12.4674099,
        58.7833864
      ],
      [
        12.4673941,
        58.7834512
      ],
      [
        12.4673366,
        58.7835614
      ],
      [
        12.4672159,
        58.7837677
      ],
      [
        12.4671656,
        58.7838823
      ],
      [
        12.4671167,
        58.7839985
      ],
      [
        12.4670952,
        58.7840626
      ],
      [
        12.4670909,
        58.7841132
      ],
      [
        12.4671009,
        58.7841795
      ],
      [
        12.4671254,
        58.7842703
      ],
      [
        12.4671369,
        58.7843299
      ],
      [
        12.4671412,
        58.7843984
      ],
      [
        12.4671397,
        58.7844722
      ],
      [
        12.4671311,
        58.7845883
      ],
      [
        12.4671254,
        58.7846948
      ],
      [
        12.4671325,
        58.7848058
      ],
      [
        12.4671383,
        58.7848922
      ],
      [
        12.467167,
        58.7850091
      ],
      [
        12.467203,
        58.7851424
      ],
      [
        12.4672231,
        58.7852385
      ],
      [
        12.4672346,
        58.7853062
      ],
      [
        12.4672346,
        58.7853643
      ],
      [
        12.4671685,
        58.7855274
      ],
      [
        12.4671225,
        58.7856346
      ],
      [
        12.4671081,
        58.7857128
      ],
      [
        12.4671081,
        58.7857724
      ],
      [
        12.4671225,
        58.785826
      ],
      [
        12.4671469,
        58.7858722
      ],
      [
        12.4672173,
        58.7859898
      ],
      [
        12.4673007,
        58.7861246
      ],
      [
        12.467384,
        58.7862393
      ],
      [
        12.4674415,
        58.7863145
      ],
      [
        12.4675291,
        58.7864337
      ],
      [
        12.4675794,
        58.7865014
      ],
      [
        12.4676139,
        58.786558
      ],
      [
        12.4676326,
        58.7866072
      ],
      [
        12.4676484,
        58.7866913
      ],
      [
        12.4676312,
        58.7867891
      ],
      [
        12.4676182,
        58.7868412
      ],
      [
        12.467578,
        58.7869618
      ],
      [
        12.4675521,
        58.7870281
      ],
      [
        12.4675306,
        58.7871108
      ],
      [
        12.4675076,
        58.7872024
      ],
      [
        12.4674932,
        58.787291
      ],
      [
        12.4674645,
        58.7873982
      ],
      [
        12.4674458,
        58.7874518
      ],
      [
        12.4673941,
        58.7875218
      ],
      [
        12.4673323,
        58.7876045
      ],
      [
        12.4673079,
        58.7876506
      ],
      [
        12.4672863,
        58.7877013
      ],
      [
        12.4672619,
        58.7877929
      ],
      [
        12.4672202,
        58.7878725
      ],
      [
        12.4671571,
        58.7879332
      ],
      [
        12.4670513,
        58.7879798
      ],
      [
        12.4669045,
        58.7880138
      ],
      [
        12.4668168,
        58.7880265
      ],
      [
        12.4666803,
        58.7880362
      ],
      [
        12.466551,
        58.7880459
      ],
      [
        12.4664059,
        58.7880548
      ],
      [
        12.4662967,
        58.7880682
      ],
      [
        12.4662119,
        58.7880816
      ],
      [
        12.4661443,
        58.7881106
      ],
      [
        12.4660452,
        58.7881814
      ],
      [
        12.465992,
        58.7882506
      ],
      [
        12.4659288,
        58.7883594
      ],
      [
        12.465844,
        58.7885157
      ],
      [
        12.4657808,
        58.7886341
      ],
      [
        12.4657592,
        58.7886922
      ],
      [
        12.4657549,
        58.7887399
      ],
      [
        12.465765,
        58.7887987
      ],
      [
        12.4657751,
        58.7888448
      ],
      [
        12.4657822,
        58.7889483
      ],
      [
        12.4657765,
        58.789028
      ],
      [
        12.4657621,
        58.7890742
      ],
      [
        12.4657227,
        58.7891598
      ],
      [
        12.4656897,
        58.7892336
      ],
      [
        12.4656624,
        58.7893021
      ],
      [
        12.4656581,
        58.7893944
      ],
      [
        12.4656724,
        58.789451
      ],
      [
        12.4656997,
        58.7895091
      ],
      [
        12.4657385,
        58.7896051
      ],
      [
        12.4657874,
        58.7896982
      ],
      [
        12.4658535,
        58.7898002
      ],
      [
        12.4659598,
        58.7899312
      ],
      [
        12.4660547,
        58.7900615
      ],
      [
        12.4660805,
        58.7901114
      ],
      [
        12.4661006,
        58.7901636
      ],
      [
        12.4660906,
        58.790241
      ],
      [
        12.4660647,
        58.7902916
      ],
      [
        12.4660173,
        58.7903653
      ],
      [
        12.4659584,
        58.7904547
      ],
      [
        12.4659138,
        58.7905314
      ],
      [
        12.4658689,
        58.7906145
      ],
      [
        12.4658344,
        58.7906785
      ],
      [
        12.4657927,
        58.7907478
      ],
      [
        12.4657324,
        58.7908312
      ],
      [
        12.4656275,
        58.7909607
      ],
      [
        12.46556,
        58.7910501
      ],
      [
        12.4654723,
        58.7911476
      ],
      [
        12.4654134,
        58.7912139
      ],
      [
        12.4653732,
        58.7912637
      ],
      [
        12.4653387,
        58.7913226
      ],
      [
        12.4653114,
        58.7913851
      ],
      [
        12.4652496,
        58.7915318
      ],
      [
        12.4651634,
        58.7917313
      ],
      [
        12.46508,
        58.7919123
      ],
      [
        12.4650441,
        58.791977
      ],
      [
        12.4649952,
        58.7920418
      ],
      [
        12.4649406,
        58.7920954
      ],
      [
        12.4648846,
        58.792149
      ],
      [
        12.4645038,
        58.7924372
      ],
      [
        12.4643472,
        58.7925555
      ],
      [
        12.4642638,
        58.7926091
      ],
      [
        12.4641949,
        58.7926523
      ],
      [
        12.4641259,
        58.7926888
      ],
      [
        12.4640584,
        58.7927216
      ],
      [
        12.46388,
        58.7928092
      ],
      [
        12.4637256,
        58.7928935
      ],
      [
        12.4634756,
        58.7930314
      ],
      [
        12.4633212,
        58.7931335
      ],
      [
        12.4632358,
        58.7931883
      ],
      [
        12.4631078,
        58.7932673
      ],
      [
        12.4630003,
        58.7933259
      ],
      [
        12.4629026,
        58.7933773
      ],
      [
        12.4627948,
        58.7934287
      ],
      [
        12.4627072,
        58.7934696
      ],
      [
        12.4626353,
        58.7935128
      ],
      [
        12.4625643,
        58.7936013
      ],
      [
        12.4625398,
        58.7936594
      ],
      [
        12.4625183,
        58.7937339
      ],
      [
        12.4624996,
        58.7938083
      ],
      [
        12.4624895,
        58.7939043
      ],
      [
        12.4624852,
        58.7939974
      ],
      [
        12.4624881,
        58.7941679
      ],
      [
        12.4624901,
        58.7942606
      ],
      [
        12.4624881,
        58.7943158
      ],
      [
        12.462483,
        58.7943716
      ],
      [
        12.4624628,
        58.7944556
      ],
      [
        12.4624427,
        58.794507
      ],
      [
        12.4624212,
        58.7945718
      ],
      [
        12.4624082,
        58.7946298
      ],
      [
        12.4623939,
        58.7947326
      ],
      [
        12.4623838,
        58.7948018
      ],
      [
        12.4623752,
        58.7948621
      ],
      [
        12.462289,
        58.7949529
      ],
      [
        12.4622085,
        58.7950088
      ],
      [
        12.4621496,
        58.7950497
      ],
      [
        12.4620634,
        58.7951003
      ],
      [
        12.4619139,
        58.7951621
      ],
      [
        12.4618263,
        58.7951941
      ],
      [
        12.4617372,
        58.7952247
      ],
      [
        12.4616495,
        58.7952522
      ],
      [
        12.461559,
        58.7952842
      ],
      [
        12.4614857,
        58.7953133
      ],
      [
        12.4613952,
        58.7953594
      ],
      [
        12.4612831,
        58.7954182
      ],
      [
        12.4611696,
        58.7954867
      ],
      [
        12.4610446,
        58.7955723
      ],
      [
        12.4609411,
        58.795649
      ],
      [
        12.4608463,
        58.7957242
      ],
      [
        12.4607859,
        58.7957853
      ],
      [
        12.4607284,
        58.7958657
      ],
      [
        12.4606782,
        58.7959323
      ],
      [
        12.4606208,
        58.7959948
      ],
      [
        12.4605791,
        58.7960395
      ],
      [
        12.4605001,
        58.7960953
      ],
      [
        12.4603908,
        58.7961638
      ],
      [
        12.4603018,
        58.796204
      ],
      [
        12.4602098,
        58.7962398
      ],
      [
        12.4601178,
        58.7962673
      ],
      [
        12.4600244,
        58.7962882
      ],
      [
        12.4599368,
        58.7962986
      ],
      [
        12.4598434,
        58.796306
      ],
      [
        12.4596853,
        58.7963008
      ],
      [
        12.4595402,
        58.7962703
      ],
      [
        12.4594338,
        58.7962509
      ],
      [
        12.4593448,
        58.796239
      ],
      [
        12.4591666,
        58.7962256
      ],
      [
        12.459076,
        58.7962107
      ],
      [
        12.4589237,
        58.796178
      ],
      [
        12.4587556,
        58.79614
      ],
      [
        12.4586608,
        58.7961288
      ],
      [
        12.458484,
        58.7961281
      ],
      [
        12.4583619,
        58.7961378
      ],
      [
        12.4581507,
        58.7961609
      ],
      [
        12.4579308,
        58.7961787
      ],
      [
        12.4577325,
        58.7961891
      ],
      [
        12.4576233,
        58.7961921
      ],
      [
        12.4574925,
        58.7961899
      ],
      [
        12.4573495,
        58.7961919
      ],
      [
        12.4570794,
        58.7961949
      ],
      [
        12.4569874,
        58.7961986
      ],
      [
        12.456848,
        58.7962224
      ],
      [
        12.4567561,
        58.7962537
      ],
      [
        12.4565319,
        58.7963475
      ],
      [
        12.4562459,
        58.7964726
      ],
      [
        12.4561037,
        58.7965306
      ],
      [
        12.4559715,
        58.7965813
      ],
      [
        12.4556812,
        58.7966885
      ],
      [
        12.4555375,
        58.7967421
      ],
      [
        12.4554125,
        58.7967867
      ],
      [
        12.4553119,
        58.796818
      ],
      [
        12.4551941,
        58.7968552
      ],
      [
        12.4550389,
        58.7968991
      ],
      [
        12.4548377,
        58.7969572
      ],
      [
        12.4544555,
        58.797076
      ],
      [
        12.4539626,
        58.7972227
      ],
      [
        12.4538391,
        58.7972599
      ],
      [
        12.4536824,
        58.7973016
      ],
      [
        12.4534741,
        58.7973567
      ],
      [
        12.4533045,
        58.797408
      ],
      [
        12.4532169,
        58.7974423
      ],
      [
        12.4531536,
        58.7974832
      ],
      [
        12.453089,
        58.7975688
      ],
      [
        12.4530417,
        58.7976536
      ],
      [
        12.452957,
        58.7978003
      ],
      [
        12.4529153,
        58.7978635
      ],
      [
        12.4528636,
        58.7979238
      ],
      [
        12.4528032,
        58.7979856
      ],
      [
        12.4527429,
        58.798031
      ],
      [
        12.4526811,
        58.7980653
      ],
      [
        12.4526121,
        58.7980965
      ],
      [
        12.4524655,
        58.7981472
      ],
      [
        12.4523549,
        58.7981807
      ],
      [
        12.4521767,
        58.7982186
      ],
      [
        12.4519626,
        58.798261
      ],
      [
        12.4516953,
        58.7983042
      ],
      [
        12.4511953,
        58.7983668
      ],
      [
        12.4508906,
        58.7984099
      ],
      [
        12.4506492,
        58.7984427
      ],
      [
        12.450507,
        58.7984635
      ],
      [
        12.4504179,
        58.7984806
      ],
      [
        12.4502742,
        58.7985171
      ],
      [
        12.4500989,
        58.7985707
      ],
      [
        12.4499049,
        58.7986221
      ],
      [
        12.449721,
        58.7986601
      ],
      [
        12.44955,
        58.7986906
      ],
      [
        12.4493612,
        58.7987115
      ],
      [
        12.4492353,
        58.7987093
      ],
      [
        12.4491378,
        58.7986989
      ],
      [
        12.4490022,
        58.7986754
      ],
      [
        12.4487659,
        58.7986314
      ],
      [
        12.4484155,
        58.7985763
      ],
      [
        12.4482245,
        58.7985531
      ],
      [
        12.4480843,
        58.7985468
      ],
      [
        12.4479603,
        58.7985531
      ],
      [
        12.4478648,
        58.7985657
      ],
      [
        12.4477917,
        58.79859
      ],
      [
        12.4474868,
        58.7987331
      ],
      [
        12.447306,
        58.7988258
      ],
      [
        12.4471922,
        58.79889
      ],
      [
        12.447119,
        58.7989458
      ],
      [
        12.4470743,
        58.7989911
      ],
      [
        12.4470337,
        58.7990416
      ],
      [
        12.4469544,
        58.7991058
      ],
      [
        12.4468061,
        58.7991469
      ],
      [
        12.4467024,
        58.7991711
      ],
      [
        12.4465825,
        58.7992163
      ],
      [
        12.4464748,
        58.7992648
      ],
      [
        12.446357,
        58.7993237
      ],
      [
        12.4462935,
        58.7993639
      ],
      [
        12.4461943,
        58.7994317
      ],
      [
        12.4458529,
        58.799639
      ],
      [
        12.4457798,
        58.7996906
      ],
      [
        12.4457046,
        58.7997548
      ],
      [
        12.4456335,
        58.7998127
      ],
      [
        12.4455705,
        58.7998559
      ],
      [
        12.4454953,
        58.7999022
      ],
      [
        12.4453856,
        58.7999559
      ],
      [
        12.4452352,
        58.8000149
      ],
      [
        12.4450543,
        58.8000801
      ],
      [
        12.4449304,
        58.8001191
      ],
      [
        12.4448146,
        58.8001467
      ],
      [
        12.4446703,
        58.8001836
      ],
      [
        12.4445748,
        58.8001951
      ],
      [
        12.4444183,
        58.8002078
      ],
      [
        12.4443207,
        58.8002215
      ],
      [
        12.4441805,
        58.8002688
      ],
      [
        12.4438473,
        58.8004015
      ],
      [
        12.4434957,
        58.8005309
      ],
      [
        12.4433392,
        58.8005825
      ],
      [
        12.4432356,
        58.8006099
      ],
      [
        12.4430954,
        58.800632
      ],
      [
        12.4429734,
        58.8006467
      ],
      [
        12.4427479,
        58.8006636
      ],
      [
        12.4424532,
        58.8006857
      ],
      [
        12.4422093,
        58.8006994
      ],
      [
        12.442063,
        58.8007183
      ],
      [
        12.4419289,
        58.8007467
      ],
      [
        12.4417643,
        58.8008015
      ],
      [
        12.4416017,
        58.8008657
      ],
      [
        12.4412156,
        58.8010404
      ],
      [
        12.4408051,
        58.8012257
      ],
      [
        12.4406075,
        58.8013178
      ],
      [
        12.4405229,
        58.8013475
      ],
      [
        12.4404477,
        58.8013784
      ],
      [
        12.4403499,
        58.8014202
      ],
      [
        12.4402493,
        58.8014686
      ],
      [
        12.4401257,
        58.8015356
      ],
      [
        12.4400079,
        58.8016056
      ],
      [
        12.4397995,
        58.8017343
      ],
      [
        12.4396673,
        58.8018222
      ],
      [
        12.4395351,
        58.8019234
      ],
      [
        12.4394389,
        58.8020045
      ],
      [
        12.4393253,
        58.802105
      ],
      [
        12.4392118,
        58.8022115
      ],
      [
        12.439094,
        58.8023246
      ],
      [
        12.4390308,
        58.8024028
      ],
      [
        12.4389629,
        58.8024756
      ],
      [
        12.4389172,
        58.8025151
      ],
      [
        12.4388634,
        58.8025566
      ],
      [
        12.4388044,
        58.8026028
      ],
      [
        12.4387398,
        58.8026475
      ],
      [
        12.4384898,
        58.8028119
      ],
      [
        12.4383173,
        58.8029325
      ],
      [
        12.4382325,
        58.8029846
      ],
      [
        12.4381746,
        58.8030183
      ],
      [
        12.438073,
        58.8030641
      ],
      [
        12.437942,
        58.8030941
      ],
      [
        12.4378312,
        58.803102
      ],
      [
        12.4377306,
        58.8030931
      ],
      [
        12.4376383,
        58.8030793
      ],
      [
        12.4375266,
        58.8030625
      ],
      [
        12.4374026,
        58.803053
      ],
      [
        12.4372849,
        58.8030523
      ],
      [
        12.4370502,
        58.8030524
      ],
      [
        12.437055,
        58.80312
      ],
      [
        12.4370488,
        58.8032051
      ],
      [
        12.4370323,
        58.8032719
      ],
      [
        12.4370044,
        58.8033352
      ],
      [
        12.4369366,
        58.8034402
      ],
      [
        12.4368647,
        58.8035422
      ],
      [
        12.4367687,
        58.8036561
      ],
      [
        12.4366308,
        58.8038343
      ],
      [
        12.436561,
        58.8039382
      ],
      [
        12.4365069,
        58.8040386
      ],
      [
        12.4363967,
        58.8042602
      ],
      [
        12.4362601,
        58.8045931
      ],
      [
        12.4362168,
        58.8046987
      ],
      [
        12.4361559,
        58.8049926
      ],
      [
        12.4361468,
        58.8051207
      ],
      [
        12.4361568,
        58.8052298
      ],
      [
        12.4361685,
        58.8053236
      ],
      [
        12.4361835,
        58.8054045
      ],
      [
        12.4362287,
        58.8056219
      ],
      [
        12.4362672,
        58.8058056
      ],
      [
        12.4362823,
        58.8059394
      ],
      [
        12.4362797,
        58.80609
      ],
      [
        12.4362572,
        58.8062163
      ],
      [
        12.4362246,
        58.8063358
      ],
      [
        12.4361292,
        58.8065726
      ],
      [
        12.4360983,
        58.8066423
      ],
      [
        12.436059,
        58.8067309
      ],
      [
        12.4360163,
        58.8068531
      ],
      [
        12.4359956,
        58.8069448
      ],
      [
        12.435995,
        58.8070074
      ],
      [
        12.4360177,
        58.8071357
      ],
      [
        12.436039,
        58.8072395
      ],
      [
        12.4360532,
        58.8073406
      ],
      [
        12.4360585,
        58.8074242
      ],
      [
        12.4360569,
        58.8074957
      ],
      [
        12.436034,
        58.8077502
      ],
      [
        12.4359925,
        58.8080084
      ],
      [
        12.4359518,
        58.8081351
      ],
      [
        12.4358985,
        58.8082298
      ],
      [
        12.4358548,
        58.8082911
      ],
      [
        12.4357761,
        58.8084044
      ],
      [
        12.4357069,
        58.8084825
      ],
      [
        12.435604,
        58.8085992
      ],
      [
        12.4355472,
        58.8086521
      ],
      [
        12.4354017,
        58.8087793
      ],
      [
        12.4352747,
        58.8088921
      ],
      [
        12.4351782,
        58.8089952
      ],
      [
        12.4350628,
        58.8091347
      ],
      [
        12.4348276,
        58.8094338
      ],
      [
        12.4346138,
        58.8097241
      ],
      [
        12.434576,
        58.8097946
      ],
      [
        12.4345531,
        58.8098454
      ],
      [
        12.4345395,
        58.8098989
      ],
      [
        12.4345357,
        58.8099545
      ],
      [
        12.4345376,
        58.8100002
      ],
      [
        12.4345547,
        58.8100581
      ],
      [
        12.4345836,
        58.8101085
      ],
      [
        12.4346635,
        58.8102008
      ],
      [
        12.4347491,
        58.8102843
      ],
      [
        12.4348509,
        58.8103747
      ],
      [
        12.4349236,
        58.8104348
      ],
      [
        12.434985,
        58.8104899
      ],
      [
        12.435041,
        58.8105446
      ],
      [
        12.435096,
        58.8106034
      ],
      [
        12.4351557,
        58.8106786
      ],
      [
        12.4352428,
        58.8108
      ],
      [
        12.4353172,
        58.8109165
      ],
      [
        12.4353474,
        58.8109628
      ],
      [
        12.4354219,
        58.8110745
      ],
      [
        12.4355024,
        58.8112116
      ],
      [
        12.4355811,
        58.8113556
      ],
      [
        12.4356482,
        58.8114996
      ],
      [
        12.4357096,
        58.8115999
      ],
      [
        12.435769,
        58.8116853
      ],
      [
        12.4358373,
        58.8117959
      ],
      [
        12.4359386,
        58.8118763
      ],
      [
        12.4360526,
        58.8119697
      ],
      [
        12.4361353,
        58.8120322
      ],
      [
        12.436199,
        58.8120835
      ],
      [
        12.4362575,
        58.8121324
      ],
      [
        12.436329,
        58.8121982
      ],
      [
        12.4363905,
        58.8122566
      ],
      [
        12.4364542,
        58.8123219
      ],
      [
        12.4365081,
        58.8123968
      ],
      [
        12.4365337,
        58.8124597
      ],
      [
        12.436549,
        58.8125133
      ],
      [
        12.436563,
        58.8125796
      ],
      [
        12.4365684,
        58.812687
      ],
      [
        12.4365739,
        58.8128064
      ],
      [
        12.4365809,
        58.8128881
      ],
      [
        12.4365986,
        58.8129784
      ],
      [
        12.4366172,
        58.8130451
      ],
      [
        12.4366444,
        58.8131336
      ],
      [
        12.436666,
        58.813204
      ],
      [
        12.4366742,
        58.8132642
      ],
      [
        12.4366715,
        58.8133232
      ],
      [
        12.4366593,
        58.8133916
      ],
      [
        12.4365923,
        58.8135765
      ],
      [
        12.4365224,
        58.8137632
      ],
      [
        12.4364977,
        58.8138283
      ],
      [
        12.4366975,
        58.8138287
      ],
      [
        12.4369744,
        58.8138293
      ],
      [
        12.4370996,
        58.8138325
      ],
      [
        12.4372638,
        58.8138368
      ],
      [
        12.4375326,
        58.8138463
      ],
      [
        12.4376615,
        58.8138597
      ],
      [
        12.437762,
        58.8138844
      ],
      [
        12.4378336,
        58.8139177
      ],
      [
        12.4379163,
        58.8139827
      ],
      [
        12.4379629,
        58.8140389
      ],
      [
        12.4380128,
        58.8140983
      ],
      [
        12.438055,
        58.8141496
      ],
      [
        12.4381188,
        58.8141942
      ],
      [
        12.4382587,
        58.8142476
      ],
      [
        12.4384133,
        58.8142704
      ],
      [
        12.4387332,
        58.8143039
      ],
      [
        12.4389854,
        58.8143283
      ],
      [
        12.4391376,
        58.8143459
      ],
      [
        12.4393078,
        58.8143713
      ],
      [
        12.4394893,
        58.8144003
      ],
      [
        12.4396216,
        58.8144292
      ],
      [
        12.4397213,
        58.8144583
      ],
      [
        12.4397981,
        58.8144856
      ],
      [
        12.4398932,
        58.814522
      ],
      [
        12.4400375,
        58.8145901
      ],
      [
        12.4401783,
        58.8146714
      ],
      [
        12.4402737,
        58.8147329
      ],
      [
        12.4403622,
        58.8148037
      ],
      [
        12.4404175,
        58.8148563
      ],
      [
        12.4404572,
        58.8149043
      ],
      [
        12.4404895,
        58.8149681
      ],
      [
        12.4405021,
        58.8150312
      ],
      [
        12.4404971,
        58.8151081
      ],
      [
        12.4404775,
        58.8151859
      ],
      [
        12.4404431,
        58.8152821
      ],
      [
        12.440417,
        58.8153573
      ],
      [
        12.4403999,
        58.8154131
      ],
      [
        12.4403842,
        58.815494
      ],
      [
        12.4403861,
        58.8155494
      ],
      [
        12.4403938,
        58.8156041
      ],
      [
        12.4404262,
        58.8156685
      ],
      [
        12.4405078,
        58.815735
      ],
      [
        12.4404612,
        58.8157971
      ],
      [
        12.4403083,
        58.815838
      ],
      [
        12.440193,
        58.8158637
      ],
      [
        12.4401165,
        58.8158991
      ],
      [
        12.4399985,
        58.8160214
      ],
      [
        12.4399449,
        58.8161464
      ],
      [
        12.439961,
        58.8162672
      ],
      [
        12.4401219,
        58.8164199
      ],
      [
        12.4404062,
        58.8165894
      ],
      [
        12.4405376,
        58.816713
      ],
      [
        12.4406396,
        58.8168685
      ],
      [
        12.4407308,
        58.8170171
      ],
      [
        12.4408702,
        58.8171907
      ],
      [
        12.4412243,
        58.8175699
      ],
      [
        12.4415676,
        58.8180684
      ],
      [
        12.4416883,
        58.818242
      ],
      [
        12.44175,
        58.8184934
      ],
      [
        12.4417795,
        58.8187197
      ],
      [
        12.4417822,
        58.8190475
      ],
      [
        12.4418412,
        58.8191974
      ],
      [
        12.4419371,
        58.8192884
      ],
      [
        12.4419619,
        58.8193592
      ],
      [
        12.4417989,
        58.8194766
      ],
      [
        12.4416621,
        58.8195856
      ],
      [
        12.4414422,
        58.8196946
      ],
      [
        12.4413027,
        58.8197425
      ],
      [
        12.4411659,
        58.8197633
      ],
      [
        12.4410278,
        58.8197772
      ],
      [
        12.4409326,
        58.8198085
      ],
      [
        12.4408414,
        58.8198841
      ],
      [
        12.4407904,
        58.8199438
      ],
      [
        12.440781,
        58.8199938
      ],
      [
        12.4408146,
        58.8200459
      ],
      [
        12.4408253,
        58.8201035
      ],
      [
        12.4408159,
        58.8201973
      ],
      [
        12.4408374,
        58.8202674
      ],
      [
        12.4408749,
        58.8203736
      ],
      [
        12.4409286,
        58.8204799
      ],
      [
        12.4409192,
        58.8205535
      ],
      [
        12.4409232,
        58.8206153
      ],
      [
        12.4409849,
        58.8207805
      ],
      [
        12.4410385,
        58.8209388
      ],
      [
        12.4410922,
        58.8210374
      ],
      [
        12.4410922,
        58.8211374
      ],
      [
        12.4410305,
        58.8212318
      ],
      [
        12.4409339,
        58.8212915
      ],
      [
        12.440832,
        58.8213693
      ],
      [
        12.4407971,
        58.8214456
      ],
      [
        12.4407569,
        58.8217123
      ],
      [
        12.4407086,
        58.8218233
      ],
      [
        12.4406577,
        58.8219497
      ],
      [
        12.4406308,
        58.8220663
      ],
      [
        12.4406738,
        58.8221497
      ],
      [
        12.4407891,
        58.8222483
      ],
      [
        12.4408401,
        58.822301
      ],
      [
        12.4408427,
        58.8223788
      ],
      [
        12.4408186,
        58.8226079
      ],
      [
        12.4407757,
        58.8226995
      ],
      [
        12.4406818,
        58.8228356
      ],
      [
        12.440655,
        58.8229161
      ],
      [
        12.4406818,
        58.823005
      ],
      [
        12.4406845,
        58.823105
      ],
      [
        12.440663,
        58.8232091
      ],
      [
        12.440596,
        58.8233438
      ],
      [
        12.4405075,
        58.8234452
      ],
      [
        12.4404297,
        58.8235368
      ],
      [
        12.4403733,
        58.823634
      ],
      [
        12.440376,
        58.8237548
      ],
      [
        12.4404377,
        58.8239395
      ],
      [
        12.4405718,
        58.8240742
      ],
      [
        12.4407033,
        58.8243158
      ],
      [
        12.4408374,
        58.8245296
      ],
      [
        12.441001,
        58.8246684
      ],
      [
        12.4410908,
        58.8247684
      ],
      [
        12.4411646,
        58.8248253
      ],
      [
        12.4412759,
        58.824858
      ],
      [
        12.4414033,
        58.8248885
      ],
      [
        12.4414784,
        58.8249232
      ],
      [
        12.4415549,
        58.824985
      ],
      [
        12.4416729,
        58.8250836
      ],
      [
        12.4416943,
        58.8251766
      ],
      [
        12.4416514,
        58.8252946
      ],
      [
        12.441571,
        58.825421
      ],
      [
        12.4415495,
        58.8254973
      ],
      [
        12.4415629,
        58.8256015
      ],
      [
        12.4416165,
        58.825725
      ],
      [
        12.4417212,
        58.8258667
      ],
      [
        12.4418124,
        58.8260013
      ],
      [
        12.4418499,
        58.8261263
      ],
      [
        12.4418419,
        58.8262193
      ],
      [
        12.4418579,
        58.8263137
      ],
      [
        12.4419491,
        58.8264095
      ],
      [
        12.4420967,
        58.8265511
      ],
      [
        12.4422951,
        58.8267122
      ],
      [
        12.4423676,
        58.8268149
      ],
      [
        12.4423837,
        58.8269232
      ],
      [
        12.4423488,
        58.8269927
      ],
      [
        12.4422388,
        58.827019
      ],
      [
        12.4421342,
        58.8270426
      ],
      [
        12.4420752,
        58.8270815
      ],
      [
        12.4420403,
        58.827144
      ],
      [
        12.4419652,
        58.8272203
      ],
      [
        12.4418338,
        58.82728
      ],
      [
        12.4416809,
        58.8273023
      ],
      [
        12.441571,
        58.8273023
      ],
      [
        12.4414261,
        58.8273231
      ],
      [
        12.4412974,
        58.8273689
      ],
      [
        12.4411552,
        58.8274564
      ],
      [
        12.4410426,
        58.8275716
      ],
      [
        12.4409621,
        58.827741
      ],
      [
        12.4408977,
        58.8279576
      ],
      [
        12.4408038,
        58.8281547
      ],
      [
        12.4407368,
        58.8283005
      ],
      [
        12.4406349,
        58.8284227
      ],
      [
        12.4405142,
        58.8285282
      ],
      [
        12.4404471,
        58.8286476
      ],
      [
        12.4404511,
        58.8287427
      ],
      [
        12.4404873,
        58.8288003
      ],
      [
        12.4405584,
        58.828853
      ],
      [
        12.4406268,
        58.8288843
      ],
      [
        12.4407153,
        58.8289009
      ],
      [
        12.4408146,
        58.8289023
      ],
      [
        12.4409648,
        58.8289377
      ],
      [
        12.4411405,
        58.829037
      ],
      [
        12.4412612,
        58.8291286
      ],
      [
        12.4413765,
        58.8291758
      ],
      [
        12.4415374,
        58.8291939
      ],
      [
        12.4419478,
        58.8291911
      ],
      [
        12.4421651,
        58.8292008
      ],
      [
        12.4423823,
        58.8292466
      ],
      [
        12.442613,
        58.829291
      ],
      [
        12.4427149,
        58.8293008
      ],
      [
        12.4428329,
        58.8292869
      ],
      [
        12.4429617,
        58.8292883
      ],
      [
        12.4430448,
        58.8293202
      ],
      [
        12.4431441,
        58.8293257
      ],
      [
        12.4433023,
        58.8293021
      ],
      [
        12.4434659,
        58.8292688
      ],
      [
        12.443592,
        58.829273
      ],
      [
        12.4437154,
        58.8293202
      ],
      [
        12.4439514,
        58.829416
      ],
      [
        12.4441365,
        58.8295257
      ],
      [
        12.4442384,
        58.8295812
      ],
      [
        12.444284,
        58.8296367
      ],
      [
        12.444233,
        58.8296756
      ],
      [
        12.4441928,
        58.8297547
      ],
      [
        12.444276,
        58.8298144
      ],
      [
        12.4443484,
        58.8299116
      ],
      [
        12.4444047,
        58.8300407
      ],
      [
        12.444402,
        58.8301282
      ],
      [
        12.4443886,
        58.8302198
      ],
      [
        12.4444128,
        58.8303003
      ],
      [
        12.4445066,
        58.8303989
      ],
      [
        12.4445308,
        58.8304697
      ],
      [
        12.4444879,
        58.8305641
      ],
      [
        12.4444905,
        58.8306404
      ],
      [
        12.4445281,
        58.8307487
      ],
      [
        12.4446005,
        58.830875
      ],
      [
        12.4446944,
        58.8309361
      ],
      [
        12.4447319,
        58.8309833
      ],
      [
        12.444748,
        58.8310694
      ],
      [
        12.4447856,
        58.831161
      ],
      [
        12.4449304,
        58.8313054
      ],
      [
        12.4450431,
        58.831422
      ],
      [
        12.4451021,
        58.8315108
      ],
      [
        12.4451182,
        58.83159
      ],
      [
        12.4451209,
        58.8317496
      ],
      [
        12.4451316,
        58.8318371
      ],
      [
        12.4451718,
        58.831937
      ],
      [
        12.4451772,
        58.8319967
      ],
      [
        12.4451289,
        58.8320758
      ],
      [
        12.4451182,
        58.8322049
      ],
      [
        12.4450404,
        58.8322896
      ],
      [
        12.4448875,
        58.8323541
      ],
      [
        12.4448017,
        58.8323944
      ],
      [
        12.4447346,
        58.8324555
      ],
      [
        12.4446702,
        58.8325048
      ],
      [
        12.4446689,
        58.8325714
      ],
      [
        12.444622,
        58.8326297
      ],
      [
        12.4446099,
        58.8326824
      ],
      [
        12.4444798,
        58.8327373
      ],
      [
        12.4444141,
        58.8327873
      ],
      [
        12.4444825,
        58.8328872
      ],
      [
        12.4444798,
        58.8329608
      ],
      [
        12.4444369,
        58.8330163
      ],
      [
        12.4444288,
        58.8330913
      ],
      [
        12.4444074,
        58.8331537
      ],
      [
        12.4443216,
        58.8332315
      ],
      [
        12.4441767,
        58.83328
      ],
      [
        12.443938,
        58.8332995
      ],
      [
        12.4436859,
        58.8333217
      ],
      [
        12.4434203,
        58.8333578
      ],
      [
        12.4432219,
        58.8334161
      ],
      [
        12.442967,
        58.8335466
      ],
      [
        12.4427391,
        58.8336174
      ],
      [
        12.4425969,
        58.8336479
      ],
      [
        12.4424682,
        58.8336979
      ],
      [
        12.4420765,
        58.8338769
      ],
      [
        12.4416018,
        58.8340921
      ],
      [
        12.4414382,
        58.834174
      ],
      [
        12.4412209,
        58.8342295
      ],
      [
        12.4411179,
        58.8342233
      ],
      [
        12.4409844,
        58.8342892
      ],
      [
        12.4408786,
        58.8343503
      ],
      [
        12.4407973,
        58.8344154
      ],
      [
        12.4406239,
        58.834552
      ],
      [
        12.4405242,
        58.834621
      ],
      [
        12.4404291,
        58.8346663
      ],
      [
        12.4403386,
        58.8346957
      ],
      [
        12.4401987,
        58.8347185
      ],
      [
        12.440041,
        58.8347228
      ],
      [
        12.4399221,
        58.8347146
      ],
      [
        12.4397596,
        58.8346988
      ],
      [
        12.4395673,
        58.8346685
      ],
      [
        12.4394268,
        58.8346346
      ],
      [
        12.4393175,
        58.8346083
      ],
      [
        12.439171,
        58.8345597
      ],
      [
        12.4390668,
        58.8345374
      ],
      [
        12.4389089,
        58.8345091
      ],
      [
        12.4386277,
        58.8343724
      ],
      [
        12.4383461,
        58.8342731
      ],
      [
        12.4378673,
        58.834092
      ],
      [
        12.4375267,
        58.8339879
      ],
      [
        12.4372155,
        58.8339226
      ],
      [
        12.4369125,
        58.8338879
      ],
      [
        12.4367998,
        58.8338893
      ],
      [
        12.4367086,
        58.8339018
      ],
      [
        12.4366067,
        58.8338977
      ],
      [
        12.4364592,
        58.833856
      ],
      [
        12.4362231,
        58.833763
      ],
      [
        12.4361293,
        58.833738
      ],
      [
        12.435979,
        58.8336894
      ],
      [
        12.4358396,
        58.8336256
      ],
      [
        12.4356438,
        58.8335368
      ],
      [
        12.4354721,
        58.8334382
      ],
      [
        12.4352173,
        58.833348
      ],
      [
        12.435,
        58.8332869
      ],
      [
        12.4346943,
        58.8332675
      ],
      [
        12.4344126,
        58.833205
      ],
      [
        12.4341847,
        58.8331828
      ],
      [
        12.4340023,
        58.8331981
      ],
      [
        12.4338199,
        58.8332439
      ],
      [
        12.4335436,
        58.8333521
      ],
      [
        12.4332083,
        58.8334673
      ],
      [
        12.4328328,
        58.8336228
      ],
      [
        12.4325244,
        58.8337436
      ],
      [
        12.4323822,
        58.8338283
      ],
      [
        12.4322588,
        58.833949
      ],
      [
        12.4321247,
        58.8340212
      ],
      [
        12.4319745,
        58.8340864
      ],
      [
        12.4317438,
        58.8341114
      ],
      [
        12.4315615,
        58.8340989
      ],
      [
        12.4314139,
        58.8340892
      ],
      [
        12.4313227,
        58.8341087
      ],
      [
        12.431261,
        58.8341489
      ],
      [
        12.4312101,
        58.8343099
      ],
      [
        12.4311511,
        58.834439
      ],
      [
        12.4310894,
        58.8345279
      ],
      [
        12.4309794,
        58.834582
      ],
      [
        12.4306119,
        58.8345986
      ],
      [
        12.430443,
        58.8345889
      ],
      [
        12.4302659,
        58.8345459
      ],
      [
        12.4300755,
        58.834514
      ],
      [
        12.4298314,
        58.8345001
      ],
      [
        12.4295954,
        58.8345112
      ],
      [
        12.4294371,
        58.8345403
      ],
      [
        12.4292869,
        58.8345917
      ],
      [
        12.4291877,
        58.8346222
      ],
      [
        12.4290697,
        58.8346542
      ],
      [
        12.4289731,
        58.8347041
      ],
      [
        12.4289087,
        58.8348138
      ],
      [
        12.4288712,
        58.8349137
      ],
      [
        12.4288095,
        58.8350678
      ],
      [
        12.4287827,
        58.8352011
      ],
      [
        12.428788,
        58.835394
      ],
      [
        12.4288176,
        58.8355606
      ],
      [
        12.4287907,
        58.8356605
      ],
      [
        12.4287693,
        58.835791
      ],
      [
        12.4287398,
        58.8359423
      ],
      [
        12.4287532,
        58.8360866
      ],
      [
        12.4287612,
        58.836163
      ],
      [
        12.4287103,
        58.8362685
      ],
      [
        12.4286352,
        58.8363295
      ],
      [
        12.4283669,
        58.8363906
      ],
      [
        12.4279995,
        58.8364614
      ],
      [
        12.4278841,
        58.8365044
      ],
      [
        12.4277688,
        58.8366168
      ],
      [
        12.4276776,
        58.8367584
      ],
      [
        12.4276562,
        58.8368695
      ],
      [
        12.4276588,
        58.8369985
      ],
      [
        12.4275837,
        58.8371387
      ],
      [
        12.4274684,
        58.8372831
      ],
      [
        12.4273182,
        58.8374344
      ],
      [
        12.4271814,
        58.8375315
      ],
      [
        12.4269293,
        58.8376495
      ],
      [
        12.4266691,
        58.8377577
      ],
      [
        12.4264813,
        58.8378438
      ],
      [
        12.426421,
        58.837925
      ],
      [
        12.4264371,
        58.8379986
      ],
      [
        12.4264961,
        58.8380388
      ],
      [
        12.4264907,
        58.8381027
      ],
      [
        12.4263915,
        58.8381887
      ],
      [
        12.4263057,
        58.8382165
      ],
      [
        12.426185,
        58.8383025
      ],
      [
        12.4260696,
        58.8384566
      ],
      [
        12.426016,
        58.8386065
      ],
      [
        12.4260187,
        58.8387675
      ],
      [
        12.4260938,
        58.8389437
      ],
      [
        12.4260857,
        58.8390659
      ],
      [
        12.4260616,
        58.8392255
      ],
      [
        12.4260723,
        58.8393781
      ],
      [
        12.4260696,
        58.8395114
      ],
      [
        12.4260696,
        58.8396321
      ],
      [
        12.4260669,
        58.8397431
      ],
      [
        12.4260079,
        58.83985
      ],
      [
        12.4259275,
        58.8399472
      ],
      [
        12.4258497,
        58.840036
      ],
      [
        12.4257451,
        58.8401762
      ],
      [
        12.4256271,
        58.8402719
      ],
      [
        12.4255922,
        58.8403469
      ],
      [
        12.4256271,
        58.8404648
      ],
      [
        12.4256834,
        58.8405842
      ],
      [
        12.4257773,
        58.8407327
      ],
      [
        12.4259543,
        58.8410227
      ],
      [
        12.425975,
        58.8411
      ]
    ]
  }
}
