{
  "type": "Feature",
  "properties": {},
  "geometry": {
    "type": "LineString",
    "coordinates": [
      [
        -4.12134038284421,
        50.62939211726189,
        156.60000000000002
      ],
      [
        -4.121313560754061,
        50.62938641756773,
        159.79999999999995
      ],
      [
        -4.121042490005493,
        50.629344172775745,
        190.79999999999995
      ],
      [
        -4.120991360396147,
        50.62956864014268,
        193.60000000000002
      ],
      [
        -4.120540330186486,
        50.62968238256872,
        176.39999999999998
      ],
      [
        -4.120526080951095,
        50.62969478778541,
        176.39999999999998
      ],
      [
        -4.120466653257608,
        50.629782462492585,
        174.39999999999998
      ],
      [
        -4.1205935552716255,
        50.629971977323294,
        171.60000000000002
      ],
      [
        -4.120603110641241,
        50.62998195178807,
        171.39999999999998
      ],
      [
        -4.120648959651589,
        50.630030734464526,
        171.39999999999998
      ],
      [
        -4.120687851682305,
        50.6300753261894,
        171.20000000000005
      ],
      [
        -4.120815088972449,
        50.63016283325851,
        171.20000000000005
      ],
      [
        -4.121272070333362,
        50.63051420263946,
        171.39999999999998
      ],
      [
        -4.121832652017474,
        50.63080455176532,
        170
      ],
      [
        -4.122425252571702,
        50.63106447458267,
        169.20000000000005
      ],
      [
        -4.123113909736276,
        50.63121845014393,
        168.60000000000002
      ],
      [
        -4.123163865879178,
        50.63123186118901,
        168.79999999999995
      ],
      [
        -4.123769290745258,
        50.63148113898933,
        164.60000000000002
      ],
      [
        -4.124498935416341,
        50.63148541375995,
        161
      ],
      [
        -4.125213241204619,
        50.63148784451187,
        169
      ],
      [
        -4.125814139842987,
        50.63183980062604,
        170.79999999999995
      ],
      [
        -4.126085797324777,
        50.63191783614457,
        175.79999999999995
      ],
      [
        -4.125960236415267,
        50.63210869207978,
        176.79999999999995
      ],
      [
        -4.125494118779898,
        50.632401974871755,
        170.39999999999998
      ],
      [
        -4.125338634476066,
        50.63247959129512,
        164.39999999999998
      ],
      [
        -4.126044139266014,
        50.63249610364437,
        159.60000000000002
      ],
      [
        -4.126748973503709,
        50.63241890631616,
        147.79999999999995
      ],
      [
        -4.1268297750502825,
        50.6324996240437,
        142.79999999999995
      ],
      [
        -4.126830110326409,
        50.63250205479562,
        142.60000000000002
      ],
      [
        -4.126671105623245,
        50.63262300565839,
        141.20000000000005
      ],
      [
        -4.126659370958805,
        50.63263130374253,
        141
      ],
      [
        -4.126421324908733,
        50.63276868313551,
        137.39999999999998
      ],
      [
        -4.126347228884697,
        50.632813945412636,
        136.79999999999995
      ],
      [
        -4.1261842008680105,
        50.632860381156206,
        137.79999999999995
      ],
      [
        -4.126044390723109,
        50.63286121934652,
        136.60000000000002
      ],
      [
        -4.125903742387891,
        50.63285945914686,
        135.79999999999995
      ],
      [
        -4.125711880624294,
        50.632877899333835,
        136.60000000000002
      ],
      [
        -4.125022133812308,
        50.63300421461463,
        126.39999999999998
      ],
      [
        -4.124722061678767,
        50.63303749077022,
        116.79999999999995
      ],
      [
        -4.124647211283445,
        50.633080657571554,
        116.39999999999998
      ],
      [
        -4.124257955700159,
        50.633068922907114,
        121.79999999999995
      ],
      [
        -4.1241853684186935,
        50.6330490577966,
        122.79999999999995
      ],
      [
        -4.124109512194991,
        50.63301016576588,
        124.20000000000005
      ],
      [
        -4.123976910486817,
        50.632954174652696,
        128.60000000000002
      ],
      [
        -4.123717742040753,
        50.6328053958714,
        127.20000000000005
      ],
      [
        -4.1237209271639585,
        50.6328003667295,
        127.60000000000002
      ],
      [
        -4.123556558042765,
        50.632666340097785,
        133.39999999999998
      ],
      [
        -4.12354800850153,
        50.63266231678426,
        133.39999999999998
      ],
      [
        -4.123483719304204,
        50.632520746439695,
        133
      ],
      [
        -4.123474583029747,
        50.63248822465539,
        132.79999999999995
      ],
      [
        -4.123470643535256,
        50.63247271813452,
        134.20000000000005
      ],
      [
        -4.123442731797695,
        50.632463078945875,
        136.39999999999998
      ],
      [
        -4.123254306614399,
        50.63251253217459,
        137.20000000000005
      ],
      [
        -4.123122878372669,
        50.632508005946875,
        136
      ],
      [
        -4.12299295887351,
        50.6324774120003,
        132.60000000000002
      ],
      [
        -4.122292147949338,
        50.6323304772377,
        132.60000000000002
      ],
      [
        -4.121642131358385,
        50.632158145308495,
        128.60000000000002
      ],
      [
        -4.12115765735507,
        50.632045324891806,
        128.60000000000002
      ],
      [
        -4.121162435039878,
        50.63209720887244,
        125.60000000000002
      ],
      [
        -4.121127650141716,
        50.63202110119164,
        135.39999999999998
      ],
      [
        -4.121094206348062,
        50.63195019029081,
        151.60000000000002
      ],
      [
        -4.120971327647567,
        50.63204130157828,
        137.39999999999998
      ],
      [
        -4.12101156078279,
        50.632022358477116,
        139
      ],
      [
        -4.120985995978117,
        50.6320215202868,
        138
      ],
      [
        -4.120818944647908,
        50.63197215087712,
        133.60000000000002
      ],
      [
        -4.120720289647579,
        50.631965193897486,
        132.39999999999998
      ],
      [
        -4.120609732344747,
        50.63195723108947,
        130.79999999999995
      ],
      [
        -4.120444189757109,
        50.63196770846844,
        128.39999999999998
      ],
      [
        -4.120279150083661,
        50.6319610029459,
        127.20000000000005
      ],
      [
        -4.120163144543767,
        50.631954884156585,
        126.20000000000005
      ],
      [
        -4.119631564244628,
        50.63209502957761,
        115.60000000000002
      ],
      [
        -4.119484880939126,
        50.63225353136659,
        146.60000000000002
      ],
      [
        -4.11937122233212,
        50.63234355300665,
        149.20000000000005
      ],
      [
        -4.119334006682038,
        50.632383450865746,
        144.60000000000002
      ],
      [
        -4.119294276461005,
        50.632515382021666,
        140.39999999999998
      ],
      [
        -4.119299976155162,
        50.63276616856456,
        135.20000000000005
      ],
      [
        -4.119285475462675,
        50.632889214903116,
        130.39999999999998
      ],
      [
        -4.119210122153163,
        50.63299851492047,
        129.60000000000002
      ],
      [
        -4.119132589548826,
        50.633080154657364,
        127.20000000000005
      ],
      [
        -4.1190591640770435,
        50.63314285129309,
        128.79999999999995
      ],
      [
        -4.118902673944831,
        50.63321736641228,
        131.60000000000002
      ],
      [
        -4.118511909618974,
        50.63336865976453,
        145.20000000000005
      ],
      [
        -4.11839984357357,
        50.6334238126874,
        148.39999999999998
      ],
      [
        -4.118347121402621,
        50.63342624343932,
        147.39999999999998
      ],
      [
        -4.1183022782206535,
        50.63352171331644,
        149.20000000000005
      ],
      [
        -4.118271432816982,
        50.6335979886353,
        150
      ],
      [
        -4.118022909387946,
        50.63367401249707,
        141.79999999999995
      ],
      [
        -4.118005055934191,
        50.63370938412845,
        144.20000000000005
      ],
      [
        -4.11796884611249,
        50.633787252008915,
        151.60000000000002
      ],
      [
        -4.117963062599301,
        50.633803429082036,
        153.39999999999998
      ],
      [
        -4.117942359298468,
        50.63389604911208,
        160.39999999999998
      ],
      [
        -4.117915956303477,
        50.633968552574515,
        173.39999999999998
      ],
      [
        -4.117926182225347,
        50.63397567719221,
        174.39999999999998
      ],
      [
        -4.117973959073424,
        50.634001744911075,
        176
      ],
      [
        -4.1179965902119875,
        50.63408891670406,
        179
      ],
      [
        -4.117952669039369,
        50.6341542955488,
        182.20000000000005
      ],
      [
        -4.11815894767642,
        50.63447934575379,
        161
      ],
      [
        -4.118252992630005,
        50.6347275339067,
        136.79999999999995
      ],
      [
        -4.118250478059053,
        50.63474178314209,
        134.39999999999998
      ],
      [
        -4.118294147774577,
        50.634849490597844,
        123.20000000000005
      ],
      [
        -4.118268163874745,
        50.63493833877146,
        118
      ],
      [
        -4.118209993466735,
        50.6350986007601,
        117.20000000000005
      ],
      [
        -4.118155427277088,
        50.63516724854708,
        118.60000000000002
      ],
      [
        -4.117981921881437,
        50.635202368721366,
        124.20000000000005
      ],
      [
        -4.117904976010323,
        50.63530680723488,
        120.39999999999998
      ],
      [
        -4.117819564417005,
        50.635368917137384,
        127.79999999999995
      ],
      [
        -4.117789221927524,
        50.635402193292975,
        131.39999999999998
      ],
      [
        -4.11765075288713,
        50.635491125285625,
        135
      ],
      [
        -4.117387058213353,
        50.63571433536708,
        144.39999999999998
      ],
      [
        -4.117266023531556,
        50.63575959764421,
        148.79999999999995
      ],
      [
        -4.117083549499512,
        50.63580938614905,
        150
      ],
      [
        -4.116997048258781,
        50.63586562871933,
        153
      ],
      [
        -4.116960670799017,
        50.63594735227525,
        155.20000000000005
      ],
      [
        -4.116669483482838,
        50.63621004112065,
        150.79999999999995
      ],
      [
        -4.116393802687526,
        50.63633275218308,
        148.20000000000005
      ],
      [
        -4.116344852373004,
        50.636402824893594,
        150
      ],
      [
        -4.116410734131932,
        50.636593429371715,
        151.39999999999998
      ],
      [
        -4.116443423554301,
        50.636578258126974,
        152.79999999999995
      ],
      [
        -4.1163228917866945,
        50.63663776963949,
        153.39999999999998
      ],
      [
        -4.116230271756649,
        50.63668571412563,
        149.60000000000002
      ],
      [
        -4.115982335060835,
        50.63675251789391,
        154
      ],
      [
        -4.115969175472856,
        50.63675293698907,
        154.39999999999998
      ],
      [
        -4.115921985358,
        50.636793840676546,
        160.60000000000002
      ],
      [
        -4.115860546007752,
        50.63680708408356,
        162
      ],
      [
        -4.115712186321616,
        50.63679073937237,
        172.39999999999998
      ],
      [
        -4.115726603195071,
        50.6368222553283,
        181
      ],
      [
        -4.115799525752664,
        50.63692300580442,
        189.79999999999995
      ],
      [
        -4.11590781994164,
        50.637322906404734,
        163.60000000000002
      ],
      [
        -4.116143267601728,
        50.637359116226435,
        162.79999999999995
      ],
      [
        -4.116280311718583,
        50.63744100742042,
        153.79999999999995
      ],
      [
        -4.11624351516366,
        50.63752214424312,
        156.79999999999995
      ],
      [
        -4.116196744143963,
        50.63763161189854,
        152.20000000000005
      ],
      [
        -4.116084259003401,
        50.6375855114311,
        148.39999999999998
      ],
      [
        -4.116035057231784,
        50.63758718781173,
        149.20000000000005
      ],
      [
        -4.116013096645474,
        50.63758400268853,
        148
      ],
      [
        -4.11597914993763,
        50.637608813121915,
        148.39999999999998
      ],
      [
        -4.115691902115941,
        50.63786814920604,
        154
      ],
      [
        -4.115740852430463,
        50.637917686253786,
        141.79999999999995
      ],
      [
        -4.115727441385388,
        50.63791684806347,
        145.79999999999995
      ],
      [
        -4.115753509104252,
        50.63802145421505,
        151
      ],
      [
        -4.115774463862181,
        50.6380276568234,
        154.79999999999995
      ],
      [
        -4.115796340629458,
        50.63809387385845,
        156.79999999999995
      ],
      [
        -4.115757113322616,
        50.63818188384175,
        163
      ],
      [
        -4.115678742527962,
        50.638226978480816,
        167.79999999999995
      ],
      [
        -4.115655021741986,
        50.63823418691754,
        168
      ],
      [
        -4.11564689129591,
        50.63825950026512,
        167.79999999999995
      ],
      [
        -4.115631720051169,
        50.638271821662784,
        168.39999999999998
      ],
      [
        -4.115673713386059,
        50.63833946362138,
        171
      ],
      [
        -4.115632474422455,
        50.63847097568214,
        181.20000000000005
      ],
      [
        -4.115514792501926,
        50.638556219637394,
        180
      ],
      [
        -4.115184461697936,
        50.638450691476464,
        168.60000000000002
      ],
      [
        -4.11494767293334,
        50.63862537033856,
        148
      ],
      [
        -4.114997964352369,
        50.6387267075479,
        144.60000000000002
      ],
      [
        -4.114972315728664,
        50.63874866813421,
        145.60000000000002
      ],
      [
        -4.114900901913643,
        50.63876870088279,
        144
      ],
      [
        -4.114734940230846,
        50.63876073807478,
        155
      ],
      [
        -4.114463869482279,
        50.63885788433254,
        175.39999999999998
      ],
      [
        -4.114118702709675,
        50.638877833262086,
        180.39999999999998
      ],
      [
        -4.113536411896348,
        50.63893700949848,
        157.39999999999998
      ],
      [
        -4.1131713800132275,
        50.63905351795256,
        150.60000000000002
      ],
      [
        -4.112991001456976,
        50.63921126537025,
        155
      ],
      [
        -4.112941548228264,
        50.639232052490115,
        156
      ],
      [
        -4.112426228821278,
        50.639394242316484,
        171.60000000000002
      ],
      [
        -4.112316258251667,
        50.639545284211636,
        172.79999999999995
      ],
      [
        -4.112336207181215,
        50.639820881187916,
        179.39999999999998
      ],
      [
        -4.112171921879053,
        50.64019387587905,
        192.60000000000002
      ],
      [
        -4.112132443115115,
        50.6402241345495,
        191
      ],
      [
        -4.11197679117322,
        50.6406435649842,
        203.60000000000002
      ],
      [
        -4.111884171143174,
        50.64059159718454,
        203
      ],
      [
        -4.111872687935829,
        50.64059788361192,
        202.20000000000005
      ],
      [
        -4.111862378194928,
        50.64055589027703,
        193.39999999999998
      ],
      [
        -4.111859863623977,
        50.64049478620291,
        178
      ],
      [
        -4.111846787855029,
        50.640369560569525,
        161.60000000000002
      ],
      [
        -4.111878136172891,
        50.64032723195851,
        159.79999999999995
      ],
      [
        -4.111892888322473,
        50.640250789001584,
        152
      ],
      [
        -4.111904790624976,
        50.64022279344499,
        148.79999999999995
      ],
      [
        -4.1119070537388325,
        50.639897072687745,
        161.39999999999998
      ],
      [
        -4.1118835005909204,
        50.63984694890678,
        165.60000000000002
      ],
      [
        -4.111839327961206,
        50.639655170962214,
        176.39999999999998
      ],
      [
        -4.111739583313465,
        50.63956213183701,
        179
      ],
      [
        -4.1111598908901215,
        50.63929717987776,
        173.39999999999998
      ],
      [
        -4.1111289616674185,
        50.639273039996624,
        174.20000000000005
      ],
      [
        -4.111117394641042,
        50.63924269750714,
        174.20000000000005
      ],
      [
        -4.111378910019994,
        50.63921327702701,
        174
      ],
      [
        -4.1117006074637175,
        50.63924982212484,
        176.39999999999998
      ],
      [
        -4.11192792467773,
        50.63915887847543,
        186
      ],
      [
        -4.1121181938797235,
        50.63883609138429,
        175.79999999999995
      ],
      [
        -4.112131353467703,
        50.638790326192975,
        175.60000000000002
      ],
      [
        -4.112141914665699,
        50.63877834007144,
        176
      ],
      [
        -4.1121502965688705,
        50.63876970671117,
        176.20000000000005
      ],
      [
        -4.112217603251338,
        50.63865755684674,
        176.60000000000002
      ],
      [
        -4.112312737852335,
        50.63855638727546,
        180.20000000000005
      ],
      [
        -4.112369818612933,
        50.63853987492621,
        180.60000000000002
      ],
      [
        -4.112498732283711,
        50.638487404212356,
        182.20000000000005
      ],
      [
        -4.11277080886066,
        50.63838195987046,
        188.79999999999995
      ],
      [
        -4.112733341753483,
        50.6383677944541,
        188
      ],
      [
        -4.1126839723438025,
        50.63833460211754,
        195
      ],
      [
        -4.113364163786173,
        50.63831280916929,
        190.79999999999995
      ],
      [
        -4.113467177376151,
        50.638327645137906,
        188.20000000000005
      ],
      [
        -4.113604053854942,
        50.638342732563615,
        184.60000000000002
      ],
      [
        -4.113856181502342,
        50.63839176669717,
        183.60000000000002
      ],
      [
        -4.114065309986472,
        50.63831163570285,
        184
      ],
      [
        -4.114422714337707,
        50.638185404241085,
        184.20000000000005
      ],
      [
        -4.114681798964739,
        50.638136118650436,
        185.60000000000002
      ],
      [
        -4.115021685138345,
        50.63793495297432,
        181.60000000000002
      ],
      [
        -4.115014560520649,
        50.63778944313526,
        180.20000000000005
      ],
      [
        -4.115051859989762,
        50.637730602175,
        182.60000000000002
      ],
      [
        -4.115240704268217,
        50.63731242902577,
        187.60000000000002
      ],
      [
        -4.1152282152324915,
        50.63721477985382,
        189.20000000000005
      ],
      [
        -4.1152311488986015,
        50.637180330231786,
        189
      ],
      [
        -4.11520617082715,
        50.63703943043947,
        188.39999999999998
      ],
      [
        -4.114997964352369,
        50.63687271438539,
        179.60000000000002
      ],
      [
        -4.114920934662223,
        50.63679937273264,
        180.20000000000005
      ],
      [
        -4.1149163246154785,
        50.63673541881144,
        178
      ],
      [
        -4.114925377070904,
        50.63670792616904,
        179.79999999999995
      ],
      [
        -4.115053452551365,
        50.63660558313131,
        186.20000000000005
      ],
      [
        -4.115102235227823,
        50.636568954214454,
        189.60000000000002
      ],
      [
        -4.115287810564041,
        50.63650709576905,
        189.60000000000002
      ],
      [
        -4.11531220190227,
        50.63649293035269,
        189.39999999999998
      ],
      [
        -4.115320164710283,
        50.63648312352598,
        189.20000000000005
      ],
      [
        -4.115423848852515,
        50.63636544160545,
        189.79999999999995
      ],
      [
        -4.115479169413447,
        50.63628195784986,
        191
      ],
      [
        -4.115530885756016,
        50.635876189917326,
        187.20000000000005
      ],
      [
        -4.115413203835487,
        50.635730093345046,
        180
      ],
      [
        -4.115411024540663,
        50.63572824932635,
        180
      ],
      [
        -4.115641359239817,
        50.63573956489563,
        177.60000000000002
      ],
      [
        -4.115752000361681,
        50.635727327317,
        178.20000000000005
      ],
      [
        -4.115789718925953,
        50.63573554158211,
        178
      ],
      [
        -4.115857779979706,
        50.635764794424176,
        178.20000000000005
      ],
      [
        -4.115927936509252,
        50.63573461957276,
        181.79999999999995
      ],
      [
        -4.115891056135297,
        50.635817935690284,
        185.39999999999998
      ],
      [
        -4.1158995218575,
        50.63581810332835,
        185
      ],
      [
        -4.115936569869518,
        50.63582028262317,
        184.39999999999998
      ],
      [
        -4.115973114967346,
        50.63581860624254,
        184.20000000000005
      ],
      [
        -4.116251729428768,
        50.635729087516665,
        178.39999999999998
      ],
      [
        -4.1162701696157455,
        50.635728584602475,
        177.39999999999998
      ],
      [
        -4.116288023069501,
        50.6357067078352,
        176
      ],
      [
        -4.116316270083189,
        50.635694889351726,
        174.39999999999998
      ],
      [
        -4.1163653042167425,
        50.63566630706191,
        172.39999999999998
      ],
      [
        -4.11647267639637,
        50.635628420859575,
        170.39999999999998
      ],
      [
        -4.116692030802369,
        50.635544350370765,
        167
      ],
      [
        -4.116747016087174,
        50.635481318458915,
        165.60000000000002
      ],
      [
        -4.116767132654786,
        50.635463716462255,
        164.60000000000002
      ],
      [
        -4.11680543795228,
        50.635445611551404,
        164.20000000000005
      ],
      [
        -4.11689923144877,
        50.635364558547735,
        166.79999999999995
      ],
      [
        -4.117345483973622,
        50.63527495600283,
        193.79999999999995
      ],
      [
        -4.1174644231796265,
        50.63522407785058,
        197
      ],
      [
        -4.117497866973281,
        50.63518946059048,
        197.60000000000002
      ],
      [
        -4.117514882236719,
        50.635102204978466,
        197.79999999999995
      ],
      [
        -4.117516726255417,
        50.63490707427263,
        194.79999999999995
      ],
      [
        -4.117523683235049,
        50.63483549281955,
        193.79999999999995
      ],
      [
        -4.117531813681126,
        50.63437784090638,
        180.60000000000002
      ],
      [
        -4.117448246106505,
        50.63393225893378,
        171.20000000000005
      ],
      [
        -4.1176370065659285,
        50.63348558731377,
        171.60000000000002
      ],
      [
        -4.11772551946342,
        50.63361852429807,
        164
      ],
      [
        -4.117728788405657,
        50.633619697764516,
        163
      ],
      [
        -4.117853594943881,
        50.63341761007905,
        155.60000000000002
      ],
      [
        -4.117869269102812,
        50.63334711827338,
        156.39999999999998
      ],
      [
        -4.1179524175822735,
        50.633272686973214,
        157.39999999999998
      ],
      [
        -4.1184086445719,
        50.63291670754552,
        152
      ],
      [
        -4.11864903755486,
        50.63251965679228,
        157
      ],
      [
        -4.118733191862702,
        50.63233491964638,
        155.79999999999995
      ],
      [
        -4.1191725712269545,
        50.63198581337929,
        167.60000000000002
      ],
      [
        -4.119695853441954,
        50.631664702668786,
        178.79999999999995
      ],
      [
        -4.120351653546095,
        50.63145582564175,
        170.39999999999998
      ],
      [
        -4.120629681274295,
        50.631321631371975,
        167.60000000000002
      ],
      [
        -4.120693719014525,
        50.63130956143141,
        167.39999999999998
      ],
      [
        -4.120949869975448,
        50.631055338308215,
        181.60000000000002
      ],
      [
        -4.120791452005506,
        50.63097830861807,
        181.60000000000002
      ],
      [
        -4.120690282434225,
        50.630931286141276,
        183.20000000000005
      ],
      [
        -4.1206342075020075,
        50.630863308906555,
        183.39999999999998
      ],
      [
        -4.120891112834215,
        50.63047162257135,
        183.60000000000002
      ],
      [
        -4.120896561071277,
        50.630463156849146,
        183.60000000000002
      ],
      [
        -4.120798911899328,
        50.63002763316035,
        180.20000000000005
      ],
      [
        -4.120891280472279,
        50.62977843917906,
        180
      ],
      [
        -4.121031342074275,
        50.62932958826423,
        183.60000000000002
      ],
      [
        -4.121029665693641,
        50.629222970455885,
        186.79999999999995
      ],
      [
        -4.12097736261785,
        50.62913638539612,
        191.39999999999998
      ]
    ]
  }
}
