{
  "type": "Feature",
  "properties": {},
  "geometry": {
    "type": "LineString",
    "coordinates": [
      [
        0.9177844505757093,
        45.549247255548835,
        295.20000000000005
      ],
      [
        0.9177414514124393,
        45.54920073598623,
        295.4
      ],
      [
        0.9177005477249622,
        45.54916301742196,
        295.4
      ],
      [
        0.9176811017096043,
        45.549169136211276,
        295.20000000000005
      ],
      [
        0.9176610689610243,
        45.54917383007705,
        294.4
      ],
      [
        0.9176445566117764,
        45.54918338544667,
        294.4
      ],
      [
        0.9176863823086023,
        45.54917768575251,
        294.4
      ],
      [
        0.9176772460341454,
        45.54917919449508,
        294.20000000000005
      ],
      [
        0.9176945965737104,
        45.54922018200159,
        294.20000000000005
      ],
      [
        0.9177776612341404,
        45.5492920987308,
        293.79999999999995
      ],
      [
        0.9178706165403128,
        45.5493372771889,
        293
      ],
      [
        0.9178898110985756,
        45.549366949126124,
        292.79999999999995
      ],
      [
        0.9179153759032488,
        45.5494340043515,
        293
      ],
      [
        0.917931804433465,
        45.549549255520105,
        293.6
      ],
      [
        0.9179271105676889,
        45.549630895256996,
        294.20000000000005
      ],
      [
        0.9179246798157692,
        45.54965662769973,
        294.4
      ],
      [
        0.9179973509162664,
        45.54977959021926,
        295
      ],
      [
        0.9180152043700218,
        45.54981873370707,
        295.20000000000005
      ],
      [
        0.9180577006191015,
        45.549884866923094,
        295.6
      ],
      [
        0.9180677589029074,
        45.549896685406566,
        295.6
      ],
      [
        0.9181303717195988,
        45.54997463710606,
        296.20000000000005
      ],
      [
        0.9181466326117516,
        45.54999299347401,
        296.4
      ],
      [
        0.9181861113756895,
        45.55007136426866,
        297
      ],
      [
        0.9182022046297789,
        45.55009877309203,
        297.20000000000005
      ],
      [
        0.9182074014097452,
        45.550108663737774,
        297.4
      ],
      [
        0.9182801563292742,
        45.550215197727084,
        298
      ],
      [
        0.9182956628501415,
        45.55026289075613,
        298.4
      ],
      [
        0.9183315373957157,
        45.550303207710385,
        299
      ],
      [
        0.9183812420815229,
        45.55037437006831,
        299.4
      ],
      [
        0.9184063039720058,
        45.5504060536623,
        299.79999999999995
      ],
      [
        0.9184148535132408,
        45.55048760958016,
        300.20000000000005
      ],
      [
        0.9185072220861912,
        45.550553407520056,
        299.6
      ],
      [
        0.9185751993209124,
        45.550608057528734,
        299
      ],
      [
        0.9186155162751675,
        45.55063898675144,
        298.4
      ],
      [
        0.918663963675499,
        45.550671173259616,
        298
      ],
      [
        0.9187102317810059,
        45.55070227012038,
        297.79999999999995
      ],
      [
        0.9188000857830048,
        45.550790783017874,
        297.6
      ],
      [
        0.9189062844961882,
        45.55084643885493,
        297.6
      ],
      [
        0.9190159197896719,
        45.550882732495666,
        298
      ],
      [
        0.9191538020968437,
        45.55089991539717,
        298.4
      ],
      [
        0.9193156566470861,
        45.55091910995543,
        299.20000000000005
      ],
      [
        0.9193744976073503,
        45.5509222112596,
        299
      ],
      [
        0.9194692131131887,
        45.55093268863857,
        299.20000000000005
      ],
      [
        0.9196910820901394,
        45.55095003917813,
        299.20000000000005
      ],
      [
        0.9197407867759466,
        45.55095414631069,
        299.4
      ],
      [
        0.9199010487645864,
        45.55097275413573,
        299.4
      ],
      [
        0.9200991969555616,
        45.55099102668464,
        299.4
      ],
      [
        0.9202614706009626,
        45.551058165729046,
        299.4
      ],
      [
        0.920389462262392,
        45.551152378320694,
        299.6
      ],
      [
        0.920534385368228,
        45.55129109881818,
        299.6
      ],
      [
        0.9205282665789127,
        45.55136578157544,
        300
      ],
      [
        0.9205128438770771,
        45.55154649540782,
        300.20000000000005
      ],
      [
        0.9204304497689009,
        45.551676666364074,
        299.6
      ],
      [
        0.9202602971345186,
        45.55180365219712,
        298.79999999999995
      ],
      [
        0.9200873784720898,
        45.55195217952132,
        298.6
      ],
      [
        0.9201230015605688,
        45.55202979594469,
        298.6
      ],
      [
        0.9202411863952875,
        45.55208838544786,
        299
      ],
      [
        0.920320563018322,
        45.55214555002749,
        298.79999999999995
      ],
      [
        0.9203658252954483,
        45.55221453309059,
        299
      ],
      [
        0.9203651547431946,
        45.55224244482815,
        299.20000000000005
      ],
      [
        0.9203632269054651,
        45.55225987918675,
        299.20000000000005
      ],
      [
        0.9202744625508785,
        45.552382254973054,
        299.4
      ],
      [
        0.9202396776527166,
        45.5524436943233,
        299.4
      ],
      [
        0.9202519990503788,
        45.552481077611446,
        299.20000000000005
      ],
      [
        0.9203638136386871,
        45.55251996964216,
        299.4
      ],
      [
        0.9205074794590473,
        45.552501110360026,
        299.4
      ],
      [
        0.9206557553261518,
        45.55245433934033,
        299
      ],
      [
        0.9208447672426701,
        45.552412094548345,
        299.20000000000005
      ],
      [
        0.9210191946476698,
        45.55239725857973,
        299
      ],
      [
        0.9210414905101061,
        45.552395079284906,
        299
      ],
      [
        0.9211801271885633,
        45.55238854140043,
        299.20000000000005
      ],
      [
        0.9212872479110956,
        45.55237730965018,
        299.20000000000005
      ],
      [
        0.9214474260807037,
        45.55233070626855,
        299.20000000000005
      ],
      [
        0.9215824585407972,
        45.552282091230154,
        299.79999999999995
      ],
      [
        0.9217303991317749,
        45.5521794129163,
        300
      ],
      [
        0.9218570496886969,
        45.552067095413804,
        300
      ],
      [
        0.921934163197875,
        45.55200976319611,
        300.4
      ],
      [
        0.9219510108232498,
        45.55199417285621,
        300.4
      ],
      [
        0.9220628254115582,
        45.55190457031131,
        301
      ],
      [
        0.9221770707517862,
        45.55182108655572,
        301.20000000000005
      ],
      [
        0.9223048947751522,
        45.5518014729023,
        301.20000000000005
      ],
      [
        0.9224292822182178,
        45.55186106823385,
        301.4
      ],
      [
        0.9225780609995127,
        45.55197254754603,
        301.4
      ],
      [
        0.922628603875637,
        45.55200632661581,
        301.4
      ],
      [
        0.9226923063397408,
        45.55205225944519,
        301
      ],
      [
        0.9227949846535921,
        45.55212224833667,
        301.4
      ],
      [
        0.9228898677974939,
        45.552193745970726,
        301.4
      ],
      [
        0.9229976590722799,
        45.55227605625987,
        301.20000000000005
      ],
      [
        0.9230539854615927,
        45.55234336294234,
        301
      ],
      [
        0.9231248125433922,
        45.55247873067856,
        301
      ],
      [
        0.9232189413160086,
        45.55261577479541,
        301.20000000000005
      ],
      [
        0.9232893493026495,
        45.552744353190064,
        301.20000000000005
      ],
      [
        0.9233576618134975,
        45.55286228656769,
        301
      ],
      [
        0.9234093781560659,
        45.55295775644481,
        300.79999999999995
      ],
      [
        0.9234155807644129,
        45.55297343060374,
        300.79999999999995
      ],
      [
        0.9234383795410395,
        45.55304911918938,
        300.6
      ],
      [
        0.923465620726347,
        45.55311097763479,
        300.4
      ],
      [
        0.9234719909727573,
        45.55320820771158,
        300.20000000000005
      ],
      [
        0.923465620726347,
        45.553262773901224,
        300.4
      ],
      [
        0.9234591666609049,
        45.55341264232993,
        300.79999999999995
      ],
      [
        0.9235289040952921,
        45.55355345830321,
        301.4
      ],
      [
        0.9236245416104794,
        45.55361355654895,
        301.79999999999995
      ],
      [
        0.9237020742148161,
        45.553640965372324,
        302.20000000000005
      ],
      [
        0.9238078538328409,
        45.55364071391523,
        302.4
      ],
      [
        0.9238698799163103,
        45.5536266323179,
        302.20000000000005
      ],
      [
        0.9239485021680593,
        45.55360022932291,
        302.20000000000005
      ],
      [
        0.9239894896745682,
        45.55357684381306,
        302
      ],
      [
        0.9241207502782345,
        45.55350534617901,
        300.79999999999995
      ],
      [
        0.9241541102528572,
        45.55349377915263,
        300.6
      ],
      [
        0.924333231523633,
        45.553409960120916,
        300.20000000000005
      ],
      [
        0.9244827646762133,
        45.55335313081741,
        299.79999999999995
      ],
      [
        0.9245398454368114,
        45.553332176059484,
        299.6
      ],
      [
        0.9247077349573374,
        45.553319016471505,
        299.20000000000005
      ],
      [
        0.9248810727149248,
        45.55336779914796,
        299.79999999999995
      ],
      [
        0.9250518959015608,
        45.55341641418636,
        300.4
      ],
      [
        0.9252674784511328,
        45.55349914357066,
        300.6
      ],
      [
        0.9254280757158995,
        45.55355773307383,
        300.4
      ],
      [
        0.9255906846374273,
        45.55367239750922,
        300.6
      ],
      [
        0.9256286546587944,
        45.5537112057209,
        300.79999999999995
      ],
      [
        0.9256713185459375,
        45.55376250296831,
        300.79999999999995
      ],
      [
        0.9257097076624632,
        45.55380843579769,
        300.79999999999995
      ],
      [
        0.925814900547266,
        45.55396811105311,
        301.20000000000005
      ],
      [
        0.9258604981005192,
        45.55403281934559,
        301.4
      ],
      [
        0.9258780162781477,
        45.55405871942639,
        301.4
      ],
      [
        0.9259062632918358,
        45.55410071276128,
        301.6
      ],
      [
        0.9259909205138683,
        45.55424035526812,
        301.6
      ],
      [
        0.9260676149278879,
        45.55434278212488,
        301.4
      ],
      [
        0.9261232707649469,
        45.55443422868848,
        301.4
      ],
      [
        0.9261301439255476,
        45.554450238123536,
        301.4
      ],
      [
        0.9261542838066816,
        45.5545315425843,
        301.20000000000005
      ],
      [
        0.9261602349579334,
        45.55456565693021,
        301
      ],
      [
        0.9260847978293896,
        45.554658863693476,
        301.20000000000005
      ],
      [
        0.9259095322340727,
        45.554807893931866,
        301
      ],
      [
        0.9257980529218912,
        45.554896323010325,
        301.20000000000005
      ],
      [
        0.9257327578961849,
        45.55495013482869,
        301.20000000000005
      ],
      [
        0.9256922733038664,
        45.55498391389847,
        301
      ],
      [
        0.9256344381719828,
        45.5550289247185,
        301
      ],
      [
        0.9255034290254116,
        45.55512079037726,
        300.4
      ],
      [
        0.9253406524658203,
        45.55523721501231,
        299.6
      ],
      [
        0.9252382256090641,
        45.55532027967274,
        298.6
      ],
      [
        0.9251708351075649,
        45.55537384003401,
        298.6
      ],
      [
        0.9250861778855324,
        45.5554433260113,
        298.4
      ],
      [
        0.9249467868357897,
        45.55555706843734,
        299
      ],
      [
        0.9247933980077505,
        45.55565941147506,
        298.6
      ],
      [
        0.9246119298040867,
        45.55573862046003,
        298.20000000000005
      ],
      [
        0.9244329761713743,
        45.55578388273716,
        298
      ],
      [
        0.9243665914982557,
        45.5558006465435,
        298.20000000000005
      ],
      [
        0.9242969378829002,
        45.55586208589375,
        298.4
      ],
      [
        0.9243518393486738,
        45.555938612669706,
        298.6
      ],
      [
        0.9244329761713743,
        45.55604145862162,
        298.4
      ],
      [
        0.9244247619062662,
        45.556136425584555,
        298.20000000000005
      ],
      [
        0.9244072437286377,
        45.55618152022362,
        298.4
      ],
      [
        0.9243274480104446,
        45.55628755129874,
        298.6
      ],
      [
        0.9242366719990969,
        45.55643540807068,
        298.20000000000005
      ],
      [
        0.924297608435154,
        45.55650757625699,
        298.20000000000005
      ],
      [
        0.9243296273052692,
        45.55650933645666,
        298.20000000000005
      ],
      [
        0.9244582056999207,
        45.55651185102761,
        298
      ],
      [
        0.9246158692985773,
        45.556482933461666,
        297.79999999999995
      ],
      [
        0.9247405920177698,
        45.556459464132786,
        297.79999999999995
      ],
      [
        0.9248270932585001,
        45.55644806474447,
        297.79999999999995
      ],
      [
        0.9249509777873755,
        45.55643331259489,
        297.79999999999995
      ],
      [
        0.9251242317259312,
        45.55641244165599,
        298.4
      ],
      [
        0.9252360463142395,
        45.556406155228615,
        298.4
      ],
      [
        0.9253036044538021,
        45.55640623904765,
        298.4
      ],
      [
        0.9254295844584703,
        45.556401209905744,
        298.20000000000005
      ],
      [
        0.9255699813365936,
        45.55639224126935,
        298.4
      ],
      [
        0.9257697220891714,
        45.55637849494815,
        298.6
      ],
      [
        0.9258622583001852,
        45.55637673474848,
        298.6
      ],
      [
        0.925920931622386,
        45.556379752233624,
        298.4
      ],
      [
        0.9261027351021767,
        45.55641428567469,
        299.4
      ],
      [
        0.9261595644056797,
        45.55652257986367,
        299.6
      ],
      [
        0.926161240786314,
        45.55654177442193,
        299.6
      ],
      [
        0.9261591453105211,
        45.55664177052677,
        299.6
      ],
      [
        0.9261474944651127,
        45.55675886571407,
        300
      ],
      [
        0.9261262882500887,
        45.556869423016906,
        300.20000000000005
      ],
      [
        0.926115894690156,
        45.55695324204862,
        299.79999999999995
      ],
      [
        0.9260968677699566,
        45.55706329643726,
        300
      ],
      [
        0.9260936826467514,
        45.5571545753628,
        300
      ],
      [
        0.9261054173111916,
        45.5572600197047,
        299.6
      ],
      [
        0.926093515008688,
        45.55735968053341,
        299.4
      ],
      [
        0.9260520245879889,
        45.55748398415744,
        300
      ],
      [
        0.9260272979736328,
        45.55753159336746,
        300
      ],
      [
        0.9259930998086929,
        45.55758750066161,
        299.79999999999995
      ],
      [
        0.9259219374507666,
        45.55775849148631,
        299
      ],
      [
        0.925912382081151,
        45.55785111151636,
        299
      ],
      [
        0.9259086102247238,
        45.55787952616811,
        299
      ],
      [
        0.9258710592985153,
        45.558043979108334,
        299.79999999999995
      ],
      [
        0.9258001483976841,
        45.55822913534939,
        300
      ],
      [
        0.9257476776838303,
        45.55836274288595,
        299.79999999999995
      ],
      [
        0.9258082788437605,
        45.55840532295406,
        299.4
      ],
      [
        0.9258230309933424,
        45.558399874717,
        299.4
      ],
      [
        0.9258301556110382,
        45.55840482003987,
        299.6
      ],
      [
        0.9258351847529411,
        45.55840766988695,
        299.6
      ],
      [
        0.9258983843028545,
        45.558441365137696,
        299.6
      ],
      [
        0.9259604103863239,
        45.55854907259345,
        299.79999999999995
      ],
      [
        0.9260332491248846,
        45.55863783694804,
        300.6
      ],
      [
        0.9260511863976717,
        45.55867522023618,
        301.20000000000005
      ],
      [
        0.9260730631649494,
        45.55873456411064,
        301.6
      ],
      [
        0.9260798525065184,
        45.55874629877508,
        301.79999999999995
      ],
      [
        0.926110278815031,
        45.558786280453205,
        302
      ],
      [
        0.9261453151702881,
        45.558858616277575,
        302.4
      ],
      [
        0.9261775016784668,
        45.55889926850796,
        302.20000000000005
      ],
      [
        0.9262360911816359,
        45.55893807671964,
        302.20000000000005
      ],
      [
        0.9263649210333824,
        45.55895073339343,
        301.6
      ],
      [
        0.9264075849205256,
        45.55894964374602,
        301.20000000000005
      ],
      [
        0.9264618158340454,
        45.558947548270226,
        300.6
      ],
      [
        0.9266250114887953,
        45.55892961099744,
        301
      ],
      [
        0.926833301782608,
        45.558928521350026,
        301.6
      ],
      [
        0.9268552623689175,
        45.55893103592098,
        301.6
      ],
      [
        0.9270831663161516,
        45.558934807777405,
        301.79999999999995
      ],
      [
        0.92734987847507,
        45.558936735615134,
        301.4
      ],
      [
        0.9273719228804111,
        45.55893648415804,
        301.4
      ],
      [
        0.9276340249925852,
        45.558932377025485,
        301.4
      ],
      [
        0.9276557341217995,
        45.55893053300679,
        301.4
      ],
      [
        0.9278562292456627,
        45.55893313139677,
        301.6
      ],
      [
        0.9280248731374741,
        45.558948973193765,
        301.6
      ],
      [
        0.9282210934907198,
        45.5589453689754,
        301.4
      ],
      [
        0.9284806810319424,
        45.558948470279574,
        301
      ],
      [
        0.9286925755441189,
        45.55894813500345,
        301
      ],
      [
        0.928953755646944,
        45.55894184857607,
        300.79999999999995
      ],
      [
        0.9290037956088781,
        45.55890521965921,
        300.4
      ],
      [
        0.9290009457617998,
        45.558888455852866,
        300.4
      ],
      [
        0.9289903845638037,
        45.55887219496071,
        300.20000000000005
      ],
      [
        0.9289183001965284,
        45.55877496488392,
        299.6
      ],
      [
        0.9288095030933619,
        45.55869089439511,
        300.4
      ],
      [
        0.9287468902766705,
        45.55859249085188,
        301
      ],
      [
        0.9287302941083908,
        45.55856022052467,
        301.6
      ],
      [
        0.9287001192569733,
        45.55849324911833,
        302
      ],
      [
        0.9286606404930353,
        45.55840238928795,
        302.4
      ],
      [
        0.9286520909518003,
        45.55838822387159,
        302.4
      ],
      [
        0.928600374609232,
        45.55830901488662,
        302.6
      ],
      [
        0.9285625722259283,
        45.55819150060415,
        303.4
      ],
      [
        0.928538516163826,
        45.55812670849264,
        303.6
      ],
      [
        0.9285186510533094,
        45.55807985365391,
        303.6
      ],
      [
        0.9284872189164162,
        45.558007434010506,
        303.6
      ],
      [
        0.9284690301865339,
        45.55801698938012,
        303.4
      ],
      [
        0.9284214209765196,
        45.55803048424423,
        303.20000000000005
      ],
      [
        0.928422175347805,
        45.558024030178785,
        303.4
      ],
      [
        0.9284191578626633,
        45.55803023278713,
        303.20000000000005
      ],
      [
        0.928417481482029,
        45.558003913611174,
        303
      ],
      [
        0.9284565411508083,
        45.55798161774874,
        303
      ],
      [
        0.9284798428416252,
        45.55792638100684,
        303.4
      ],
      [
        0.9284885600209236,
        45.5578279774636,
        302.79999999999995
      ],
      [
        0.9284518472850323,
        45.5577106308192,
        302.79999999999995
      ],
      [
        0.9284402802586555,
        45.557688334956765,
        302.6
      ],
      [
        0.9284419566392899,
        45.557636031880975,
        302.20000000000005
      ],
      [
        0.9284296352416277,
        45.55752153508365,
        301.6
      ],
      [
        0.9284268692135811,
        45.55748054757714,
        301.4
      ],
      [
        0.9284201636910439,
        45.557437129318714,
        301.4
      ],
      [
        0.9284208342432976,
        45.55742371827364,
        301.4
      ],
      [
        0.9284752327948809,
        45.55726354010403,
        301.6
      ],
      [
        0.9285222552716732,
        45.55717879906297,
        302
      ],
      [
        0.9285808447748423,
        45.55707913823426,
        302.4
      ],
      [
        0.9285926632583141,
        45.55706421844661,
        302.6
      ],
      [
        0.9286149591207504,
        45.55703706108034,
        302.6
      ],
      [
        0.92869165353477,
        45.55695860646665,
        302.79999999999995
      ],
      [
        0.9287979360669851,
        45.55685726925731,
        303
      ],
      [
        0.9289043862372637,
        45.55676003918052,
        303
      ],
      [
        0.9290008619427681,
        45.556643614545465,
        303.20000000000005
      ],
      [
        0.9290878660976887,
        45.556531297042966,
        303
      ],
      [
        0.9291767980903387,
        45.55645233951509,
        303.4
      ],
      [
        0.9292909596115351,
        45.55639182217419,
        303.4
      ],
      [
        0.9294025227427483,
        45.556355277076364,
        303.6
      ],
      [
        0.9294659737497568,
        45.55633759126067,
        304
      ],
      [
        0.9295057039707899,
        45.55632862262428,
        304.20000000000005
      ],
      [
        0.9296233020722866,
        45.556272715330124,
        304.6
      ],
      [
        0.9296356234699488,
        45.556259639561176,
        304.79999999999995
      ],
      [
        0.9296797122806311,
        45.556137431412935,
        304.79999999999995
      ],
      [
        0.9296937938779593,
        45.55603953078389,
        304.6
      ],
      [
        0.9297445043921471,
        45.555908270180225,
        304.20000000000005
      ],
      [
        0.9298128169029951,
        45.55582554079592,
        303.79999999999995
      ],
      [
        0.9298490267246962,
        45.555791007354856,
        303.6
      ],
      [
        0.929935360327363,
        45.555723030120134,
        303.4
      ],
      [
        0.9301041718572378,
        45.555625297129154,
        303.79999999999995
      ],
      [
        0.9302898310124874,
        45.55549722164869,
        303.4
      ],
      [
        0.9304677788168192,
        45.55539144203067,
        303.4
      ],
      [
        0.9305739775300026,
        45.555303264409304,
        303.20000000000005
      ],
      [
        0.9306616522371769,
        45.555218858644366,
        302.6
      ],
      [
        0.9307493269443512,
        45.55515021085739,
        302.4
      ],
      [
        0.9307611454278231,
        45.55513948202133,
        302.4
      ],
      [
        0.9308031387627125,
        45.55508902296424,
        302.6
      ],
      [
        0.9308268595486879,
        45.5550376418978,
        302.79999999999995
      ],
      [
        0.9308457188308239,
        45.55492649786174,
        302.6
      ],
      [
        0.930829206481576,
        45.554814180359244,
        302.4
      ],
      [
        0.9307802561670542,
        45.55469440296292,
        302.4
      ],
      [
        0.9306665975600481,
        45.55458962917328,
        302.4
      ],
      [
        0.9305437188595533,
        45.55450572632253,
        303
      ],
      [
        0.9304390288889408,
        45.55444361642003,
        303
      ],
      [
        0.9304361790418625,
        45.55436407215893,
        303.20000000000005
      ],
      [
        0.9304477460682392,
        45.554352505132556,
        303.20000000000005
      ],
      [
        0.9305938426405191,
        45.55427388288081,
        303.6
      ],
      [
        0.9306494984775782,
        45.55418352596462,
        303
      ],
      [
        0.9306202456355095,
        45.55409912019968,
        302.6
      ],
      [
        0.9306260291486979,
        45.55407606996596,
        302.4
      ],
      [
        0.9306266997009516,
        45.55405452847481,
        302.20000000000005
      ],
      [
        0.9306279569864273,
        45.554060228168964,
        302.20000000000005
      ],
      [
        0.9306320641189814,
        45.554060814902186,
        302
      ],
      [
        0.9306215867400169,
        45.554053355008364,
        301.6
      ],
      [
        0.9306222572922707,
        45.5540513433516,
        301.6
      ],
      [
        0.9306182339787483,
        45.55404664948583,
        301.4
      ],
      [
        0.9306697826832533,
        45.55403466336429,
        301.20000000000005
      ],
      [
        0.9307023044675589,
        45.55402343161404,
        301.20000000000005
      ],
      [
        0.9307534340769053,
        45.554003063589334,
        301.20000000000005
      ],
      [
        0.9307710360735655,
        45.55399836972356,
        301.20000000000005
      ],
      [
        0.9308252669870853,
        45.55398914963007,
        301.4
      ],
      [
        0.9308470599353313,
        45.55398663505912,
        301.4
      ],
      [
        0.9308907296508551,
        45.5539839528501,
        301.4
      ],
      [
        0.9310115966945887,
        45.5539807677269,
        301
      ],
      [
        0.9310290310531855,
        45.553980097174644,
        301
      ],
      [
        0.9311670809984207,
        45.553970793262124,
        301
      ],
      [
        0.931328097358346,
        45.553950257599354,
        301.20000000000005
      ],
      [
        0.931503027677536,
        45.55392092093825,
        301.4
      ],
      [
        0.931673850864172,
        45.55391329340637,
        301.4
      ],
      [
        0.9318523854017258,
        45.55392921902239,
        301.79999999999995
      ],
      [
        0.9320212807506323,
        45.55395293980837,
        301.79999999999995
      ],
      [
        0.9321450814604759,
        45.553997699171305,
        301.6
      ],
      [
        0.9321755077689886,
        45.554022174328566,
        301.79999999999995
      ],
      [
        0.9322448261082172,
        45.554111525416374,
        302
      ],
      [
        0.9322573151439428,
        45.55413759313524,
        302.20000000000005
      ],
      [
        0.9323248732835054,
        45.554244043305516,
        302.4
      ],
      [
        0.9323519468307495,
        45.554280085489154,
        302.6
      ],
      [
        0.9323920961469412,
        45.55436264723539,
        303
      ],
      [
        0.9324579779058695,
        45.55450254119933,
        303.6
      ],
      [
        0.9324666112661362,
        45.554526932537556,
        303.79999999999995
      ],
      [
        0.9324912540614605,
        45.55460597388446,
        303.79999999999995
      ],
      [
        0.9325376898050308,
        45.554739413782954,
        304
      ],
      [
        0.9325863886624575,
        45.55486883036792,
        304.20000000000005
      ],
      [
        0.9326435532420874,
        45.5549010168761,
        304
      ],
      [
        0.9327095188200474,
        45.55490051396191,
        303.79999999999995
      ],
      [
        0.9328101016581059,
        45.55485248565674,
        303.20000000000005
      ],
      [
        0.9328264463692904,
        45.554819041863084,
        303
      ],
      [
        0.9328547772020102,
        45.55476497858763,
        303
      ],
      [
        0.9328650869429111,
        45.554747292771935,
        303
      ],
      [
        0.9328750614076853,
        45.5547318700701,
        303.20000000000005
      ],
      [
        0.9328952617943287,
        45.554681830108166,
        303
      ],
      [
        0.932918144389987,
        45.55454663001001,
        303
      ],
      [
        0.9329115226864815,
        45.55448309518397,
        302.6
      ],
      [
        0.9329009614884853,
        45.554403802379966,
        302.79999999999995
      ],
      [
        0.9328932501375675,
        45.55427857674658,
        303.6
      ],
      [
        0.9328885562717915,
        45.554189309477806,
        303.4
      ],
      [
        0.9328709542751312,
        45.55406098254025,
        303
      ],
      [
        0.9328767377883196,
        45.55393340997398,
        302.79999999999995
      ],
      [
        0.9328610636293888,
        45.55380751378834,
        302.4
      ],
      [
        0.9328585490584373,
        45.55373132228851,
        302.6
      ],
      [
        0.9329607244580984,
        45.55369838140905,
        303
      ],
      [
        0.9331305418163538,
        45.553701147437096,
        303.6
      ],
      [
        0.9331556875258684,
        45.553703578189015,
        303.79999999999995
      ],
      [
        0.9333234094083309,
        45.55369301699102,
        304.4
      ],
      [
        0.9334524907171726,
        45.55368589237332,
        304.79999999999995
      ],
      [
        0.933581655845046,
        45.55367901921272,
        304.6
      ],
      [
        0.9336229786276817,
        45.55367792956531,
        304.79999999999995
      ],
      [
        0.9337270818650723,
        45.55367692373693,
        304
      ],
      [
        0.9338370524346828,
        45.55366703309119,
        303.79999999999995
      ],
      [
        0.9339108131825924,
        45.55367147549987,
        303.4
      ],
      [
        0.9340901859104633,
        45.55372319184244,
        303.4
      ],
      [
        0.9342520404607058,
        45.55379913188517,
        303.20000000000005
      ],
      [
        0.9342996496707201,
        45.553819332271814,
        303.20000000000005
      ],
      [
        0.9344825427979231,
        45.5538734793663,
        302.79999999999995
      ],
      [
        0.9346728958189487,
        45.55388328619301,
        302.6
      ],
      [
        0.9347233548760414,
        45.553880436345935,
        302.4
      ],
      [
        0.9348532743752003,
        45.55383576080203,
        302
      ],
      [
        0.9349430445581675,
        45.55373274721205,
        302
      ],
      [
        0.9349523484706879,
        45.55364917963743,
        301.6
      ],
      [
        0.9349656756967306,
        45.55359059013426,
        301.20000000000005
      ],
      [
        0.9349963534623384,
        45.553477266803384,
        300.79999999999995
      ],
      [
        0.935034491121769,
        45.55336092598736,
        300.6
      ],
      [
        0.9350557811558247,
        45.55330317467451,
        300.4
      ],
      [
        0.9350650012493134,
        45.55327425710857,
        300.4
      ],
      [
        0.9351297095417976,
        45.55308650247753,
        300
      ],
      [
        0.935135493054986,
        45.553070828318596,
        299.79999999999995
      ],
      [
        0.935185868293047,
        45.55293085053563,
        299.6
      ],
      [
        0.9351965971291065,
        45.552887097001076,
        299.4
      ],
      [
        0.9352988563477993,
        45.55281300097704,
        298.4
      ],
      [
        0.9354858566075563,
        45.552734127268195,
        297.4
      ],
      [
        0.9356111660599709,
        45.55269364267588,
        297.20000000000005
      ],
      [
        0.9356433525681496,
        45.55268266238272,
        297.20000000000005
      ],
      [
        0.9357281774282455,
        45.55265718139708,
        297.6
      ],
      [
        0.935765728354454,
        45.55264066904783,
        298
      ],
      [
        0.9358653891831636,
        45.55260722525418,
        298.4
      ],
      [
        0.9359436761587858,
        45.55258501321077,
        298.79999999999995
      ],
      [
        0.9360602684319019,
        45.55251753889024,
        299.6
      ],
      [
        0.9360790438950062,
        45.5525042116642,
        299.79999999999995
      ],
      [
        0.936144758015871,
        45.55245936848223,
        300.6
      ],
      [
        0.9361782856285572,
        45.552428271621466,
        301
      ],
      [
        0.936312060803175,
        45.55232970044017,
        301.6
      ],
      [
        0.9363953769207001,
        45.55226138792932,
        301.4
      ],
      [
        0.9364309161901474,
        45.55224412120879,
        301.20000000000005
      ],
      [
        0.9365876577794552,
        45.55223104543984,
        301
      ],
      [
        0.9367348439991474,
        45.552267422899604,
        301
      ],
      [
        0.9369150549173355,
        45.55230841040611,
        301.20000000000005
      ],
      [
        0.9370706230401993,
        45.55237672291696,
        301.20000000000005
      ],
      [
        0.9371774084866047,
        45.55246766656637,
        301.20000000000005
      ],
      [
        0.937269777059555,
        45.552545534446836,
        301.20000000000005
      ],
      [
        0.9374069888144732,
        45.55266606621444,
        301.4
      ],
      [
        0.9375240001827478,
        45.552780060097575,
        301.20000000000005
      ],
      [
        0.9376136027276516,
        45.55288676172495,
        301
      ],
      [
        0.9376934822648764,
        45.55296747945249,
        301
      ],
      [
        0.9377918019890785,
        45.553056579083204,
        301
      ],
      [
        0.9379362221807241,
        45.553108965978026,
        301
      ],
      [
        0.9381104819476604,
        45.55313444696367,
        300.79999999999995
      ],
      [
        0.9382963925600052,
        45.55315397679806,
        300.79999999999995
      ],
      [
        0.9384487755596638,
        45.55316403508186,
        301.20000000000005
      ],
      [
        0.9386121388524771,
        45.5532037653029,
        301
      ],
      [
        0.9386884979903698,
        45.553253469988704,
        300.79999999999995
      ],
      [
        0.9387114644050598,
        45.55327534675598,
        300.79999999999995
      ],
      [
        0.9388071019202471,
        45.553384479135275,
        300.4
      ],
      [
        0.9388174954801798,
        45.55339629761875,
        300.4
      ],
      [
        0.9388840477913618,
        45.55346159264445,
        300.4
      ],
      [
        0.9389048349112272,
        45.553485564887524,
        300.4
      ],
      [
        0.9389221854507923,
        45.55351037532091,
        300.4
      ],
      [
        0.9389562159776688,
        45.55360592901707,
        300.20000000000005
      ],
      [
        0.9389659389853477,
        45.553729478269815,
        300.20000000000005
      ],
      [
        0.938997371122241,
        45.553832575678825,
        300.20000000000005
      ],
      [
        0.9390126261860132,
        45.55393542163074,
        300.20000000000005
      ],
      [
        0.9390169009566307,
        45.55394908413291,
        300.20000000000005
      ],
      [
        0.939050680026412,
        45.55406433530152,
        300
      ],
      [
        0.9390486683696508,
        45.55404840968549,
        300
      ],
      [
        0.9390469919890165,
        45.554034328088164,
        300
      ],
      [
        0.9390469081699848,
        45.55402737110853,
        299.79999999999995
      ],
      [
        0.939048333093524,
        45.55403801612556,
        299.79999999999995
      ],
      [
        0.9390646778047085,
        45.55412552319467,
        299.6
      ],
      [
        0.9390651807188988,
        45.55413859896362,
        299.6
      ],
      [
        0.9390654321759939,
        45.55422870442271,
        299.4
      ],
      [
        0.9390775859355927,
        45.55434303358197,
        299.4
      ],
      [
        0.9390813577920198,
        45.55435988120735,
        299.4
      ],
      [
        0.9391013905405998,
        45.554440431296825,
        299.6
      ],
      [
        0.9391035698354244,
        45.554509330540895,
        299.6
      ],
      [
        0.9391067549586296,
        45.554550401866436,
        299.4
      ],
      [
        0.9391201660037041,
        45.55458091199398,
        299.4
      ],
      [
        0.9391552861779928,
        45.5546110868454,
        299.4
      ],
      [
        0.9391843713819981,
        45.55462013930082,
        299.4
      ],
      [
        0.9393071662634611,
        45.554586024954915,
        299.6
      ],
      [
        0.9393760655075312,
        45.55451737716794,
        299.20000000000005
      ],
      [
        0.9394207410514355,
        45.554471695795655,
        299.20000000000005
      ],
      [
        0.9395025484263897,
        45.55435845628381,
        299
      ],
      [
        0.9395677596330643,
        45.554250832647085,
        298.6
      ],
      [
        0.9395923186093569,
        45.55420615710318,
        298.4
      ],
      [
        0.9396261814981699,
        45.55412979796529,
        298.4
      ],
      [
        0.9396611340343952,
        45.55403005331755,
        297.79999999999995
      ],
      [
        0.9396649058908224,
        45.55401421152055,
        297.6
      ],
      [
        0.9397216513752937,
        45.55394330061972,
        298.20000000000005
      ],
      [
        0.9397302847355604,
        45.55392963811755,
        298.4
      ],
      [
        0.9397970046848059,
        45.553825199604034,
        297.79999999999995
      ],
      [
        0.9398538339883089,
        45.55370877496898,
        298.6
      ],
      [
        0.9399179555475712,
        45.553639037534595,
        299.4
      ],
      [
        0.9399543330073357,
        45.55360282771289,
        299.6
      ],
      [
        0.9400424268096685,
        45.55353719741106,
        299.79999999999995
      ],
      [
        0.9401824045926332,
        45.55350341834128,
        299.4
      ],
      [
        0.9402058739215136,
        45.5535005684942,
        299.6
      ],
      [
        0.9404300898313522,
        45.55349503643811,
        299.4
      ],
      [
        0.940595380961895,
        45.55352697148919,
        299.4
      ],
      [
        0.9407804533839226,
        45.55357818491757,
        299
      ],
      [
        0.9408322535455227,
        45.55359687656164,
        298.79999999999995
      ],
      [
        0.9409038349986076,
        45.55361699312925,
        298.79999999999995
      ],
      [
        0.940975584089756,
        45.55364700034261,
        298.79999999999995
      ],
      [
        0.9411956928670406,
        45.55373148992658,
        299
      ],
      [
        0.9413877222687006,
        45.5538150575012,
        299.20000000000005
      ],
      [
        0.9415329806506634,
        45.55388320237398,
        299.79999999999995
      ],
      [
        0.9416171349585056,
        45.553922932595015,
        299.6
      ],
      [
        0.9416898898780346,
        45.55395847186446,
        299.6
      ],
      [
        0.9417076595127583,
        45.55396718904376,
        299.6
      ],
      [
        0.9419164527207613,
        45.55404581129551,
        299.20000000000005
      ],
      [
        0.942049054428935,
        45.55407011881471,
        299.20000000000005
      ],
      [
        0.9421083144843578,
        45.5540825240314,
        299.4
      ],
      [
        0.9423287585377693,
        45.554088139906526,
        299.4
      ],
      [
        0.942496731877327,
        45.554084116593,
        299.20000000000005
      ],
      [
        0.942734107375145,
        45.55408587679267,
        299
      ],
      [
        0.9429540485143661,
        45.55410557426512,
        299
      ],
      [
        0.9430893324315548,
        45.554136503487825,
        298.79999999999995
      ],
      [
        0.9432105347514153,
        45.55416651070118,
        298.79999999999995
      ],
      [
        0.9433210920542479,
        45.55418184958398,
        298.4
      ],
      [
        0.943364929407835,
        45.5541877169162,
        298.4
      ],
      [
        0.943567268550396,
        45.554196098819375,
        299.4
      ],
      [
        0.943635581061244,
        45.55419425480068,
        299.6
      ],
      [
        0.9436993673443794,
        45.55419693700969,
        299.79999999999995
      ],
      [
        0.9437781572341919,
        45.554202888160944,
        300
      ],
      [
        0.9438285324722528,
        45.554208839312196,
        300
      ],
      [
        0.9438675921410322,
        45.55422568693757,
        300
      ],
      [
        0.9439270198345184,
        45.55427170358598,
        300.20000000000005
      ],
      [
        0.9439726173877716,
        45.55437211878598,
        300.20000000000005
      ],
      [
        0.9439856093376875,
        45.55442559532821,
        300.20000000000005
      ],
      [
        0.9439887944608927,
        45.55448108352721,
        300.4
      ],
      [
        0.9440026246011257,
        45.55458183400333,
        300.4
      ],
      [
        0.9440108388662338,
        45.55461309850216,
        300.6
      ],
      [
        0.9440459590405226,
        45.554735474288464,
        300.6
      ],
      [
        0.9440839290618896,
        45.55482314899564,
        300.4
      ],
      [
        0.9441060572862625,
        45.55489523336291,
        300.20000000000005
      ],
      [
        0.9441510681062937,
        45.555008221417665,
        300
      ],
      [
        0.9442192129790783,
        45.555143002420664,
        300.20000000000005
      ],
      [
        0.9442323725670576,
        45.555170327425,
        300.20000000000005
      ],
      [
        0.9442422632128,
        45.55519899353385,
        300.4
      ],
      [
        0.9442854300141335,
        45.555305276066065,
        300.6
      ],
      [
        0.944352401420474,
        45.55547936819494,
        301
      ],
      [
        0.9443553350865841,
        45.55549554526806,
        301
      ],
      [
        0.9443384874612093,
        45.55563594214618,
        301
      ],
      [
        0.9442833345383406,
        45.55573929101229,
        301.20000000000005
      ],
      [
        0.9441853500902653,
        45.555828558281064,
        301.4
      ],
      [
        0.9441360644996166,
        45.55585831403732,
        301.6
      ],
      [
        0.9440430253744125,
        45.5558939371258,
        301.79999999999995
      ],
      [
        0.9439753834158182,
        45.555977588519454,
        302.20000000000005
      ],
      [
        0.9439867828041315,
        45.555991334840655,
        302.4
      ],
      [
        0.9440064802765846,
        45.55599728599191,
        302.4
      ],
      [
        0.9441068954765797,
        45.55600717663765,
        302.20000000000005
      ],
      [
        0.944259949028492,
        45.55599099956453,
        301.20000000000005
      ],
      [
        0.9444090630859137,
        45.55596384219825,
        301.6
      ],
      [
        0.9444679040461779,
        45.55595654994249,
        301.4
      ],
      [
        0.94458625651896,
        45.55593106895685,
        301.4
      ],
      [
        0.9447646234184504,
        45.55587021633983,
        301.6
      ],
      [
        0.944923460483551,
        45.5557903368026,
        301.6
      ],
      [
        0.9450216125696898,
        45.5557057633996,
        301.6
      ],
      [
        0.9451103769242764,
        45.55562697350979,
        301.4
      ],
      [
        0.9452077746391296,
        45.55554055608809,
        301.6
      ],
      [
        0.945339621976018,
        45.55547492578626,
        301.6
      ],
      [
        0.9454792644828558,
        45.555407954379916,
        301.6
      ],
      [
        0.945623517036438,
        45.555329248309135,
        301.6
      ],
      [
        0.9457405284047127,
        45.55524752475321,
        301.79999999999995
      ],
      [
        0.9458132833242416,
        45.555144594982266,
        302.20000000000005
      ],
      [
        0.945753687992692,
        45.55505381897092,
        302.6
      ],
      [
        0.9456745628267527,
        45.55496538989246,
        302.6
      ],
      [
        0.9456560388207436,
        45.55495013482869,
        302.6
      ],
      [
        0.9455253649502993,
        45.554847959429026,
        302.79999999999995
      ],
      [
        0.9454359300434589,
        45.55477813817561,
        302.79999999999995
      ],
      [
        0.9453912544995546,
        45.55470194667578,
        303
      ],
      [
        0.9453803580254316,
        45.55462776683271,
        302.79999999999995
      ],
      [
        0.9454266261309385,
        45.55451477877796,
        303
      ],
      [
        0.9454454854130745,
        45.55437237024307,
        302.6
      ],
      [
        0.9454710502177477,
        45.55427832528949,
        302.4
      ],
      [
        0.9454878140240908,
        45.55419886484742,
        302.6
      ],
      [
        0.9455010574311018,
        45.55412108078599,
        302.6
      ],
      [
        0.9455308131873608,
        45.55405947379768,
        302
      ],
      [
        0.9456531889736652,
        45.55395151488483,
        302
      ],
      [
        0.9457165561616421,
        45.55391304194927,
        301.79999999999995
      ],
      [
        0.9457830246537924,
        45.55386928841472,
        301.6
      ],
      [
        0.9458015486598015,
        45.553858894854784,
        301.4
      ],
      [
        0.945860892534256,
        45.553813967853785,
        301.4
      ],
      [
        0.945983687415719,
        45.55375353433192,
        300.79999999999995
      ],
      [
        0.9460141137242317,
        45.553732411935925,
        300.6
      ],
      [
        0.9461381658911705,
        45.55363425984979,
        300
      ],
      [
        0.9462246671319008,
        45.55356393568218,
        300
      ],
      [
        0.9463853482156992,
        45.55340970866382,
        300.20000000000005
      ],
      [
        0.946428682655096,
        45.553282806649804,
        301
      ],
      [
        0.9464026987552643,
        45.55323486216366,
        301.6
      ],
      [
        0.946360370144248,
        45.55319999344647,
        301.79999999999995
      ],
      [
        0.9463418461382389,
        45.553189096972346,
        301.79999999999995
      ],
      [
        0.9461670834571123,
        45.55305649526417,
        302.4
      ],
      [
        0.9461554326117039,
        45.55304819718003,
        302.20000000000005
      ],
      [
        0.9459952544420958,
        45.55295675061643,
        302.4
      ],
      [
        0.9458572883158922,
        45.55288500152528,
        302.4
      ],
      [
        0.9458211623132229,
        45.55286295711994,
        302.4
      ],
      [
        0.9456899855285883,
        45.55279213003814,
        302.20000000000005
      ],
      [
        0.9455224312841892,
        45.55276991799474,
        302.20000000000005
      ],
      [
        0.9454420488327742,
        45.552775701507926,
        302
      ],
      [
        0.945367282256484,
        45.552783999592066,
        301.4
      ],
      [
        0.9451537951827049,
        45.552844600751996,
        300.79999999999995
      ],
      [
        0.9449795354157686,
        45.552928084507585,
        301.4
      ],
      [
        0.9448180161416531,
        45.55293914861977,
        301.6
      ],
      [
        0.9446468576788902,
        45.5529513861984,
        302.20000000000005
      ],
      [
        0.9444805607199669,
        45.552945267409086,
        302.6
      ],
      [
        0.9443928021937609,
        45.55294090881944,
        303
      ],
      [
        0.9443182870745659,
        45.552935460582376,
        303
      ],
      [
        0.9441505651921034,
        45.55294501595199,
        303
      ],
      [
        0.9439507406204939,
        45.55294300429523,
        303.4
      ],
      [
        0.9437438752502203,
        45.552953984588385,
        303.6
      ],
      [
        0.943718058988452,
        45.552953062579036,
        303.6
      ],
      [
        0.9435652568936348,
        45.55293629877269,
        303.79999999999995
      ],
      [
        0.943389069288969,
        45.55293814279139,
        303.6
      ],
      [
        0.9431996382772923,
        45.55292213335633,
        303
      ],
      [
        0.9430109616369009,
        45.55288977921009,
        303
      ],
      [
        0.9428818803280592,
        45.55286731570959,
        303
      ],
      [
        0.9427931997925043,
        45.55284225381911,
        303
      ],
      [
        0.9426985681056976,
        45.552824484184384,
        303.20000000000005
      ],
      [
        0.9426175151020288,
        45.55280730128288,
        303.4
      ],
      [
        0.9424040280282497,
        45.552751729264855,
        303.79999999999995
      ],
      [
        0.9422299358993769,
        45.55269967764616,
        304.4
      ],
      [
        0.9421186242252588,
        45.55265357717872,
        304.4
      ],
      [
        0.9420814085751772,
        45.55263924412429,
        304.4
      ],
      [
        0.9419441968202591,
        45.55258484557271,
        303.79999999999995
      ],
      [
        0.9418397583067417,
        45.55252684280276,
        303.20000000000005
      ],
      [
        0.9417557716369629,
        45.55246842093766,
        303.20000000000005
      ],
      [
        0.9417431149631739,
        45.55245492607355,
        303.20000000000005
      ],
      [
        0.9417031332850456,
        45.552432127296925,
        303.20000000000005
      ],
      [
        0.941668851301074,
        45.55241385474801,
        303.20000000000005
      ],
      [
        0.9415537677705288,
        45.55235920473933,
        303.4
      ],
      [
        0.9414510056376457,
        45.552295753732324,
        303.79999999999995
      ],
      [
        0.9413365088403225,
        45.552200032398105,
        304.20000000000005
      ],
      [
        0.9411950223147869,
        45.55212551727891,
        304.4
      ],
      [
        0.9411425516009331,
        45.55210120975971,
        304.4
      ],
      [
        0.9410457406193018,
        45.55204161442816,
        304.6
      ],
      [
        0.9408966265618801,
        45.55196299217641,
        304.4
      ],
      [
        0.9407374542206526,
        45.551879508420825,
        304.4
      ],
      [
        0.9406102169305086,
        45.55181731469929,
        304.4
      ],
      [
        0.9404726698994637,
        45.55176987312734,
        304.4
      ],
      [
        0.9403580892831087,
        45.551734920591116,
        304.20000000000005
      ],
      [
        0.9402469452470541,
        45.55167851038277,
        303.4
      ],
      [
        0.9400956518948078,
        45.55163039825857,
        303.6
      ],
      [
        0.939923906698823,
        45.55156258866191,
        304
      ],
      [
        0.9398116730153561,
        45.55152595974505,
        304.79999999999995
      ],
      [
        0.9397621359676123,
        45.55149796418846,
        305.4
      ],
      [
        0.93972098082304,
        45.55147424340248,
        306
      ],
      [
        0.9396255947649479,
        45.55142428725958,
        306.79999999999995
      ],
      [
        0.9396071545779705,
        45.551417330279946,
        307
      ],
      [
        0.9395745489746332,
        45.55140710435808,
        307.20000000000005
      ],
      [
        0.9395240060985088,
        45.55139109492302,
        307.6
      ],
      [
        0.9394882991909981,
        45.55137558840215,
        307.79999999999995
      ],
      [
        0.9394602198153734,
        45.55136066861451,
        308
      ],
      [
        0.9394202381372452,
        45.55133837275207,
        307.79999999999995
      ],
      [
        0.9392624907195568,
        45.55126067250967,
        307.20000000000005
      ],
      [
        0.9391209203749895,
        45.55120401084423,
        306.4
      ],
      [
        0.9390821121633053,
        45.55118196643889,
        306
      ],
      [
        0.9389853850007057,
        45.55115547962487,
        305.20000000000005
      ],
      [
        0.9389485884457827,
        45.55114533752203,
        304.79999999999995
      ],
      [
        0.9388291463255882,
        45.55113402195275,
        304.4
      ],
      [
        0.9387357719242573,
        45.55112924426794,
        304.4
      ],
      [
        0.9386677946895361,
        45.551128908991814,
        304.6
      ],
      [
        0.9386449120938778,
        45.55113108828664,
        304.6
      ],
      [
        0.9385843947529793,
        45.55113662034273,
        304.6
      ],
      [
        0.9384445007890463,
        45.55113226175308,
        305
      ],
      [
        0.938264625146985,
        45.551124550402164,
        305.4
      ],
      [
        0.9381220489740372,
        45.55111960507929,
        305.4
      ],
      [
        0.937961284071207,
        45.55109739303589,
        305.20000000000005
      ],
      [
        0.937806973233819,
        45.551048358902335,
        305
      ],
      [
        0.9377681650221348,
        45.551035115495324,
        305
      ],
      [
        0.9375841822475195,
        45.55095884017646,
        304.6
      ],
      [
        0.9374523349106312,
        45.55090880021453,
        304.4
      ],
      [
        0.9373319707810879,
        45.550836799666286,
        303.79999999999995
      ],
      [
        0.9372367523610592,
        45.55075583048165,
        304
      ],
      [
        0.9371251054108143,
        45.55064988322556,
        304.20000000000005
      ],
      [
        0.9370286297053099,
        45.55053111165762,
        304.4
      ],
      [
        0.937010021880269,
        45.55051610805094,
        304.4
      ],
      [
        0.9368693735450506,
        45.5504509806633,
        305
      ],
      [
        0.9367366041988134,
        45.55047880858183,
        305
      ],
      [
        0.9366993047297001,
        45.5504922196269,
        305
      ],
      [
        0.9365631826221943,
        45.55054829455912,
        304.6
      ],
      [
        0.936457235366106,
        45.55055835284293,
        304.6
      ],
      [
        0.9364202711731195,
        45.550553910434246,
        304.6
      ],
      [
        0.9361950494349003,
        45.550518706440926,
        304.20000000000005
      ],
      [
        0.9361353702843189,
        45.55052826181054,
        304.20000000000005
      ],
      [
        0.9360942151397467,
        45.55057503283024,
        304
      ],
      [
        0.9360906947404146,
        45.55058643221855,
        303.79999999999995
      ],
      [
        0.9360903594642878,
        45.55070646107197,
        303.20000000000005
      ],
      [
        0.9360780380666256,
        45.55079757235944,
        303.20000000000005
      ],
      [
        0.936072925105691,
        45.55085280910134,
        303.4
      ],
      [
        0.9359953925013542,
        45.55097493343055,
        303.6
      ],
      [
        0.9358736034482718,
        45.55103017017245,
        304
      ],
      [
        0.9357153531163931,
        45.55109496228397,
        304.20000000000005
      ],
      [
        0.9356079809367657,
        45.55110527202487,
        303.79999999999995
      ],
      [
        0.9355484694242477,
        45.5511087924242,
        303.6
      ],
      [
        0.9353832621127367,
        45.55107652209699,
        303.6
      ],
      [
        0.9352478943765163,
        45.551045844331384,
        303.6
      ],
      [
        0.9351517539471388,
        45.55100452154875,
        303.79999999999995
      ],
      [
        0.9351146221160889,
        45.55098666809499,
        303.79999999999995
      ],
      [
        0.934991491958499,
        45.55088751018047,
        303.79999999999995
      ],
      [
        0.9349378477782011,
        45.55084140971303,
        303.79999999999995
      ],
      [
        0.934877498075366,
        45.55079648271203,
        303.79999999999995
      ],
      [
        0.9348106104880571,
        45.55075407028198,
        304
      ],
      [
        0.9347658511251211,
        45.55074728094041,
        304
      ],
      [
        0.9345557168126106,
        45.550785837695,
        304.20000000000005
      ],
      [
        0.9345022402703762,
        45.55081224068999,
        304.20000000000005
      ],
      [
        0.9344341792166233,
        45.55084769614041,
        304.20000000000005
      ],
      [
        0.9343944489955902,
        45.55086295120418,
        304.20000000000005
      ],
      [
        0.9342850651592016,
        45.55087954737246,
        304.20000000000005
      ],
      [
        0.9342424850910902,
        45.55088457651436,
        304.20000000000005
      ],
      [
        0.9341569896787405,
        45.55089555680752,
        304.20000000000005
      ],
      [
        0.9340473543852568,
        45.55091827176511,
        303.79999999999995
      ],
      [
        0.9338754415512085,
        45.55094609968364,
        303.79999999999995
      ],
      [
        0.9336943086236715,
        45.55092833004892,
        304.20000000000005
      ],
      [
        0.9336312767118216,
        45.55085280910134,
        303.6
      ],
      [
        0.9335746988654137,
        45.55072691291571,
        303.79999999999995
      ],
      [
        0.933559276163578,
        45.5506822373718,
        303.6
      ],
      [
        0.9334885329008102,
        45.55050881579518,
        303.20000000000005
      ],
      [
        0.9334173705428839,
        45.550398929044604,
        303.20000000000005
      ],
      [
        0.9333720244467258,
        45.55038895457983,
        303.20000000000005
      ],
      [
        0.933277728036046,
        45.55040253326297,
        303
      ],
      [
        0.9331374987959862,
        45.55046355351806,
        303
      ],
      [
        0.93301797285676,
        45.550560196861625,
        303.20000000000005
      ],
      [
        0.9328910708427429,
        45.55066656321287,
        303.4
      ],
      [
        0.9327669348567724,
        45.550772259011865,
        304
      ],
      [
        0.9326713811606169,
        45.55087133310735,
        304.4
      ],
      [
        0.9325427189469337,
        45.55095607414842,
        303.4
      ],
      [
        0.9324138890951872,
        45.5510485265404,
        303
      ],
      [
        0.9322916809469461,
        45.551148941740394,
        303
      ],
      [
        0.932179531082511,
        45.55126813240349,
        303.4
      ],
      [
        0.9320911858230829,
        45.55133979767561,
        304
      ],
      [
        0.9319733362644911,
        45.55142587982118,
        304.4
      ],
      [
        0.9318817220628262,
        45.55151774547994,
        304.4
      ],
      [
        0.931833777576685,
        45.551558900624514,
        304.79999999999995
      ],
      [
        0.9317746013402939,
        45.551610784605145,
        304.79999999999995
      ],
      [
        0.9316645469516516,
        45.5517013091594,
        304.20000000000005
      ],
      [
        0.9316461905837059,
        45.551714384928346,
        304.20000000000005
      ],
      [
        0.9316303487867117,
        45.55172687396407,
        304.20000000000005
      ],
      [
        0.9315556660294533,
        45.551768112927675,
        303.79999999999995
      ],
      [
        0.9314788039773703,
        45.55178605020046,
        303.4
      ],
      [
        0.9314593579620123,
        45.55178479291499,
        303.4
      ],
      [
        0.9313013590872288,
        45.551746152341366,
        302.79999999999995
      ],
      [
        0.9312795661389828,
        45.55174062028527,
        302.6
      ],
      [
        0.9311193879693747,
        45.55170055478811,
        302.20000000000005
      ],
      [
        0.9310307912528515,
        45.55167348124087,
        302.20000000000005
      ],
      [
        0.930878072977066,
        45.55163693614304,
        302
      ],
      [
        0.9306773263961077,
        45.5515993013978,
        302
      ],
      [
        0.9304706286638975,
        45.55157331749797,
        302
      ],
      [
        0.9303232748061419,
        45.551534509286284,
        302.20000000000005
      ],
      [
        0.9301502723246813,
        45.55149435997009,
        302.20000000000005
      ],
      [
        0.9299434907734394,
        45.55145303718746,
        302.6
      ],
      [
        0.9297732543200254,
        45.55143266916275,
        302.79999999999995
      ],
      [
        0.9297552332282066,
        45.551431495696306,
        302.79999999999995
      ],
      [
        0.9295790456235409,
        45.55143987759948,
        303
      ],
      [
        0.9294661413878202,
        45.551447086036205,
        303
      ],
      [
        0.929397577419877,
        45.551459742709994,
        303.20000000000005
      ],
      [
        0.9292456973344088,
        45.551466196775436,
        303.6
      ],
      [
        0.9291265904903412,
        45.55146150290966,
        303.79999999999995
      ],
      [
        0.9290840104222298,
        45.55145773105323,
        303.79999999999995
      ],
      [
        0.9288982674479485,
        45.55142277851701,
        304
      ],
      [
        0.9287628997117281,
        45.55139344185591,
        304
      ],
      [
        0.9286479000002146,
        45.55134088732302,
        303.6
      ],
      [
        0.9285096824169159,
        45.55128020234406,
        303.4
      ],
      [
        0.9283595625311136,
        45.551217924803495,
        304
      ],
      [
        0.9282200038433075,
        45.55116838775575,
        304.4
      ],
      [
        0.9281490091234446,
        45.55113066919148,
        305
      ],
      [
        0.9280870668590069,
        45.55109437555075,
        305.20000000000005
      ],
      [
        0.9279999788850546,
        45.551052717491984,
        305.6
      ],
      [
        0.9279550518840551,
        45.551026314496994,
        305.4
      ],
      [
        0.9278885833919048,
        45.550979962572455,
        305
      ],
      [
        0.9278413932770491,
        45.55094350129366,
        304.79999999999995
      ],
      [
        0.9278092905879021,
        45.5509222112596,
        304.6
      ],
      [
        0.9276818856596947,
        45.55083453655243,
        304.20000000000005
      ],
      [
        0.9275503735989332,
        45.550711154937744,
        304
      ],
      [
        0.9274443425238132,
        45.55058836005628,
        304
      ],
      [
        0.9274348709732294,
        45.550572853535414,
        304
      ],
      [
        0.9273844957351685,
        45.550444442778826,
        303.6
      ],
      [
        0.9273518063127995,
        45.55030681192875,
        303.6
      ],
      [
        0.9273330308496952,
        45.55017546750605,
        303.6
      ],
      [
        0.9273394849151373,
        45.550095587968826,
        303.20000000000005
      ],
      [
        0.9273312706500292,
        45.550053929910064,
        303
      ],
      [
        0.9273249004036188,
        45.55004261434078,
        302.79999999999995
      ],
      [
        0.9273102320730686,
        45.5499554425478,
        302.20000000000005
      ],
      [
        0.927324565127492,
        45.549842454493046,
        302
      ],
      [
        0.9273569192737341,
        45.54974287748337,
        301.79999999999995
      ],
      [
        0.9273598529398441,
        45.54965411312878,
        301.79999999999995
      ],
      [
        0.9273493755608797,
        45.549604408442974,
        301.79999999999995
      ],
      [
        0.9273019339889288,
        45.54957926273346,
        301.6
      ],
      [
        0.9271452762186527,
        45.54956744424999,
        301.6
      ],
      [
        0.9270805679261684,
        45.54955570958555,
        301.79999999999995
      ],
      [
        0.9270678274333477,
        45.54955596104264,
        301.79999999999995
      ],
      [
        0.9269273467361927,
        45.54957448504865,
        302
      ],
      [
        0.9268073178827763,
        45.549605917185545,
        302.4
      ],
      [
        0.9267183020710945,
        45.54962016642094,
        302.4
      ],
      [
        0.9266190603375435,
        45.549620585516095,
        302.79999999999995
      ],
      [
        0.9265556093305349,
        45.549587309360504,
        302.79999999999995
      ],
      [
        0.9264849498867989,
        45.54947759024799,
        303.4
      ],
      [
        0.9264099318534136,
        45.54938077926636,
        303.4
      ],
      [
        0.9263640828430653,
        45.549342557787895,
        303.4
      ],
      [
        0.9263018891215324,
        45.549297546967864,
        303.20000000000005
      ],
      [
        0.9262561239302158,
        45.54926267825067,
        303.4
      ],
      [
        0.926092928275466,
        45.54925907403231,
        303.20000000000005
      ],
      [
        0.9259671997278929,
        45.54934775456786,
        303.20000000000005
      ],
      [
        0.9258299041539431,
        45.549444230273366,
        303.20000000000005
      ],
      [
        0.9256834723055363,
        45.54952763020992,
        303
      ],
      [
        0.9255674667656422,
        45.549622513353825,
        303
      ],
      [
        0.9254733379930258,
        45.54975997656584,
        303.6
      ],
      [
        0.9254606813192368,
        45.54977380670607,
        303.6
      ],
      [
        0.9253924526274204,
        45.54986952804029,
        303.6
      ],
      [
        0.9253844060003757,
        45.54988168179989,
        303.6
      ],
      [
        0.9253031015396118,
        45.54996080696583,
        303.6
      ],
      [
        0.9252581745386124,
        45.549964997917414,
        303.79999999999995
      ],
      [
        0.9252012614160776,
        45.54995410144329,
        304
      ],
      [
        0.9250744432210922,
        45.54990909062326,
        304.79999999999995
      ],
      [
        0.9250200446695089,
        45.54987824521959,
        304.79999999999995
      ],
      [
        0.9249365609139204,
        45.5498380959034,
        305
      ],
      [
        0.9248496405780315,
        45.54979031905532,
        304.79999999999995
      ],
      [
        0.924815945327282,
        45.549768190830946,
        304.79999999999995
      ],
      [
        0.924657778814435,
        45.549672888591886,
        304.6
      ],
      [
        0.9245677571743727,
        45.54962896741927,
        304.20000000000005
      ],
      [
        0.9245271887630224,
        45.54960717447102,
        304
      ],
      [
        0.9243948385119438,
        45.549546740949154,
        304
      ],
      [
        0.924248993396759,
        45.54948639124632,
        304.20000000000005
      ],
      [
        0.9242076706141233,
        45.549472058191895,
        304.20000000000005
      ],
      [
        0.9241573791950941,
        45.549455462023616,
        304.20000000000005
      ],
      [
        0.924102645367384,
        45.549432998523116,
        304.20000000000005
      ],
      [
        0.9239816945046186,
        45.54937222972512,
        304.20000000000005
      ],
      [
        0.9238221030682325,
        45.54930752143264,
        304.79999999999995
      ],
      [
        0.9237519465386868,
        45.54927432909608,
        305.20000000000005
      ],
      [
        0.9237004816532135,
        45.54925488308072,
        305.4
      ],
      [
        0.9235805366188288,
        45.54920534603298,
        306
      ],
      [
        0.9235558100044727,
        45.54919780232012,
        306.20000000000005
      ],
      [
        0.9234989807009697,
        45.5491731595248,
        306.4
      ],
      [
        0.9234821330755949,
        45.549167124554515,
        306.6
      ],
      [
        0.9234483540058136,
        45.549154467880726,
        306.6
      ],
      [
        0.9234046842902899,
        45.54913217201829,
        306.6
      ],
      [
        0.923271831125021,
        45.549070900306106,
        306.20000000000005
      ],
      [
        0.9231607709079981,
        45.54900811985135,
        305.6
      ],
      [
        0.9230757784098387,
        45.5489553976804,
        304.79999999999995
      ],
      [
        0.923035629093647,
        45.54893469437957,
        304.6
      ],
      [
        0.9229008480906487,
        45.54886378347874,
        303.79999999999995
      ],
      [
        0.9228708408772945,
        45.54884936660528,
        303.79999999999995
      ],
      [
        0.922828009352088,
        45.54883369244635,
        303.79999999999995
      ],
      [
        0.9227526560425758,
        45.54879739880562,
        303.79999999999995
      ],
      [
        0.9226484689861536,
        45.54873000830412,
        304.20000000000005
      ],
      [
        0.9225256741046906,
        45.5486427526921,
        304.6
      ],
      [
        0.9224237501621246,
        45.54854493588209,
        304.79999999999995
      ],
      [
        0.922357952222228,
        45.5485029425472,
        304.6
      ],
      [
        0.9222649969160557,
        45.54845055565238,
        304.4
      ],
      [
        0.9221889730542898,
        45.54835424758494,
        304.4
      ],
      [
        0.9221888892352581,
        45.54823664948344,
        304.6
      ],
      [
        0.9221978578716516,
        45.54814956150949,
        304
      ],
      [
        0.9221617318689823,
        45.54806062951684,
        304.6
      ],
      [
        0.9221525955945253,
        45.5480436142534,
        304.79999999999995
      ],
      [
        0.9220083430409431,
        45.54795074276626,
        304.79999999999995
      ],
      [
        0.9219400305300951,
        45.547952922061086,
        305
      ],
      [
        0.9218889009207487,
        45.5479624774307,
        305.20000000000005
      ],
      [
        0.9217363502830267,
        45.54801159538329,
        306
      ],
      [
        0.9217146411538124,
        45.548017378896475,
        306
      ],
      [
        0.9216065984219313,
        45.54805149324238,
        307
      ],
      [
        0.9215891640633345,
        45.5480573605746,
        307.20000000000005
      ],
      [
        0.9214949514716864,
        45.54806641303003,
        307.6
      ],
      [
        0.9214767627418041,
        45.54806364700198,
        307.6
      ],
      [
        0.9213386289775372,
        45.54804319515824,
        307.6
      ],
      [
        0.9213143214583397,
        45.54804269224405,
        307.4
      ],
      [
        0.9211414866149426,
        45.54803422652185,
        306.79999999999995
      ],
      [
        0.9210164286196232,
        45.548013942316175,
        306.20000000000005
      ],
      [
        0.920982314273715,
        45.54801260121167,
        306
      ],
      [
        0.920865386724472,
        45.54804503917694,
        305.4
      ],
      [
        0.9207779634743929,
        45.54808460175991,
        306
      ],
      [
        0.9207053761929274,
        45.548122404143214,
        305.4
      ],
      [
        0.9206942282617092,
        45.54813439026475,
        305
      ],
      [
        0.9206836670637131,
        45.54814620874822,
        304.79999999999995
      ],
      [
        0.9205939806997776,
        45.54824193008244,
        303.79999999999995
      ],
      [
        0.920519046485424,
        45.548322731629014,
        303.6
      ],
      [
        0.9204797353595495,
        45.54837285540998,
        303.20000000000005
      ],
      [
        0.9204441960901022,
        45.54840604774654,
        303.20000000000005
      ],
      [
        0.92038887552917,
        45.548449885100126,
        303
      ],
      [
        0.920291393995285,
        45.548562202602625,
        302.79999999999995
      ],
      [
        0.9202593751251698,
        45.54859128780663,
        302.79999999999995
      ],
      [
        0.9201092552393675,
        45.54873042739928,
        302.4
      ],
      [
        0.9200437925755978,
        45.548817766830325,
        301.79999999999995
      ],
      [
        0.9199037309736013,
        45.54894617758691,
        301.20000000000005
      ],
      [
        0.919769536703825,
        45.54906142875552,
        301
      ],
      [
        0.919708264991641,
        45.54911515675485,
        300.6
      ],
      [
        0.9195964504033327,
        45.54922646842897,
        300
      ],
      [
        0.9195407945662737,
        45.54928748868406,
        299.6
      ],
      [
        0.9194702189415693,
        45.549359656870365,
        299.4
      ],
      [
        0.9193128068000078,
        45.54949393495917,
        299.20000000000005
      ],
      [
        0.9191690571606159,
        45.5496565438807,
        298.79999999999995
      ],
      [
        0.9190792869776487,
        45.54973566904664,
        298.6
      ],
      [
        0.9190228767693043,
        45.54977615363896,
        298.4
      ],
      [
        0.9189103078097105,
        45.54991202428937,
        298
      ],
      [
        0.9188353735953569,
        45.54997958242893,
        297.79999999999995
      ],
      [
        0.918787345290184,
        45.55000430904329,
        297.79999999999995
      ],
      [
        0.9186591859906912,
        45.55012157186866,
        297.6
      ],
      [
        0.9186024405062199,
        45.550158116966486,
        297.6
      ],
      [
        0.918503450229764,
        45.55025056935847,
        297.4
      ],
      [
        0.9184024482965469,
        45.55029130540788,
        297
      ],
      [
        0.9183711837977171,
        45.5502749606967,
        296.6
      ],
      [
        0.9183433558791876,
        45.550242606550455,
        296.4
      ],
      [
        0.9182961657643318,
        45.550150321796536,
        296.20000000000005
      ],
      [
        0.918230451643467,
        45.550066251307726,
        296.20000000000005
      ],
      [
        0.9181650727987289,
        45.54998913779855,
        296.20000000000005
      ],
      [
        0.9181222412735224,
        45.549906408414245,
        295.6
      ],
      [
        0.918082008138299,
        45.549844969064,
        295.6
      ],
      [
        0.9180741291493177,
        45.54983004927635,
        295.6
      ],
      [
        0.9180435352027416,
        45.54974547587335,
        295.20000000000005
      ],
      [
        0.9179928246885538,
        45.54963634349406,
        294.6
      ],
      [
        0.9179863706231117,
        45.54962527938187,
        294.20000000000005
      ],
      [
        0.9179652482271194,
        45.549548249691725,
        293.4
      ],
      [
        0.9179515019059181,
        45.54946979507804,
        293.6
      ],
      [
        0.917918561026454,
        45.54940433241427,
        293.20000000000005
      ],
      [
        0.9179152920842171,
        45.54939368739724,
        293.20000000000005
      ]
    ]
  }
}
