{
  "type": "Feature",
  "properties": {},
  "geometry": {
    "type": "LineString",
    "coordinates": [
      [
        0.8887409884482622,
        45.547210620716214,
        297.6
      ],
      [
        0.8886564150452614,
        45.54713820107281,
        298.4
      ],
      [
        0.888638561591506,
        45.54713434539735,
        298.6
      ],
      [
        0.8885724283754826,
        45.54706569761038,
        299.20000000000005
      ],
      [
        0.8885473664849997,
        45.547031331807375,
        299.6
      ],
      [
        0.888506630435586,
        45.54698179475963,
        299.79999999999995
      ],
      [
        0.8884814847260714,
        45.5469626840204,
        300
      ],
      [
        0.8884243201464415,
        45.546913146972656,
        300.20000000000005
      ],
      [
        0.8883933909237385,
        45.546894036233425,
        300.20000000000005
      ],
      [
        0.8883818238973618,
        45.54684441536665,
        300.6
      ],
      [
        0.8883617911487818,
        45.546813905239105,
        301
      ],
      [
        0.8883223962038755,
        45.546779623255134,
        301.20000000000005
      ],
      [
        0.8882619626820087,
        45.54674911312759,
        301.6
      ],
      [
        0.888194739818573,
        45.54674525745213,
        301.79999999999995
      ],
      [
        0.888148220255971,
        45.5467071197927,
        302.20000000000005
      ],
      [
        0.8881369046866894,
        45.54668038152158,
        302.20000000000005
      ],
      [
        0.8880713582038879,
        45.54663084447384,
        302.4
      ],
      [
        0.8880531694740057,
        45.54662698879838,
        302.4
      ],
      [
        0.8879186399281025,
        45.54664987139404,
        302.79999999999995
      ],
      [
        0.8877851162105799,
        45.54669186472893,
        303
      ],
      [
        0.8876755647361279,
        45.54671851918101,
        303.20000000000005
      ],
      [
        0.8876452222466469,
        45.54669186472893,
        303.20000000000005
      ],
      [
        0.8876320626586676,
        45.5466537270695,
        303.20000000000005
      ],
      [
        0.8876671828329563,
        45.546558341011405,
        303.20000000000005
      ],
      [
        0.8877009619027376,
        45.546520203351974,
        303.20000000000005
      ],
      [
        0.8877191506326199,
        45.54648583754897,
        303
      ],
      [
        0.8878291212022305,
        45.54642867296934,
        303
      ],
      [
        0.8879693504422903,
        45.546451555565,
        303.20000000000005
      ],
      [
        0.88803481310606,
        45.54646295495331,
        303.6
      ],
      [
        0.888065155595541,
        45.54647443816066,
        303.79999999999995
      ],
      [
        0.8880908880382776,
        45.54648969322443,
        303.79999999999995
      ],
      [
        0.8882580231875181,
        45.54656982421875,
        304.4
      ],
      [
        0.8883843384683132,
        45.54660410620272,
        304.6
      ],
      [
        0.8885077200829983,
        45.54664224386215,
        304.79999999999995
      ],
      [
        0.8885270822793245,
        45.54664609953761,
        304.79999999999995
      ],
      [
        0.8885472826659679,
        45.54664609953761,
        304.79999999999995
      ],
      [
        0.8885681536048651,
        45.54664609953761,
        304.79999999999995
      ],
      [
        0.8886007592082024,
        45.54664224386215,
        304.79999999999995
      ],
      [
        0.8886178582906723,
        45.54664224386215,
        304.79999999999995
      ],
      [
        0.8886819798499346,
        45.54664987139404,
        305
      ],
      [
        0.8887615241110325,
        45.5466727539897,
        305.20000000000005
      ],
      [
        0.8888085465878248,
        45.546695636585355,
        305.20000000000005
      ],
      [
        0.8889275696128607,
        45.546756740659475,
        305.4
      ],
      [
        0.8890802040696144,
        45.54682916030288,
        305.4
      ],
      [
        0.8891617599874735,
        45.546852042898536,
        305.79999999999995
      ],
      [
        0.8892327547073364,
        45.546874925494194,
        305.6
      ],
      [
        0.8894066791981459,
        45.54691691882908,
        305.6
      ],
      [
        0.8895609900355339,
        45.5469436571002,
        305.4
      ],
      [
        0.8897344954311848,
        45.5469970498234,
        305
      ],
      [
        0.8898917399346828,
        45.547035187482834,
        304.4
      ],
      [
        0.8900147024542093,
        45.547073325142264,
        304
      ],
      [
        0.8900499902665615,
        45.54710006341338,
        303.79999999999995
      ],
      [
        0.8900489006191492,
        45.5471458286047,
        303.4
      ],
      [
        0.8900031354278326,
        45.54726024158299,
        303.6
      ],
      [
        0.8899420313537121,
        45.54737851023674,
        303.6
      ],
      [
        0.8898479864001274,
        45.54750440642238,
        303.4
      ],
      [
        0.8898360002785921,
        45.54761504754424,
        302.79999999999995
      ],
      [
        0.8898372575640678,
        45.54765318520367,
        302.6
      ],
      [
        0.8897819370031357,
        45.54769895039499,
        302
      ],
      [
        0.8896711282432079,
        45.54768746718764,
        302
      ],
      [
        0.8895698748528957,
        45.547626446932554,
        302.4
      ],
      [
        0.8896246924996376,
        45.54753868840635,
        303.20000000000005
      ],
      [
        0.8896650094538927,
        45.54747389629483,
        303.79999999999995
      ],
      [
        0.8896961063146591,
        45.54741279222071,
        304.20000000000005
      ],
      [
        0.8897301368415356,
        45.54737465456128,
        304.6
      ],
      [
        0.8897432126104832,
        45.54735177196562,
        304.79999999999995
      ],
      [
        0.8897541090846062,
        45.54729837924242,
        305.20000000000005
      ],
      [
        0.8897216711193323,
        45.547248758375645,
        305.79999999999995
      ],
      [
        0.8897014707326889,
        45.54724113084376,
        305.79999999999995
      ],
      [
        0.8896065875887871,
        45.547248758375645,
        306.20000000000005
      ],
      [
        0.8895178232342005,
        45.547306006774306,
        306
      ],
      [
        0.8895060885697603,
        45.54731748998165,
        306
      ],
      [
        0.8894247841089964,
        45.5474013928324,
        305.4
      ],
      [
        0.8894138038158417,
        45.54741664789617,
        305.4
      ],
      [
        0.8893827069550753,
        45.547466268762946,
        304.79999999999995
      ],
      [
        0.8893796056509018,
        45.547508178278804,
        304.6
      ],
      [
        0.8892863988876343,
        45.54755779914558,
        304
      ],
      [
        0.8892694674432278,
        45.547565426677465,
        303.79999999999995
      ],
      [
        0.8892242889851332,
        45.54759208112955,
        303.79999999999995
      ],
      [
        0.889169555157423,
        45.547626446932554,
        303.79999999999995
      ],
      [
        0.8891363628208637,
        45.547626446932554,
        303.79999999999995
      ],
      [
        0.8890585787594318,
        45.54761881940067,
        304
      ],
      [
        0.888929245993495,
        45.547603564336896,
        304.4
      ],
      [
        0.8887901064008474,
        45.54761119186878,
        304.4
      ],
      [
        0.8887012582272291,
        45.54759979248047,
        304.4
      ],
      [
        0.8886795490980148,
        45.54759979248047,
        304.6
      ],
      [
        0.888659181073308,
        45.54759979248047,
        304.6
      ],
      [
        0.8885964006185532,
        45.54761119186878,
        304.79999999999995
      ],
      [
        0.8885437622666359,
        45.547607420012355,
        305.20000000000005
      ],
      [
        0.8884782157838345,
        45.547603564336896,
        305.79999999999995
      ],
      [
        0.8884676545858383,
        45.547603564336896,
        305.79999999999995
      ],
      [
        0.888432115316391,
        45.54759979248047,
        305.79999999999995
      ],
      [
        0.8883999288082123,
        45.547607420012355,
        306.4
      ],
      [
        0.8883842546492815,
        45.54763407446444,
        306.4
      ],
      [
        0.8883798122406006,
        45.547641701996326,
        306.4
      ],
      [
        0.888349050655961,
        45.54768746718764,
        306.6
      ],
      [
        0.888345530256629,
        45.54769895039499,
        306.6
      ],
      [
        0.888346703723073,
        45.54773323237896,
        307
      ],
      [
        0.8883483801037073,
        45.54772946052253,
        307
      ],
      [
        0.8883527386933565,
        45.54767221212387,
        306.79999999999995
      ],
      [
        0.8883669879287481,
        45.54763030260801,
        307.20000000000005
      ],
      [
        0.8883956540375948,
        45.54757682606578,
        306.79999999999995
      ],
      [
        0.8884367253631353,
        45.54755779914558,
        306.4
      ],
      [
        0.888451561331749,
        45.54755394347012,
        306.20000000000005
      ],
      [
        0.8884767070412636,
        45.54750440642238,
        306.20000000000005
      ],
      [
        0.8884647209197283,
        45.547489151358604,
        306.20000000000005
      ],
      [
        0.8884600270539522,
        45.54744338616729,
        306.4
      ],
      [
        0.8884862624108791,
        45.54738990962505,
        306.20000000000005
      ],
      [
        0.8885200414806604,
        45.547367027029395,
        306.20000000000005
      ],
      [
        0.8885598555207253,
        45.54730223491788,
        306.20000000000005
      ],
      [
        0.888625904917717,
        45.547225875779986,
        306.4
      ],
      [
        0.8887206204235554,
        45.5471992213279,
        306.4
      ],
      [
        0.8888585027307272,
        45.5471458286047,
        306.79999999999995
      ],
      [
        0.8889616001397371,
        45.547130573540926,
        307.20000000000005
      ],
      [
        0.8891102112829685,
        45.547130573540926,
        307.6
      ],
      [
        0.8892257139086723,
        45.54710383526981,
        307.79999999999995
      ],
      [
        0.8892271388322115,
        45.54708095267415,
        308
      ],
      [
        0.889182211831212,
        45.54702755995095,
        308.4
      ],
      [
        0.8890289068222046,
        45.54700844921172,
        308.4
      ],
      [
        0.8888637833297253,
        45.54698556661606,
        308.20000000000005
      ],
      [
        0.8887725882232189,
        45.546894036233425,
        308.6
      ],
      [
        0.8886407408863306,
        45.54682153277099,
        308.6
      ],
      [
        0.8885394874960184,
        45.546756740659475,
        308.4
      ],
      [
        0.8885254058986902,
        45.5467261467129,
        308.6
      ],
      [
        0.8884445205330849,
        45.546619361266494,
        308.6
      ],
      [
        0.8884057961404324,
        45.54656211286783,
        308.6
      ],
      [
        0.8883715141564608,
        45.54650872014463,
        309
      ],
      [
        0.8882467076182365,
        45.54646681062877,
        309
      ],
      [
        0.8881957456469536,
        45.546451555565,
        309
      ],
      [
        0.8880860265344381,
        45.546417189761996,
        309
      ],
      [
        0.8879313804209232,
        45.54637142457068,
        309
      ],
      [
        0.8878416940569878,
        45.54637142457068,
        309.20000000000005
      ],
      [
        0.8877789974212646,
        45.546379052102566,
        309
      ],
      [
        0.8876981120556593,
        45.54646681062877,
        308.4
      ],
      [
        0.8876446355134249,
        45.546577451750636,
        309
      ],
      [
        0.887611024081707,
        45.54668423719704,
        309.79999999999995
      ],
      [
        0.8876545261591673,
        45.54671851918101,
        309.79999999999995
      ],
      [
        0.8876961842179298,
        45.54671851918101,
        309.79999999999995
      ],
      [
        0.8877166360616684,
        45.546714747324586,
        309.79999999999995
      ],
      [
        0.8878178056329489,
        45.54670326411724,
        309.6
      ],
      [
        0.8878361620008945,
        45.546699492260814,
        309.6
      ],
      [
        0.8878593798726797,
        45.54669186472893,
        309.6
      ],
      [
        0.8878751378506422,
        45.54668800905347,
        309.4
      ],
      [
        0.8879159577190876,
        45.54666898213327,
        309.20000000000005
      ],
      [
        0.8879970945417881,
        45.54664609953761,
        309.4
      ],
      [
        0.888079572468996,
        45.546638472005725,
        309.20000000000005
      ],
      [
        0.8881472144275904,
        45.54663084447384,
        309.20000000000005
      ],
      [
        0.8882859349250793,
        45.54664224386215,
        309
      ],
      [
        0.8883959054946899,
        45.54666898213327,
        309
      ],
      [
        0.8885591011494398,
        45.54666512645781,
        308.6
      ],
      [
        0.8886771183460951,
        45.546638472005725,
        308.4
      ],
      [
        0.8887728396803141,
        45.546657498925924,
        308.20000000000005
      ],
      [
        0.8888664655387402,
        45.546695636585355,
        308.6
      ],
      [
        0.8889638632535934,
        45.54673000238836,
        308.20000000000005
      ],
      [
        0.8890619315207005,
        45.54676814004779,
        308.20000000000005
      ],
      [
        0.8892025798559189,
        45.54682538844645,
        308
      ],
      [
        0.8893420547246933,
        45.54687115363777,
        307.79999999999995
      ],
      [
        0.8894541207700968,
        45.54690166376531,
        307.6
      ],
      [
        0.8895521052181721,
        45.54693980142474,
        307.6
      ],
      [
        0.8896557055413723,
        45.5469626840204,
        307.4
      ],
      [
        0.8896757382899523,
        45.5469626840204,
        307.20000000000005
      ],
      [
        0.8898545242846012,
        45.547012304887176,
        306.6
      ],
      [
        0.8899059891700745,
        45.54702370427549,
        306.20000000000005
      ],
      [
        0.8899715356528759,
        45.54704658687115,
        306
      ],
      [
        0.8900971803814173,
        45.54710383526981,
        305.4
      ],
      [
        0.8901166263967752,
        45.547130573540926,
        305.4
      ],
      [
        0.8901172131299973,
        45.54716108366847,
        305.20000000000005
      ],
      [
        0.8901147823780775,
        45.54718396626413,
        305
      ],
      [
        0.8900683466345072,
        45.547306006774306,
        304.79999999999995
      ],
      [
        0.8900161273777485,
        45.5474547855556,
        304.4
      ],
      [
        0.8899773191660643,
        45.54750055074692,
        304
      ],
      [
        0.8899657521396875,
        45.547523433342576,
        303.79999999999995
      ],
      [
        0.8899363316595554,
        45.54756919853389,
        303.6
      ],
      [
        0.8898721262812614,
        45.5476569570601,
        303
      ],
      [
        0.889853099361062,
        45.54767983965576,
        302.79999999999995
      ],
      [
        0.8898165542632341,
        45.54769895039499,
        302.6
      ],
      [
        0.8897445537149906,
        45.547706577926874,
        302.4
      ],
      [
        0.8895679470151663,
        45.54765318520367,
        302.6
      ],
      [
        0.8895702101290226,
        45.54756919853389,
        303.20000000000005
      ],
      [
        0.8896270394325256,
        45.54750055074692,
        303.79999999999995
      ],
      [
        0.8896451443433762,
        45.54747766815126,
        304
      ],
      [
        0.8896924182772636,
        45.547405164688826,
        304.6
      ],
      [
        0.889709684997797,
        45.54737851023674,
        304.79999999999995
      ],
      [
        0.889730304479599,
        45.54734414443374,
        305
      ],
      [
        0.889738267287612,
        45.54727935232222,
        305.79999999999995
      ],
      [
        0.889733824878931,
        45.547267869114876,
        306
      ],
      [
        0.8897116128355265,
        45.54724113084376,
        306
      ],
      [
        0.8896932564675808,
        45.54723350331187,
        306.20000000000005
      ],
      [
        0.8896606508642435,
        45.54723735898733,
        306.20000000000005
      ],
      [
        0.8895773347467184,
        45.54727549664676,
        306.20000000000005
      ],
      [
        0.8895407896488905,
        45.54730223491788,
        306
      ],
      [
        0.8894689567387104,
        45.54739753715694,
        305.4
      ],
      [
        0.8894435595721006,
        45.54743190295994,
        305
      ],
      [
        0.8894226886332035,
        45.547451013699174,
        304.6
      ],
      [
        0.8894091099500656,
        45.547466268762946,
        304.79999999999995
      ],
      [
        0.8894078526645899,
        45.547485295683146,
        305
      ],
      [
        0.8893544599413872,
        45.54753106087446,
        304
      ],
      [
        0.8892978820949793,
        45.54748152382672,
        304
      ],
      [
        0.889326548203826,
        45.54741279222071,
        304.79999999999995
      ],
      [
        0.8893770910799503,
        45.54738990962505,
        305
      ],
      [
        0.8894097805023193,
        45.547370882704854,
        305.20000000000005
      ],
      [
        0.8894433919340372,
        45.54734414443374,
        305.4
      ],
      [
        0.8894906658679247,
        45.54729837924242,
        306.20000000000005
      ],
      [
        0.8895197510719299,
        45.54725646972656,
        306.6
      ],
      [
        0.8895384427160025,
        45.54720299318433,
        307
      ],
      [
        0.889514135196805,
        45.5471648555249,
        307.20000000000005
      ],
      [
        0.8894681185483932,
        45.54713820107281,
        307.20000000000005
      ],
      [
        0.8894322440028191,
        45.54712671786547,
        307.20000000000005
      ],
      [
        0.8893762528896332,
        45.54710383526981,
        307.4
      ],
      [
        0.8892731554806232,
        45.54706569761038,
        307.4
      ],
      [
        0.8892675396054983,
        45.54706569761038,
        307.4
      ],
      [
        0.8891685493290424,
        45.547092435881495,
        307
      ],
      [
        0.889014657586813,
        45.54713434539735,
        306.79999999999995
      ],
      [
        0.8888969756662846,
        45.54716871120036,
        306.4
      ],
      [
        0.8888729196041822,
        45.5471648555249,
        306.4
      ],
      [
        0.8887722529470921,
        45.54713820107281,
        306.4
      ],
      [
        0.8886614441871643,
        45.547073325142264,
        306.4
      ],
      [
        0.8885834086686373,
        45.5469970498234,
        306.79999999999995
      ],
      [
        0.8885916229337454,
        45.546955056488514,
        307
      ],
      [
        0.8886038605123758,
        45.54689780808985,
        307
      ],
      [
        0.8885917067527771,
        45.54680627770722,
        307.6
      ],
      [
        0.8885660581290722,
        45.54671089164913,
        307.79999999999995
      ],
      [
        0.8885807264596224,
        45.5467071197927,
        307.79999999999995
      ],
      [
        0.8886091411113739,
        45.54671089164913,
        307.79999999999995
      ],
      [
        0.8886226359754801,
        45.546714747324586,
        308
      ],
      [
        0.8886346220970154,
        45.546714747324586,
        308.20000000000005
      ],
      [
        0.8886331971734762,
        45.54671851918101,
        308.20000000000005
      ],
      [
        0.8886192832142115,
        45.546714747324586,
        308.20000000000005
      ],
      [
        0.8885982446372509,
        45.5467071197927,
        308
      ],
      [
        0.8885834086686373,
        45.5467071197927,
        307.4
      ],
      [
        0.888581145554781,
        45.54671089164913,
        307.20000000000005
      ],
      [
        0.888580558821559,
        45.54671089164913,
        307.20000000000005
      ],
      [
        0.8885662257671356,
        45.5467414855957,
        306.79999999999995
      ],
      [
        0.8885974902659655,
        45.546775767579675,
        306.79999999999995
      ],
      [
        0.8886078000068665,
        45.54678339511156,
        306.6
      ],
      [
        0.8886119071394205,
        45.54679102264345,
        306.6
      ],
      [
        0.8886527270078659,
        45.54682153277099,
        306.4
      ],
      [
        0.888738976791501,
        45.54687878116965,
        306.4
      ],
      [
        0.8888375479727983,
        45.54694742895663,
        306.20000000000005
      ],
      [
        0.8888543117791414,
        45.5469626840204,
        306
      ],
      [
        0.8889168407768011,
        45.54703895933926,
        305.6
      ],
      [
        0.8889731671661139,
        45.5471458286047,
        305.4
      ],
      [
        0.8889828901737928,
        45.54718396626413,
        305.4
      ],
      [
        0.888980794698,
        45.54718396626413,
        305.20000000000005
      ]
    ]
  }
}
