{
  "type": "Feature",
  "properties": {},
  "geometry": {
    "type": "LineString",
    "coordinates": [
      [
        -8.669923,
        37.095368,
        38.88308
      ],
      [
        -8.669624,
        37.095443,
        38.93636
      ],
      [
        -8.669528,
        37.095419,
        38.49117
      ],
      [
        -8.66946,
        37.095413,
        37.89327
      ],
      [
        -8.669417,
        37.095424,
        37.28022
      ],
      [
        -8.669332,
        37.095499,
        35.11554
      ],
      [
        -8.669284,
        37.095523,
        34.02713
      ],
      [
        -8.669239,
        37.095532,
        33.2036
      ],
      [
        -8.668534,
        37.095578,
        27.36824
      ],
      [
        -8.668439,
        37.095583,
        26.61106
      ],
      [
        -8.668368,
        37.095555,
        26.20253
      ],
      [
        -8.668031,
        37.095275,
        26.00885
      ],
      [
        -8.668035,
        37.095243,
        25.89696
      ],
      [
        -8.66825,
        37.095118,
        25.77075
      ],
      [
        -8.668626,
        37.094915,
        27.05059
      ],
      [
        -8.668731,
        37.09485,
        28.51085
      ],
      [
        -8.668814,
        37.094693,
        29.96699
      ],
      [
        -8.66873,
        37.094521,
        29.40545
      ],
      [
        -8.668754,
        37.094397,
        30.18687
      ],
      [
        -8.668715,
        37.094136,
        30.23058
      ],
      [
        -8.668691,
        37.093661,
        31.54248
      ],
      [
        -8.668683,
        37.093511,
        30.85706
      ],
      [
        -8.668683,
        37.09345,
        30.14962
      ],
      [
        -8.668718,
        37.093436,
        30.13264
      ],
      [
        -8.668765,
        37.093424,
        30.19991
      ],
      [
        -8.668826,
        37.093411,
        30.41394
      ],
      [
        -8.668865,
        37.0934,
        30.58705
      ],
      [
        -8.668888,
        37.093376,
        30.53853
      ],
      [
        -8.668891,
        37.093338,
        30.08949
      ],
      [
        -8.6689,
        37.093314,
        29.82865
      ],
      [
        -8.668918,
        37.093291,
        29.65757
      ],
      [
        -8.668946,
        37.093281,
        29.87372
      ],
      [
        -8.668988,
        37.093263,
        30.22237
      ],
      [
        -8.669043,
        37.093237,
        30.74697
      ],
      [
        -8.669132,
        37.093172,
        31.3201
      ],
      [
        -8.669131,
        37.093154,
        30.98392
      ],
      [
        -8.669111,
        37.093102,
        29.64256
      ],
      [
        -8.669148,
        37.093045,
        29.43903
      ],
      [
        -8.669138,
        37.092979,
        27.9665
      ],
      [
        -8.669128,
        37.092926,
        26.65662
      ],
      [
        -8.669125,
        37.092873,
        25.54559
      ],
      [
        -8.66914,
        37.09282,
        24.97151
      ],
      [
        -8.669176,
        37.092751,
        24.93988
      ],
      [
        -8.669218,
        37.092659,
        25.3274
      ],
      [
        -8.669257,
        37.092589,
        25.9175
      ],
      [
        -8.669285,
        37.092541,
        26.3658
      ],
      [
        -8.66932,
        37.092507,
        26.92925
      ],
      [
        -8.6694,
        37.09242,
        28.35292
      ],
      [
        -8.669439,
        37.09233,
        29.45248
      ],
      [
        -8.669439,
        37.092309,
        29.56756
      ],
      [
        -8.669346,
        37.092207,
        28.4972
      ],
      [
        -8.66931,
        37.092201,
        27.93478
      ],
      [
        -8.669305,
        37.092071,
        28.14108
      ],
      [
        -8.669314,
        37.092051,
        28.30367
      ],
      [
        -8.669406,
        37.091952,
        29.48861
      ],
      [
        -8.669464,
        37.091904,
        30.00008
      ],
      [
        -8.669543,
        37.091836,
        30.23492
      ],
      [
        -8.669598,
        37.09168,
        28.4727
      ],
      [
        -8.669616,
        37.091564,
        26.54712
      ],
      [
        -8.669632,
        37.091438,
        24.27678
      ],
      [
        -8.669677,
        37.091313,
        23.08592
      ],
      [
        -8.66971,
        37.091288,
        23.16279
      ],
      [
        -8.669749,
        37.091204,
        23.28343
      ],
      [
        -8.669782,
        37.091189,
        23.5826
      ],
      [
        -8.669834,
        37.091157,
        24.08419
      ],
      [
        -8.669889,
        37.091139,
        24.65153
      ],
      [
        -8.669965,
        37.091141,
        25.46248
      ],
      [
        -8.670099,
        37.091154,
        27.24018
      ],
      [
        -8.670218,
        37.091165,
        28.98156
      ],
      [
        -8.670655,
        37.091218,
        32.04122
      ],
      [
        -8.670806,
        37.091237,
        33.17925
      ],
      [
        -8.670969,
        37.091271,
        33.8052
      ],
      [
        -8.671045,
        37.091284,
        34.02058
      ],
      [
        -8.67113,
        37.091278,
        34.4672
      ],
      [
        -8.671194,
        37.091266,
        34.98013
      ],
      [
        -8.671262,
        37.091223,
        35.68979
      ],
      [
        -8.671174,
        37.091106,
        35.42912
      ],
      [
        -8.67113,
        37.091076,
        35.29942
      ],
      [
        -8.671069,
        37.091081,
        34.98137
      ],
      [
        -8.670974,
        37.091089,
        34.65022
      ],
      [
        -8.670913,
        37.091095,
        34.44203
      ],
      [
        -8.670808,
        37.09106,
        34.29625
      ],
      [
        -8.670671,
        37.090992,
        34.30045
      ],
      [
        -8.670549,
        37.090923,
        34.63549
      ],
      [
        -8.670516,
        37.090892,
        34.94116
      ],
      [
        -8.670493,
        37.090803,
        36.03039
      ],
      [
        -8.670467,
        37.090613,
        37.90111
      ],
      [
        -8.670448,
        37.090488,
        38.9823
      ],
      [
        -8.670408,
        37.090433,
        39.32598
      ],
      [
        -8.670307,
        37.09034,
        40.16376
      ],
      [
        -8.670065,
        37.090238,
        39.6432
      ],
      [
        -8.670012,
        37.09022,
        39.1657
      ],
      [
        -8.669993,
        37.090206,
        39.09974
      ],
      [
        -8.669996,
        37.090181,
        39.59711
      ],
      [
        -8.670143,
        37.089838,
        47.40607
      ],
      [
        -8.670157,
        37.08978,
        48.21711
      ],
      [
        -8.670144,
        37.089738,
        48.6542
      ],
      [
        -8.669958,
        37.089455,
        51.06602
      ],
      [
        -8.669902,
        37.089379,
        52.0037
      ],
      [
        -8.6697,
        37.089208,
        53.00321
      ],
      [
        -8.6696,
        37.089143,
        52.92135
      ],
      [
        -8.669536,
        37.089072,
        52.82827
      ],
      [
        -8.669522,
        37.088673,
        51.00297
      ],
      [
        -8.669636,
        37.088574,
        49.51934
      ],
      [
        -8.669771,
        37.088466,
        48.26953
      ],
      [
        -8.669921,
        37.088359,
        47.67879
      ],
      [
        -8.670197,
        37.088213,
        48.96146
      ],
      [
        -8.670407,
        37.088107,
        49.5414
      ],
      [
        -8.670583,
        37.087979,
        49.25173
      ],
      [
        -8.670626,
        37.087879,
        48.23093
      ],
      [
        -8.670694,
        37.087836,
        48.01609
      ],
      [
        -8.670703,
        37.087833,
        48.01804
      ],
      [
        -8.670831,
        37.087762,
        47.88447
      ],
      [
        -8.670946,
        37.087716,
        48.07973
      ],
      [
        -8.671026,
        37.087679,
        48.26283
      ],
      [
        -8.671011,
        37.087632,
        48.07073
      ],
      [
        -8.670955,
        37.087538,
        47.61032
      ],
      [
        -8.670901,
        37.087488,
        47.2226
      ],
      [
        -8.670701,
        37.087423,
        46.19003
      ],
      [
        -8.670499,
        37.08735,
        45.20205
      ],
      [
        -8.670151,
        37.087233,
        45.07458
      ],
      [
        -8.669916,
        37.087165,
        44.91465
      ],
      [
        -8.669773,
        37.087123,
        44.21621
      ],
      [
        -8.669604,
        37.087084,
        42.95744
      ],
      [
        -8.669598,
        37.087085,
        42.88231
      ],
      [
        -8.669463,
        37.087066,
        41.32687
      ],
      [
        -8.669402,
        37.08703,
        40.78173
      ],
      [
        -8.669388,
        37.087,
        40.85289
      ],
      [
        -8.669364,
        37.086717,
        43.24308
      ],
      [
        -8.669352,
        37.086641,
        43.58429
      ],
      [
        -8.669325,
        37.086484,
        43.47667
      ],
      [
        -8.669292,
        37.08637,
        42.96875
      ],
      [
        -8.669275,
        37.086211,
        42.182
      ],
      [
        -8.669229,
        37.086005,
        41.39866
      ],
      [
        -8.669225,
        37.08586,
        41.44056
      ],
      [
        -8.669213,
        37.085805,
        41.45197
      ],
      [
        -8.669186,
        37.085764,
        41.34779
      ],
      [
        -8.669127,
        37.0857,
        41.033
      ],
      [
        -8.669071,
        37.085606,
        40.83882
      ],
      [
        -8.669019,
        37.08547,
        40.80967
      ],
      [
        -8.668976,
        37.085401,
        40.60703
      ],
      [
        -8.668963,
        37.085376,
        40.55329
      ],
      [
        -8.668887,
        37.085292,
        39.94992
      ],
      [
        -8.668573,
        37.084859,
        38.09969
      ],
      [
        -8.668516,
        37.084838,
        37.63262
      ],
      [
        -8.668462,
        37.08482,
        37.14946
      ],
      [
        -8.668432,
        37.084772,
        37.01431
      ],
      [
        -8.66844,
        37.084729,
        37.30611
      ],
      [
        -8.668489,
        37.08467,
        38.12365
      ],
      [
        -8.668565,
        37.084615,
        39.17743
      ],
      [
        -8.66867,
        37.08457,
        40.35592
      ],
      [
        -8.668821,
        37.084532,
        41.5316
      ],
      [
        -8.668941,
        37.08453,
        42.77177
      ],
      [
        -8.669072,
        37.084555,
        44.52971
      ],
      [
        -8.669125,
        37.084527,
        45.58392
      ],
      [
        -8.669146,
        37.0845,
        46.15441
      ],
      [
        -8.669103,
        37.084436,
        46.34084
      ],
      [
        -8.66905,
        37.084375,
        46.36446
      ],
      [
        -8.668851,
        37.084303,
        45.16429
      ],
      [
        -8.668753,
        37.084262,
        44.9675
      ],
      [
        -8.668689,
        37.084203,
        45.25445
      ],
      [
        -8.668639,
        37.084097,
        46.41589
      ],
      [
        -8.668613,
        37.084005,
        47.83602
      ],
      [
        -8.668614,
        37.083949,
        48.61927
      ],
      [
        -8.668648,
        37.083847,
        49.17197
      ],
      [
        -8.668737,
        37.083719,
        48.38233
      ],
      [
        -8.668803,
        37.083644,
        47.85467
      ],
      [
        -8.668842,
        37.083606,
        47.64242
      ],
      [
        -8.668899,
        37.083575,
        47.55453
      ],
      [
        -8.669078,
        37.083511,
        47.34703
      ],
      [
        -8.669287,
        37.083446,
        47.14101
      ],
      [
        -8.669362,
        37.083422,
        46.95414
      ],
      [
        -8.669442,
        37.08336,
        46.30671
      ],
      [
        -8.669532,
        37.083309,
        46.36058
      ],
      [
        -8.669601,
        37.083292,
        46.7813
      ],
      [
        -8.669693,
        37.083276,
        47.36364
      ],
      [
        -8.669695,
        37.083276,
        47.37745
      ],
      [
        -8.669757,
        37.083261,
        47.63261
      ],
      [
        -8.669824,
        37.08319,
        47.47742
      ],
      [
        -8.669872,
        37.083095,
        47.27214
      ],
      [
        -8.669911,
        37.082995,
        47.3505
      ],
      [
        -8.669812,
        37.082702,
        47.02952
      ],
      [
        -8.669699,
        37.082356,
        48.11065
      ],
      [
        -8.669506,
        37.081735,
        42.68894
      ],
      [
        -8.669401,
        37.081441,
        42.49249
      ],
      [
        -8.669283,
        37.081325,
        43.09615
      ],
      [
        -8.669284,
        37.081289,
        43.52658
      ],
      [
        -8.669259,
        37.081235,
        44.14781
      ],
      [
        -8.669229,
        37.081159,
        44.95433
      ],
      [
        -8.669169,
        37.081103,
        45.05888
      ],
      [
        -8.66912,
        37.081043,
        44.94464
      ],
      [
        -8.669099,
        37.080953,
        44.82679
      ],
      [
        -8.669107,
        37.08061,
        40.56183
      ],
      [
        -8.669094,
        37.080163,
        26.28776
      ],
      [
        -8.669113,
        37.080127,
        24.04973
      ],
      [
        -8.669164,
        37.080109,
        22.13047
      ],
      [
        -8.669207,
        37.080117,
        21.79084
      ],
      [
        -8.669251,
        37.080146,
        22.5046
      ],
      [
        -8.669427,
        37.080265,
        23.86157
      ],
      [
        -8.669557,
        37.080354,
        24.77176
      ],
      [
        -8.669735,
        37.080565,
        29.01192
      ],
      [
        -8.669776,
        37.080607,
        29.72354
      ],
      [
        -8.66984,
        37.08062,
        27.84791
      ],
      [
        -8.669936,
        37.080639,
        25.12479
      ],
      [
        -8.670129,
        37.080708,
        24.54183
      ],
      [
        -8.670291,
        37.080726,
        23.43202
      ],
      [
        -8.670413,
        37.080767,
        24.11018
      ],
      [
        -8.670421,
        37.080777,
        24.56492
      ],
      [
        -8.670434,
        37.080877,
        28.83959
      ],
      [
        -8.670443,
        37.080906,
        29.74492
      ],
      [
        -8.670462,
        37.080946,
        30.73912
      ],
      [
        -8.670486,
        37.08098,
        31.30551
      ],
      [
        -8.670491,
        37.081001,
        31.75063
      ],
      [
        -8.670495,
        37.081078,
        33.51934
      ],
      [
        -8.670498,
        37.081098,
        33.9403
      ],
      [
        -8.670539,
        37.081199,
        35.37487
      ],
      [
        -8.670546,
        37.081212,
        35.48958
      ],
      [
        -8.670594,
        37.081284,
        35.78617
      ],
      [
        -8.670605,
        37.081295,
        35.71415
      ],
      [
        -8.670707,
        37.081374,
        34.35862
      ],
      [
        -8.670813,
        37.081437,
        32.85581
      ],
      [
        -8.670904,
        37.081578,
        35.36756
      ],
      [
        -8.671053,
        37.081691,
        35.16912
      ],
      [
        -8.671067,
        37.081695,
        34.95976
      ],
      [
        -8.671322,
        37.081741,
        31.42684
      ],
      [
        -8.671396,
        37.081761,
        30.36814
      ],
      [
        -8.671461,
        37.081792,
        29.57023
      ],
      [
        -8.671494,
        37.081813,
        29.29178
      ],
      [
        -8.671531,
        37.081911,
        31.04976
      ],
      [
        -8.671543,
        37.08193,
        31.27009
      ],
      [
        -8.671623,
        37.082019,
        31.69744
      ],
      [
        -8.671682,
        37.0822,
        34.25296
      ],
      [
        -8.671676,
        37.082209,
        34.55496
      ],
      [
        -8.671402,
        37.082269,
        40.53952
      ],
      [
        -8.671396,
        37.082282,
        40.87321
      ],
      [
        -8.671403,
        37.082303,
        41.10985
      ],
      [
        -8.67149,
        37.082411,
        41.53435
      ],
      [
        -8.671571,
        37.082555,
        41.97774
      ],
      [
        -8.671596,
        37.082579,
        41.7998
      ],
      [
        -8.67172,
        37.08267,
        40.76677
      ],
      [
        -8.671775,
        37.082704,
        40.29753
      ],
      [
        -8.67191,
        37.082771,
        39.29221
      ],
      [
        -8.671977,
        37.082798,
        38.97616
      ],
      [
        -8.672017,
        37.082811,
        38.82113
      ],
      [
        -8.672097,
        37.08283,
        38.48335
      ],
      [
        -8.672182,
        37.082855,
        38.248
      ],
      [
        -8.672218,
        37.082872,
        38.27219
      ],
      [
        -8.67232,
        37.082919,
        38.00991
      ],
      [
        -8.672351,
        37.082928,
        37.75482
      ],
      [
        -8.672382,
        37.082932,
        37.38867
      ],
      [
        -8.67242,
        37.082925,
        36.6759
      ],
      [
        -8.67251,
        37.082889,
        34.88204
      ],
      [
        -8.672625,
        37.082876,
        34.68419
      ],
      [
        -8.672669,
        37.082887,
        35.21966
      ],
      [
        -8.672834,
        37.082945,
        37.1297
      ],
      [
        -8.672994,
        37.082981,
        37.92087
      ],
      [
        -8.673143,
        37.083021,
        38.52936
      ],
      [
        -8.673247,
        37.083023,
        38.53472
      ],
      [
        -8.673464,
        37.083006,
        39.50575
      ],
      [
        -8.673639,
        37.082983,
        40.60935
      ],
      [
        -8.673791,
        37.082952,
        40.90083
      ],
      [
        -8.674131,
        37.082872,
        42.41303
      ],
      [
        -8.674188,
        37.082849,
        42.46595
      ],
      [
        -8.674285,
        37.082786,
        41.70121
      ],
      [
        -8.674349,
        37.082755,
        41.06193
      ],
      [
        -8.674406,
        37.082736,
        40.59947
      ],
      [
        -8.674578,
        37.082693,
        39.13654
      ],
      [
        -8.674702,
        37.082676,
        37.88479
      ],
      [
        -8.674822,
        37.082688,
        37.81012
      ],
      [
        -8.67486,
        37.082704,
        38.47082
      ],
      [
        -8.674895,
        37.082743,
        40.3836
      ],
      [
        -8.67493,
        37.082807,
        42.88561
      ],
      [
        -8.674986,
        37.082935,
        46.09093
      ],
      [
        -8.67502,
        37.083055,
        47.87402
      ],
      [
        -8.675039,
        37.083185,
        48.3221
      ],
      [
        -8.675071,
        37.083383,
        47.96912
      ],
      [
        -8.675074,
        37.083552,
        47.82327
      ],
      [
        -8.675071,
        37.083689,
        47.85946
      ],
      [
        -8.675029,
        37.083889,
        48.04182
      ],
      [
        -8.675014,
        37.083986,
        48.07511
      ],
      [
        -8.675017,
        37.084015,
        48.10308
      ],
      [
        -8.67509,
        37.08409,
        48.37445
      ],
      [
        -8.675203,
        37.084213,
        48.74794
      ],
      [
        -8.675283,
        37.084286,
        48.77185
      ],
      [
        -8.675345,
        37.084336,
        48.6206
      ],
      [
        -8.675391,
        37.084361,
        48.49089
      ],
      [
        -8.675523,
        37.084396,
        48.21289
      ],
      [
        -8.675593,
        37.084396,
        48.17738
      ],
      [
        -8.675686,
        37.084389,
        48.10182
      ],
      [
        -8.675815,
        37.084402,
        48.06932
      ],
      [
        -8.675942,
        37.08443,
        48.68684
      ],
      [
        -8.676011,
        37.084439,
        49.26181
      ],
      [
        -8.676106,
        37.084444,
        49.96994
      ],
      [
        -8.676201,
        37.084445,
        50.47175
      ],
      [
        -8.676334,
        37.08444,
        50.90539
      ],
      [
        -8.67645,
        37.08444,
        50.87813
      ],
      [
        -8.676508,
        37.08444,
        50.70045
      ],
      [
        -8.676525,
        37.08443,
        50.48149
      ],
      [
        -8.676538,
        37.084411,
        50.12763
      ],
      [
        -8.676564,
        37.084366,
        49.24107
      ],
      [
        -8.6766,
        37.084336,
        48.41133
      ],
      [
        -8.676665,
        37.084311,
        47.32031
      ],
      [
        -8.676769,
        37.084303,
        46.27547
      ],
      [
        -8.677024,
        37.084318,
        44.19656
      ],
      [
        -8.677126,
        37.084341,
        43.92897
      ],
      [
        -8.677245,
        37.084394,
        44.98597
      ],
      [
        -8.677486,
        37.084516,
        44.78264
      ],
      [
        -8.677597,
        37.08458,
        45.33325
      ],
      [
        -8.677673,
        37.084617,
        45.97253
      ],
      [
        -8.677974,
        37.084737,
        49.06024
      ],
      [
        -8.678208,
        37.084849,
        51.74556
      ],
      [
        -8.678301,
        37.0849,
        53.07908
      ],
      [
        -8.678531,
        37.085051,
        56.59027
      ],
      [
        -8.678557,
        37.085076,
        57.00138
      ],
      [
        -8.678633,
        37.085079,
        57.20255
      ],
      [
        -8.678657,
        37.08506,
        56.99202
      ],
      [
        -8.679005,
        37.08468,
        46.79321
      ],
      [
        -8.679053,
        37.084666,
        45.93567
      ],
      [
        -8.679097,
        37.084689,
        46.50411
      ],
      [
        -8.679171,
        37.084752,
        47.89894
      ],
      [
        -8.679251,
        37.084822,
        48.93495
      ],
      [
        -8.679316,
        37.084834,
        48.34725
      ],
      [
        -8.679428,
        37.084947,
        49.94464
      ],
      [
        -8.679473,
        37.084989,
        50.45155
      ],
      [
        -8.679455,
        37.085029,
        51.48599
      ],
      [
        -8.679412,
        37.085082,
        52.86926
      ],
      [
        -8.679405,
        37.085105,
        53.28839
      ],
      [
        -8.679421,
        37.08513,
        53.48458
      ],
      [
        -8.67952,
        37.085207,
        53.42114
      ],
      [
        -8.67957,
        37.085232,
        53.10895
      ],
      [
        -8.679837,
        37.085274,
        51.39957
      ],
      [
        -8.680197,
        37.085398,
        51.19089
      ],
      [
        -8.680342,
        37.085423,
        51.45362
      ],
      [
        -8.680395,
        37.08545,
        51.81287
      ],
      [
        -8.680554,
        37.085741,
        52.52279
      ],
      [
        -8.680902,
        37.08638,
        54.84037
      ],
      [
        -8.680972,
        37.08643,
        54.45159
      ],
      [
        -8.681161,
        37.086553,
        53.2842
      ],
      [
        -8.681365,
        37.086774,
        53.07915
      ],
      [
        -8.681578,
        37.086988,
        52.39105
      ],
      [
        -8.681617,
        37.087015,
        52.32851
      ],
      [
        -8.681678,
        37.087015,
        52.1814
      ],
      [
        -8.682179,
        37.08676,
        48.80204
      ],
      [
        -8.682529,
        37.086671,
        45.74515
      ],
      [
        -8.682906,
        37.086623,
        42.14884
      ],
      [
        -8.683005,
        37.086632,
        41.9406
      ],
      [
        -8.683078,
        37.086678,
        41.97857
      ],
      [
        -8.683183,
        37.086802,
        42.57763
      ],
      [
        -8.683271,
        37.087012,
        44.30946
      ],
      [
        -8.683451,
        37.087275,
        44.85987
      ],
      [
        -8.68347,
        37.087274,
        44.55859
      ],
      [
        -8.683502,
        37.087252,
        43.86299
      ],
      [
        -8.683618,
        37.087134,
        41.20887
      ],
      [
        -8.683709,
        37.087052,
        39.66156
      ],
      [
        -8.683856,
        37.086976,
        37.62026
      ],
      [
        -8.68433,
        37.086827,
        30.34491
      ],
      [
        -8.685082,
        37.0866,
        24.45448
      ],
      [
        -8.685257,
        37.086539,
        23.94376
      ],
      [
        -8.685731,
        37.086481,
        21.8866
      ],
      [
        -8.686025,
        37.086478,
        19.90714
      ],
      [
        -8.686151,
        37.086474,
        18.89011
      ],
      [
        -8.686318,
        37.086437,
        16.89257
      ],
      [
        -8.686624,
        37.086327,
        15.64142
      ],
      [
        -8.686886,
        37.086261,
        13.90703
      ],
      [
        -8.6872,
        37.086186,
        10.20375
      ],
      [
        -8.687355,
        37.08614,
        8.22924
      ],
      [
        -8.687438,
        37.086063,
        6.99371
      ],
      [
        -8.687532,
        37.085993,
        5.83447
      ],
      [
        -8.687852,
        37.085837,
        2.86838
      ],
      [
        -8.688091,
        37.085832,
        2.99126
      ],
      [
        -8.688399,
        37.085933,
        3.492
      ],
      [
        -8.688637,
        37.085912,
        4.44447
      ],
      [
        -8.688994,
        37.085855,
        7.18215
      ],
      [
        -8.689106,
        37.085899,
        8.87516
      ],
      [
        -8.689176,
        37.085936,
        10.15833
      ],
      [
        -8.689253,
        37.085922,
        11.07344
      ],
      [
        -8.689365,
        37.08593,
        12.86031
      ],
      [
        -8.689615,
        37.085937,
        17.37188
      ],
      [
        -8.689897,
        37.08596,
        22.74563
      ],
      [
        -8.69012,
        37.085976,
        24.91996
      ],
      [
        -8.690205,
        37.085987,
        25.19652
      ],
      [
        -8.690298,
        37.086009,
        25.5952
      ],
      [
        -8.690406,
        37.086026,
        25.77033
      ],
      [
        -8.690592,
        37.086003,
        25.05211
      ],
      [
        -8.690814,
        37.085958,
        23.87515
      ],
      [
        -8.690889,
        37.085945,
        23.6829
      ],
      [
        -8.690965,
        37.085918,
        23.29296
      ],
      [
        -8.691049,
        37.085887,
        22.95846
      ],
      [
        -8.691143,
        37.085863,
        22.91375
      ],
      [
        -8.69133,
        37.085862,
        24.27615
      ],
      [
        -8.691485,
        37.085874,
        25.87474
      ],
      [
        -8.69163,
        37.085904,
        28.19186
      ],
      [
        -8.691681,
        37.085908,
        28.66392
      ],
      [
        -8.691824,
        37.085877,
        27.97232
      ],
      [
        -8.691941,
        37.085862,
        27.74478
      ],
      [
        -8.692035,
        37.085871,
        27.95623
      ],
      [
        -8.692284,
        37.085923,
        30.10215
      ],
      [
        -8.692383,
        37.085934,
        31.50884
      ],
      [
        -8.692536,
        37.085902,
        32.21185
      ],
      [
        -8.692657,
        37.085831,
        31.6498
      ],
      [
        -8.692815,
        37.085759,
        32.47181
      ],
      [
        -8.693083,
        37.085694,
        31.02552
      ],
      [
        -8.693351,
        37.085612,
        27.0381
      ],
      [
        -8.693473,
        37.085563,
        26.36644
      ],
      [
        -8.693596,
        37.085552,
        27.67642
      ],
      [
        -8.693705,
        37.08553,
        28.7834
      ],
      [
        -8.693929,
        37.085506,
        32.22875
      ],
      [
        -8.694161,
        37.085497,
        35.92516
      ],
      [
        -8.694287,
        37.085491,
        36.71432
      ],
      [
        -8.694372,
        37.085463,
        36.27785
      ],
      [
        -8.694541,
        37.085399,
        36.14933
      ],
      [
        -8.694696,
        37.085377,
        37.40969
      ],
      [
        -8.694926,
        37.085372,
        40.61338
      ],
      [
        -8.695168,
        37.085346,
        40.10105
      ],
      [
        -8.695305,
        37.08534,
        39.39381
      ],
      [
        -8.695563,
        37.085338,
        39.58359
      ],
      [
        -8.695746,
        37.085335,
        40.16508
      ],
      [
        -8.695925,
        37.085319,
        40.33843
      ],
      [
        -8.696084,
        37.085301,
        40.16846
      ],
      [
        -8.696297,
        37.085317,
        39.73153
      ],
      [
        -8.696565,
        37.085322,
        38.94584
      ],
      [
        -8.69674,
        37.085296,
        39.34949
      ],
      [
        -8.696954,
        37.085282,
        44.35848
      ],
      [
        -8.697063,
        37.085286,
        46.49326
      ],
      [
        -8.697226,
        37.085291,
        48.53178
      ],
      [
        -8.697327,
        37.085298,
        48.90625
      ],
      [
        -8.697438,
        37.085296,
        48.28458
      ],
      [
        -8.697659,
        37.08529,
        46.33772
      ],
      [
        -8.69788,
        37.085309,
        46.67514
      ],
      [
        -8.698002,
        37.085292,
        46.3279
      ],
      [
        -8.69845,
        37.08523,
        47.87713
      ],
      [
        -8.698783,
        37.085204,
        51.49493
      ],
      [
        -8.698888,
        37.085208,
        53.7096
      ],
      [
        -8.699008,
        37.085152,
        53.03946
      ],
      [
        -8.6992,
        37.085108,
        54.24089
      ],
      [
        -8.699243,
        37.085085,
        53.36197
      ],
      [
        -8.699273,
        37.085087,
        53.67634
      ],
      [
        -8.699328,
        37.085119,
        55.66742
      ],
      [
        -8.6994,
        37.085141,
        57.09123
      ],
      [
        -8.699491,
        37.085142,
        57.61656
      ],
      [
        -8.699582,
        37.085099,
        55.70365
      ],
      [
        -8.699661,
        37.085062,
        53.97197
      ],
      [
        -8.700081,
        37.084912,
        49.53082
      ],
      [
        -8.70036,
        37.084819,
        49.43136
      ],
      [
        -8.700581,
        37.084782,
        52.52642
      ],
      [
        -8.700805,
        37.084788,
        56.5547
      ],
      [
        -8.700999,
        37.084791,
        55.74562
      ],
      [
        -8.701119,
        37.084774,
        53.82564
      ],
      [
        -8.701278,
        37.084749,
        51.37565
      ],
      [
        -8.701458,
        37.084708,
        47.46179
      ],
      [
        -8.701559,
        37.084699,
        45.71645
      ],
      [
        -8.701668,
        37.084696,
        44.55787
      ],
      [
        -8.701759,
        37.084703,
        44.50868
      ],
      [
        -8.701993,
        37.084746,
        48.28333
      ],
      [
        -8.702083,
        37.084758,
        51.28079
      ],
      [
        -8.702181,
        37.084764,
        53.73558
      ],
      [
        -8.702264,
        37.084761,
        53.65015
      ],
      [
        -8.702505,
        37.084724,
        47.05941
      ],
      [
        -8.702642,
        37.084715,
        45.30524
      ],
      [
        -8.702742,
        37.084724,
        45.26035
      ],
      [
        -8.702817,
        37.084734,
        45.6176
      ],
      [
        -8.702898,
        37.084728,
        45.17833
      ],
      [
        -8.703045,
        37.084712,
        44.30722
      ],
      [
        -8.703287,
        37.084679,
        42.60788
      ],
      [
        -8.70343,
        37.08467,
        41.36005
      ],
      [
        -8.703641,
        37.084671,
        39.85522
      ],
      [
        -8.704014,
        37.084693,
        38.05181
      ],
      [
        -8.704139,
        37.084713,
        37.83211
      ],
      [
        -8.704281,
        37.084769,
        39.26129
      ],
      [
        -8.704477,
        37.084851,
        43.22045
      ],
      [
        -8.704673,
        37.084916,
        46.12364
      ],
      [
        -8.704882,
        37.08497,
        48.15653
      ],
      [
        -8.705207,
        37.085097,
        52.74579
      ],
      [
        -8.705264,
        37.085107,
        52.47588
      ],
      [
        -8.705357,
        37.085109,
        49.38079
      ],
      [
        -8.705423,
        37.085117,
        46.98867
      ],
      [
        -8.705466,
        37.085115,
        44.75866
      ],
      [
        -8.705541,
        37.085097,
        40.34477
      ],
      [
        -8.705661,
        37.085067,
        36.0168
      ],
      [
        -8.705765,
        37.085039,
        33.86903
      ],
      [
        -8.705862,
        37.08503,
        34.0164
      ],
      [
        -8.706031,
        37.085046,
        38.38334
      ],
      [
        -8.70615,
        37.085052,
        42.02093
      ],
      [
        -8.706404,
        37.085043,
        49.82854
      ],
      [
        -8.706562,
        37.085037,
        50.90187
      ],
      [
        -8.706691,
        37.085044,
        51.66799
      ],
      [
        -8.706888,
        37.085065,
        52.69144
      ],
      [
        -8.707024,
        37.085094,
        53.95163
      ],
      [
        -8.70712,
        37.08508,
        52.87757
      ],
      [
        -8.707197,
        37.085096,
        53.57371
      ],
      [
        -8.707309,
        37.085132,
        55.41411
      ],
      [
        -8.707431,
        37.085155,
        56.73102
      ],
      [
        -8.707517,
        37.085174,
        58.33921
      ],
      [
        -8.707597,
        37.085173,
        59.92862
      ],
      [
        -8.707755,
        37.08515,
        62.40298
      ],
      [
        -8.707968,
        37.085104,
        60.36833
      ],
      [
        -8.708387,
        37.085038,
        55.8067
      ],
      [
        -8.708495,
        37.085023,
        56.77937
      ],
      [
        -8.708573,
        37.085006,
        57.35919
      ],
      [
        -8.708681,
        37.084973,
        58.30597
      ],
      [
        -8.708839,
        37.084923,
        60.99714
      ],
      [
        -8.709076,
        37.084871,
        63.87126
      ],
      [
        -8.709138,
        37.084849,
        63.3066
      ],
      [
        -8.709286,
        37.084801,
        61.12096
      ],
      [
        -8.709336,
        37.084791,
        60.58842
      ],
      [
        -8.709467,
        37.084775,
        58.91436
      ],
      [
        -8.709517,
        37.084764,
        57.1342
      ],
      [
        -8.709556,
        37.084736,
        53.93897
      ],
      [
        -8.709604,
        37.084705,
        50.2762
      ],
      [
        -8.709655,
        37.084695,
        48.20759
      ],
      [
        -8.709738,
        37.084698,
        47.06345
      ],
      [
        -8.709936,
        37.084675,
        45.31374
      ],
      [
        -8.71006,
        37.084666,
        45.93759
      ],
      [
        -8.710124,
        37.084669,
        47.27408
      ],
      [
        -8.710275,
        37.084658,
        49.21989
      ],
      [
        -8.710368,
        37.084647,
        49.33604
      ],
      [
        -8.710466,
        37.084639,
        49.25496
      ],
      [
        -8.71054,
        37.084643,
        49.56853
      ],
      [
        -8.710585,
        37.084656,
        50.2755
      ],
      [
        -8.710662,
        37.084706,
        52.99584
      ],
      [
        -8.710702,
        37.084746,
        55.32637
      ],
      [
        -8.710813,
        37.084815,
        59.08413
      ],
      [
        -8.711,
        37.084926,
        71.94834
      ],
      [
        -8.711076,
        37.084938,
        75.11509
      ],
      [
        -8.711245,
        37.084938,
        70.75559
      ],
      [
        -8.711526,
        37.084946,
        57.63544
      ],
      [
        -8.711718,
        37.084963,
        51.322
      ],
      [
        -8.711862,
        37.084968,
        46.9856
      ],
      [
        -8.711997,
        37.084989,
        46.76478
      ],
      [
        -8.71213,
        37.085014,
        49.46396
      ],
      [
        -8.712272,
        37.085076,
        55.37752
      ],
      [
        -8.71236,
        37.085119,
        58.11212
      ],
      [
        -8.712498,
        37.085178,
        58.35777
      ],
      [
        -8.712568,
        37.085194,
        58.05334
      ],
      [
        -8.712625,
        37.08524,
        58.5113
      ],
      [
        -8.712661,
        37.085273,
        59.3644
      ],
      [
        -8.712736,
        37.085305,
        60.6854
      ],
      [
        -8.712767,
        37.085329,
        61.54753
      ],
      [
        -8.712996,
        37.085347,
        62.47583
      ],
      [
        -8.713119,
        37.085356,
        64.27176
      ],
      [
        -8.713196,
        37.085352,
        65.75644
      ],
      [
        -8.713308,
        37.085349,
        66.92504
      ],
      [
        -8.713491,
        37.085374,
        62.62859
      ],
      [
        -8.713493,
        37.085374,
        62.53474
      ],
      [
        -8.713662,
        37.085422,
        55.19946
      ],
      [
        -8.713773,
        37.085451,
        48.6158
      ],
      [
        -8.713828,
        37.08548,
        46.36873
      ],
      [
        -8.713901,
        37.085523,
        44.857
      ],
      [
        -8.713985,
        37.085583,
        44.96582
      ],
      [
        -8.71406,
        37.085613,
        44.93084
      ],
      [
        -8.714143,
        37.085624,
        44.61357
      ],
      [
        -8.714267,
        37.085623,
        45.52672
      ],
      [
        -8.714428,
        37.085634,
        50.46623
      ],
      [
        -8.714521,
        37.085657,
        54.30032
      ],
      [
        -8.71463,
        37.085711,
        61.31523
      ],
      [
        -8.714704,
        37.085726,
        63.96653
      ],
      [
        -8.714767,
        37.08573,
        64.93806
      ],
      [
        -8.714858,
        37.085732,
        65.32916
      ],
      [
        -8.714941,
        37.085735,
        65.56334
      ],
      [
        -8.715023,
        37.085743,
        66.44888
      ],
      [
        -8.71511,
        37.085746,
        67.29825
      ],
      [
        -8.715268,
        37.085806,
        71.63907
      ],
      [
        -8.715346,
        37.085853,
        73.80722
      ],
      [
        -8.715507,
        37.085876,
        74.3741
      ],
      [
        -8.715737,
        37.085911,
        73.61367
      ],
      [
        -8.715915,
        37.085943,
        69.98431
      ],
      [
        -8.71608,
        37.086,
        65.44824
      ],
      [
        -8.716201,
        37.086058,
        62.11481
      ],
      [
        -8.716296,
        37.08609,
        58.5368
      ],
      [
        -8.716371,
        37.086142,
        58.8188
      ],
      [
        -8.716401,
        37.086212,
        63.38907
      ],
      [
        -8.716445,
        37.086258,
        66.09375
      ],
      [
        -8.716595,
        37.086308,
        68.27381
      ],
      [
        -8.716812,
        37.086345,
        70.60147
      ],
      [
        -8.716913,
        37.086351,
        71.44868
      ],
      [
        -8.717058,
        37.086349,
        71.4
      ],
      [
        -8.717251,
        37.086367,
        71.24363
      ],
      [
        -8.717498,
        37.086424,
        69.31886
      ],
      [
        -8.717613,
        37.086461,
        69.85052
      ],
      [
        -8.717708,
        37.086509,
        71.3118
      ],
      [
        -8.717827,
        37.086618,
        76.09621
      ],
      [
        -8.717885,
        37.08666,
        78.26113
      ],
      [
        -8.717961,
        37.086685,
        79.86054
      ],
      [
        -8.718059,
        37.086706,
        81.23886
      ],
      [
        -8.718144,
        37.086728,
        82.35904
      ],
      [
        -8.718336,
        37.086715,
        80.48871
      ],
      [
        -8.718504,
        37.08674,
        79.69512
      ],
      [
        -8.718596,
        37.08678,
        80.56561
      ],
      [
        -8.718674,
        37.086867,
        84.01136
      ],
      [
        -8.718674,
        37.086961,
        88.22871
      ],
      [
        -8.718673,
        37.087078,
        91.68245
      ],
      [
        -8.71861,
        37.087372,
        98.14087
      ],
      [
        -8.718597,
        37.087581,
        99.26811
      ],
      [
        -8.718579,
        37.087797,
        98.43254
      ],
      [
        -8.718585,
        37.087946,
        97.27069
      ],
      [
        -8.718574,
        37.088063,
        96.87809
      ],
      [
        -8.718604,
        37.088139,
        96.15319
      ],
      [
        -8.718618,
        37.088176,
        95.91416
      ],
      [
        -8.718632,
        37.088198,
        95.64619
      ],
      [
        -8.718637,
        37.088218,
        95.58737
      ],
      [
        -8.718607,
        37.088266,
        96.32108
      ],
      [
        -8.718576,
        37.088305,
        96.80448
      ],
      [
        -8.718546,
        37.088363,
        96.83143
      ],
      [
        -8.718521,
        37.08839,
        96.8653
      ],
      [
        -8.7185,
        37.088431,
        96.59053
      ],
      [
        -8.718465,
        37.088449,
        96.64954
      ],
      [
        -8.718438,
        37.088466,
        96.59741
      ],
      [
        -8.718416,
        37.088528,
        95.78086
      ],
      [
        -8.718411,
        37.088582,
        94.94342
      ],
      [
        -8.7184,
        37.088613,
        94.51903
      ],
      [
        -8.718378,
        37.088635,
        94.32483
      ],
      [
        -8.718332,
        37.088658,
        94.33528
      ],
      [
        -8.718305,
        37.088674,
        94.32108
      ],
      [
        -8.718302,
        37.088703,
        93.96173
      ],
      [
        -8.718305,
        37.088741,
        93.43851
      ],
      [
        -8.718332,
        37.088764,
        92.81505
      ],
      [
        -8.71832,
        37.088799,
        92.48101
      ],
      [
        -8.718323,
        37.088829,
        92.02192
      ],
      [
        -8.718346,
        37.088873,
        91.00675
      ],
      [
        -8.718343,
        37.088908,
        90.54547
      ],
      [
        -8.718325,
        37.08894,
        90.44284
      ],
      [
        -8.718298,
        37.088974,
        90.53132
      ],
      [
        -8.71826,
        37.089023,
        90.68976
      ],
      [
        -8.718192,
        37.089083,
        91.31168
      ],
      [
        -8.718143,
        37.089157,
        91.45705
      ],
      [
        -8.718113,
        37.08922,
        91.51268
      ],
      [
        -8.718098,
        37.08934,
        90.98805
      ],
      [
        -8.7181,
        37.089453,
        89.71282
      ],
      [
        -8.718104,
        37.089473,
        89.29589
      ],
      [
        -8.718128,
        37.089488,
        88.29065
      ],
      [
        -8.718143,
        37.08948,
        87.92519
      ],
      [
        -8.718189,
        37.08943,
        87.1814
      ],
      [
        -8.718215,
        37.089376,
        87.14425
      ],
      [
        -8.718251,
        37.089322,
        86.82955
      ],
      [
        -8.71829,
        37.089249,
        86.8484
      ],
      [
        -8.718311,
        37.089225,
        86.65743
      ],
      [
        -8.718341,
        37.089214,
        86.0025
      ],
      [
        -8.718376,
        37.08921,
        85.02214
      ],
      [
        -8.718395,
        37.089213,
        84.3655
      ],
      [
        -8.718421,
        37.089252,
        82.79879
      ],
      [
        -8.718448,
        37.089313,
        80.77319
      ],
      [
        -8.718515,
        37.08937,
        77.60693
      ],
      [
        -8.718558,
        37.089397,
        75.93701
      ],
      [
        -8.718611,
        37.089401,
        74.4875
      ],
      [
        -8.718642,
        37.08942,
        73.57625
      ],
      [
        -8.718673,
        37.089435,
        72.81597
      ],
      [
        -8.718697,
        37.089438,
        72.36072
      ],
      [
        -8.71872,
        37.089429,
        72.05638
      ],
      [
        -8.718741,
        37.089412,
        71.84931
      ],
      [
        -8.718757,
        37.089402,
        71.65524
      ],
      [
        -8.718778,
        37.089402,
        71.30745
      ],
      [
        -8.718808,
        37.08942,
        70.70095
      ],
      [
        -8.718825,
        37.089464,
        70.046
      ],
      [
        -8.718884,
        37.089521,
        68.27866
      ],
      [
        -8.718921,
        37.08957,
        66.73833
      ],
      [
        -8.719003,
        37.089619,
        63.81304
      ],
      [
        -8.71911,
        37.089668,
        60.20279
      ],
      [
        -8.71919,
        37.089672,
        58.30746
      ],
      [
        -8.719265,
        37.089714,
        56.16736
      ],
      [
        -8.719366,
        37.089735,
        54.10088
      ],
      [
        -8.719457,
        37.08972,
        52.82645
      ],
      [
        -8.719484,
        37.0897,
        52.64107
      ],
      [
        -8.719514,
        37.089615,
        53.09997
      ],
      [
        -8.719605,
        37.089561,
        51.84723
      ],
      [
        -8.719781,
        37.08944,
        49.01411
      ],
      [
        -8.719853,
        37.089416,
        47.99166
      ],
      [
        -8.720066,
        37.089389,
        45.38014
      ],
      [
        -8.720315,
        37.089313,
        43.09395
      ],
      [
        -8.720375,
        37.089296,
        42.67424
      ],
      [
        -8.720488,
        37.089275,
        41.83987
      ],
      [
        -8.720524,
        37.089268,
        41.559
      ],
      [
        -8.720709,
        37.089217,
        40.02745
      ],
      [
        -8.720763,
        37.089239,
        39.84608
      ],
      [
        -8.720919,
        37.089297,
        39.56494
      ],
      [
        -8.721252,
        37.089381,
        39.19678
      ],
      [
        -8.721469,
        37.089448,
        38.77387
      ],
      [
        -8.72159,
        37.089527,
        38.3653
      ],
      [
        -8.721636,
        37.08958,
        38.00667
      ],
      [
        -8.721688,
        37.089621,
        37.42455
      ],
      [
        -8.721747,
        37.089624,
        36.79953
      ],
      [
        -8.721863,
        37.089581,
        35.54786
      ],
      [
        -8.722028,
        37.089456,
        33.56408
      ],
      [
        -8.722169,
        37.089402,
        31.34272
      ],
      [
        -8.722316,
        37.089321,
        29.59862
      ],
      [
        -8.722605,
        37.089056,
        28.55488
      ],
      [
        -8.722826,
        37.088784,
        26.34641
      ],
      [
        -8.723024,
        37.088647,
        22.17642
      ],
      [
        -8.723173,
        37.088503,
        21.44274
      ],
      [
        -8.723502,
        37.088308,
        14.5252
      ],
      [
        -8.723852,
        37.088237,
        10.65342
      ],
      [
        -8.724516,
        37.08755,
        9.6776
      ],
      [
        -8.724817,
        37.087263,
        9.81387
      ],
      [
        -8.725,
        37.087163,
        8.78759
      ],
      [
        -8.725181,
        37.087096,
        8.04461
      ],
      [
        -8.725368,
        37.087126,
        7.85076
      ],
      [
        -8.725563,
        37.087234,
        8.01932
      ],
      [
        -8.725698,
        37.087361,
        7.87033
      ],
      [
        -8.725798,
        37.087561,
        6.91015
      ],
      [
        -8.725877,
        37.087658,
        6.14423
      ],
      [
        -8.726196,
        37.089439,
        5.733
      ]
    ]
  }
}
