{
  "type": "Feature",
  "properties": {},
  "geometry": {
    "type": "LineString",
    "coordinates": [
      [
        -8.895218,
        37.190684
      ],
      [
        -8.897465,
        37.191979
      ],
      [
        -8.901508,
        37.192487
      ],
      [
        -8.904234,
        37.19619
      ],
      [
        -8.901833,
        37.200215
      ],
      [
        -8.896738,
        37.2047
      ],
      [
        -8.893376,
        37.207383
      ],
      [
        -8.890159,
        37.211763
      ],
      [
        -8.884773,
        37.218205
      ],
      [
        -8.881413,
        37.220653
      ],
      [
        -8.877644,
        37.219278
      ],
      [
        -8.87376,
        37.22079
      ],
      [
        -8.876327,
        37.21952
      ],
      [
        -8.87023,
        37.225492
      ],
      [
        -8.87376,
        37.22079
      ],
      [
        -8.869973,
        37.22571
      ],
      [
        -8.867397,
        37.227345
      ],
      [
        -8.864804,
        37.227727
      ],
      [
        -8.860811,
        37.230617
      ],
      [
        -8.856493,
        37.234037
      ],
      [
        -8.853076,
        37.236764
      ],
      [
        -8.850846,
        37.238495
      ],
      [
        -8.842387,
        37.240542
      ],
      [
        -8.841393,
        37.240713
      ],
      [
        -8.840663,
        37.241543
      ],
      [
        -8.836966,
        37.245739
      ],
      [
        -8.835575,
        37.250309
      ],
      [
        -8.838255,
        37.255258
      ],
      [
        -8.844637,
        37.262416
      ],
      [
        -8.84949,
        37.264062
      ],
      [
        -8.857165,
        37.268185
      ],
      [
        -8.859882,
        37.269722
      ],
      [
        -8.859499,
        37.273119
      ],
      [
        -8.856315,
        37.276997
      ],
      [
        -8.856146,
        37.27977
      ],
      [
        -8.855751,
        37.282605
      ],
      [
        -8.854024,
        37.283904
      ],
      [
        -8.851797,
        37.284709
      ],
      [
        -8.850463,
        37.286424
      ],
      [
        -8.853706,
        37.288797
      ],
      [
        -8.856326,
        37.292031
      ],
      [
        -8.859678,
        37.292895
      ],
      [
        -8.861266,
        37.294697
      ],
      [
        -8.865166,
        37.295786
      ],
      [
        -8.864423,
        37.29589
      ]
    ]
  }
}
