{
  "type": "Feature",
  "properties": {},
  "geometry": {
    "type": "LineString",
    "coordinates": [
      [
        100.04707351326942,
        9.472006559371948
      ],
      [
        100.04709932953119,
        9.472009995952249
      ],
      [
        100.04694049246609,
        9.472066825255752
      ],
      [
        100.04691735841334,
        9.47207696735859
      ],
      [
        100.04675148054957,
        9.472139328718185
      ],
      [
        100.04662030376494,
        9.472173862159252
      ],
      [
        100.0464632268995,
        9.472277127206326
      ],
      [
        100.04633733071387,
        9.47233010083437
      ],
      [
        100.04631645977497,
        9.472338650375605
      ],
      [
        100.04629231989384,
        9.4723492115736
      ],
      [
        100.04627295769751,
        9.472352899610996
      ],
      [
        100.04624613560736,
        9.472357090562582
      ],
      [
        100.04621772095561,
        9.472371758893132
      ],
      [
        100.04619467072189,
        9.472373267635703
      ],
      [
        100.04614002071321,
        9.472396401688457
      ],
      [
        100.04609660245478,
        9.472404448315501
      ],
      [
        100.04597900435328,
        9.472444597631693
      ],
      [
        100.04596810787916,
        9.47244686074555
      ],
      [
        100.04593583755195,
        9.472445352002978
      ],
      [
        100.04574548453093,
        9.472462283447385
      ],
      [
        100.04561045207083,
        9.472505450248718
      ],
      [
        100.04543996416032,
        9.472608044743538
      ],
      [
        100.04536041989923,
        9.472644506022334
      ],
      [
        100.04527299664915,
        9.472688091918826
      ],
      [
        100.04509991034865,
        9.472753051668406
      ],
      [
        100.04495238885283,
        9.472787752747536
      ],
      [
        100.04479975439608,
        9.472864866256714
      ],
      [
        100.04477871581912,
        9.472876684740186
      ],
      [
        100.04471350461245,
        9.472912894561887
      ],
      [
        100.04466522485018,
        9.472951032221317
      ],
      [
        100.04463924095035,
        9.47296293452382
      ],
      [
        100.04453337751329,
        9.47298338636756
      ],
      [
        100.04441569559276,
        9.473027223721147
      ],
      [
        100.04437345080078,
        9.473029151558876
      ],
      [
        100.04425342194736,
        9.473039796575904
      ],
      [
        100.04417572170496,
        9.473061673343182
      ],
      [
        100.0441113486886,
        9.473072402179241
      ],
      [
        100.0440698582679,
        9.473079107701778
      ],
      [
        100.04392577335238,
        9.47311531752348
      ],
      [
        100.04382066428661,
        9.473140211775899
      ],
      [
        100.04372963681817,
        9.473158903419971
      ],
      [
        100.04361690022051,
        9.473185390233994
      ],
      [
        100.043570632115,
        9.473203159868717
      ],
      [
        100.04356015473604,
        9.473210871219635
      ],
      [
        100.04349167458713,
        9.47322671301663
      ],
      [
        100.04331473261118,
        9.473276166245341
      ],
      [
        100.04323275759816,
        9.473295947536826
      ],
      [
        100.04322345368564,
        9.473298965021968
      ],
      [
        100.04304223693907,
        9.47335965000093
      ],
      [
        100.0430026743561,
        9.473352944478393
      ],
      [
        100.04297208040953,
        9.473351771011949
      ],
      [
        100.04296252503991,
        9.473354537039995
      ],
      [
        100.04291977733374,
        9.473364427685738
      ],
      [
        100.04283260554075,
        9.473398039117455
      ],
      [
        100.0427732616663,
        9.473416982218623
      ],
      [
        100.04273939877748,
        9.473440451547503
      ],
      [
        100.04258726723492,
        9.473516643047333
      ],
      [
        100.04254225641489,
        9.473537849262357
      ],
      [
        100.04249582067132,
        9.473558049649
      ],
      [
        100.04248484037817,
        9.473563246428967
      ],
      [
        100.0423797313124,
        9.473596774041653
      ],
      [
        100.04225425422192,
        9.473694255575538
      ],
      [
        100.04223204217851,
        9.473705654963851
      ],
      [
        100.04211620427668,
        9.473742619156837
      ],
      [
        100.04208653233945,
        9.4737359136343
      ],
      [
        100.0419341493398,
        9.473762568086386
      ],
      [
        100.0418112706393,
        9.47381847538054
      ],
      [
        100.04168788902462,
        9.473878154531121
      ],
      [
        100.04164547659457,
        9.47390053421259
      ],
      [
        100.04162820987403,
        9.473914364352822
      ],
      [
        100.04147322848439,
        9.474012348800898
      ],
      [
        100.04144372418523,
        9.474048307165504
      ],
      [
        100.04140365868807,
        9.474097676575184
      ],
      [
        100.0413643475622,
        9.474146459251642
      ],
      [
        100.04123342223465,
        9.474287023767829
      ],
      [
        100.04122512415051,
        9.47429247200489
      ],
      [
        100.0411777663976,
        9.474302614107728
      ],
      [
        100.04108204506338,
        9.474340081214905
      ],
      [
        100.04097961820662,
        9.474361957982183
      ],
      [
        100.04086394794285,
        9.474367070943117
      ],
      [
        100.0408130697906,
        9.474392971023917
      ],
      [
        100.0407921988517,
        9.474413339048624
      ],
      [
        100.04063554108143,
        9.47452213615179
      ],
      [
        100.0405231397599,
        9.474584329873323
      ],
      [
        100.04046161659062,
        9.474644428119063
      ],
      [
        100.04045180976391,
        9.474651385098696
      ],
      [
        100.04035751335323,
        9.474679799750447
      ],
      [
        100.040282914415,
        9.474704610183835
      ],
      [
        100.04024310037494,
        9.474716680124402
      ],
      [
        100.0401726923883,
        9.474731599912047
      ],
      [
        100.04015928134322,
        9.474737048149109
      ],
      [
        100.0400516577065,
        9.47475808672607
      ],
      [
        100.0400255061686,
        9.474761858582497
      ],
      [
        100.03994311206043,
        9.474773677065969
      ],
      [
        100.03982023335993,
        9.47476739063859
      ],
      [
        100.03974462859333,
        9.474772671237588
      ],
      [
        100.03956525586545,
        9.474816843867302
      ],
      [
        100.0395318120718,
        9.474817095324397
      ],
      [
        100.03934648819268,
        9.474813407287002
      ],
      [
        100.03916963003576,
        9.474759008735418
      ],
      [
        100.03898841328919,
        9.474707627668977
      ],
      [
        100.03880786709487,
        9.47465700097382
      ],
      [
        100.03873779438436,
        9.474662197753787
      ],
      [
        100.03859689459205,
        9.47471315972507
      ],
      [
        100.03857334144413,
        9.47471315972507
      ],
      [
        100.03848130814731,
        9.474730677902699
      ],
      [
        100.03829464316368,
        9.474767139181495
      ],
      [
        100.03810982219875,
        9.474751381203532
      ],
      [
        100.03808450885117,
        9.474737718701363
      ],
      [
        100.0380586925894,
        9.474737970158458
      ],
      [
        100.0378760509193,
        9.474771497771144
      ],
      [
        100.03768200986087,
        9.474805109202862
      ],
      [
        100.03765904344618,
        9.474806785583496
      ],
      [
        100.03764999099076,
        9.474809719249606
      ],
      [
        100.03762945532799,
        9.474822711199522
      ],
      [
        100.0375560298562,
        9.474855652078986
      ],
      [
        100.03737506456673,
        9.47490175254643
      ],
      [
        100.03732284530997,
        9.474911727011204
      ],
      [
        100.0371421314776,
        9.47496771812439
      ],
      [
        100.03710332326591,
        9.474977273494005
      ],
      [
        100.03706451505423,
        9.474966879934072
      ],
      [
        100.03698723390698,
        9.474995210766792
      ],
      [
        100.03697264939547,
        9.475001161918044
      ],
      [
        100.03694088198245,
        9.475020272657275
      ],
      [
        100.03690307959914,
        9.475030833855271
      ],
      [
        100.0368686299771,
        9.475043658167124
      ],
      [
        100.03682009875774,
        9.475060338154435
      ],
      [
        100.03675279207528,
        9.475074838846922
      ],
      [
        100.03657358698547,
        9.475114066153765
      ],
      [
        100.03639915958047,
        9.475159915164113
      ],
      [
        100.0362092256546,
        9.475223952904344
      ],
      [
        100.03615566529334,
        9.475242476910353
      ],
      [
        100.03597838804126,
        9.475332414731383
      ],
      [
        100.03595885820687,
        9.475342221558094
      ],
      [
        100.03594620153308,
        9.475345155224204
      ],
      [
        100.03589322790504,
        9.475358482450247
      ],
      [
        100.03577470779419,
        9.475376587361097
      ],
      [
        100.03576314076781,
        9.47537767700851
      ],
      [
        100.03557295538485,
        9.475418664515018
      ],
      [
        100.03552149049938,
        9.475424028933048
      ],
      [
        100.03551218658686,
        9.475417910143733
      ],
      [
        100.03550447523594,
        9.475407600402832
      ],
      [
        100.03549844026566,
        9.47539678774774
      ],
      [
        100.0354528427124,
        9.475287068635225
      ],
      [
        100.0353611446917,
        9.475220767781138
      ],
      [
        100.03521990962327,
        9.4753332529217
      ],
      [
        100.03520188853145,
        9.47536057792604
      ],
      [
        100.03516039811075,
        9.475411036983132
      ],
      [
        100.03509074449539,
        9.475468201562762
      ],
      [
        100.03508613444865,
        9.475477589294314
      ],
      [
        100.03508345223963,
        9.47548714466393
      ],
      [
        100.0350352562964,
        9.475548835471272
      ],
      [
        100.03499116748571,
        9.475582530722022
      ],
      [
        100.03493936732411,
        9.47563961148262
      ],
      [
        100.03485521301627,
        9.475724352523685
      ],
      [
        100.03472571261227,
        9.475855194032192
      ],
      [
        100.03470685333014,
        9.475872796028852
      ],
      [
        100.03461389802396,
        9.475965583696961
      ],
      [
        100.03460073843598,
        9.475973127409816
      ],
      [
        100.03446511924267,
        9.476094665005803
      ],
      [
        100.03437073901296,
        9.476170605048537
      ],
      [
        100.03431491553783,
        9.4762156996876
      ],
      [
        100.03426713868976,
        9.476258028298616
      ],
      [
        100.03424417227507,
        9.476284347474575
      ],
      [
        100.03420385532081,
        9.476321898400784
      ],
      [
        100.03419337794185,
        9.476329945027828
      ],
      [
        100.03417066298425,
        9.476345535367727
      ],
      [
        100.03412925638258,
        9.47639406658709
      ],
      [
        100.0341005064547,
        9.476436227560043
      ],
      [
        100.03396455198526,
        9.4765679910779
      ],
      [
        100.03390965051949,
        9.476605039089918
      ],
      [
        100.03383480012417,
        9.476694641634822
      ],
      [
        100.03370689228177,
        9.476832775399089
      ],
      [
        100.03367520868778,
        9.47686169296503
      ],
      [
        100.03360589034855,
        9.476932939141989
      ],
      [
        100.03356171771884,
        9.476969232782722
      ],
      [
        100.0335105881095,
        9.477010052651167
      ],
      [
        100.03349089063704,
        9.477036288008094
      ],
      [
        100.03348116762936,
        9.477043077349663
      ],
      [
        100.03341763280332,
        9.477098062634468
      ],
      [
        100.0334083288908,
        9.47710644453764
      ],
      [
        100.03335242159665,
        9.47716562077403
      ],
      [
        100.03329324536026,
        9.477219181135297
      ],
      [
        100.03313826397061,
        9.47733954526484
      ],
      [
        100.03307900391519,
        9.47746267542243
      ],
      [
        100.03306936472654,
        9.477497125044465
      ],
      [
        100.03300650045276,
        9.477566359564662
      ],
      [
        100.03294522874057,
        9.477635091170669
      ],
      [
        100.0328956078738,
        9.477705331519246
      ],
      [
        100.03286308608949,
        9.477745816111565
      ],
      [
        100.03283441998065,
        9.477765178307891
      ],
      [
        100.03271548077464,
        9.477875987067819
      ],
      [
        100.03264616243541,
        9.477943126112223
      ],
      [
        100.03262311220169,
        9.47796449996531
      ],
      [
        100.03258883021772,
        9.477993249893188
      ],
      [
        100.03242454491556,
        9.478077152743936
      ],
      [
        100.0322740059346,
        9.478192906826735
      ],
      [
        100.032156156376,
        9.47832953184843
      ],
      [
        100.03213126212358,
        9.478371189907193
      ],
      [
        100.03208172507584,
        9.478446375578642
      ],
      [
        100.03204853273928,
        9.478496918454766
      ],
      [
        100.03201701678336,
        9.478530865162611
      ],
      [
        100.03200008533895,
        9.478554837405682
      ],
      [
        100.03197586163878,
        9.47857822291553
      ],
      [
        100.03190034069121,
        9.478712417185307
      ],
      [
        100.03186874091625,
        9.478774359449744
      ],
      [
        100.03184627741575,
        9.478823728859425
      ],
      [
        100.0317885261029,
        9.478999581187963
      ],
      [
        100.031733289361,
        9.479114580899477
      ],
      [
        100.03172758966684,
        9.47912698611617
      ],
      [
        100.03170596435666,
        9.479159507900476
      ],
      [
        100.03167729824781,
        9.479340137913823
      ],
      [
        100.0316714309156,
        9.479386070743203
      ],
      [
        100.0316500570625,
        9.479497382417321
      ],
      [
        100.03164410591125,
        9.479509871453047
      ],
      [
        100.0315918866545,
        9.479613220319152
      ],
      [
        100.03156498074532,
        9.479656806215644
      ],
      [
        100.03155064769089,
        9.479697877541184
      ],
      [
        100.03155182115734,
        9.479725789278746
      ],
      [
        100.03151510842144,
        9.47984866797924
      ],
      [
        100.03148208372295,
        9.480038601905107
      ],
      [
        100.03147596493363,
        9.480074979364872
      ],
      [
        100.03147185780108,
        9.48013692162931
      ],
      [
        100.03143019974232,
        9.48027178645134
      ],
      [
        100.03140253946185,
        9.48035485111177
      ],
      [
        100.03129935823381,
        9.480504635721445
      ],
      [
        100.03124797716737,
        9.480687696486712
      ],
      [
        100.03124420531094,
        9.480702113360167
      ],
      [
        100.03118201158941,
        9.480884168297052
      ],
      [
        100.03110204823315,
        9.481057841330767
      ],
      [
        100.0309771578759,
        9.481199830770493
      ],
      [
        100.03090021200478,
        9.481332432478666
      ],
      [
        100.03080516122282,
        9.481451455503702
      ],
      [
        100.03068429417908,
        9.481586571782827
      ],
      [
        100.03057591617107,
        9.481718083843589
      ],
      [
        100.03054515458643,
        9.481774494051933
      ],
      [
        100.03051514737308,
        9.481831239536405
      ],
      [
        100.03039101138711,
        9.481966942548752
      ],
      [
        100.03024692647159,
        9.482090910896659
      ],
      [
        100.03020132891834,
        9.482129467651248
      ],
      [
        100.03016931004822,
        9.482147069647908
      ],
      [
        100.03000812605023,
        9.482243042439222
      ],
      [
        100.0298698246479,
        9.482363909482956
      ],
      [
        100.02972724847496,
        9.48247991502285
      ],
      [
        100.02971392124891,
        9.482488380745053
      ],
      [
        100.02971081994474,
        9.482486033812165
      ],
      [
        100.02954427152872,
        9.48258108459413
      ],
      [
        100.02953195013106,
        9.482586784288287
      ],
      [
        100.02946355380118,
        9.482622491195798
      ],
      [
        100.029407562688,
        9.48265627026558
      ],
      [
        100.0293708499521,
        9.48268468491733
      ],
      [
        100.02930572256446,
        9.482730198651552
      ],
      [
        100.02914479002357,
        9.482829440385103
      ],
      [
        100.02910589799285,
        9.482852322980762
      ],
      [
        100.02905728295445,
        9.482877971604466
      ],
      [
        100.02891629934311,
        9.482994731515646
      ],
      [
        100.0289067439735,
        9.483003616333008
      ],
      [
        100.0288856215775,
        9.483023397624493
      ],
      [
        100.02884605899453,
        9.483037646859884
      ],
      [
        100.02871982753277,
        9.483118113130331
      ],
      [
        100.02865587361157,
        9.483158849179745
      ],
      [
        100.0286057498306,
        9.48320310562849
      ],
      [
        100.02850047312677,
        9.483271585777402
      ],
      [
        100.0283641833812,
        9.48337216861546
      ],
      [
        100.02826351672411,
        9.483417430892587
      ],
      [
        100.02809680067003,
        9.48348356410861
      ],
      [
        100.02804852090776,
        9.483496891334653
      ],
      [
        100.02800334244967,
        9.483514409512281
      ],
      [
        100.02785238437355,
        9.483626475557685
      ],
      [
        100.02780896611512,
        9.483663104474545
      ],
      [
        100.02767426893115,
        9.48371465317905
      ],
      [
        100.02757268026471,
        9.483740804716945
      ],
      [
        100.02749003469944,
        9.48377089574933
      ],
      [
        100.02744284458458,
        9.48378849774599
      ],
      [
        100.02738090232015,
        9.483795119449496
      ],
      [
        100.02728174440563,
        9.483791515231133
      ],
      [
        100.02726724371314,
        9.483787575736642
      ],
      [
        100.02712978050113,
        9.483770728111267
      ],
      [
        100.02698200754821,
        9.483769638463855
      ],
      [
        100.02693766728044,
        9.483798053115606
      ],
      [
        100.02680053934455,
        9.483846835792065
      ],
      [
        100.02674748189747,
        9.483861839398742
      ],
      [
        100.02671428956091,
        9.483871730044484
      ],
      [
        100.02668604254723,
        9.483882458880544
      ],
      [
        100.02652049995959,
        9.48397172614932
      ],
      [
        100.02645428292453,
        9.48400642722845
      ],
      [
        100.02632277086377,
        9.48407331481576
      ],
      [
        100.02623802982271,
        9.484088066965342
      ],
      [
        100.0262004788965,
        9.484104160219431
      ],
      [
        100.02616695128381,
        9.484227038919926
      ],
      [
        100.02623191103339,
        9.48434011079371
      ],
      [
        100.02624548971653,
        9.484362825751305
      ],
      [
        100.0262749940157,
        9.484390569850802
      ],
      [
        100.02632872201502,
        9.484452093020082
      ],
      [
        100.02635227516294,
        9.484492409974337
      ],
      [
        100.02637909725308,
        9.484536247327924
      ],
      [
        100.02643223851919,
        9.484634818509221
      ],
      [
        100.0264441408217,
        9.484646217897534
      ],
      [
        100.02647951245308,
        9.484700113534927
      ],
      [
        100.02649325877428,
        9.484726013615727
      ],
      [
        100.02659535035491,
        9.484874792397022
      ],
      [
        100.02666902728379,
        9.484933884814382
      ],
      [
        100.02671630121768,
        9.484971268102527
      ],
      [
        100.02673599869013,
        9.484991803765297
      ],
      [
        100.02679911442101,
        9.485018206760287
      ],
      [
        100.02681235782802,
        9.485028432682157
      ],
      [
        100.02700815908611,
        9.485055254772305
      ],
      [
        100.02719633281231,
        9.485101355239749
      ],
      [
        100.02738123759627,
        9.485138235613704
      ],
      [
        100.02742876298726,
        9.485146030783653
      ],
      [
        100.02749246545136,
        9.485164554789662
      ],
      [
        100.02755130641162,
        9.485191963613033
      ],
      [
        100.02769094891846,
        9.485269412398338
      ],
      [
        100.02777812071145,
        9.485297994688153
      ],
      [
        100.02783092670143,
        9.485320206731558
      ],
      [
        100.02785766497254,
        9.485358847305179
      ],
      [
        100.02786210738122,
        9.485369073227048
      ],
      [
        100.02786789089441,
        9.48542439378798
      ],
      [
        100.02787635661662,
        9.485605442896485
      ],
      [
        100.02788205631077,
        9.485629498958588
      ],
      [
        100.02791390754282,
        9.485705690458417
      ],
      [
        100.02791181206703,
        9.48577769100666
      ],
      [
        100.02791415899992,
        9.485790766775608
      ],
      [
        100.02791482955217,
        9.485804764553905
      ],
      [
        100.02793486230075,
        9.485834604129195
      ],
      [
        100.02793905325234,
        9.485848266631365
      ],
      [
        100.0279426574707,
        9.485943736508489
      ],
      [
        100.02797987312078,
        9.486067285761237
      ],
      [
        100.02801599912345,
        9.486252358183265
      ],
      [
        100.02799563109875,
        9.486432233825326
      ],
      [
        100.02797953784466,
        9.486482609063387
      ],
      [
        100.02797258086503,
        9.486508509144187
      ],
      [
        100.0279270671308,
        9.48669291101396
      ],
      [
        100.02787853591144,
        9.486874714493752
      ],
      [
        100.02786805853248,
        9.48691327124834
      ],
      [
        100.02786126919091,
        9.48698409833014
      ],
      [
        100.02785414457321,
        9.487110245972872
      ],
      [
        100.02785573713481,
        9.487138241529465
      ],
      [
        100.02786554396152,
        9.487181659787893
      ],
      [
        100.02788088284433,
        9.487253408879042
      ],
      [
        100.02788591198623,
        9.487324738875031
      ],
      [
        100.02788985148072,
        9.48736421763897
      ],
      [
        100.02788892947137,
        9.48737595230341
      ],
      [
        100.02791709266603,
        9.487570244818926
      ],
      [
        100.02791273407638,
        9.487718185409904
      ],
      [
        100.0279151648283,
        9.487755233421922
      ],
      [
        100.02791449427605,
        9.487773003056645
      ],
      [
        100.02791214734316,
        9.487782893702388
      ],
      [
        100.02791063860059,
        9.487793371081352
      ],
      [
        100.02790837548673,
        9.487807368859649
      ],
      [
        100.0279082916677,
        9.487820444628596
      ],
      [
        100.02790980041027,
        9.487848188728094
      ],
      [
        100.02790996804833,
        9.48785925284028
      ],
      [
        100.02791851758957,
        9.4879549741745
      ],
      [
        100.02793041989207,
        9.488004259765148
      ],
      [
        100.02794022671878,
        9.488121187314391
      ],
      [
        100.02794684842229,
        9.488163935020566
      ],
      [
        100.0279584992677,
        9.488206515088677
      ],
      [
        100.02796838991344,
        9.488226966932416
      ],
      [
        100.02806763164699,
        9.488379517570138
      ],
      [
        100.02813745290041,
        9.488464426249266
      ],
      [
        100.02817492000759,
        9.48850130662322
      ],
      [
        100.0281881634146,
        9.488508179783821
      ],
      [
        100.02828262746334,
        9.488575989380479
      ],
      [
        100.02837843261659,
        9.488666262477636
      ],
      [
        100.02840190194547,
        9.488692497834563
      ],
      [
        100.02842889167368,
        9.488702053204179
      ],
      [
        100.02844096161425,
        9.48871387168765
      ],
      [
        100.02850525081158,
        9.488763827830553
      ],
      [
        100.02853081561625,
        9.488819148391485
      ],
      [
        100.02858337014914,
        9.488921323791146
      ],
      [
        100.02864304929972,
        9.489031713455915
      ],
      [
        100.02865972928703,
        9.489068677648902
      ],
      [
        100.02867020666599,
        9.489077646285295
      ],
      [
        100.02867808565497,
        9.489104552194476
      ],
      [
        100.02868428826332,
        9.489115197211504
      ],
      [
        100.02871136181056,
        9.489140091463923
      ],
      [
        100.02872561104596,
        9.489157609641552
      ],
      [
        100.02875855192542,
        9.489204213023186
      ],
      [
        100.02886257134378,
        9.489357015118003
      ],
      [
        100.0288819335401,
        9.489374533295631
      ],
      [
        100.02890381030738,
        9.489384507760406
      ],
      [
        100.02891353331506,
        9.489393895491958
      ],
      [
        100.02904051914811,
        9.489527167752385
      ],
      [
        100.0290650781244,
        9.489595647901297
      ],
      [
        100.02908846363425,
        9.489648789167404
      ],
      [
        100.02910573035479,
        9.489711401984096
      ],
      [
        100.02907555550337,
        9.489899156615138
      ],
      [
        100.02906440757215,
        9.489922542124987
      ],
      [
        100.02906465902925,
        9.48995204642415
      ],
      [
        100.02897329628468,
        9.490103842690587
      ],
      [
        100.02895846031606,
        9.490125216543674
      ],
      [
        100.02884220331907,
        9.490280533209443
      ],
      [
        100.02872426994145,
        9.490424869582057
      ],
      [
        100.0287093501538,
        9.490448422729969
      ],
      [
        100.02869300544262,
        9.490478094667196
      ],
      [
        100.02865143120289,
        9.490550849586725
      ],
      [
        100.0286250282079,
        9.49062678962946
      ],
      [
        100.02860868349671,
        9.490808425471187
      ],
      [
        100.02861035987735,
        9.490865170955658
      ],
      [
        100.02861547283828,
        9.490918815135956
      ],
      [
        100.02862452529371,
        9.490971118211746
      ],
      [
        100.02862276509404,
        9.490986540913582
      ],
      [
        100.02862645313144,
        9.491071533411741
      ],
      [
        100.02863466739655,
        9.49114479124546
      ],
      [
        100.02864455804229,
        9.491230873391032
      ],
      [
        100.0286557059735,
        9.49141988530755
      ],
      [
        100.02865587361157,
        9.491608142852783
      ],
      [
        100.02862377092242,
        9.491789108142257
      ],
      [
        100.02862234599888,
        9.49183126911521
      ],
      [
        100.0286229327321,
        9.491843758150935
      ],
      [
        100.02861094661057,
        9.492031931877136
      ],
      [
        100.02860859967768,
        9.492058586329222
      ],
      [
        100.02857792191207,
        9.492193283513188
      ],
      [
        100.02855361439288,
        9.492258746176958
      ],
      [
        100.02852436155081,
        9.492311468347907
      ],
      [
        100.02845990471542,
        9.492482962086797
      ],
      [
        100.02845445647836,
        9.492505341768265
      ],
      [
        100.02844884060323,
        9.492525290697813
      ],
      [
        100.02844389528036,
        9.49254616163671
      ],
      [
        100.028429729864,
        9.492583042010665
      ],
      [
        100.02841355279088,
        9.492616821080446
      ],
      [
        100.02840005792677,
        9.49264096096158
      ],
      [
        100.02838807180524,
        9.492667280137539
      ],
      [
        100.02833769656718,
        9.492846233770251
      ],
      [
        100.02831783145666,
        9.49290968477726
      ],
      [
        100.02831598743796,
        9.492940111085773
      ],
      [
        100.0283121317625,
        9.492963161319494
      ],
      [
        100.02830249257386,
        9.492980260401964
      ],
      [
        100.02828388474882,
        9.493007501587272
      ],
      [
        100.02823987975717,
        9.493076903745532
      ],
      [
        100.02821758389473,
        9.493137253448367
      ],
      [
        100.02820065245032,
        9.493171703070402
      ],
      [
        100.02818891778588,
        9.493200369179249
      ],
      [
        100.02816611900926,
        9.49322970584035
      ],
      [
        100.02809369936585,
        9.493302460759878
      ],
      [
        100.02801013179123,
        9.493468254804611
      ],
      [
        100.02797995693982,
        9.493519300594926
      ],
      [
        100.02794274128973,
        9.493644861504436
      ],
      [
        100.02788591198623,
        9.49382440187037
      ],
      [
        100.02788037993014,
        9.493852313607931
      ],
      [
        100.02786898054183,
        9.493876788765192
      ],
      [
        100.02784257754683,
        9.493933785706758
      ],
      [
        100.02779396250844,
        9.494111901149154
      ],
      [
        100.02775196917355,
        9.494153475388885
      ],
      [
        100.02774023450911,
        9.494175352156162
      ],
      [
        100.02771022729576,
        9.494244838133454
      ],
      [
        100.02771341241896,
        9.494259841740131
      ],
      [
        100.02771466970444,
        9.494273504242301
      ],
      [
        100.02771777100861,
        9.494286831468344
      ],
      [
        100.02772665582597,
        9.494301918894053
      ],
      [
        100.02772984094918,
        9.49431893415749
      ],
      [
        100.02773604355752,
        9.494332764297724
      ],
      [
        100.0277393963188,
        9.494346594437957
      ],
      [
        100.02774207852781,
        9.494362268596888
      ],
      [
        100.0277428328991,
        9.494376266375184
      ],
      [
        100.02774828113616,
        9.494417505338788
      ],
      [
        100.027726739645,
        9.494488248601556
      ],
      [
        100.02767938189209,
        9.49462328106165
      ],
      [
        100.02767661586404,
        9.494754374027252
      ],
      [
        100.02771534025669,
        9.49489301070571
      ],
      [
        100.02771911211312,
        9.494954952970147
      ],
      [
        100.02774157561362,
        9.495088811963797
      ],
      [
        100.02778373658657,
        9.495195094496012
      ],
      [
        100.0278170965612,
        9.495387878268957
      ],
      [
        100.02784634940326,
        9.495518887415528
      ],
      [
        100.02788163721561,
        9.495622906833887
      ],
      [
        100.02791156060994,
        9.495685016736388
      ],
      [
        100.02791650593281,
        9.495707983151078
      ],
      [
        100.02798154950142,
        9.495881153270602
      ],
      [
        100.02809420228004,
        9.49602616019547
      ],
      [
        100.02820593304932,
        9.496099082753062
      ],
      [
        100.0283863954246,
        9.496126491576433
      ],
      [
        100.02845705486834,
        9.496137220412493
      ],
      [
        100.02851153723896,
        9.496140070259571
      ],
      [
        100.02868571318686,
        9.49619421735406
      ],
      [
        100.02886391244829,
        9.496254650875926
      ],
      [
        100.02887489274144,
        9.496250292286277
      ],
      [
        100.02892317250371,
        9.496262278407812
      ],
      [
        100.02909902483225,
        9.496327573433518
      ],
      [
        100.02916968427598,
        9.496335117146373
      ],
      [
        100.02929750829935,
        9.49642295949161
      ],
      [
        100.02935693599284,
        9.496489260345697
      ],
      [
        100.02936565317214,
        9.496497809886932
      ],
      [
        100.02937805838883,
        9.496505353599787
      ],
      [
        100.02938769757748,
        9.496512226760387
      ],
      [
        100.02942139282823,
        9.496542820706964
      ],
      [
        100.02943991683424,
        9.496564278379083
      ],
      [
        100.02946925349534,
        9.496622616425157
      ],
      [
        100.02947553992271,
        9.496636111289263
      ],
      [
        100.02951577305794,
        9.496669890359044
      ],
      [
        100.02954410389066,
        9.49669562280178
      ],
      [
        100.0295592751354,
        9.496719175949693
      ],
      [
        100.02961191348732,
        9.496786734089255
      ],
      [
        100.02969782799482,
        9.49689100496471
      ],
      [
        100.02979807555676,
        9.496978763490915
      ],
      [
        100.0298317708075,
        9.496996533125639
      ],
      [
        100.02996244467795,
        9.49700390920043
      ],
      [
        100.02999496646225,
        9.497000640258193
      ],
      [
        100.03000628203154,
        9.49699561111629
      ],
      [
        100.03003863617778,
        9.496982619166374
      ],
      [
        100.03022748045623,
        9.496948923915625
      ],
      [
        100.0302979722619,
        9.496931741014123
      ],
      [
        100.03040559589863,
        9.496930316090584
      ],
      [
        100.03041733056307,
        9.496926963329315
      ],
      [
        100.03061212599277,
        9.49689737521112
      ],
      [
        100.03068739548326,
        9.49689201079309
      ],
      [
        100.03078085370362,
        9.496889496222138
      ],
      [
        100.03090113401413,
        9.496862506493926
      ],
      [
        100.03094715066254,
        9.496853537857533
      ],
      [
        100.03097422420979,
        9.496852196753025
      ],
      [
        100.03107321448624,
        9.49683585204184
      ],
      [
        100.03115703351796,
        9.49683928862214
      ],
      [
        100.03133699297905,
        9.4968275539577
      ],
      [
        100.03143656998873,
        9.496799726039171
      ],
      [
        100.03152625635266,
        9.496791595593095
      ],
      [
        100.0316656474024,
        9.496763851493597
      ],
      [
        100.03168182447553,
        9.496759660542011
      ],
      [
        100.0316970795393,
        9.496753457933664
      ],
      [
        100.0317612849176,
        9.49674247764051
      ],
      [
        100.03181216306984,
        9.496721271425486
      ],
      [
        100.03193420358002,
        9.496652875095606
      ],
      [
        100.032076863572,
        9.496531002223492
      ],
      [
        100.03216378390789,
        9.496448608115315
      ],
      [
        100.03225967288017,
        9.496365543454885
      ],
      [
        100.03236788325012,
        9.496219027787447
      ],
      [
        100.03246528096497,
        9.496063878759742
      ],
      [
        100.03250928595662,
        9.495970252901316
      ],
      [
        100.03252018243074,
        9.495947789400816
      ],
      [
        100.03254205919802,
        9.49591132812202
      ],
      [
        100.03256812691689,
        9.495874783024192
      ],
      [
        100.03258313052356,
        9.495843518525362
      ],
      [
        100.03259251825511,
        9.495834298431873
      ],
      [
        100.03263694234192,
        9.495783168822527
      ],
      [
        100.03268388099968,
        9.495731368660927
      ],
      [
        100.03272704780102,
        9.495691303163767
      ],
      [
        100.03276350907981,
        9.495622320100665
      ],
      [
        100.03279661759734,
        9.495574459433556
      ],
      [
        100.03291547298431,
        9.495429871603847
      ],
      [
        100.03302452154458,
        9.495321661233902
      ],
      [
        100.0330975279212,
        9.495233483612537
      ],
      [
        100.03314413130283,
        9.495166512206197
      ],
      [
        100.03321395255625,
        9.495054446160793
      ],
      [
        100.03321847878397,
        9.495040448382497
      ],
      [
        100.03322535194457,
        9.495028629899025
      ],
      [
        100.03333641216159,
        9.494873564690351
      ],
      [
        100.03339835442603,
        9.494772981852293
      ],
      [
        100.03346272744238,
        9.494696874171495
      ],
      [
        100.0335399247706,
        9.494595034047961
      ],
      [
        100.03360555507243,
        9.494454301893711
      ],
      [
        100.03361703827977,
        9.494432341307402
      ],
      [
        100.0337275955826,
        9.494280712679029
      ],
      [
        100.03378559835255,
        9.4941664673388
      ],
      [
        100.0337931420654,
        9.494140315800905
      ],
      [
        100.03382381983101,
        9.494092455133796
      ],
      [
        100.0338832475245,
        9.494015090167522
      ],
      [
        100.03389892168343,
        9.493991117924452
      ],
      [
        100.03400847315788,
        9.493829598650336
      ],
      [
        100.03406463190913,
        9.493737649172544
      ],
      [
        100.03422631882131,
        9.493648381903768
      ],
      [
        100.03433486446738,
        9.493615692481399
      ],
      [
        100.034407870844,
        9.493566239252687
      ],
      [
        100.03441591747105,
        9.493559030815959
      ],
      [
        100.03454466350377,
        9.493500776588917
      ],
      [
        100.03470484167337,
        9.493395583704114
      ],
      [
        100.03484674729407,
        9.493278739973903
      ],
      [
        100.0348759163171,
        9.493264742195606
      ],
      [
        100.03488949500024,
        9.493258371949196
      ],
      [
        100.0349887367338,
        9.493216965347528
      ],
      [
        100.03499787300825,
        9.493210930377245
      ],
      [
        100.03504355438054,
        9.49318335391581
      ],
      [
        100.03518093377352,
        9.493105988949537
      ],
      [
        100.03520130179822,
        9.493090147152543
      ],
      [
        100.03520607948303,
        9.493081010878086
      ],
      [
        100.03527095541358,
        9.493037341162562
      ],
      [
        100.03541512414813,
        9.492962155491114
      ],
      [
        100.03545259125531,
        9.492953270673752
      ],
      [
        100.03558712080121,
        9.492865176871419
      ],
      [
        100.03561981022358,
        9.492820166051388
      ],
      [
        100.03565023653209,
        9.492745231837034
      ],
      [
        100.03564872778952,
        9.492720505222678
      ],
      [
        100.03564110025764,
        9.492672812193632
      ],
      [
        100.0356048066169,
        9.492602990940213
      ],
      [
        100.03557002171874,
        9.492543144151568
      ],
      [
        100.0355273578316,
        9.492450272664428
      ],
      [
        100.03551369532943,
        9.492407022044063
      ],
      [
        100.03550657071173,
        9.492381624877453
      ],
      [
        100.03549139946699,
        9.49233066290617
      ],
      [
        100.03547287546098,
        9.492288250476122
      ],
      [
        100.03542141057551,
        9.492172077298164
      ],
      [
        100.03541789017618,
        9.49216059409082
      ],
      [
        100.03538494929671,
        9.492046181112528
      ],
      [
        100.03524614498019,
        9.491934785619378
      ],
      [
        100.03518638201058,
        9.491879129782319
      ],
      [
        100.03510918468237,
        9.491802603006363
      ],
      [
        100.03504833206534,
        9.491754826158285
      ],
      [
        100.03500843420625,
        9.49170134961605
      ],
      [
        100.03497281111777,
        9.491630354896188
      ],
      [
        100.03495370037854,
        9.49161090888083
      ],
      [
        100.03492218442261,
        9.491570759564638
      ],
      [
        100.03489368595183,
        9.491542093455791
      ],
      [
        100.03480265848339,
        9.491420555859804
      ],
      [
        100.03471154719591,
        9.491337407380342
      ],
      [
        100.03469235263765,
        9.491318883374333
      ],
      [
        100.03465907648206,
        9.491277728229761
      ],
      [
        100.03462714143097,
        9.49123129248619
      ],
      [
        100.03457534126937,
        9.491138085722923
      ],
      [
        100.03457056358457,
        9.491126099601388
      ],
      [
        100.03451155498624,
        9.491024930030107
      ],
      [
        100.03449596464634,
        9.490999532863498
      ],
      [
        100.03447467461228,
        9.49097229167819
      ],
      [
        100.03444022499025,
        9.490934237837791
      ],
      [
        100.03441357053816,
        9.490903979167342
      ],
      [
        100.03435942344368,
        9.490842120721936
      ],
      [
        100.03429069183767,
        9.490756038576365
      ],
      [
        100.03427225165069,
        9.490720080211759
      ],
      [
        100.03420762717724,
        9.490624526515603
      ],
      [
        100.03417468629777,
        9.490576833486557
      ],
      [
        100.03408499993384,
        9.490437861531973
      ],
      [
        100.03397410735488,
        9.490289753302932
      ],
      [
        100.03388257697225,
        9.49011960066855
      ],
      [
        100.03381351009011,
        9.48999596759677
      ],
      [
        100.0338037032634,
        9.489903766661882
      ],
      [
        100.03379984758794,
        9.489878118038177
      ],
      [
        100.03379850648344,
        9.489736966788769
      ],
      [
        100.0338018592447,
        9.48972581885755
      ],
      [
        100.03389238379896,
        9.48963881470263
      ],
      [
        100.03394116647542,
        9.489590283483267
      ],
      [
        100.03396849147975,
        9.489566814154387
      ],
      [
        100.03398567438126,
        9.489556588232517
      ],
      [
        100.03399288281798,
        9.489530939608812
      ],
      [
        100.03404610790312,
        9.489506212994456
      ],
      [
        100.03422481007874,
        9.48945994488895
      ],
      [
        100.03428122028708,
        9.489457681775093
      ],
      [
        100.03428926691413,
        9.489447372034192
      ],
      [
        100.03429848700762,
        9.489443432539701
      ],
      [
        100.03432841040194,
        9.489434463903308
      ],
      [
        100.03435942344368,
        9.489433458074927
      ],
      [
        100.03437543287873,
        9.4894296862185
      ],
      [
        100.03439018502831,
        9.489425411447883
      ],
      [
        100.03440217114985,
        9.489421807229519
      ],
      [
        100.03443737514317,
        9.489411413669586
      ],
      [
        100.03460266627371,
        9.489379562437534
      ],
      [
        100.03462890163064,
        9.489367995411158
      ],
      [
        100.03471288830042,
        9.489333545789123
      ],
      [
        100.03488698042929,
        9.489280404523015
      ],
      [
        100.0349242798984,
        9.489260958507657
      ],
      [
        100.03497524186969,
        9.489241344854236
      ],
      [
        100.035065934062,
        9.489204129204154
      ],
      [
        100.0351401977241,
        9.489161549136043
      ],
      [
        100.03531470894814,
        9.489107066765428
      ],
      [
        100.03547731786966,
        9.489023499190807
      ],
      [
        100.03552358597517,
        9.48900606483221
      ],
      [
        100.03566943109035,
        9.488955773413181
      ],
      [
        100.03576657734811,
        9.48892392218113
      ],
      [
        100.03580270335078,
        9.488913612440228
      ],
      [
        100.03598433919251,
        9.488844629377127
      ],
      [
        100.0360070541501,
        9.488832894712687
      ],
      [
        100.03616496920586,
        9.488752512261271
      ],
      [
        100.03617293201387,
        9.488746477290988
      ],
      [
        100.0362303480506,
        9.488719403743744
      ],
      [
        100.03625540994108,
        9.48871336877346
      ],
      [
        100.03627703525126,
        9.488700963556767
      ],
      [
        100.03639027476311,
        9.488608846440911
      ],
      [
        100.03646017983556,
        9.48853642679751
      ],
      [
        100.0365390535444,
        9.48837909847498
      ],
      [
        100.03654324449599,
        9.488356718793511
      ],
      [
        100.03656897693872,
        9.488316234201193
      ],
      [
        100.03657174296677,
        9.488306259736419
      ],
      [
        100.03660409711301,
        9.488237360492349
      ],
      [
        100.0366614293307,
        9.488169383257627
      ],
      [
        100.036685988307,
        9.48813141323626
      ],
      [
        100.0367322564125,
        9.487943071871996
      ],
      [
        100.03672312013805,
        9.487897139042616
      ],
      [
        100.0367031712085,
        9.487798064947128
      ],
      [
        100.03668456338346,
        9.487744336947799
      ],
      [
        100.03664533607662,
        9.487684071063995
      ],
      [
        100.03665103577077,
        9.487654566764832
      ],
      [
        100.03665371797979,
        9.48764082044363
      ],
      [
        100.03663804382086,
        9.487534370273352
      ],
      [
        100.03665229305625,
        9.487507548183203
      ],
      [
        100.03669923171401,
        9.487357679754496
      ],
      [
        100.03672303631902,
        9.487256007269025
      ],
      [
        100.03672161139548,
        9.487243769690394
      ],
      [
        100.03671289421618,
        9.487205045297742
      ],
      [
        100.03672873601317,
        9.487101612612605
      ],
      [
        100.03671800717711,
        9.48700555600226
      ],
      [
        100.03671582788229,
        9.48691662400961
      ],
      [
        100.03672898747027,
        9.486862476915121
      ],
      [
        100.03673208877444,
        9.486835151910782
      ],
      [
        100.03676628693938,
        9.486649660393596
      ],
      [
        100.03686049953103,
        9.4865354988724
      ],
      [
        100.03693761304021,
        9.48648571036756
      ],
      [
        100.0369724817574,
        9.486459139734507
      ],
      [
        100.03712327219546,
        9.486345900222659
      ],
      [
        100.0371437240392,
        9.486331148073077
      ],
      [
        100.03721916116774,
        9.486276665702462
      ],
      [
        100.0373905710876,
        9.486180357635021
      ],
      [
        100.03741655498743,
        9.486166024580598
      ],
      [
        100.03749668598175,
        9.486082792282104
      ],
      [
        100.0375491566956,
        9.486045995727181
      ],
      [
        100.03763515502214,
        9.485983718186617
      ],
      [
        100.03768309950829,
        9.485954381525517
      ],
      [
        100.0378184672445,
        9.485876932740211
      ],
      [
        100.03785098902881,
        9.485873244702816
      ],
      [
        100.03790245391428,
        9.485849775373936
      ],
      [
        100.03799247555435,
        9.485776601359248
      ],
      [
        100.03802575170994,
        9.485740307718515
      ],
      [
        100.03807227127254,
        9.485700326040387
      ],
      [
        100.03813002258539,
        9.485664702951908
      ],
      [
        100.03817327320576,
        9.485643664374948
      ],
      [
        100.03820286132395,
        9.485631259158254
      ],
      [
        100.03824099898338,
        9.48559932410717
      ],
      [
        100.03838910721242,
        9.48548013344407
      ],
      [
        100.03843696787953,
        9.485442833974957
      ],
      [
        100.0384868402034,
        9.485403522849083
      ],
      [
        100.03850125707686,
        9.485378628596663
      ],
      [
        100.03857585601509,
        9.485308220610023
      ],
      [
        100.03872664645314,
        9.485194142907858
      ],
      [
        100.03882873803377,
        9.485102696344256
      ],
      [
        100.03896452486515,
        9.484975291416049
      ],
      [
        100.0390138104558,
        9.48492550291121
      ],
      [
        100.03908564336598,
        9.48486347682774
      ],
      [
        100.03912260755897,
        9.484832296147943
      ],
      [
        100.03915638662875,
        9.48481410741806
      ],
      [
        100.03916309215128,
        9.48480773717165
      ],
      [
        100.03918429836631,
        9.484793990850449
      ],
      [
        100.03922386094928,
        9.48477303609252
      ],
      [
        100.03931790590286,
        9.484713189303875
      ],
      [
        100.03935503773391,
        9.48468510992825
      ],
      [
        100.03949912264943,
        9.484571451321244
      ],
      [
        100.03964052535594,
        9.484449494630098
      ],
      [
        100.03965619951487,
        9.484421415254474
      ],
      [
        100.0396996177733,
        9.484362993389368
      ],
      [
        100.03984755836427,
        9.484243635088205
      ],
      [
        100.0399897992611,
        9.484127461910248
      ],
      [
        100.04016171209514,
        9.484043726697564
      ],
      [
        100.04032189026475,
        9.483956303447485
      ],
      [
        100.040422976017,
        9.483907269313931
      ],
      [
        100.04059262573719,
        9.483826635405421
      ],
      [
        100.04074710421264,
        9.48372052051127
      ],
      [
        100.04078289493918,
        9.48369562625885
      ],
      [
        100.04079580307007,
        9.48369218967855
      ],
      [
        100.0408215355128,
        9.483677521348
      ],
      [
        100.04099453799427,
        9.483594540506601
      ],
      [
        100.04103384912014,
        9.483565706759691
      ],
      [
        100.04111004061997,
        9.4835099671036
      ],
      [
        100.0412036664784,
        9.483464201912284
      ],
      [
        100.04135982133448,
        9.483355320990086
      ],
      [
        100.04151756875217,
        9.483261359855533
      ],
      [
        100.04158956930041,
        9.483225820586085
      ],
      [
        100.04174991510808,
        9.483124986290932
      ],
      [
        100.04190380685031,
        9.48301157914102
      ],
      [
        100.04197522066534,
        9.482910074293613
      ],
      [
        100.0420409347862,
        9.482823740690947
      ],
      [
        100.0421030446887,
        9.482748890295625
      ],
      [
        100.04221175797284,
        9.482687367126346
      ],
      [
        100.0423675775528,
        9.482567757368088
      ],
      [
        100.04244653508067,
        9.482497349381447
      ],
      [
        100.04246455617249,
        9.482485363259912
      ],
      [
        100.04257117398083,
        9.482410596683621
      ],
      [
        100.04260830581188,
        9.482380170375109
      ],
      [
        100.0427476130426,
        9.482269193977118
      ],
      [
        100.04290686920285,
        9.48216668330133
      ],
      [
        100.04303083755076,
        9.482032740488648
      ],
      [
        100.04304835572839,
        9.481993932276964
      ],
      [
        100.04307769238949,
        9.481959650292993
      ],
      [
        100.04311088472605,
        9.481916902586818
      ],
      [
        100.04319512285292,
        9.481823612004519
      ],
      [
        100.04330207593739,
        9.48166728951037
      ],
      [
        100.04334432072937,
        9.481611214578152
      ],
      [
        100.04344574175775,
        9.481543069705367
      ],
      [
        100.04350625909865,
        9.481479115784168
      ],
      [
        100.0435481686145,
        9.481447013095021
      ],
      [
        100.04357557743788,
        9.481401834636927
      ],
      [
        100.04368596710265,
        9.481256324797869
      ],
      [
        100.04375327378511,
        9.481180468574166
      ],
      [
        100.04380666650832,
        9.481133446097374
      ],
      [
        100.04382242448628,
        9.481112910434604
      ],
      [
        100.04392862319946,
        9.480953821912408
      ],
      [
        100.04396189935505,
        9.480926664546132
      ],
      [
        100.04404705949128,
        9.480853071436286
      ],
      [
        100.04415744915605,
        9.480710159987211
      ],
      [
        100.04419131204486,
        9.480663137510419
      ],
      [
        100.04422249272466,
        9.480616534128785
      ],
      [
        100.04425199702382,
        9.480562973767519
      ],
      [
        100.04431662149727,
        9.480498097836971
      ],
      [
        100.04445022903383,
        9.480373794212937
      ],
      [
        100.04445877857506,
        9.480364574119449
      ],
      [
        100.04446372389793,
        9.480354515835643
      ],
      [
        100.04452063702047,
        9.480311013758183
      ],
      [
        100.04459096118808,
        9.480177573859692
      ],
      [
        100.0446798093617,
        9.480051593855023
      ],
      [
        100.04468576051295,
        9.480037931352854
      ],
      [
        100.04469296894968,
        9.48002602905035
      ],
      [
        100.04479472525418,
        9.479942210018635
      ],
      [
        100.04486504942179,
        9.479874735698104
      ],
      [
        100.04489564336836,
        9.47985646314919
      ],
      [
        100.04494853317738,
        9.479817990213633
      ],
      [
        100.04500351846218,
        9.479753533378243
      ],
      [
        100.0450561568141,
        9.479725621640682
      ],
      [
        100.04522195085883,
        9.479610286653042
      ],
      [
        100.04535438492894,
        9.479531915858388
      ],
      [
        100.04539327695966,
        9.479510374367237
      ],
      [
        100.04544021561742,
        9.479470392689109
      ],
      [
        100.04558564163744,
        9.479358494281769
      ],
      [
        100.04562101326883,
        9.479341059923172
      ],
      [
        100.04565202631056,
        9.479324296116829
      ],
      [
        100.0456756632775,
        9.479309041053057
      ],
      [
        100.0456999707967,
        9.479280961677432
      ],
      [
        100.04579041153193,
        9.479225054383278
      ],
      [
        100.04592217504978,
        9.479131679981947
      ],
      [
        100.04594430327415,
        9.479119945317507
      ],
      [
        100.04611345008016,
        9.47903118096292
      ],
      [
        100.0461249332875,
        9.479015925899148
      ],
      [
        100.04618687555194,
        9.47898625396192
      ],
      [
        100.04631168209016,
        9.478919617831707
      ],
      [
        100.04633205011487,
        9.478901010006666
      ],
      [
        100.04635585471988,
        9.478873601183295
      ],
      [
        100.04651569761336,
        9.47875994257629
      ],
      [
        100.0465773884207,
        9.478717530146241
      ],
      [
        100.04661317914724,
        9.47868425399065
      ],
      [
        100.04666045308113,
        9.478657096624374
      ],
      [
        100.04668191075325,
        9.478641171008348
      ],
      [
        100.0466915499419,
        9.47863832116127
      ],
      [
        100.04675433039665,
        9.478608733043075
      ],
      [
        100.04677302204072,
        9.478593058884144
      ],
      [
        100.04686480388045,
        9.478505551815033
      ],
      [
        100.04688927903771,
        9.478493146598339
      ],
      [
        100.04692984744906,
        9.478463558480144
      ],
      [
        100.04696144722402,
        9.478436904028058
      ],
      [
        100.04712237976491,
        9.47834562510252
      ],
      [
        100.04717543721199,
        9.47831486351788
      ],
      [
        100.04722036421299,
        9.478281335905194
      ],
      [
        100.04724777303636,
        9.478264907374978
      ],
      [
        100.04734642803669,
        9.478180417791009
      ],
      [
        100.04750233143568,
        9.478070111945271
      ],
      [
        100.04755647853017,
        9.478032728657126
      ],
      [
        100.04763761535287,
        9.477960811927915
      ],
      [
        100.0477169919759,
        9.47789316996932
      ],
      [
        100.04775412380695,
        9.477865928784013
      ],
      [
        100.04778346046805,
        9.477832652628422
      ],
      [
        100.04792570136487,
        9.47770994156599
      ],
      [
        100.04807188175619,
        9.477596450597048
      ],
      [
        100.04819886758924,
        9.477452281862497
      ],
      [
        100.04834898747504,
        9.477343652397394
      ],
      [
        100.04845451563597,
        9.477264862507582
      ],
      [
        100.04855677485466,
        9.477178696542978
      ],
      [
        100.04868669435382,
        9.477043664082885
      ],
      [
        100.04870211705565,
        9.477028073742986
      ],
      [
        100.04885307513177,
        9.476910308003426
      ],
      [
        100.04894770681858,
        9.476803271099925
      ],
      [
        100.04897142760456,
        9.47678692638874
      ],
      [
        100.04900956526399,
        9.476766558364034
      ],
      [
        100.04907511174679,
        9.476699838414788
      ],
      [
        100.04910880699754,
        9.476669244468212
      ],
      [
        100.04911702126265,
        9.47666178457439
      ],
      [
        100.0491348747164,
        9.4766388181597
      ],
      [
        100.0491454359144,
        9.476650301367044
      ],
      [
        100.04914434626698,
        9.476649295538664
      ],
      [
        100.0491449330002,
        9.476648038253188
      ],
      [
        100.04914912395179,
        9.476649211719632
      ],
      [
        100.04914434626698,
        9.47664225474
      ],
      [
        100.04906019195914,
        9.476468162611127
      ],
      [
        100.04901258274913,
        9.47637939825654
      ],
      [
        100.0489104911685,
        9.476225674152374
      ],
      [
        100.04888517782092,
        9.47617119178176
      ],
      [
        100.0488756224513,
        9.476156355813146
      ],
      [
        100.04886623471975,
        9.476141519844532
      ],
      [
        100.04885936155915,
        9.476127522066236
      ],
      [
        100.04884854890406,
        9.47610086761415
      ],
      [
        100.04883346147835,
        9.47606323286891
      ],
      [
        100.04878434352577,
        9.4759566988796
      ],
      [
        100.04872793331742,
        9.475821247324347
      ],
      [
        100.04871184006333,
        9.475768189877272
      ],
      [
        100.0486705172807,
        9.475690321996808
      ],
      [
        100.04865459166467,
        9.475671462714672
      ],
      [
        100.04861938767135,
        9.475615303963423
      ],
      [
        100.04861444234848,
        9.475588900968432
      ],
      [
        100.0486084073782,
        9.475525533780456
      ],
      [
        100.04859918728471,
        9.475484294816852
      ],
      [
        100.0485701020807,
        9.475360410287976
      ],
      [
        100.04853213205934,
        9.475282710045576
      ],
      [
        100.04848091863096,
        9.475149689242244
      ],
      [
        100.04845258779824,
        9.474989930167794
      ],
      [
        100.04836097359657,
        9.474845426157117
      ],
      [
        100.04834144376218,
        9.474810808897018
      ],
      [
        100.04832023754716,
        9.474700083956122
      ],
      [
        100.04832560196519,
        9.47465742006898
      ],
      [
        100.04831034690142,
        9.474477460607886
      ],
      [
        100.04829651676118,
        9.474406633526087
      ],
      [
        100.04828670993447,
        9.474379057064652
      ],
      [
        100.04827388562262,
        9.474324407055974
      ],
      [
        100.04825443960726,
        9.474237486720085
      ],
      [
        100.04821722395718,
        9.474057527258992
      ],
      [
        100.04820490255952,
        9.474028022959828
      ],
      [
        100.04818461835384,
        9.47399583645165
      ],
      [
        100.04811513237655,
        9.473919477313757
      ],
      [
        100.04807213321328,
        9.473856445401907
      ],
      [
        100.04806090146303,
        9.473832054063678
      ],
      [
        100.04805805161595,
        9.473807578906417
      ],
      [
        100.04802997224033,
        9.473720993846655
      ],
      [
        100.04790952429175,
        9.473582273349166
      ],
      [
        100.04782260395586,
        9.473448162898421
      ],
      [
        100.04778999835253,
        9.47338211350143
      ],
      [
        100.04777709022164,
        9.473357554525137
      ],
      [
        100.04776610992849,
        9.473339198157191
      ],
      [
        100.04775647073984,
        9.473318411037326
      ],
      [
        100.0477032456547,
        9.473140127956867
      ],
      [
        100.0476186722517,
        9.47297123260796
      ],
      [
        100.04754583351314,
        9.472795128822327
      ],
      [
        100.0475171674043,
        9.472724301740527
      ],
      [
        100.0475015770644,
        9.472669148817658
      ],
      [
        100.04748615436256,
        9.472569320350885
      ],
      [
        100.04748481325805,
        9.472557250410318
      ],
      [
        100.04748187959194,
        9.472534116357565
      ],
      [
        100.04748087376356,
        9.47248843498528
      ],
      [
        100.04745681770146,
        9.472415680065751
      ],
      [
        100.04744969308376,
        9.472391288727522
      ],
      [
        100.04743888042867,
        9.472379637882113
      ],
      [
        100.04740342497826,
        9.47234719991684
      ],
      [
        100.04739462397993,
        9.472321635112166
      ],
      [
        100.04738775081933,
        9.472294142469764
      ],
      [
        100.04736964590847,
        9.472258184105158
      ],
      [
        100.0473438296467,
        9.472209736704826
      ],
      [
        100.0473303347826,
        9.47216304950416
      ]
    ]
  }
}
