{
  "type": "Feature",
  "properties": {},
  "geometry": {
    "type": "LineString",
    "coordinates": [
      [
        -0.385852,
        51.179616
      ],
      [
        -0.383442,
        51.179583
      ],
      [
        -0.383361,
        51.179491
      ],
      [
        -0.381398,
        51.187024
      ],
      [
        -0.38867,
        51.191723
      ],
      [
        -0.387802,
        51.191008
      ],
      [
        -0.38403,
        51.189834
      ],
      [
        -0.382322,
        51.193543
      ],
      [
        -0.379276,
        51.193462
      ],
      [
        -0.379287,
        51.193451
      ],
      [
        -0.380956,
        51.199224
      ],
      [
        -0.384955,
        51.199926
      ],
      [
        -0.389632,
        51.203938
      ],
      [
        -0.377096,
        51.20214
      ],
      [
        -0.367823,
        51.192348
      ],
      [
        -0.337205,
        51.136153
      ],
      [
        -0.332693,
        51.134136
      ]
    ]
  }
}
