{
  "type": "Feature",
  "properties": {},
  "geometry": {
    "type": "LineString",
    "coordinates": [
      [
        0.9182112570852041,
        45.5500659160316,
        305.6
      ],
      [
        0.9182394202798605,
        45.55022391490638,
        306.79999999999995
      ],
      [
        0.9182891249656677,
        45.550320725888014,
        307.79999999999995
      ],
      [
        0.9183008596301079,
        45.550333466380835,
        307.79999999999995
      ],
      [
        0.9183665737509727,
        45.55040990933776,
        308.6
      ],
      [
        0.918376799672842,
        45.55045089684427,
        308.79999999999995
      ],
      [
        0.9184229001402855,
        45.550514766946435,
        308.6
      ],
      [
        0.9185532387346029,
        45.55058525875211,
        308
      ],
      [
        0.9185772947967052,
        45.55059615522623,
        307.79999999999995
      ],
      [
        0.9186876006424427,
        45.55065373890102,
        307
      ],
      [
        0.9187164343893528,
        45.55067293345928,
        306.79999999999995
      ],
      [
        0.9187959786504507,
        45.55074141360819,
        306.6
      ],
      [
        0.9189385548233986,
        45.55084618739784,
        306.6
      ],
      [
        0.9190563205629587,
        45.55088834837079,
        306.79999999999995
      ],
      [
        0.9191609267145395,
        45.550905698910356,
        307.4
      ],
      [
        0.9192900080233812,
        45.550922295078635,
        307.6
      ],
      [
        0.9193461667746305,
        45.550925899297,
        307.4
      ],
      [
        0.9194435644894838,
        45.550933023914695,
        307
      ],
      [
        0.9196055866777897,
        45.550948698073626,
        306.79999999999995
      ],
      [
        0.9196857176721096,
        45.5509621091187,
        306.6
      ],
      [
        0.9197531081736088,
        45.55096453987062,
        306.4
      ],
      [
        0.9198826085776091,
        45.55096982046962,
        305.79999999999995
      ],
      [
        0.9199576266109943,
        45.550978537648916,
        305.79999999999995
      ],
      [
        0.9200127795338631,
        45.55098549462855,
        305.6
      ],
      [
        0.9201440401375294,
        45.55100770667195,
        305.4
      ],
      [
        0.9202983509749174,
        45.551089430227876,
        305
      ],
      [
        0.9204241633415222,
        45.551165118813515,
        305.20000000000005
      ],
      [
        0.9204525779932737,
        45.55118288844824,
        305.20000000000005
      ],
      [
        0.9204779751598835,
        45.55119797587395,
        305
      ],
      [
        0.9205107484012842,
        45.55123443715274,
        304.79999999999995
      ],
      [
        0.9205386601388454,
        45.55127969942987,
        304.79999999999995
      ],
      [
        0.9205457009375095,
        45.55129864253104,
        304.6
      ],
      [
        0.9205436054617167,
        45.55134038440883,
        304.6
      ],
      [
        0.9205085691064596,
        45.55149964056909,
        304.4
      ],
      [
        0.920490799471736,
        45.551615646108985,
        303.6
      ],
      [
        0.9204841777682304,
        45.551628889515996,
        303.4
      ],
      [
        0.9204343892633915,
        45.55169410072267,
        302.79999999999995
      ],
      [
        0.9204229898750782,
        45.55170399136841,
        302.6
      ],
      [
        0.9203828405588865,
        45.551739279180765,
        302
      ],
      [
        0.920335566624999,
        45.551777416840196,
        301.6
      ],
      [
        0.9202564414590597,
        45.55183282122016,
        301.4
      ],
      [
        0.9201178047806025,
        45.55192703381181,
        301.20000000000005
      ],
      [
        0.9201084170490503,
        45.55193692445755,
        301.20000000000005
      ],
      [
        0.9201218280941248,
        45.55203557945788,
        301
      ],
      [
        0.920244287699461,
        45.552078830078244,
        301.20000000000005
      ],
      [
        0.920322323217988,
        45.55213540792465,
        301
      ],
      [
        0.9203699324280024,
        45.55225518532097,
        300.6
      ],
      [
        0.9203688427805901,
        45.55227513425052,
        300.6
      ],
      [
        0.9202918130904436,
        45.55238091386855,
        300.20000000000005
      ],
      [
        0.9202628955245018,
        45.55251535959542,
        299.79999999999995
      ],
      [
        0.9203733690083027,
        45.55253120139241,
        299.6
      ],
      [
        0.9204852674156427,
        45.552522065117955,
        299.6
      ],
      [
        0.920580318197608,
        45.55248660966754,
        299.20000000000005
      ],
      [
        0.9207725152373314,
        45.552433552220464,
        299.20000000000005
      ],
      [
        0.9209595154970884,
        45.552413519471884,
        299
      ],
      [
        0.9211275726556778,
        45.55240957997739,
        299
      ],
      [
        0.9213020838797092,
        45.55237705819309,
        298.6
      ],
      [
        0.9213155787438154,
        45.552372531965375,
        298.4
      ],
      [
        0.9214477613568306,
        45.55231897160411,
        298
      ],
      [
        0.921542476862669,
        45.55230924859643,
        298.6
      ],
      [
        0.9216281399130821,
        45.55226616561413,
        299
      ],
      [
        0.9216813649982214,
        45.55223112925887,
        299
      ],
      [
        0.9217860549688339,
        45.552140939980745,
        299
      ],
      [
        0.9219025634229183,
        45.55204345844686,
        299.20000000000005
      ],
      [
        0.9219980333000422,
        45.55195259861648,
        299.20000000000005
      ],
      [
        0.922069950029254,
        45.55189392529428,
        299.4
      ],
      [
        0.922106746584177,
        45.55186852812767,
        299.4
      ],
      [
        0.922204228118062,
        45.55180826224387,
        299.20000000000005
      ],
      [
        0.9222230035811663,
        45.55180775932968,
        299.20000000000005
      ],
      [
        0.9223395120352507,
        45.551837515085936,
        299.20000000000005
      ],
      [
        0.9224654082208872,
        45.5519119463861,
        299.4
      ],
      [
        0.9225352294743061,
        45.55195553228259,
        299.4
      ],
      [
        0.922610079869628,
        45.55200624279678,
        299.20000000000005
      ],
      [
        0.9226555097848177,
        45.55203918367624,
        299.20000000000005
      ],
      [
        0.92282859608531,
        45.5521603859961,
        298.4
      ],
      [
        0.9228431805968285,
        45.55216901935637,
        298.4
      ],
      [
        0.922924317419529,
        45.552236242219806,
        298.4
      ],
      [
        0.9229361359030008,
        45.5522452108562,
        298.4
      ],
      [
        0.9230171889066696,
        45.55234948173165,
        298.20000000000005
      ],
      [
        0.9230884350836277,
        45.55244017392397,
        298.20000000000005
      ],
      [
        0.9231678117066622,
        45.55257763713598,
        298.4
      ],
      [
        0.9232600964605808,
        45.552735049277544,
        298.6
      ],
      [
        0.9233315940946341,
        45.55285952053964,
        298.4
      ],
      [
        0.9233978111296892,
        45.552974017336965,
        298.4
      ],
      [
        0.9234517067670822,
        45.55312179028988,
        297.79999999999995
      ],
      [
        0.923452964052558,
        45.553254056721926,
        297.79999999999995
      ],
      [
        0.9234404750168324,
        45.55338615551591,
        297.79999999999995
      ],
      [
        0.9235043451189995,
        45.5535299051553,
        297.79999999999995
      ],
      [
        0.923687070608139,
        45.55363526567817,
        298.4
      ],
      [
        0.9238116256892681,
        45.55364255793393,
        298.6
      ],
      [
        0.9238321613520384,
        45.55364088155329,
        298.6
      ],
      [
        0.9238830395042896,
        45.5536266323179,
        298.79999999999995
      ],
      [
        0.9240656811743975,
        45.553529066964984,
        298.4
      ],
      [
        0.9242137055844069,
        45.55346201173961,
        297.79999999999995
      ],
      [
        0.9244079980999231,
        45.55337584577501,
        298
      ],
      [
        0.9244670066982508,
        45.55335153825581,
        297.79999999999995
      ],
      [
        0.9244883805513382,
        45.55334600619972,
        297.79999999999995
      ],
      [
        0.9245970100164413,
        45.55331532843411,
        297.6
      ],
      [
        0.9247945714741945,
        45.55333049967885,
        297.6
      ],
      [
        0.9249660652130842,
        45.55337944999337,
        297.79999999999995
      ],
      [
        0.9251085575670004,
        45.55343125015497,
        297.79999999999995
      ],
      [
        0.9253160934895277,
        45.55350509472191,
        297.4
      ],
      [
        0.9254844859242439,
        45.55358991958201,
        297.20000000000005
      ],
      [
        0.9256182610988617,
        45.55369854904711,
        297.4
      ],
      [
        0.9257369488477707,
        45.55385881103575,
        297.4
      ],
      [
        0.9258129727095366,
        45.55397925898433,
        297.4
      ],
      [
        0.9258388727903366,
        45.554020665585995,
        297.4
      ],
      [
        0.9259714744985104,
        45.554184531793,
        297.4
      ],
      [
        0.9260597359389067,
        45.55432677268982,
        297.20000000000005
      ],
      [
        0.9261438902467489,
        45.55448452010751,
        296.79999999999995
      ],
      [
        0.9261575527489185,
        45.55460563860834,
        296.6
      ],
      [
        0.9261473268270493,
        45.554624581709504,
        296.6
      ],
      [
        0.9261171519756317,
        45.55466749705374,
        296.79999999999995
      ],
      [
        0.9260500967502594,
        45.55472893640399,
        296.6
      ],
      [
        0.9259348455816507,
        45.55482750758529,
        297
      ],
      [
        0.9257941134274006,
        45.554933873936534,
        296.79999999999995
      ],
      [
        0.9256578236818314,
        45.55504300631583,
        296.4
      ],
      [
        0.9254799596965313,
        45.55515121668577,
        295.6
      ],
      [
        0.9254418220371008,
        45.555174769833684,
        295.6
      ],
      [
        0.9253008384257555,
        45.55528239347041,
        295.20000000000005
      ],
      [
        0.9251765348017216,
        45.55537878535688,
        295
      ],
      [
        0.9250715933740139,
        45.555479787290096,
        295
      ],
      [
        0.9249327052384615,
        45.555597050115466,
        295.6
      ],
      [
        0.9247674141079187,
        45.55571355856955,
        294.79999999999995
      ],
      [
        0.9247186314314604,
        45.55573929101229,
        294.6
      ],
      [
        0.9246051404625177,
        45.55576594546437,
        294.79999999999995
      ],
      [
        0.9244485665112734,
        45.555777261033654,
        295.4
      ],
      [
        0.9244306292384863,
        45.55578581057489,
        295.6
      ],
      [
        0.9243100136518478,
        45.55585806258023,
        296
      ],
      [
        0.9243603050708771,
        45.5559251178056,
        296
      ],
      [
        0.924461055546999,
        45.55604514665902,
        295.6
      ],
      [
        0.924427192658186,
        45.55619526654482,
        295.6
      ],
      [
        0.9243166353553534,
        45.55632661096752,
        296.20000000000005
      ],
      [
        0.924269026145339,
        45.55641872808337,
        296
      ],
      [
        0.9242637455463409,
        45.55644848383963,
        296
      ],
      [
        0.9243029728531837,
        45.55652283132076,
        295.79999999999995
      ],
      [
        0.9244589600712061,
        45.556498020887375,
        295.6
      ],
      [
        0.9246269334107637,
        45.556465750560164,
        295.4
      ],
      [
        0.9247026219964027,
        45.55645150132477,
        295.4
      ],
      [
        0.9247401729226112,
        45.55644211359322,
        295.6
      ],
      [
        0.9248985070735216,
        45.556427696719766,
        296.20000000000005
      ],
      [
        0.9249801468104124,
        45.55642602033913,
        296.6
      ],
      [
        0.9250873513519764,
        45.55641730315983,
        297
      ],
      [
        0.9252463560551405,
        45.556401712819934,
        297.4
      ],
      [
        0.9252631198614836,
        45.55639944970608,
        297.4
      ],
      [
        0.9254365414381027,
        45.5563931632787,
        297.6
      ],
      [
        0.9255797881633043,
        45.55638922378421,
        297.6
      ],
      [
        0.9255961328744888,
        45.55638964287937,
        297.6
      ],
      [
        0.9257871564477682,
        45.55638251826167,
        297.4
      ],
      [
        0.925974240526557,
        45.55638536810875,
        298
      ],
      [
        0.9261299762874842,
        45.556428199633956,
        298.6
      ],
      [
        0.926151517778635,
        45.556453512981534,
        298.79999999999995
      ],
      [
        0.9261557087302208,
        45.55653791874647,
        299.4
      ],
      [
        0.9261484164744616,
        45.556576726958156,
        299.79999999999995
      ],
      [
        0.926147410646081,
        45.556589467450976,
        299.79999999999995
      ],
      [
        0.9261426329612732,
        45.556630454957485,
        300.20000000000005
      ],
      [
        0.9261389449238777,
        45.556654343381524,
        300.20000000000005
      ],
      [
        0.9261212591081858,
        45.55672416463494,
        300.4
      ],
      [
        0.9261137992143631,
        45.55681427009404,
        300
      ],
      [
        0.9261185768991709,
        45.55698559619486,
        299.6
      ],
      [
        0.9261015616357327,
        45.557130351662636,
        299.4
      ],
      [
        0.9260930120944977,
        45.557236885651946,
        299.4
      ],
      [
        0.9260702133178711,
        45.55737342685461,
        299.4
      ],
      [
        0.9260455705225468,
        45.557491946965456,
        299.4
      ],
      [
        0.9259949438273907,
        45.55759462527931,
        299.20000000000005
      ],
      [
        0.9259376954287291,
        45.55770954117179,
        298.79999999999995
      ],
      [
        0.9259267989546061,
        45.55773259140551,
        298.6
      ],
      [
        0.9259086940437555,
        45.55783652700484,
        298.4
      ],
      [
        0.9259040001779795,
        45.55794364772737,
        298.79999999999995
      ],
      [
        0.9258872363716364,
        45.558010786771774,
        299
      ],
      [
        0.925844069570303,
        45.558145148679614,
        299.20000000000005
      ],
      [
        0.9257693029940128,
        45.55828479118645,
        299.4
      ],
      [
        0.9257475100457668,
        45.55838487111032,
        299
      ],
      [
        0.9258256293833256,
        45.558476485311985,
        299.4
      ],
      [
        0.92585613951087,
        45.55851235985756,
        299.79999999999995
      ],
      [
        0.925988657400012,
        45.55860808119178,
        300
      ],
      [
        0.9260697942227125,
        45.558680668473244,
        301
      ],
      [
        0.9261269588023424,
        45.558752585202456,
        301.79999999999995
      ],
      [
        0.9261290542781353,
        45.55878066457808,
        302
      ],
      [
        0.9261290542781353,
        45.55880505591631,
        302.20000000000005
      ],
      [
        0.9260615799576044,
        45.55888535454869,
        303
      ],
      [
        0.9260491747409105,
        45.55889063514769,
        303
      ],
      [
        0.9260480012744665,
        45.55891561321914,
        303.4
      ],
      [
        0.9260591492056847,
        45.55892466567457,
        303.4
      ],
      [
        0.92618596740067,
        45.559013430029154,
        303
      ],
      [
        0.9263037331402302,
        45.55909272283316,
        302.6
      ],
      [
        0.9264050703495741,
        45.559167908504605,
        302
      ],
      [
        0.9264249354600906,
        45.55918810889125,
        302
      ],
      [
        0.926452511921525,
        45.559223061427474,
        301.79999999999995
      ],
      [
        0.9264883026480675,
        45.55926379747689,
        301.4
      ],
      [
        0.9265150409191847,
        45.559291541576385,
        301.20000000000005
      ],
      [
        0.9265903104096651,
        45.559356501325965,
        300.79999999999995
      ],
      [
        0.9266213234513998,
        45.55937737226486,
        300.6
      ],
      [
        0.9267115127295256,
        45.55947250686586,
        300
      ],
      [
        0.9267320483922958,
        45.55950863286853,
        299.79999999999995
      ],
      [
        0.9267874527722597,
        45.559599408879876,
        299.4
      ],
      [
        0.9268069826066494,
        45.55962849408388,
        299.6
      ],
      [
        0.9268143586814404,
        45.559641821309924,
        299.6
      ],
      [
        0.9268283564597368,
        45.55966696701944,
        299.6
      ],
      [
        0.9268517419695854,
        45.559704434126616,
        299.79999999999995
      ],
      [
        0.9268457069993019,
        45.559750786051154,
        299.79999999999995
      ],
      [
        0.9268380794674158,
        45.5598452500999,
        300.20000000000005
      ],
      [
        0.9268496464937925,
        45.559949688613415,
        300.20000000000005
      ],
      [
        0.9268156997859478,
        45.56004733778536,
        300.4
      ],
      [
        0.9267591219395399,
        45.56011573411524,
        300.4
      ],
      [
        0.9267085790634155,
        45.56016527116299,
        300.6
      ],
      [
        0.9266794938594103,
        45.560284964740276,
        300.4
      ],
      [
        0.9267656598240137,
        45.56036149151623,
        300.6
      ],
      [
        0.9268681704998016,
        45.560461319983006,
        300.4
      ],
      [
        0.9269666578620672,
        45.56054371409118,
        299.79999999999995
      ],
      [
        0.9270401671528816,
        45.5606740526855,
        299.20000000000005
      ],
      [
        0.9270694199949503,
        45.56076197884977,
        298.79999999999995
      ],
      [
        0.9270797297358513,
        45.56079525500536,
        298.79999999999995
      ],
      [
        0.9270976670086384,
        45.560874212533236,
        299
      ],
      [
        0.927144605666399,
        45.56096775457263,
        299
      ],
      [
        0.9271735232323408,
        45.561031037941575,
        299.20000000000005
      ],
      [
        0.9272078890353441,
        45.56109339930117,
        299.4
      ],
      [
        0.9272296819835901,
        45.56118568405509,
        299.79999999999995
      ],
      [
        0.9272244013845921,
        45.561281740665436,
        299.79999999999995
      ],
      [
        0.9272228926420212,
        45.56129506789148,
        299.79999999999995
      ],
      [
        0.9271760378032923,
        45.56136270985007,
        300
      ],
      [
        0.927165225148201,
        45.56137419305742,
        300
      ],
      [
        0.9270916320383549,
        45.561471842229366,
        300.4
      ],
      [
        0.9270191285759211,
        45.56159027852118,
        300.6
      ],
      [
        0.9269509837031364,
        45.561690190806985,
        300.4
      ],
      [
        0.9269286878407001,
        45.56179010309279,
        300.20000000000005
      ],
      [
        0.9269415959715843,
        45.561875347048044,
        300.4
      ],
      [
        0.9269988443702459,
        45.56198540143669,
        300.6
      ],
      [
        0.9270021971315145,
        45.56199713610113,
        300.6
      ],
      [
        0.9270359762012959,
        45.56208414025605,
        300.6
      ],
      [
        0.9270816575735807,
        45.56220073252916,
        300.6
      ],
      [
        0.9270850103348494,
        45.5622143112123,
        300.79999999999995
      ],
      [
        0.9271087311208248,
        45.562299974262714,
        300.79999999999995
      ],
      [
        0.9271278418600559,
        45.562370298430324,
        301
      ],
      [
        0.9271638840436935,
        45.56244699284434,
        301
      ],
      [
        0.927243260666728,
        45.562540367245674,
        301
      ],
      [
        0.9273500461131334,
        45.56260172277689,
        301.4
      ],
      [
        0.9274730086326599,
        45.56266559287906,
        302
      ],
      [
        0.9274994116276503,
        45.56267640553415,
        302
      ],
      [
        0.9275887627154589,
        45.56271211244166,
        302
      ],
      [
        0.9277021698653698,
        45.562744215130806,
        302.20000000000005
      ],
      [
        0.9278258867561817,
        45.56273499503732,
        302
      ],
      [
        0.9278998989611864,
        45.562727618962526,
        301.79999999999995
      ],
      [
        0.9279884956777096,
        45.56272108107805,
        301.6
      ],
      [
        0.9281484223902225,
        45.56270540691912,
        301.6
      ],
      [
        0.9283196646720171,
        45.5627220030874,
        302
      ],
      [
        0.928527619689703,
        45.5627204105258,
        302.20000000000005
      ],
      [
        0.9285997040569782,
        45.562680093571544,
        302.4
      ],
      [
        0.928607415407896,
        45.56264530867338,
        302.4
      ],
      [
        0.9285401087254286,
        45.562582444399595,
        302.4
      ],
      [
        0.9283792600035667,
        45.56256886571646,
        302
      ],
      [
        0.9282422997057438,
        45.56255319155753,
        302.20000000000005
      ],
      [
        0.9280998911708593,
        45.56253173388541,
        302.20000000000005
      ],
      [
        0.9280509408563375,
        45.56251220405102,
        302.20000000000005
      ],
      [
        0.927978940308094,
        45.56244774721563,
        302.20000000000005
      ],
      [
        0.927944490686059,
        45.56241053156555,
        302.20000000000005
      ],
      [
        0.9278387110680342,
        45.562306009233,
        302.20000000000005
      ],
      [
        0.9277686383575201,
        45.562204169109464,
        302.20000000000005
      ],
      [
        0.927771907299757,
        45.562086487188935,
        302.6
      ],
      [
        0.9278213605284691,
        45.56198640726507,
        302.79999999999995
      ],
      [
        0.9278294909745455,
        45.561966290697455,
        303
      ],
      [
        0.927872909232974,
        45.56189957074821,
        303
      ],
      [
        0.9279436524957418,
        45.56182430125773,
        303.20000000000005
      ],
      [
        0.9280114620923996,
        45.56171726435423,
        303
      ],
      [
        0.9280968736857176,
        45.56160880252719,
        302.79999999999995
      ],
      [
        0.9281569719314575,
        45.56152808479965,
        302.79999999999995
      ],
      [
        0.9282309841364622,
        45.561408726498485,
        302.4
      ],
      [
        0.9282634221017361,
        45.56131476536393,
        302.4
      ],
      [
        0.9282801859080791,
        45.561220133677125,
        302.20000000000005
      ],
      [
        0.9282821975648403,
        45.561206890270114,
        302.20000000000005
      ],
      [
        0.9283319022506475,
        45.56108409538865,
        302
      ],
      [
        0.9283385239541531,
        45.561056435108185,
        302
      ],
      [
        0.9283446427434683,
        45.561000779271126,
        301.6
      ],
      [
        0.9283831994980574,
        45.56089994497597,
        301.6
      ],
      [
        0.9284006338566542,
        45.560803301632404,
        301.6
      ],
      [
        0.9284181520342827,
        45.560716381296515,
        302
      ],
      [
        0.9284511767327785,
        45.56060381233692,
        301.6
      ],
      [
        0.9285557828843594,
        45.56051052175462,
        301.6
      ],
      [
        0.9286447986960411,
        45.56044539436698,
        301.6
      ],
      [
        0.9286646638065577,
        45.56032670661807,
        301.6
      ],
      [
        0.9286084212362766,
        45.56024154648185,
        301.6
      ],
      [
        0.9285933338105679,
        45.56013870052993,
        301.6
      ],
      [
        0.928624514490366,
        45.5600643530488,
        302
      ],
      [
        0.9286519233137369,
        45.5599417258054,
        302.4
      ],
      [
        0.9287009574472904,
        45.55985807441175,
        302.6
      ],
      [
        0.9287597984075546,
        45.5597553960979,
        302.6
      ],
      [
        0.9288405999541283,
        45.55962706916034,
        302.4
      ],
      [
        0.9288553521037102,
        45.55951793678105,
        302
      ],
      [
        0.9288737084716558,
        45.55943973362446,
        301.6
      ],
      [
        0.9288810845464468,
        45.55941701866686,
        301.6
      ],
      [
        0.9289506543427706,
        45.559321381151676,
        302.20000000000005
      ],
      [
        0.9289876185357571,
        45.559288607910275,
        302.4
      ],
      [
        0.9290431067347527,
        45.55920026265085,
        303
      ],
      [
        0.9290612954646349,
        45.559172267094254,
        303
      ],
      [
        0.9291224833577871,
        45.55907277390361,
        304
      ],
      [
        0.9291292726993561,
        45.559062296524644,
        304
      ],
      [
        0.9290921408683062,
        45.55895643308759,
        303.79999999999995
      ],
      [
        0.9289645683020353,
        45.558928521350026,
        303.6
      ],
      [
        0.9288516640663147,
        45.558936316519976,
        303.6
      ],
      [
        0.9287711977958679,
        45.55894436314702,
        303.6
      ],
      [
        0.9285386838018894,
        45.558938663452864,
        303.4
      ],
      [
        0.9282713010907173,
        45.55894520133734,
        303.20000000000005
      ],
      [
        0.9282312355935574,
        45.55894545279443,
        303
      ],
      [
        0.9280603285878897,
        45.55893807671964,
        303
      ],
      [
        0.9280250407755375,
        45.558936735615134,
        302.79999999999995
      ],
      [
        0.9278332628309727,
        45.55892617441714,
        302.6
      ],
      [
        0.9276610147207975,
        45.558931371197104,
        302.4
      ],
      [
        0.9275652933865786,
        45.558934304863214,
        302.20000000000005
      ],
      [
        0.9274306800216436,
        45.558932796120644,
        302
      ],
      [
        0.927335461601615,
        45.558933299034834,
        302
      ],
      [
        0.9272534027695656,
        45.5589350592345,
        302
      ],
      [
        0.9271953161805868,
        45.55893153883517,
        301.79999999999995
      ],
      [
        0.9269395843148232,
        45.55892080999911,
        301.79999999999995
      ],
      [
        0.9267421904951334,
        45.55891703814268,
        301.4
      ],
      [
        0.9264971036463976,
        45.55890480056405,
        301
      ],
      [
        0.926265511661768,
        45.55891175754368,
        301.6
      ],
      [
        0.9261599835008383,
        45.55891158990562,
        301.79999999999995
      ],
      [
        0.926033416762948,
        45.55888342671096,
        302.6
      ],
      [
        0.9259836282581091,
        45.55885065346956,
        302.79999999999995
      ],
      [
        0.9259579796344042,
        45.55881938897073,
        303
      ],
      [
        0.9259387850761414,
        45.55876323021948,
        303.20000000000005
      ],
      [
        0.925903832539916,
        45.55869366042316,
        302.20000000000005
      ],
      [
        0.9258948639035225,
        45.558681674301624,
        302
      ],
      [
        0.9258739929646254,
        45.55861939676106,
        301
      ],
      [
        0.9258605819195509,
        45.55859500542283,
        300.4
      ],
      [
        0.925840213894844,
        45.55855041369796,
        299.79999999999995
      ],
      [
        0.9258102905005217,
        45.558483274653554,
        299.4
      ],
      [
        0.9257892519235611,
        45.558417811989784,
        298.79999999999995
      ],
      [
        0.9257761761546135,
        45.558396354317665,
        298.79999999999995
      ],
      [
        0.9257467556744814,
        45.558297196403146,
        299.4
      ],
      [
        0.9257724042981863,
        45.558244390413165,
        299.4
      ],
      [
        0.9258127212524414,
        45.55819577537477,
        299.4
      ],
      [
        0.9258889127522707,
        45.55806032381952,
        299.20000000000005
      ],
      [
        0.9258954506367445,
        45.557999135926366,
        299.20000000000005
      ],
      [
        0.9259002283215523,
        45.55793249979615,
        299
      ],
      [
        0.9259208478033543,
        45.55781414732337,
        298.6
      ],
      [
        0.9259443171322346,
        45.557706356048584,
        298.4
      ],
      [
        0.9259738214313984,
        45.55762052536011,
        298.4
      ],
      [
        0.9260355122387409,
        45.557500747963786,
        298.79999999999995
      ],
      [
        0.9260674472898245,
        45.557434782385826,
        298.6
      ],
      [
        0.926080858334899,
        45.557386837899685,
        298.6
      ],
      [
        0.9261060878634453,
        45.55728013627231,
        298.4
      ],
      [
        0.9261114522814751,
        45.557170836254954,
        298.4
      ],
      [
        0.9261196665465832,
        45.55706413462758,
        298.79999999999995
      ],
      [
        0.9261329099535942,
        45.556927006691694,
        299.20000000000005
      ],
      [
        0.9261413756757975,
        45.55678082630038,
        299.6
      ],
      [
        0.9261389449238777,
        45.556659791618586,
        299.4
      ],
      [
        0.9261405374854803,
        45.55663984268904,
        299
      ],
      [
        0.9261639229953289,
        45.556516544893384,
        298.6
      ],
      [
        0.9261661022901535,
        45.556444292888045,
        298
      ],
      [
        0.9261729754507542,
        45.55642652325332,
        297.79999999999995
      ],
      [
        0.926174484193325,
        45.556423757225275,
        297.4
      ],
      [
        0.9261614922434092,
        45.55642157793045,
        297.4
      ],
      [
        0.9260853845626116,
        45.55640581995249,
        297.6
      ],
      [
        0.9259630087763071,
        45.5563844460994,
        297.4
      ],
      [
        0.9258029982447624,
        45.556370532140136,
        297.6
      ],
      [
        0.9256065264344215,
        45.55638235062361,
        298
      ],
      [
        0.9254367928951979,
        45.55639190599322,
        298.4
      ],
      [
        0.9252623654901981,
        45.556404227390885,
        298.6
      ],
      [
        0.9251357987523079,
        45.55639961734414,
        298.6
      ],
      [
        0.9249730221927166,
        45.5564085021615,
        298.4
      ],
      [
        0.9247647318989038,
        45.5564277805388,
        298
      ],
      [
        0.9245898853987455,
        45.55646315217018,
        298
      ],
      [
        0.9244016278535128,
        45.556493662297726,
        298.4
      ],
      [
        0.9242935851216316,
        45.55649106390774,
        298.79999999999995
      ],
      [
        0.9242572076618671,
        45.556474635377526,
        299
      ],
      [
        0.9242403600364923,
        45.5564396828413,
        299.4
      ],
      [
        0.9242629911750555,
        45.55640112608671,
        299.4
      ],
      [
        0.924333818256855,
        45.556297693401575,
        299.4
      ],
      [
        0.9244292043149471,
        45.55617858655751,
        299.20000000000005
      ],
      [
        0.9244530089199543,
        45.55607850663364,
        298.79999999999995
      ],
      [
        0.9243761468678713,
        45.5559769179672,
        299
      ],
      [
        0.9243159648030996,
        45.55589544586837,
        299
      ],
      [
        0.924353264272213,
        45.55579712614417,
        299.20000000000005
      ],
      [
        0.9244751371443272,
        45.55576879531145,
        299
      ],
      [
        0.9246381651610136,
        45.55575689300895,
        298.79999999999995
      ],
      [
        0.9247818309813738,
        45.5556782707572,
        299.20000000000005
      ],
      [
        0.924882497638464,
        45.55559176951647,
        299.20000000000005
      ],
      [
        0.92497025616467,
        45.55553418584168,
        299.20000000000005
      ],
      [
        0.9249815717339516,
        45.55552798323333,
        299.20000000000005
      ],
      [
        0.9250791370868683,
        45.55546637624502,
        298.79999999999995
      ],
      [
        0.9251121617853642,
        45.555442152544856,
        298.79999999999995
      ],
      [
        0.9252006746828556,
        45.555350203067064,
        298.20000000000005
      ],
      [
        0.9253133274614811,
        45.55526454001665,
        298.6
      ],
      [
        0.925445593893528,
        45.55516429245472,
        299
      ],
      [
        0.9256307501345873,
        45.55502297356725,
        299.4
      ],
      [
        0.9257216099649668,
        45.55495474487543,
        299.4
      ],
      [
        0.9258631803095341,
        45.55486757308245,
        299.20000000000005
      ],
      [
        0.925978347659111,
        45.55477109737694,
        299.20000000000005
      ],
      [
        0.9261042438447475,
        45.55466213263571,
        298.6
      ],
      [
        0.9261742327362299,
        45.55452064611018,
        298.6
      ],
      [
        0.9261593967676163,
        45.554486364126205,
        298.6
      ],
      [
        0.9261393640190363,
        45.554449232295156,
        298.79999999999995
      ],
      [
        0.9261146374046803,
        45.554398857057095,
        298.79999999999995
      ],
      [
        0.9260257892310619,
        45.55427505634725,
        299.20000000000005
      ],
      [
        0.925966277718544,
        45.55419375188649,
        299.20000000000005
      ],
      [
        0.9258775971829891,
        45.55407430976629,
        298.79999999999995
      ],
      [
        0.9258317481726408,
        45.553971296176314,
        299
      ],
      [
        0.9257644414901733,
        45.55387088097632,
        298.79999999999995
      ],
      [
        0.9256627690047026,
        45.553764682263136,
        298.79999999999995
      ],
      [
        0.925591355189681,
        45.55368572473526,
        298.79999999999995
      ],
      [
        0.9255124814808369,
        45.55361062288284,
        298.79999999999995
      ],
      [
        0.9253816399723291,
        45.553540298715234,
        299.20000000000005
      ],
      [
        0.925244428217411,
        45.55349428206682,
        299.6
      ],
      [
        0.9251472819596529,
        45.55344818159938,
        299.79999999999995
      ],
      [
        0.925115430727601,
        45.55343644693494,
        300
      ],
      [
        0.9249695856124163,
        45.55339395068586,
        300
      ],
      [
        0.9247734490782022,
        45.553336534649134,
        300.20000000000005
      ],
      [
        0.9246618859469891,
        45.55331549607217,
        300
      ],
      [
        0.9246168751269579,
        45.55332077667117,
        300
      ],
      [
        0.9244525898247957,
        45.55335866287351,
        300.20000000000005
      ],
      [
        0.9243069123476744,
        45.5534144025296,
        300.4
      ],
      [
        0.9241655934602022,
        45.55347659625113,
        300.79999999999995
      ],
      [
        0.9241508413106203,
        45.55348229594529,
        301
      ],
      [
        0.9240152221173048,
        45.5535594932735,
        301.4
      ],
      [
        0.9239119570702314,
        45.55360324680805,
        301.79999999999995
      ],
      [
        0.9238607436418533,
        45.55362755432725,
        301.79999999999995
      ],
      [
        0.9238009806722403,
        45.553644401952624,
        301.79999999999995
      ],
      [
        0.9237240348011255,
        45.55364599451423,
        302
      ],
      [
        0.9236019942909479,
        45.553593607619405,
        300.79999999999995
      ],
      [
        0.9235868230462074,
        45.55358497425914,
        300.6
      ],
      [
        0.9234805405139923,
        45.55346637032926,
        300
      ],
      [
        0.9234646987169981,
        45.55339495651424,
        299.79999999999995
      ],
      [
        0.9234730806201696,
        45.553340055048466,
        299.6
      ],
      [
        0.9234799537807703,
        45.5532175116241,
        299.4
      ],
      [
        0.9234735835343599,
        45.55310477502644,
        299.6
      ],
      [
        0.9234178438782692,
        45.552990110591054,
        300
      ],
      [
        0.9233781136572361,
        45.552914422005415,
        300
      ],
      [
        0.9233244694769382,
        45.55278517305851,
        300.4
      ],
      [
        0.9232551511377096,
        45.55265382863581,
        300.4
      ],
      [
        0.9231895208358765,
        45.55255324579775,
        300.4
      ],
      [
        0.9231165144592524,
        45.55247345007956,
        300.20000000000005
      ],
      [
        0.9231028519570827,
        45.552439922466874,
        300.20000000000005
      ],
      [
        0.9230660554021597,
        45.55237244814634,
        300.20000000000005
      ],
      [
        0.92300059273839,
        45.55227781645954,
        300.20000000000005
      ],
      [
        0.9229150135070086,
        45.552193745970726,
        300.20000000000005
      ],
      [
        0.9227904584258795,
        45.552093498408794,
        300.6
      ],
      [
        0.9226644784212112,
        45.55202040821314,
        300.79999999999995
      ],
      [
        0.9226514026522636,
        45.552009930834174,
        300.79999999999995
      ],
      [
        0.9225013665854931,
        45.55189669132233,
        300.79999999999995
      ],
      [
        0.9223592095077038,
        45.551797449588776,
        300.79999999999995
      ],
      [
        0.9222057368606329,
        45.55178638547659,
        300.6
      ],
      [
        0.9220997057855129,
        45.55184606462717,
        300.6
      ],
      [
        0.9219613205641508,
        45.55195410735905,
        300.6
      ],
      [
        0.9218498412519693,
        45.55204337462783,
        300.6
      ],
      [
        0.9217439778149128,
        45.552134150639176,
        300.6
      ],
      [
        0.9216258767992258,
        45.552240097895265,
        300.79999999999995
      ],
      [
        0.9214795287698507,
        45.55232391692698,
        300.79999999999995
      ],
      [
        0.9212400577962399,
        45.5523747112602,
        300.79999999999995
      ],
      [
        0.9210678935050964,
        45.55238292552531,
        300.79999999999995
      ],
      [
        0.920906038954854,
        45.55239231325686,
        300.79999999999995
      ],
      [
        0.920714596286416,
        45.55242408066988,
        301.20000000000005
      ],
      [
        0.9206030331552029,
        45.55245257914066,
        301.20000000000005
      ],
      [
        0.9204638935625553,
        45.55249004624784,
        301.20000000000005
      ],
      [
        0.9203469660133123,
        45.552525417879224,
        301.20000000000005
      ],
      [
        0.9202281944453716,
        45.55249214172363,
        301.20000000000005
      ],
      [
        0.9202450420707464,
        45.552403293550014,
        301
      ],
      [
        0.920361215248704,
        45.55230354890227,
        301.20000000000005
      ],
      [
        0.9203655738383532,
        45.552213191986084,
        301.20000000000005
      ],
      [
        0.9202874545007944,
        45.55212057195604,
        301.6
      ],
      [
        0.9202257636934519,
        45.5520758125931,
        301.6
      ],
      [
        0.9201473090797663,
        45.552047565579414,
        301.6
      ],
      [
        0.9200936648994684,
        45.55194019339979,
        301.20000000000005
      ],
      [
        0.9201314672827721,
        45.55189442820847,
        301.20000000000005
      ],
      [
        0.9202058147639036,
        45.55184514261782,
        301
      ],
      [
        0.9203228261321783,
        45.55177515372634,
        300.79999999999995
      ],
      [
        0.9204091597348452,
        45.55170575156808,
        301.4
      ],
      [
        0.9204609598964453,
        45.55164045654237,
        302
      ],
      [
        0.9204792324453592,
        45.551581950858235,
        302.4
      ],
      [
        0.920518459752202,
        45.55150751955807,
        303
      ],
      [
        0.9205291885882616,
        45.55146644823253,
        303
      ],
      [
        0.9205532446503639,
        45.551356142386794,
        302.6
      ],
      [
        0.9205245785415173,
        45.551243741065264,
        302.20000000000005
      ],
      [
        0.9203945752233267,
        45.551136787980795,
        302.6
      ],
      [
        0.9202542621642351,
        45.55103595368564,
        302.4
      ],
      [
        0.9200794994831085,
        45.55096697062254,
        302.20000000000005
      ],
      [
        0.919877914711833,
        45.550939394161105,
        302.4
      ],
      [
        0.9197107795625925,
        45.5509309284389,
        302.4
      ],
      [
        0.9195355139672756,
        45.550918858498335,
        302.79999999999995
      ],
      [
        0.9193195961415768,
        45.550894383341074,
        302.4
      ],
      [
        0.9191750921308994,
        45.55087669752538,
        302
      ],
      [
        0.9191589988768101,
        45.55087812244892,
        302
      ],
      [
        0.9190489444881678,
        45.550877787172794,
        301.79999999999995
      ],
      [
        0.9188793785870075,
        45.55082858540118,
        301.6
      ],
      [
        0.9187943022698164,
        45.55076370947063,
        301.4
      ],
      [
        0.9187793824821711,
        45.55074040777981,
        301.4
      ],
      [
        0.9186782129108906,
        45.55062549188733,
        301.79999999999995
      ],
      [
        0.9185978304594755,
        45.55055768229067,
        303
      ],
      [
        0.9185161907225847,
        45.55050227791071,
        303.4
      ],
      [
        0.9184664022177458,
        45.55047595873475,
        303.6
      ],
      [
        0.918453661724925,
        45.550467912107706,
        303.4
      ],
      [
        0.9183906298130751,
        45.55040638893843,
        303.4
      ],
      [
        0.9183842595666647,
        45.550393061712384,
        303.4
      ],
      [
        0.9183130133897066,
        45.550283091142774,
        302
      ],
      [
        0.91831024736166,
        45.55027202703059,
        301.79999999999995
      ],
      [
        0.9182805754244328,
        45.55019969120622,
        301
      ],
      [
        0.9182638116180897,
        45.550177982077,
        300.6
      ],
      [
        0.9182182140648365,
        45.55012123659253,
        299.79999999999995
      ],
      [
        0.9182078205049038,
        45.55010841228068,
        299.6
      ],
      [
        0.9181435313075781,
        45.54999056272209,
        298.79999999999995
      ],
      [
        0.9181344788521528,
        45.54997983388603,
        298.6
      ],
      [
        0.9181006159633398,
        45.54990850389004,
        297.79999999999995
      ],
      [
        0.9180873725563288,
        45.54989039897919,
        297.6
      ],
      [
        0.9180432837456465,
        45.54982979781926,
        296.6
      ],
      [
        0.9180358238518238,
        45.5498172249645,
        296.4
      ],
      [
        0.9179884660989046,
        45.549728041514754,
        296.20000000000005
      ],
      [
        0.917961560189724,
        45.54964128881693,
        295.4
      ],
      [
        0.9179590456187725,
        45.54962771013379,
        295.20000000000005
      ],
      [
        0.9179574530571699,
        45.549576580524445,
        294.79999999999995
      ],
      [
        0.917956531047821,
        45.54954229854047,
        294.4
      ],
      [
        0.9179608896374702,
        45.549470633268356,
        293.20000000000005
      ],
      [
        0.9179776534438133,
        45.54942050948739,
        293
      ],
      [
        0.9179599676281214,
        45.54937650449574,
        292.6
      ],
      [
        0.9179364982992411,
        45.54936217144132,
        292.4
      ],
      [
        0.9179097600281239,
        45.549347922205925,
        292.4
      ],
      [
        0.9178956784307957,
        45.5493372771889,
        292.20000000000005
      ],
      [
        0.917825186625123,
        45.54930140264332,
        292.20000000000005
      ],
      [
        0.9177034813910723,
        45.54922563023865,
        292.4
      ],
      [
        0.9176437184214592,
        45.54918942041695,
        292.20000000000005
      ],
      [
        0.9176344145089388,
        45.54918992333114,
        292.20000000000005
      ],
      [
        0.917639946565032,
        45.54918983951211,
        292.20000000000005
      ],
      [
        0.9176403656601906,
        45.549191599711776,
        292
      ],
      [
        0.9176371805369854,
        45.54919612593949,
        291.79999999999995
      ],
      [
        0.917649082839489,
        45.54918942041695,
        291.20000000000005
      ],
      [
        0.9176579676568508,
        45.54919134825468,
        290.79999999999995
      ],
      [
        0.9176644217222929,
        45.549190593883395,
        291
      ],
      [
        0.9176675230264664,
        45.54919084534049,
        290.79999999999995
      ],
      [
        0.917674396187067,
        45.54919143207371,
        290.6
      ],
      [
        0.9176771622151136,
        45.54919470101595,
        290.20000000000005
      ],
      [
        0.9176768269389868,
        45.549195455387235,
        290.20000000000005
      ],
      [
        0.9176300559192896,
        45.54918497800827,
        290.4
      ],
      [
        0.9176379349082708,
        45.54917961359024,
        290.4
      ],
      [
        0.917641706764698,
        45.54917902685702,
        290.6
      ],
      [
        0.9176177345216274,
        45.54918682202697,
        290.6
      ],
      [
        0.9176183212548494,
        45.54920014925301,
        290.79999999999995
      ],
      [
        0.9176210034638643,
        45.5491834692657,
        291
      ],
      [
        0.9176213387399912,
        45.54918112233281,
        291
      ],
      [
        0.917627289891243,
        45.549200400710106,
        291
      ],
      [
        0.9176275413483381,
        45.54920459166169,
        291
      ],
      [
        0.9176334086805582,
        45.549199311062694,
        291
      ],
      [
        0.9176344983279705,
        45.54919973015785,
        291.20000000000005
      ],
      [
        0.9176343306899071,
        45.54920501075685,
        291.4
      ],
      [
        0.9177146293222904,
        45.54918942041695,
        291.6
      ],
      [
        0.9177349135279655,
        45.549163771793246,
        291.6
      ],
      [
        0.9177293814718723,
        45.54925387725234,
        292
      ],
      [
        0.917852595448494,
        45.549362590536475,
        292
      ],
      [
        0.9178733825683594,
        45.54936728440225,
        292
      ],
      [
        0.9179239254444838,
        45.549352867528796,
        292
      ],
      [
        0.9179800003767014,
        45.549281034618616,
        291.79999999999995
      ],
      [
        0.9180307108908892,
        45.549119766801596,
        290.79999999999995
      ],
      [
        0.9180791582912207,
        45.548931090161204,
        289.79999999999995
      ],
      [
        0.9180751349776983,
        45.54885162971914,
        289
      ],
      [
        0.9180556051433086,
        45.548778120428324,
        288.20000000000005
      ],
      [
        0.9179776534438133,
        45.548645770177245,
        286.6
      ],
      [
        0.9179069101810455,
        45.548591958358884,
        285.79999999999995
      ],
      [
        0.9178153797984123,
        45.548537727445364,
        285.4
      ],
      [
        0.9176013898104429,
        45.54842616431415,
        284.79999999999995
      ],
      [
        0.9174937661737204,
        45.54837151430547,
        284.20000000000005
      ],
      [
        0.9173594880849123,
        45.54830303415656,
        283.4
      ],
      [
        0.9173319116234779,
        45.548295406624675,
        283.20000000000005
      ],
      [
        0.9173181653022766,
        45.548289539292455,
        283.4
      ],
      [
        0.9173186682164669,
        45.54828233085573,
        283.79999999999995
      ],
      [
        0.917263263836503,
        45.548235811293125,
        283.79999999999995
      ],
      [
        0.9172130562365055,
        45.54818719625473,
        283.79999999999995
      ],
      [
        0.9170611761510372,
        45.547988126054406,
        283.4
      ],
      [
        0.9170310012996197,
        45.54790657013655,
        283.20000000000005
      ],
      [
        0.9169174265116453,
        45.547709092497826,
        283
      ],
      [
        0.9168970584869385,
        45.54768059402704,
        283
      ],
      [
        0.9167625289410353,
        45.54759451188147,
        283.6
      ],
      [
        0.916668064892292,
        45.54758923128247,
        283.79999999999995
      ],
      [
        0.9164017718285322,
        45.54760532453656,
        284.6
      ],
      [
        0.9160636458545923,
        45.54762787185609,
        285.4
      ],
      [
        0.9158966783434153,
        45.54763516411185,
        285.79999999999995
      ],
      [
        0.9155482426285744,
        45.54766148328781,
        286.4
      ],
      [
        0.9151918441057205,
        45.54770741611719,
        286.79999999999995
      ],
      [
        0.9148845635354519,
        45.54773666895926,
        287.20000000000005
      ],
      [
        0.9145776182413101,
        45.54772300645709,
        287.4
      ],
      [
        0.9143169410526752,
        45.547639606520534,
        287.79999999999995
      ],
      [
        0.9141967445611954,
        45.547582525759935,
        288.20000000000005
      ],
      [
        0.9140742011368275,
        45.54751337505877,
        288.4
      ],
      [
        0.9138202294707298,
        45.547390412539244,
        289
      ],
      [
        0.9136901423335075,
        45.54733106866479,
        289.20000000000005
      ],
      [
        0.9134096838533878,
        45.547219924628735,
        289.6
      ],
      [
        0.9132650122046471,
        45.54716636426747,
        290
      ],
      [
        0.9129502717405558,
        45.54706578142941,
        290.6
      ],
      [
        0.9127835556864738,
        45.54702219553292,
        290.79999999999995
      ],
      [
        0.9126021713018417,
        45.54697148501873,
        291.20000000000005
      ],
      [
        0.9122415818274021,
        45.5468799546361,
        291.79999999999995
      ],
      [
        0.9118935652077198,
        45.546807115897536,
        292.4
      ],
      [
        0.9115386754274368,
        45.54675565101206,
        292.79999999999995
      ],
      [
        0.9113794192671776,
        45.54674609564245,
        293
      ],
      [
        0.9112200792878866,
        45.54673167876899,
        293
      ],
      [
        0.910944901406765,
        45.546708879992366,
        293
      ],
      [
        0.9106297418475151,
        45.54670326411724,
        293.4
      ],
      [
        0.9104859922081232,
        45.546701503917575,
        294
      ],
      [
        0.9103932045400143,
        45.546722542494535,
        294.79999999999995
      ],
      [
        0.9101186133921146,
        45.54671851918101,
        296.79999999999995
      ],
      [
        0.9099803119897842,
        45.54673000238836,
        298
      ],
      [
        0.9097242448478937,
        45.54679152555764,
        300
      ],
      [
        0.9095986001193523,
        45.54682723246515,
        301.20000000000005
      ],
      [
        0.9094856958836317,
        45.5468574911356,
        302.20000000000005
      ],
      [
        0.9093695227056742,
        45.5469315033406,
        303.4
      ],
      [
        0.9092708677053452,
        45.54694910533726,
        304.4
      ],
      [
        0.9091000445187092,
        45.54688448086381,
        306.20000000000005
      ],
      [
        0.9090334083884954,
        45.54684290662408,
        307
      ],
      [
        0.908956965431571,
        45.54679362103343,
        307.79999999999995
      ],
      [
        0.9088282193988562,
        45.54674282670021,
        309.20000000000005
      ],
      [
        0.9086599107831717,
        45.54664618335664,
        310.4
      ],
      [
        0.9083880018442869,
        45.5465535633266,
        311.6
      ],
      [
        0.9083047695457935,
        45.54656965658069,
        312.4
      ],
      [
        0.9081796277314425,
        45.54659706540406,
        313.20000000000005
      ],
      [
        0.9081518836319447,
        45.54656798020005,
        314
      ],
      [
        0.9080524742603302,
        45.54662195965648,
        314.6
      ],
      [
        0.9078001789748669,
        45.54673754610121,
        316.20000000000005
      ],
      [
        0.907662296667695,
        45.546796722337604,
        316.79999999999995
      ],
      [
        0.9075436927378178,
        45.546851456165314,
        317.4
      ],
      [
        0.9073320496827364,
        45.54695145227015,
        318.79999999999995
      ],
      [
        0.9072100929915905,
        45.546980118379,
        319.4
      ],
      [
        0.907076820731163,
        45.54692412726581,
        320.20000000000005
      ],
      [
        0.9068142157047987,
        45.546873081475496,
        321.20000000000005
      ],
      [
        0.9056616201996803,
        45.54978637956083,
        322.20000000000005
      ],
      [
        0.9055181220173836,
        45.5496790073812,
        323
      ],
      [
        0.9054533299058676,
        45.54966333322227,
        323.4
      ],
      [
        0.9053109213709831,
        45.54961404763162,
        324.4
      ],
      [
        0.9052752982825041,
        45.549599546939135,
        324.6
      ],
      [
        0.9050453826785088,
        45.549527714028955,
        325.6
      ],
      [
        0.904889227822423,
        45.54951966740191,
        325.79999999999995
      ],
      [
        0.9047182369977236,
        45.54953928105533,
        326
      ],
      [
        0.9045530296862125,
        45.54956308566034,
        326
      ],
      [
        0.9043806977570057,
        45.54958957247436,
        325.6
      ],
      [
        0.9042359422892332,
        45.549625027924776,
        325.20000000000005
      ],
      [
        0.9042100422084332,
        45.54965562187135,
        325
      ],
      [
        0.904148519039154,
        45.549687473103404,
        324.79999999999995
      ],
      [
        0.9040993172675371,
        45.54967858828604,
        324.6
      ],
      [
        0.9040482714772224,
        45.54966031573713,
        324.4
      ],
      [
        0.90392648242414,
        45.549601558595896,
        324.20000000000005
      ],
      [
        0.9038663841784,
        45.54956258274615,
        323.79999999999995
      ],
      [
        0.903753312304616,
        45.54945261217654,
        323.4
      ],
      [
        0.9037001710385084,
        45.549382623285055,
        323
      ],
      [
        0.9035798069089651,
        45.549239879474044,
        322.4
      ],
      [
        0.9035186190158129,
        45.54917433299124,
        322
      ],
      [
        0.9034078940749168,
        45.54903158918023,
        321.4
      ],
      [
        0.9033690858632326,
        45.548959504812956,
        321
      ],
      [
        0.903290631249547,
        45.54879195056856,
        320
      ],
      [
        0.9031844325363636,
        45.54860780015588,
        319.4
      ],
      [
        0.9031524136662483,
        45.54852691479027,
        319.20000000000005
      ],
      [
        0.9031315427273512,
        45.54845089092851,
        319
      ],
      [
        0.9030558541417122,
        45.54824930615723,
        318
      ],
      [
        0.9030209016054869,
        45.54816506803036,
        317.79999999999995
      ],
      [
        0.9029068239033222,
        45.547990053892136,
        317.20000000000005
      ],
      [
        0.9028316382318735,
        45.547904055565596,
        317
      ],
      [
        0.9027417004108429,
        45.54781638085842,
        316.6
      ],
      [
        0.9025324042886496,
        45.54767472669482,
        315.79999999999995
      ],
      [
        0.9024090226739645,
        45.54761781357229,
        315.20000000000005
      ],
      [
        0.9022902511060238,
        45.5475549492985,
        314.79999999999995
      ],
      [
        0.9020636044442654,
        45.547422766685486,
        313.79999999999995
      ],
      [
        0.9018814656883478,
        45.54728086106479,
        313
      ],
      [
        0.9017617721110582,
        45.547220930457115,
        312.6
      ],
      [
        0.9016516339033842,
        45.54715915583074,
        312.20000000000005
      ],
      [
        0.9014313574880362,
        45.54706720635295,
        311.20000000000005
      ],
      [
        0.9012282639741898,
        45.546953128650784,
        310.4
      ],
      [
        0.9011246636509895,
        45.54690836928785,
        309.6
      ],
      [
        0.9010348934680223,
        45.54689328186214,
        309
      ],
      [
        0.9009253419935703,
        45.546863190829754,
        308.20000000000005
      ],
      [
        0.9008072409778833,
        45.54683720692992,
        307.4
      ],
      [
        0.9006826020777225,
        45.54682061076164,
        306.6
      ],
      [
        0.9005491621792316,
        45.5466793756932,
        304.6
      ],
      [
        0.9004979487508535,
        45.54661525413394,
        303.6
      ],
      [
        0.9004509262740612,
        45.54653990082443,
        302.6
      ],
      [
        0.9002765826880932,
        45.54642188362777,
        300.79999999999995
      ],
      [
        0.9001405443996191,
        45.546435713768005,
        300.20000000000005
      ],
      [
        0.8999952860176563,
        45.54646982811391,
        299.4
      ],
      [
        0.8998954575508833,
        45.546486005187035,
        299
      ],
      [
        0.8997552283108234,
        45.5464843288064,
        298.4
      ],
      [
        0.8996470179408789,
        45.54645599797368,
        297.79999999999995
      ],
      [
        0.899534784257412,
        45.5464135017246,
        297.4
      ],
      [
        0.8994435891509056,
        45.54636413231492,
        296.79999999999995
      ],
      [
        0.8993702474981546,
        45.546306213364005,
        296.20000000000005
      ],
      [
        0.8976610936224461,
        45.54749778471887,
        294.6
      ],
      [
        0.8974122349172831,
        45.5472407117486,
        292.79999999999995
      ],
      [
        0.897241747006774,
        45.54713191464543,
        291.79999999999995
      ],
      [
        0.8970884419977665,
        45.54703678004444,
        290.79999999999995
      ],
      [
        0.8968782238662243,
        45.54694114252925,
        289.79999999999995
      ],
      [
        0.8967007789760828,
        45.54687366820872,
        288.79999999999995
      ],
      [
        0.8965258486568928,
        45.546820275485516,
        287.79999999999995
      ],
      [
        0.8963670954108238,
        45.546760680153966,
        286.6
      ],
      [
        0.8962151315063238,
        45.54671885445714,
        285.6
      ],
      [
        0.895998626947403,
        45.546668227761984,
        284.6
      ],
      [
        0.895784217864275,
        45.54659488610923,
        283.4
      ],
      [
        0.8956482633948326,
        45.54653939791024,
        282.4
      ],
      [
        0.8955629356205463,
        45.5464980751276,
        281.4
      ],
      [
        0.8953474368900061,
        45.54641886614263,
        279.79999999999995
      ],
      [
        0.8950554952025414,
        45.546341417357326,
        279.4
      ],
      [
        0.8949406631290913,
        45.54630311205983,
        279.6
      ],
      [
        0.8947265055030584,
        45.54632909595966,
        281
      ],
      [
        0.8946375735104084,
        45.546323815360665,
        281.79999999999995
      ],
      [
        0.8945688419044018,
        45.54633194580674,
        282.79999999999995
      ],
      [
        0.8945232443511486,
        45.54633957333863,
        284
      ],
      [
        0.8945145271718502,
        45.546351643279195,
        285.20000000000005
      ],
      [
        0.8944785688072443,
        45.546330185607076,
        286.4
      ],
      [
        0.8944552671164274,
        45.54630587808788,
        287.4
      ],
      [
        0.8944346476346254,
        45.546278301626444,
        288.6
      ],
      [
        0.8944168779999018,
        45.54624485783279,
        289.4
      ],
      [
        0.8944024611264467,
        45.546216778457165,
        290.20000000000005
      ],
      [
        0.8943592943251133,
        45.546120973303914,
        292
      ],
      [
        0.8943483140319586,
        45.546070681884885,
        292.6
      ],
      [
        0.8942921552807093,
        45.54603220894933,
        293.4
      ],
      [
        0.8942116890102625,
        45.54587781429291,
        295.20000000000005
      ],
      [
        0.8941495791077614,
        45.54578427225351,
        296
      ],
      [
        0.8940706215798855,
        45.54572459310293,
        296.6
      ],
      [
        0.8903550077229738,
        45.54803372360766,
        298.79999999999995
      ],
      [
        0.8902325481176376,
        45.54800933226943,
        299.4
      ],
      [
        0.8899753913283348,
        45.54792760871351,
        300.4
      ],
      [
        0.8897472359240055,
        45.5478210747242,
        301.20000000000005
      ],
      [
        0.889618406072259,
        45.54779634810984,
        301.6
      ],
      [
        0.889424616470933,
        45.5477568693459,
        302.20000000000005
      ],
      [
        0.8893604949116707,
        45.54774161428213,
        302.4
      ],
      [
        0.8893381990492344,
        45.54771990515292,
        302.79999999999995
      ],
      [
        0.8893314935266972,
        45.547660142183304,
        302.79999999999995
      ],
      [
        0.8893319964408875,
        45.547629464417696,
        302.79999999999995
      ],
      [
        0.889333002269268,
        45.54762460291386,
        302.79999999999995
      ],
      [
        0.8893071860074997,
        45.547528713941574,
        303.20000000000005
      ],
      [
        0.88926762342453,
        45.547433914616704,
        303.79999999999995
      ],
      [
        0.889232000336051,
        45.547393430024385,
        304.4
      ],
      [
        0.8891850616782904,
        45.54735763929784,
        304.6
      ],
      [
        0.8891320042312145,
        45.54732905700803,
        305
      ],
      [
        0.8890441618859768,
        45.547296199947596,
        305.4
      ],
      [
        0.8890004083514214,
        45.54728572256863,
        305.4
      ],
      [
        0.8889175113290548,
        45.54722067900002,
        305.6
      ],
      [
        0.8889155834913254,
        45.547196036204696,
        305.6
      ],
      [
        0.8889299165457487,
        45.547144152224064,
        305.79999999999995
      ],
      [
        0.8889316767454147,
        45.547141805291176,
        306
      ],
      [
        0.8889342751353979,
        45.54713669233024,
        306
      ],
      [
        0.8889169245958328,
        45.54714784026146,
        305.6
      ],
      [
        0.8889371249824762,
        45.54718195460737,
        306
      ],
      [
        0.8889375440776348,
        45.54718438535929,
        306
      ],
      [
        0.8889434114098549,
        45.547181284055114,
        306
      ],
      [
        0.8889459259808064,
        45.54718094877899,
        305.79999999999995
      ],
      [
        0.8889697305858135,
        45.547190085053444,
        305.79999999999995
      ],
      [
        0.8889805432409048,
        45.547233670949936,
        305.20000000000005
      ],
      [
        0.8889909368008375,
        45.54723836481571,
        305
      ],
      [
        0.8890033420175314,
        45.547227719798684,
        304.79999999999995
      ],
      [
        0.8890233747661114,
        45.547214141115546,
        304.6
      ],
      [
        0.8889839798212051,
        45.54722864180803,
        304.4
      ],
      [
        0.8890496101230383,
        45.547170639038086,
        304.6
      ],
      [
        0.8888768590986729,
        45.5471648555249,
        304.4
      ],
      [
        0.889015831053257,
        45.54719125851989,
        304.4
      ],
      [
        0.8890408929437399,
        45.54719218052924,
        304.4
      ],
      [
        0.8890719059854746,
        45.547136357054114,
        304.20000000000005
      ]
    ]
  }
}
